{"type": "Feature","bbox": [-5.8295,9.6636,-4.9469,10.465],"geometry": {"type": "MultiPolygon","coordinates": [[[[-5.1189,10.2848,278.6003],[-5.1146,10.2915,281.284],[-5.1111,10.3047,279.211],[-5.1147,10.3041,279.8169],[-5.1243,10.2985,293.0457],[-5.1287,10.3071,280.1159],[-5.1314,10.3079,281.2892],[-5.1325,10.3011,283.3215],[-5.1369,10.3003,279.7693],[-5.148,10.288,287.5043],[-5.1575,10.2839,285.1783],[-5.1709,10.2856,287.7054],[-5.175,10.2914,282.947],[-5.1876,10.2848,293.5444],[-5.1912,10.2907,281.9924],[-5.1872,10.299,282.0552],[-5.1961,10.3048,287.7428],[-5.206,10.3085,289.1477],[-5.208,10.3111,283.8001],[-5.2056,10.3161,283.9117],[-5.2069,10.3223,288.268],[-5.2101,10.3222,295.4166],[-5.2225,10.3094,283.861],[-5.2321,10.3156,283.8945],[-5.2593,10.3132,293.972],[-5.2664,10.3099,291.5685],[-5.2702,10.3148,288.1459],[-5.2786,10.3157,293.6352],[-5.2807,10.3141,285.9972],[-5.2813,10.3091,293.2001],[-5.2861,10.3094,297.5021],[-5.2954,10.3188,287.2414],[-5.3003,10.3199,308.5792],[-5.305,10.3184,310.1254],[-5.3081,10.3154,306.2388],[-5.3021,10.3121,299.711],[-5.3015,10.3084,292.5988],[-5.3039,10.3048,285.9572],[-5.3092,10.3079,296.7758],[-5.3139,10.3015,288.4803],[-5.3207,10.3015,295.3112],[-5.3297,10.2934,289.8039],[-5.3346,10.2933,289.5092],[-5.346,10.2999,292.8139],[-5.352,10.3017,289.8505],[-5.3529,10.3036,290.394],[-5.351,10.3061,291.8183],[-5.3547,10.3068,290.5183],[-5.3592,10.3042,295.8551],[-5.3651,10.2875,294.1703],[-5.3682,10.2853,294.4561],[-5.3742,10.2859,296.0529],[-5.3822,10.2946,290.2244],[-5.3917,10.2922,290.1969],[-5.3968,10.2953,292.8444],[-5.4072,10.2956,299.0382],[-5.4172,10.3061,299.5536],[-5.4232,10.3083,298.8932],[-5.4239,10.3178,297.3448],[-5.4282,10.3229,293.6229],[-5.4329,10.3226,294.3023],[-5.438,10.3192,293.5307],[-5.4408,10.32,296.8545],[-5.4444,10.3251,302.1641],[-5.4447,10.3325,292.0157],[-5.4467,10.3378,294.9522],[-5.4515,10.3414,292.424],[-5.4615,10.3421,303.1793],[-5.4681,10.3459,317.5358],[-5.4726,10.3522,328.1964],[-5.4672,10.3558,311.9902],[-5.4676,10.3581,311.5176],[-5.465,10.3608,304.9598],[-5.4699,10.3696,299.6486],[-5.4687,10.3733,295.996],[-5.4728,10.3768,294.3538],[-5.4788,10.3765,295.3076],[-5.4828,10.3736,306.5464],[-5.4881,10.3778,309.7996],[-5.4892,10.3804,309.8557],[-5.4865,10.3847,299.9294],[-5.4997,10.4082,305.0486],[-5.503,10.409,306.2881],[-5.5095,10.4167,296.9292],[-5.5091,10.4252,297.849],[-5.5138,10.423,311.3346],[-5.5175,10.4233,315.1348],[-5.5155,10.4284,304.933],[-5.5189,10.4333,297.3507],[-5.5245,10.4329,304.81],[-5.5339,10.438,311.9984],[-5.5536,10.4536,314.864],[-5.5631,10.4639,305.6016],[-5.5698,10.465,315.7175],[-5.5794,10.4615,320.6264],[-5.5896,10.4543,304.6561],[-5.597,10.4527,307.2462],[-5.6119,10.4541,316.4949],[-5.6263,10.4533,313.0912],[-5.6406,10.4582,316.2383],[-5.6534,10.4564,319.5737],[-5.6763,10.4629,334.1256],[-5.7008,10.4445,352.0909],[-5.7082,10.441,367.7343],[-5.7352,10.4375,364.9933],[-5.7458,10.4314,352.4691],[-5.7578,10.4314,348.2466],[-5.7725,10.4403,345.09],[-5.7774,10.4404,345.2826],[-5.7905,10.4344,344.4822],[-5.8042,10.4253,343.0672],[-5.8113,10.423,341.4826],[-5.7995,10.4061,343.5663],[-5.785,10.4051,347.7362],[-5.778,10.4001,356.3444],[-5.7846,10.3808,359.6939],[-5.8007,10.3784,345.3785],[-5.8247,10.3685,334.4105],[-5.8295,10.364,332.183],[-5.8245,10.3515,335.657],[-5.814,10.3351,335.1449],[-5.8074,10.3178,340.2928],[-5.8079,10.3078,343.5223],[-5.7959,10.3007,349.3607],[-5.7868,10.2883,346.0233],[-5.7913,10.2738,348.3504],[-5.7926,10.2577,353.4981],[-5.7863,10.2525,357.2401],[-5.7835,10.2453,358.9579],[-5.7857,10.234,360.5192],[-5.7904,10.2237,373.1848],[-5.7968,10.2164,379.265],[-5.7991,10.2113,365.2531],[-5.7978,10.2056,361.7614],[-5.7821,10.1925,353.8284],[-5.7805,10.174,343.063],[-5.7668,10.1618,339.8777],[-5.7604,10.1486,334.8453],[-5.7413,10.1294,338.8637],[-5.7395,10.121,335.491],[-5.742,10.1125,327.7065],[-5.7283,10.0869,334.505],[-5.728,10.0699,327.9068],[-5.7334,10.0556,327.6032],[-5.7304,10.0383,322.7446],[-5.7283,10.0336,332.5712],[-5.7243,10.0307,324.7896],[-5.7255,10.0235,323.4742],[-5.7238,10.0165,323.0269],[-5.728,10.0065,321.7543],[-5.7328,9.9997,321.5693],[-5.7305,9.9908,322.2177],[-5.7328,9.9853,321.7294],[-5.7257,9.9788,320.5],[-5.7262,9.9722,320.5],[-5.7298,9.9677,336.8868],[-5.7288,9.963,321.4838],[-5.7223,9.9616,320.5],[-5.7196,9.9533,325.4085],[-5.7194,9.9345,317.2343],[-5.7161,9.9287,324.9458],[-5.716,9.9209,311.7611],[-5.7106,9.9119,316.6928],[-5.7035,9.9056,315.804],[-5.7014,9.9059,318.0092],[-5.6914,9.8989,326.2392],[-5.6849,9.8999,319.9216],[-5.6816,9.8962,316.9065],[-5.6811,9.8924,317.3421],[-5.6892,9.8833,319.4249],[-5.6875,9.8696,316.2664],[-5.6749,9.8607,316.1873],[-5.668,9.8605,319.8812],[-5.664,9.8418,314.6353],[-5.6509,9.833,320.4428],[-5.6301,9.8245,313.3564],[-5.6339,9.8212,322.5363],[-5.6284,9.8146,312.9765],[-5.6326,9.7981,313.6442],[-5.6376,9.793,313.2593],[-5.6441,9.7911,315.4746],[-5.6463,9.787,310.6854],[-5.6521,9.7847,322.3021],[-5.6522,9.7816,319.1876],[-5.6494,9.7778,308.9844],[-5.652,9.7717,308.4836],[-5.6501,9.7668,312.2036],[-5.6406,9.7701,306.7306],[-5.64,9.7612,306.9447],[-5.6377,9.7548,318.526],[-5.6319,9.7531,315.3485],[-5.6284,9.7592,308.7816],[-5.6232,9.7601,307.7788],[-5.6192,9.7555,307.4885],[-5.6183,9.7422,307.6677],[-5.6127,9.7363,312.0133],[-5.6033,9.7437,309.1512],[-5.5941,9.7391,306.5168],[-5.5865,9.7386,305.9004],[-5.5754,9.733,307.6909],[-5.5708,9.7429,307.6757],[-5.564,9.7441,306.8639],[-5.5688,9.7381,307.4608],[-5.564,9.7293,306.0751],[-5.5569,9.7216,305.2329],[-5.5523,9.7192,302.3307],[-5.5488,9.7222,304.4796],[-5.5513,9.7333,305.0985],[-5.5368,9.7353,305.2446],[-5.5245,9.7403,303.6971],[-5.5161,9.734,306.5081],[-5.512,9.7409,304.3958],[-5.5036,9.7429,303.6465],[-5.4946,9.7381,301.4952],[-5.4683,9.7542,303.8273],[-5.464,9.7468,303.4283],[-5.4625,9.7401,303.3878],[-5.4646,9.731,307.8616],[-5.451,9.7242,303.1207],[-5.4665,9.7251,301.7965],[-5.4717,9.7151,303.3257],[-5.4668,9.7095,301.7693],[-5.4588,9.7092,302.2737],[-5.4513,9.7132,302.2328],[-5.4395,9.7021,300.5428],[-5.4327,9.6987,305.6853],[-5.4187,9.6996,302.7721],[-5.4099,9.6869,300.0061],[-5.3913,9.6825,299.7656],[-5.3929,9.6691,298.6331],[-5.3866,9.6636,306.2574],[-5.3808,9.6687,297.4795],[-5.3771,9.6674,300.5962],[-5.3397,9.7474,324.526],[-5.3204,9.7682,338.8445],[-5.2957,9.8014,343.1304],[-5.2516,9.8348,345.7727],[-5.2267,9.8501,323.8266],[-5.2185,9.8725,314.3217],[-5.2011,9.882,322.6892],[-5.1964,9.8957,326.0309],[-5.1911,9.9026,327.1747],[-5.1908,9.9097,325.4096],[-5.1934,9.9165,332.4047],[-5.1899,9.9235,334.5296],[-5.1828,9.9288,342.086],[-5.172,9.9314,326.1341],[-5.1602,9.931,314.0521],[-5.1547,9.9372,315.2277],[-5.1467,9.9383,320.4157],[-5.1382,9.936,328.7763],[-5.1329,9.9281,314.0127],[-5.1251,9.9223,312.3142],[-5.1017,9.9092,302.9898],[-5.0827,9.903,297.1697],[-5.0667,9.9086,292.6628],[-5.0595,9.9136,287.485],[-5.0456,9.9144,279.7281],[-5.0379,9.9181,284.2035],[-5.0332,9.9255,279.1158],[-5.0185,9.9347,275.5396],[-5.0098,9.9358,282.1071],[-4.9916,9.9315,270.8029],[-4.9779,9.9231,281.3461],[-4.9716,9.9327,265.54],[-4.9694,9.928,275.5481],[-4.961,9.9245,266.9447],[-4.9602,9.9297,262.0613],[-4.9646,9.9383,268.2957],[-4.9615,9.9434,266.5048],[-4.9583,9.9456,268.8865],[-4.9498,9.9472,265.657],[-4.9469,9.9525,268.8809],[-4.9488,9.9552,271.6656],[-4.9591,9.9591,276.1396],[-4.9631,9.9625,272.6608],[-4.9633,9.9698,265.5186],[-4.9667,9.9739,269.3556],[-4.9831,9.9806,265.8233],[-4.9878,9.9844,266.1976],[-4.9896,10.0066,273.2787],[-4.9883,10.0106,268.903],[-4.9862,10.0117,266.7245],[-4.9644,10.004,271.7694],[-4.9641,10.0084,269.1436],[-4.9684,10.0138,276.791],[-4.9615,10.0236,269.9708],[-4.9697,10.0299,270.1766],[-4.9717,10.0422,268.6003],[-4.9824,10.045,274.4293],[-4.9902,10.0517,267.8166],[-4.9937,10.0608,269.2924],[-5.0044,10.0656,268.7996],[-5.0123,10.0634,280.2802],[-5.0176,10.0649,277.9493],[-5.0212,10.0703,272.7739],[-5.0221,10.0736,280.6102],[-5.0201,10.0784,283.9626],[-5.0149,10.0828,270.2566],[-5.0092,10.0967,272.4036],[-5.0037,10.1039,270.1948],[-5.0104,10.1053,271.0872],[-5.0168,10.1008,268.9341],[-5.0231,10.1005,271.4375],[-5.0273,10.0985,269.4178],[-5.0414,10.0885,275.228],[-5.0451,10.081,278.1522],[-5.0525,10.0837,272.1482],[-5.063,10.0807,282.5758],[-5.0652,10.0851,281.4955],[-5.0632,10.0897,281.387],[-5.0473,10.1038,272.8601],[-5.0478,10.1061,272.2622],[-5.0517,10.1072,270.2931],[-5.0589,10.1048,278.0608],[-5.0663,10.108,273.5032],[-5.0765,10.1066,274.1694],[-5.08,10.109,277.2989],[-5.0817,10.1157,283.0237],[-5.0787,10.1239,281.4419],[-5.0739,10.1212,275.0208],[-5.0664,10.1241,272.3165],[-5.0631,10.1233,273.9211],[-5.0602,10.1186,281.1637],[-5.0572,10.1174,281.192],[-5.0544,10.1189,276.8154],[-5.0479,10.1188,273.6995],[-5.0441,10.1238,272.3094],[-5.0492,10.1317,275.0896],[-5.0682,10.1347,277.5581],[-5.0799,10.1423,286.201],[-5.0816,10.1479,280.8333],[-5.0803,10.1534,279.7795],[-5.0811,10.1571,289.7451],[-5.077,10.1639,292.6635],[-5.0736,10.1817,273.8658],[-5.0747,10.1829,279.1762],[-5.0955,10.1797,280.2792],[-5.1051,10.1756,275.9487],[-5.1104,10.1764,275.6777],[-5.1147,10.1813,293.2832],[-5.1116,10.1849,295.8133],[-5.0985,10.1878,288.4417],[-5.0913,10.201,286.8237],[-5.0885,10.2104,285.8044],[-5.0891,10.219,277.8685],[-5.0948,10.2268,282.5774],[-5.1025,10.2178,278.3526],[-5.1229,10.209,278.1866],[-5.1171,10.2236,280.2599],[-5.1088,10.229,280.6353],[-5.1072,10.238,280.6873],[-5.1138,10.2381,280.8354],[-5.1196,10.2422,281.7904],[-5.1209,10.2497,278.3853],[-5.1188,10.2564,278.1716],[-5.1067,10.2617,279.222],[-5.1002,10.2686,278.3994],[-5.099,10.2721,281.3284],[-5.1041,10.2756,280.5259],[-5.1205,10.2788,283.8897],[-5.1212,10.2825,279.3177],[-5.1189,10.2848,278.6003]]]]}
,"properties": {"GID_3": "CIV.10.3.3_1","GID_0": "CIV","country": "Côted'Ivoire","GID_1": "CIV.10_1","province": "Savanes","NL_NAME_1": "NA","GID_2": "CIV.10.3_1","county": "Tchologo","NL_NAME_2": "NA","city": "Ouangolodougou","VARNAME_3": "NA","NL_NAME_3": "NA","TYPE_3": "Département","ENGTYPE_3": "Department","CC_3": "NA","HASC_3": "NA","name": "Ouangolodougou.city","area_km2": 4823.726,"hist_schema_id": "Elevation0-9000","hist_area_km2": {"250": 0.209,"275": 161.941,"300": 779.371,"325": 1704.17,"350": 1626.187,"375": 471.572,"400": 65.089,"425": 7.68,"450": 2.587,"475": 2.169,"500": 1.293,"525": 0.897,"550": 0.417,"575": 0.146}}}