{"type":"Feature","properties":{"featurecla":"River","scalerank":7,"rivernum":499,"dissolve":"499River","name":"Baoulé2","name_alt":null,"note":null,"min_zoom":6.0,"strokeweig":0.15,"name_en":"Baoulé","min_label":7.0},
"geometry":{"type": "LineString","coordinates": [[-7.462890625,9.5486026062441169,406.2197],[-7.4839355468749886,9.54242584843162,399.7632],[-7.51123046875,9.5581240906191169,388.9279],[-7.5347656249999773,9.58356354374412,383.5568],[-7.5489257812499773,9.6189151062441169,395.4142],[-7.5589355468749773,9.6297549499941084,386.5853],[-7.5826171874999773,9.64789459843162,381.7192],[-7.5875976562499829,9.6546572937441084,392.8978],[-7.5896484374999886,9.6627139343691084,379.6012],[-7.5909179687499773,9.6711611999941169,381.4082],[-7.59326171875,9.6789736999941169,382.6056],[-7.5973388671874886,9.68598053593162,382.9629],[-7.6130859374999886,9.70624420780662,389.6262],[-7.6089843749999773,9.71161530155662,383.4272],[-7.6094238281249886,9.7155947937441169,390.0836],[-7.6117431640624886,9.72101471561912,403.7243],[-7.6130859374999886,9.73078034061912,379.8391],[-7.6099609374999773,9.73871491093162,385.105],[-7.603125,9.74286530155662,378.2248],[-7.5962890624999773,9.7461123718691169,377.0607],[-7.59326171875,9.75092194218162,383.9174],[-7.5909179687499773,9.7686709656191084,395.712],[-7.584716796875,9.77960846561912,386.4938],[-7.5652832031249773,9.80182526249412,383.9035],[-7.5582031249999773,9.81598541874412,382.9541],[-7.5511230468749773,9.8370303406191084,379.5394],[-7.5503417968749886,9.8562197937441169,390.3952],[-7.5618652343749773,9.8645205749941169,379.9051],[-7.573974609375,9.8697451843691084,381.7759],[-7.5728027343749886,9.88178131718162,372.5354],[-7.5584472656249773,9.90546295780662,369.645],[-7.5625,9.9227236999941084,370.0058],[-7.5673339843749829,9.9361514343691084,369.6553],[-7.58642578125,9.9669131531191084,366.1658],[-7.57763671875,9.97980377811912,370.977],[-7.5728515624999773,9.9841494812441169,369.3175],[-7.5652832031249773,9.9874209656191084,390.6323],[-7.57275390625,9.99542877811912,365.2141],[-7.5751220703124886,9.99982330936912,364.5386],[-7.5745117187499886,10.003192449994117,370.1095],[-7.57275390625,10.007928778119108,381.2629],[-7.5771484375,10.01923248905662,364.7394],[-7.5789550781249773,10.059100653119117,369.3719]]}}