{"type":"Feature","properties":{"featurecla":"River","scalerank":7,"rivernum":499,"dissolve":"499River","name":"Baoulé3","name_alt":null,"note":null,"min_zoom":6.0,"strokeweig":0.2,"name_en":"Baoulé","min_label":7.0},
"geometry":{"type": "LineString","coordinates": [[-7.5789550781249773,10.059100653119117,369.3719],[-7.5840332031249886,10.068622137494117,363.8127],[-7.5937988281249886,10.07440827030662,371.1261],[-7.5996582031249886,10.08026764530662,380.2487],[-7.59326171875,10.089862371869117,371.6939],[-7.6161621093749829,10.111835028119117,386.1844],[-7.6142578125,10.142206121869108,373.1508],[-7.6035644531249886,10.172137762494117,360.5704],[-7.6000244140624886,10.192889715619117,357.7615],[-7.60625,10.185419012494108,364.9887],[-7.6099609374999773,10.198749090619117,358.1483],[-7.6096679687499886,10.20441315311912,358.0383],[-7.60625,10.21332428593162,357.8649],[-7.6194335937499886,10.211688543744117,356.8625],[-7.62939453125,10.214129949994117,356.9053],[-7.634765625,10.22150299686912,357.6364],[-7.6341308593749773,10.23444244999412,357.1396],[-7.6410400390624886,10.23444244999412,357.3275],[-7.6410400390624886,10.22760651249412,355.8186],[-7.6478027343749773,10.22760651249412,358.7766],[-7.6494140625,10.233172918744117,355.8139],[-7.653125,10.24249909061912,356.4536],[-7.6546386718749773,10.24811432499412,356.6338],[-7.660888671875,10.24811432499412,358.3588],[-7.671142578125,10.241327215619108,354.2274],[-7.6744140624999773,10.253534246869108,355.2196],[-7.6727783203124886,10.27326080936912,353.6971],[-7.6683105468749773,10.289081121869117,377.3412],[-7.6767578125,10.28571198124412,368.0097],[-7.6896240234374886,10.27667877811912,351.9918],[-7.6956054687499886,10.275409246869117,353.5874],[-7.700927734375,10.278436590619108,354.5281],[-7.70849609375,10.290643621869108,351.688],[-7.7161132812499886,10.295917059369117,362.1674],[-7.721435546875,10.295770574994108,358.9177],[-7.7295410156249886,10.29413483280662,351.6726],[-7.7394531249999829,10.293329168744108,351.9532],[-7.750244140625,10.295917059369117,351.5443],[-7.7560546874999829,10.301385809369108,351.0898],[-7.7781738281249773,10.33002350468162,359.833],[-7.758056640625,10.334247137494117,350.3129],[-7.7359374999999773,10.347284246869108,363.6594],[-7.724609375,10.363788153119117,350.0734],[-7.7366210937499886,10.37848541874412,374.0696],[-7.7273925781249773,10.383075262494117,348.3985],[-7.7229492187499886,10.384637762494108,348.3472],[-7.7229492187499886,10.391473699994108,349.1984],[-7.734130859375,10.394794012494117,348.6907],[-7.7375,10.40314362186912,349.5934],[-7.7352783203124886,10.41425202030662,354.4088],[-7.7297851562499886,10.42560455936912,347.6403],[-7.7398437499999773,10.427264715619117,347.5497],[-7.7488281249999886,10.432245184369108,347.6099],[-7.7552246093749773,10.43988678593162,346.5031],[-7.7577392578124886,10.449823309369108,350.7263],[-7.762939453125,10.45892975468162,353.8866],[-7.7744628906249886,10.460467840619117,349.5573],[-7.7859863281249773,10.460077215619108,345.8156],[-7.791259765625,10.463495184369108,355.8167],[-7.7850097656249773,10.501336981244108,375.5307],[-7.791015625,10.51068756718162,358.4964],[-7.8057617187499773,10.520038153119117,343.6287],[-7.8123535156249773,10.529315496869117,345.3326],[-7.8037109375,10.541034246869117,346.9218],[-7.837890625,10.58917877811912,343.4103],[-7.8328124999999886,10.611200262494108,341.8325],[-7.8240234374999886,10.613544012494117,342.8764],[-7.81640625,10.60980866093162,351.0734],[-7.81005859375,10.604999090619117,355.588],[-7.8048583984374886,10.603778387494117,345.6813],[-7.7961914062499886,10.611200262494108,341.4017],[-7.79296875,10.62018463749412,340.793],[-7.794921875,10.62787506718162,340.9701],[-7.8017578125,10.63104889530662,341.8169],[-7.8033203124999773,10.63532135624412,352.6198],[-7.7991210937499886,10.645038153119117,356.0475],[-7.7881347656249886,10.662127996869117,370.2055],[-7.7811035156249773,10.665790106244117,361.9768],[-7.7705566406249886,10.66693756718162,364.1009],[-7.750244140625,10.66583893436912,345.8766],[-7.750244140625,10.67267487186912,353.4414],[-7.76806640625,10.68158600468162,354.9218],[-7.7681640624999773,10.69611237186912,337.7184],[-7.750244140625,10.727313543744117,340.0828],[-7.7634765624999886,10.74115631718162,347.3247],[-7.7605957031249773,10.75665924686912,341.3174],[-7.7491210937499773,10.76264069218162,346.7956],[-7.7366210937499886,10.74774811405662,337.7786],[-7.7236816406249886,10.75946686405662,340.2846],[-7.7092773437499886,10.76825592655662,344.1752],[-7.7054199218749773,10.74835846561912,337.4243],[-7.6952392578124886,10.75067780155662,345.3528],[-7.6835205078124886,10.76361725468162,354.4069],[-7.65869140625,10.801532293744117,340.7359],[-7.6510253906249943,10.817889715619117,336.5791],[-7.6478027343749773,10.83405182499412,339.4396],[-7.6266601562499829,10.832635809369108,338.0654],[-7.610595703125,10.83685944218162,335.0659],[-7.6000244140624886,10.850848699994117,334.8913],[-7.6028808593749773,10.86969635624412,333.8644],[-7.617431640625,10.88007233280662,340.979],[-7.6410400390624886,10.888055731244108,332.5719],[-7.6392578124999773,10.926141668744108,338.7081],[-7.6375488281249773,10.93268463749412,334.1342],[-7.6539062499999773,10.93585846561912,332.2491],[-7.664306640625,10.94452545780662,333.7274],[-7.68701171875,10.98309967655662,333.8674],[-7.690673828125,10.99176666874412,339.655],[-7.6873046874999886,10.99835846561912,354.4554],[-7.6717285156249773,11.000995184369117,332.5565],[-7.6691406249999829,11.00458405155662,332.0302],[-7.66748046875,11.01300690311912,333.4128],[-7.6670898437499773,11.022333074994108,338.3493],[-7.6683105468749773,11.028924871869108,335.088],[-7.6735351562499829,11.031024481244117,333.2594],[-7.7024902343749773,11.035760809369108,331.2628],[-7.695068359375,11.041620184369108,330.5031],[-7.6868652343749773,11.04596588749412,332.1411],[-7.677978515625,11.04852936405662,331.5729],[-7.6683105468749773,11.049432684369108,330.7685],[-7.67529296875,11.06049225468162,332.5602],[-7.6796875,11.072137762494108,331.7755],[-7.6852539062499829,11.082635809369108,329.9777],[-7.6956054687499886,11.09039948124412,325.7818],[-7.6881591796874886,11.09857819218162,328.935],[-7.67919921875,11.10541412968162,328.067],[-7.6715820312499829,11.114276434369117,331.5339],[-7.6653808593749773,11.138202215619117,329.7395],[-7.658203125,11.14728424686912,329.0718],[-7.6492675781249773,11.15460846561912,332.1418],[-7.6410400390624886,11.15924713749412,323.8401],[-7.6572265625,11.16974518436912,338.3109],[-7.6649658203124886,11.17621491093162,327.462],[-7.6683105468749773,11.182879949994117,327.8722],[-7.66552734375,11.195086981244117,328.2299],[-7.6591796875,11.19782135624412,327.0989],[-7.6522949218749829,11.19745514530662,327.0476],[-7.6478027343749773,11.20026276249412,328.9598],[-7.6450683593749886,11.219354559369108,328.3366],[-7.6459228515624886,11.236346746869117,329.6955],[-7.6443359374999886,11.250604559369108,333.1983],[-7.6341308593749773,11.26166412968162,328.5988],[-7.6341308593749773,11.26911041874412,328.4351],[-7.64501953125,11.26874420780662,327.9576],[-7.6541503906249773,11.26972077030662,325.2017],[-7.661865234375,11.272088934369108,331.5363],[-7.6683105468749773,11.27594635624412,343.8266],[-7.6556152343749773,11.28253815311912,326.3388],[-7.6370605468749773,11.28790924686912,330.4415],[-7.620361328125,11.29498932499412,336.5394],[-7.6130859374999886,11.306415106244117,328.7032],[-7.6103515625,11.329364324994117,331.454],[-7.6025390625,11.33392975468162,325.5895],[-7.57275390625,11.31696198124412,325.1738],[-7.57080078125,11.31207916874412,324.9833],[-7.56884765625,11.30451080936912,326.7932],[-7.5643066406249773,11.30048248905662,328.0861],[-7.5547363281249886,11.306415106244117,326.3685],[-7.534912109375,11.327167059369117,325.6155],[-7.52685546875,11.34223053593162,325.1065],[-7.52734375,11.35358307499412,324.2166],[-7.525390625,11.362811590619117,323.6305],[-7.5100585937499886,11.37152741093162,332.6586],[-7.4995605468749886,11.36615631718162,326.4858],[-7.4930664062499943,11.36444733280662,323.9938],[-7.4901611328124886,11.36847565311912,323.7708],[-7.4861816406249773,11.388202215619117,323.5672],[-7.48681640625,11.39203522343162,321.5895],[-7.4827636718749773,11.39398834843162,320.5933],[-7.474609375,11.40326569218162,317.3098],[-7.4690917968749773,11.40631744999412,322.6798],[-7.4592773437499886,11.40668366093162,326.0361],[-7.4517578124999773,11.40424225468162,321.4446],[-7.4423828125,11.39887116093162,321.7953],[-7.4134277343749773,11.38947174686912,322.3804],[-7.3997558593749773,11.390252996869108,322.65],[-7.3939697265624886,11.402606512494117,320.1041],[-7.3870605468749773,11.41181061405662,323.4081],[-7.3709472656249773,11.41132233280662,323.8672],[-7.3528808593749773,11.40558502811912,320.2506],[-7.3399414062499773,11.39887116093162,319.8129],[-7.3311523437499773,11.40350983280662,321.7159],[-7.3213867187499773,11.41193268436912,322.3699],[-7.3154785156249886,11.42230866093162,320.066],[-7.3182128906249773,11.432977606244108,322.908],[-7.3252929687499773,11.434588934369117,324.4607],[-7.3433105468749886,11.42438385624412,320.3598],[-7.35302734375,11.426141668744108,322.1362],[-7.358154296875,11.43451569218162,320.2031],[-7.3592285156249773,11.44562409061912,320.2774],[-7.3588378906249829,11.45734284061912,319.7072],[-7.35986328125,11.467792059369117,320.1305],[-7.371875,11.501825262494108,319.7495],[-7.37353515625,11.51215241093162,318.8253],[-7.3753417968749773,11.517840887494117,319.917],[-7.3787597656249773,11.522235418744117,318.1033],[-7.38037109375,11.52667877811912,320.6786],[-7.376953125,11.53266022343162,319.6899],[-7.37158203125,11.53558991093162,321.7037],[-7.3660156249999886,11.535174871869117,319.0177],[-7.3616210937499886,11.53180573124412,315.1472],[-7.35986328125,11.52582428593162,319.4875],[-7.3545410156249886,11.52240631718162,324.8],[-7.3427734375,11.521600653119108,318.1556],[-7.3310546875,11.52460358280662,320.5669],[-7.3177246093749773,11.54682037968162,318.1616],[-7.3020996093749773,11.55805084843162,315.3981],[-7.29150390625,11.57135651249412,320.5972],[-7.2983886718749886,11.59125397343162,361.9665],[-7.3138671874999943,11.57941315311912,321.6404],[-7.3330078125,11.56891510624412,316.4961],[-7.3518554687499886,11.56598541874412,318.7909],[-7.36669921875,11.57697174686912,320.0059],[-7.3712646484374886,11.588495184369108,316.4622],[-7.3709472656249773,11.598407293744117,314.4053],[-7.3667968749999773,11.60797760624412,317.6529],[-7.35986328125,11.61859772343162,317.1001],[-7.353271484375,11.62665436405662,311.88],[-7.3479980468749773,11.629999090619108,311.6161],[-7.3418945312499773,11.632684637494108,318.8571],[-7.316650390625,11.64935944218162,318.5379],[-7.303955078125,11.65424225468162,316.7021],[-7.2902099609374886,11.653094793744117,313.6195],[-7.2562011718749773,11.64081452030662,319.0109],[-7.2451171875,11.64227936405662,313.5126],[-7.2349609374999773,11.652460028119108,315.8304],[-7.22265625,11.673211981244108,319.2529],[-7.2560546874999829,11.67401764530662,322.2716],[-7.27099609375,11.67792389530662,315.3507],[-7.2847656249999773,11.68683502811912,328.1649],[-7.269775390625,11.70722077030662,325.0264],[-7.2522460937499886,11.714471746869108,309.6348],[-7.2328613281249829,11.71906159061912,315.1485],[-7.212158203125,11.73126862186912,310.7286],[-7.2053710937499886,11.73688385624412,313.2321],[-7.1971191406249773,11.74164459843162,318.2399],[-7.1870605468749886,11.74371979374412,338.6422],[-7.1749023437499773,11.741473699994117,321.29],[-7.157958984375,11.721551824994108,315.3773],[-7.1460937499999773,11.712420965619117,315.0833],[-7.1407226562499773,11.717889715619108,313.7758],[-7.1475097656249886,11.76605866093162,314.7096],[-7.1475585937499773,11.783075262494108,311.0497],[-7.1451171874999773,11.78803131718162,334.7815],[-7.135986328125,11.796893621869117,317.37],[-7.1338867187499773,11.803583074994108,313.4813],[-7.1348632812499773,11.808856512494117,313.1026],[-7.1396484375,11.81378815311912,315.7994],[-7.1407226562499773,11.820331121869117,313.5533],[-7.1463867187499943,11.825213934369117,312.1594],[-7.159423828125,11.82428619999412,309.0753],[-7.1732666015624886,11.820428778119108,312.9469],[-7.1816894531249886,11.81659577030662,313.5844],[-7.1941406249999886,11.826678778119117,312.7948],[-7.1927246093749773,11.835077215619108,309.2004],[-7.185791015625,11.84381744999412,312.7209],[-7.1772949218749886,11.869403387494117,312.4319],[-7.167724609375,11.88214752811912,307.3446],[-7.15380859375,11.89606354374412,311.229],[-7.15380859375,11.94013092655662,321.4664],[-7.146728515625,11.95526764530662,311.5613],[-7.137939453125,11.959344793744108,305.4242],[-7.128662109375,11.962518621869108,304.7337],[-7.1202148437499773,11.974872137494117,311.0045],[-7.1106933593749773,11.97272369999412,308.9405],[-7.1092285156249773,11.98468659061912,308.2707],[-7.1098144531249829,12.001971746869117,309.5485],[-7.1060058593749886,12.01581452030662,310.2674]]}}