{"type":"Feature","properties":{"featurecla":"River","scalerank":6,"rivernum":273,"dissolve":"273River","name":"Sassandra1","name_alt":null,"note":null,"min_zoom":5.0,"strokeweig":0.15,"name_en":"Sassandra","min_label":6.0},
"geometry":{"type": "LineString","coordinates": [[-7.16748046875,9.71369049686912,471.394],[-7.1772949218749886,9.6863955749941084,440.6158],[-7.2090820312499773,9.64716217655662,445.1455],[-7.2178222656249886,9.6084170593691169,402.3638],[-7.2270996093749886,9.5820498718691169,415.2253],[-7.2300781249999773,9.5691104187441169,402.3126],[-7.23095703125,9.5529971374941169,402.1028],[-7.2288085937499886,9.54328034061912,381.0012],[-7.2158203125,9.52130768436912,379.5135],[-7.207763671875,9.49835846561912,377.7606],[-7.2059814453124886,9.4748721374941169,368.5962],[-7.2083496093749773,9.4219912781191084,370.8914],[-7.2067382812499829,9.4104190124941169,383.5699],[-7.2010253906249773,9.3904971374941084,380.2464],[-7.2021484375,9.37726471561912,380.1841],[-7.2071289062499773,9.3659854187441169,358.3057],[-7.2227539062499773,9.3480166687441084,360.4305],[-7.2300781249999773,9.3362979187441084,374.7461]]}}