{"type":"Feature","properties":{"featurecla":"River","scalerank":6,"rivernum":273,"dissolve":"273River","name":"Sassandra2","name_alt":null,"note":null,"min_zoom":5.0,"strokeweig":0.2,"name_en":"Sassandra","min_label":6.0},
"geometry":{"type": "LineString","coordinates": [[-7.2300781249999773,9.3362979187441084,374.7461],[-7.2224609374999886,9.32501862186912,353.4514],[-7.2255859375,9.3192080749941084,354.0117],[-7.2324707031249886,9.31415436405662,374.5618],[-7.236328125,9.30524323124412,380.5992],[-7.2325195312499773,9.29474518436912,357.8489],[-7.2256835937499773,9.28705475468162,353.4301],[-7.22265625,9.27912018436912,352.9374],[-7.2300781249999773,9.26740143436912,372.3023],[-7.2174804687499829,9.2386416687441084,347.7552],[-7.2158203125,9.2298526062441084,354.3304],[-7.21728515625,9.2254580749941084,348.0994],[-7.22021484375,9.22211334843162,353.1897],[-7.22265625,9.21857330936912,351.2502],[-7.22265625,9.21344635624412,351.7018],[-7.2197265625,9.2094912781191169,353.679],[-7.21484375,9.2068057312441169,346.9861],[-7.2103027343749773,9.20563385624412,339.7873],[-7.2083496093749773,9.20600006718162,349.2701],[-7.1953613281249886,9.1451358093691084,339.9375],[-7.2039062499999886,9.14935944218162,341.7176],[-7.212646484375,9.15094635624412,338.8085],[-7.221435546875,9.14960358280662,345.8246],[-7.2300781249999773,9.1451358093691084,358.2604],[-7.22265625,9.1165713562441084,339.1173],[-7.2421875,9.10724518436912,351.7022],[-7.2541015624999829,9.09015534061912,338.5232],[-7.2605957031249773,9.0693545593691169,355.2328],[-7.263671875,9.0489444031191084,346.1371],[-7.2632324218749886,9.0318545593691084,328.2809],[-7.258056640625,9.01349518436912,337.1584],[-7.247314453125,8.99725983280662,321.6967],[-7.2300781249999773,8.98688385624412,322.0547],[-7.2383789062499773,8.9778994812441084,321.3056],[-7.2422851562499773,8.9691104187441084,334.1609],[-7.24169921875,8.9605654968691084,329.1743],[-7.236328125,8.95209381718162,316.1051]]}}