{"type": "Feature","bbox": [-5.6688,6.8252,-4.8344,7.3739],"geometry": {"type": "MultiPolygon","coordinates": [[[[-5.0717,7.3739,283.6213],[-5.1052,7.3573,259.4053],[-5.1383,7.3552,228.1149],[-5.1462,7.3516,217.9017],[-5.1496,7.3528,208.5939],[-5.157,7.3482,208.6482],[-5.1698,7.3487,204.668],[-5.174,7.346,203.7349],[-5.1796,7.3376,196.9038],[-5.1865,7.3352,197.9753],[-5.1909,7.3307,192.5801],[-5.1974,7.3196,187.6596],[-5.2021,7.3155,189.6184],[-5.2013,7.3109,186.4104],[-5.2041,7.2987,187.1147],[-5.2077,7.2949,181.3082],[-5.2212,7.2964,195.5414],[-5.2249,7.2945,192.2427],[-5.2299,7.2886,193.0454],[-5.2472,7.2955,201.3212],[-5.2529,7.2955,201.842],[-5.2557,7.2894,211.9861],[-5.2733,7.2714,200.8716],[-5.296,7.2334,199.906],[-5.3018,7.2352,191.8361],[-5.3092,7.2428,199.164],[-5.3166,7.2419,198.7191],[-5.3259,7.2468,210.3171],[-5.3406,7.2476,230.0558],[-5.3562,7.2422,216.3322],[-5.3905,7.2439,226.6533],[-5.3973,7.2496,208.163],[-5.3976,7.2569,213.0352],[-5.4005,7.2667,217.8262],[-5.4046,7.2724,214.2395],[-5.4044,7.2757,215.9129],[-5.4094,7.2851,203.5051],[-5.4187,7.2864,205.2875],[-5.4335,7.2846,188.5858],[-5.4346,7.2933,219.3771],[-5.4325,7.3027,248.0431],[-5.4348,7.3065,234.1868],[-5.4384,7.3079,209.5236],[-5.4443,7.3061,202.7979],[-5.4511,7.3078,201.2569],[-5.4626,7.3039,189.0458],[-5.4749,7.3061,183.1979],[-5.4813,7.3106,181.5],[-5.4838,7.3049,181.5],[-5.4942,7.3026,181.5],[-5.4964,7.3006,181.5],[-5.501,7.2877,181.5],[-5.5,7.2848,181.5],[-5.5046,7.2792,181.5],[-5.5157,7.2847,182.7204],[-5.519,7.2881,185.1545],[-5.5218,7.2948,187.4551],[-5.5657,7.2871,207.1473],[-5.5896,7.2785,220.185],[-5.6048,7.2758,206.9313],[-5.6075,7.2702,202.8785],[-5.6104,7.2692,197.9873],[-5.629,7.2716,186.3609],[-5.6319,7.2704,188.5573],[-5.6349,7.2686,182.4948],[-5.6413,7.2588,182.5466],[-5.6444,7.2588,181.5],[-5.6482,7.2375,181.5],[-5.6502,7.2344,181.5],[-5.6534,7.2337,181.5],[-5.6635,7.2384,181.5],[-5.6662,7.2372,181.5],[-5.6688,7.235,181.5],[-5.6688,7.2257,181.5],[-5.666,7.2201,181.5],[-5.6489,7.2048,181.5],[-5.636,7.2023,181.5],[-5.6199,7.1945,181.5],[-5.6066,7.192,181.5],[-5.5981,7.187,181.5],[-5.5959,7.1783,181.5],[-5.5962,7.1733,181.5],[-5.6073,7.1597,181.5],[-5.5849,7.1435,181.5],[-5.5504,7.1437,181.9478],[-5.5382,7.1578,181.5],[-5.5216,7.1593,181.5],[-5.4802,7.1399,181.5],[-5.479,7.1365,181.5],[-5.4848,7.1266,181.5],[-5.4885,7.1134,181.5],[-5.4921,7.1106,181.5],[-5.4935,7.1059,181.5],[-5.4904,7.0741,181.5],[-5.4872,7.0569,181.5],[-5.4843,7.0532,181.5],[-5.4675,7.0458,181.5],[-5.4646,7.0485,181.5],[-5.4596,7.0493,181.5],[-5.4526,7.0474,181.5],[-5.4199,7.0463,181.5],[-5.4133,7.0476,181.5],[-5.3945,7.0541,183.0656],[-5.3701,7.0686,200.2091],[-5.3646,7.0683,208.5332],[-5.3299,7.076,246.3619],[-5.2978,7.0962,203.0177],[-5.2909,7.0944,201.913],[-5.2813,7.0968,191.4399],[-5.2414,7.0813,215.8904],[-5.2225,7.0818,183.8291],[-5.2095,7.0781,175.8426],[-5.1992,7.0792,169.1559],[-5.1944,7.0816,166.6007],[-5.1865,7.0803,163.2121],[-5.182,7.0778,161.0911],[-5.1861,7.0624,162.1523],[-5.1914,7.0575,160.366],[-5.1911,7.053,163.425],[-5.1797,7.0515,161.2316],[-5.1722,7.0456,159.1334],[-5.1674,7.0485,164.4908],[-5.1608,7.049,157.5667],[-5.161,7.0401,156.5136],[-5.157,7.0379,155.7708],[-5.1549,7.0307,154.036],[-5.1519,7.0287,159.9412],[-5.1452,7.0306,152.8116],[-5.1402,7.0257,159.0118],[-5.1332,7.0271,155.0187],[-5.1292,7.0256,151.9827],[-5.1337,7.0216,154.1181],[-5.1331,7.0182,155.4224],[-5.1221,6.9973,150.9943],[-5.1171,6.9951,149.3864],[-5.115,6.9916,149.3578],[-5.1068,6.9929,150.6059],[-5.0968,6.9797,155.0297],[-5.0931,6.9811,151.2622],[-5.0892,6.9778,154.511],[-5.0855,6.9769,149.6932],[-5.0664,6.9766,145.2562],[-5.0624,6.9745,143.2321],[-5.0481,6.9541,141.872],[-5.048,6.95,143.4998],[-5.0452,6.9438,146.8108],[-5.0409,6.9417,144.2943],[-5.041,6.9287,149.0947],[-5.0373,6.9241,138.82],[-5.0373,6.9195,142.4127],[-5.0352,6.9161,140.8925],[-5.0347,6.911,141.245],[-5.0366,6.9058,152.479],[-5.0332,6.9037,140.5299],[-5.0233,6.9017,140.2796],[-5.0121,6.8931,139.6204],[-4.9953,6.8889,135.8699],[-4.9964,6.8721,143.0315],[-4.9928,6.8597,130.1154],[-4.9877,6.8514,138.2855],[-4.9884,6.8449,133.5003],[-4.9872,6.8413,128.6468],[-4.9854,6.8378,139.7163],[-4.9775,6.8361,124.0628],[-4.9714,6.8269,125.6131],[-4.9674,6.8252,139.6837],[-4.9671,6.8289,120.5],[-4.9623,6.8368,129.6749],[-4.9634,6.8422,120.5],[-4.9417,6.8486,138.5638],[-4.9202,6.8455,155.9154],[-4.9062,6.8475,174.7676],[-4.8927,6.8422,177.1095],[-4.8864,6.844,171.3095],[-4.8781,6.8441,169.1774],[-4.8615,6.8487,168.371],[-4.8468,6.8579,140.429],[-4.8353,6.8678,137.0786],[-4.8366,6.8714,138.0917],[-4.8344,6.8751,132.7155],[-4.8401,6.8857,137.6371],[-4.841,6.8947,143.8634],[-4.8474,6.9071,171.6696],[-4.8502,6.9192,169.2986],[-4.8489,6.923,161.0527],[-4.8519,6.9281,174.8053],[-4.8601,6.9337,184.521],[-4.878,6.9778,159.2661],[-4.877,6.9814,162.0729],[-4.8779,6.9879,175.8346],[-4.8844,7.0054,173.0984],[-4.9024,7.0726,167.7981],[-4.9037,7.0837,144.4093],[-4.9103,7.092,154.8336],[-4.911,7.096,160.1725],[-4.9258,7.1141,176.8876],[-4.9281,7.1247,176.0484],[-4.9327,7.1352,164.3467],[-4.9434,7.1528,165.0253],[-4.9395,7.1606,174.4653],[-4.9451,7.1796,196.5863],[-4.9538,7.2032,207.8884],[-4.9776,7.2526,205.4215],[-4.9934,7.2665,205.3398],[-4.9986,7.2752,207.9047],[-5.0195,7.2942,226.2199],[-5.0403,7.3178,242.9127],[-5.0676,7.3613,261.496],[-5.0717,7.3739,283.6213]]]]}
,"properties": {"GID_3": "CIV.6.1.3_1","GID_0": "CIV","country": "Côted'Ivoire","GID_1": "CIV.6_1","province": "Lacs","NL_NAME_1": "NA","GID_2": "CIV.6.1_1","county": "Bélier","NL_NAME_2": "NA","city": "Tiebissou","VARNAME_3": "NA","NL_NAME_3": "NA","TYPE_3": "Département","ENGTYPE_3": "Department","CC_3": "NA","HASC_3": "NA","name": "Tiebissou.city","area_km2": 2321.242,"hist_schema_id": "Elevation0-9000","hist_area_km2": {"125": 21.849,"150": 192.775,"175": 634.566,"200": 697.878,"225": 512.798,"250": 214.128,"275": 32.454,"300": 4.567,"325": 3.136,"350": 2.441,"375": 1.999,"400": 1.179,"425": 0.821,"450": 0.463,"475": 0.126,"500": 0.021,"525": 0.042}}}