{"type":"Feature","properties":{"GID_2":"CIV.8.2_1","GID_0":"CIV","country":"Côted'Ivoire","GID_1":"CIV.8_1","province":"Montagnes","NL_NAME_1":"NA","county":"Guémon","VARNAME_2":"NA","NL_NAME_2":"NA","TYPE_2":"Région","ENGTYPE_2":"Region","CC_2":"NA","HASC_2":"CI.MN.GM","name":"Guémon.county"},
"geometry":{"type": "MultiPolygon","coordinates": [[[[-7.1268,6.2697,189.5],[-7.1236,6.4593,236.6225],[-6.9923,6.5584,189.5],[-7.0159,6.5719,189.5],[-7.0201,6.5794,189.5],[-7.0202,6.5878,189.5],[-7.0027,6.6039,189.5],[-6.9956,6.6079,191.0092],[-6.988,6.6185,189.5],[-6.9835,6.6415,189.5],[-6.9836,6.6567,189.5],[-6.9898,6.6648,189.5],[-6.9913,6.6728,189.5],[-6.9863,6.6869,189.5],[-6.9715,6.7073,189.5],[-6.9743,6.7131,189.5],[-6.9786,6.7171,190.7672],[-6.9872,6.7198,189.5],[-6.9899,6.723,189.5],[-6.9888,6.7288,189.5],[-6.9827,6.7384,189.5],[-6.9819,6.7454,198.8674],[-6.9898,6.7666,189.5],[-6.9961,6.7742,189.5],[-6.9948,6.7925,189.5],[-6.9982,6.8159,190.5028],[-7.0041,6.8275,189.5],[-7.0081,6.8333,191.4906],[-7.0178,6.8388,198.5392],[-7.0258,6.8399,194.9831],[-7.0403,6.8388,195.5197],[-7.0607,6.8477,197.3177],[-7.0634,6.8508,193.8182],[-7.061,6.8595,199.5465],[-7.0614,6.8729,193.4857],[-7.0641,6.8828,193.0],[-7.0609,6.8906,196.9257],[-7.0464,6.8976,200.6303],[-7.0428,6.9054,201.3371],[-7.0435,6.9123,199.1721],[-7.0413,6.9202,199.6086],[-7.044,6.9284,202.8085],[-7.0516,6.9327,201.9132],[-7.0586,6.9336,201.3968],[-7.0643,6.9405,197.0],[-7.0652,6.9517,206.7781],[-7.0649,6.9598,201.8961],[-7.0599,6.9696,206.1697],[-7.059,6.9904,213.4101],[-7.0593,6.998,206.9466],[-7.0652,7.0015,203.869],[-7.0671,7.0051,203.4531],[-7.0608,7.0251,207.0771],[-7.0571,7.0605,208.9895],[-7.0486,7.0823,209.4149],[-7.0476,7.0885,203.9148],[-7.0524,7.095,206.2143],[-7.0682,7.11,211.6769],[-7.0681,7.1323,216.0516],[-7.0638,7.1429,214.7991],[-7.0694,7.1565,215.1754],[-7.0791,7.1592,214.7427],[-7.0853,7.1639,218.3735],[-7.091,7.1735,216.9096],[-7.0913,7.1832,221.1092],[-7.0869,7.188,215.3873],[-7.078,7.1925,217.1403],[-7.0686,7.192,210.0],[-7.0663,7.1981,215.957],[-7.0714,7.2046,214.4724],[-7.0763,7.22,216.6337],[-7.0772,7.2308,217.0959],[-7.0723,7.2484,216.3326],[-7.0734,7.2609,215.4998],[-7.0724,7.2678,219.6063],[-7.0675,7.283,222.7638],[-7.0681,7.2888,225.4785],[-7.0725,7.2996,222.5294],[-7.0722,7.307,228.5289],[-7.0639,7.3258,228.9122],[-7.0637,7.3344,220.6599],[-7.0787,7.3616,216.0562],[-7.0849,7.3653,222.7332],[-7.0872,7.3709,219.8914],[-7.0817,7.3806,226.89],[-7.0646,7.3826,228.9639],[-7.0615,7.3891,233.7175],[-7.0561,7.3952,223.3152],[-7.0488,7.3979,225.1422],[-7.0479,7.4031,226.0163],[-7.052,7.4152,223.3414],[-7.0476,7.4194,225.7847],[-7.0203,7.4237,224.1718],[-7.0063,7.4378,224.6149],[-7.0063,7.454,227.0314],[-7.012,7.457,228.8119],[-7.0176,7.4644,225.6234],[-7.0244,7.4746,226.5458],[-7.0298,7.4887,226.5675],[-7.0255,7.5064,227.9183],[-7.045,7.529,227.6226],[-7.0449,7.5351,231.3448],[-7.0385,7.5427,230.6099],[-7.0301,7.5461,234.1772],[-7.0166,7.5546,237.8651],[-7.0063,7.556,243.2106],[-6.9981,7.5521,235.9026],[-6.9909,7.5521,230.1612],[-6.9855,7.5566,231.9921],[-6.9872,7.5711,235.9678],[-6.9862,7.5793,226.3169],[-6.9903,7.5844,231.0704],[-6.9948,7.5862,229.6597],[-6.9996,7.5844,231.8556],[-7.0032,7.5861,236.7206],[-7.0034,7.5905,228.8141],[-7.0209,7.613,234.9407],[-7.0248,7.6134,235.897],[-7.0333,7.6091,233.4409],[-7.043,7.6069,234.0441],[-7.0487,7.6216,234.1562],[-7.0559,7.6238,235.8854],[-7.0675,7.6364,238.4351],[-7.0687,7.6432,230.5],[-7.0668,7.6497,234.824],[-7.0685,7.6566,239.6658],[-7.0748,7.6644,239.502],[-7.0809,7.6792,240.7117],[-7.0774,7.6886,234.6292],[-7.0723,7.7192,244.1485],[-7.0732,7.7175,240.4476],[-7.1037,7.7155,269.4978],[-7.145,7.7231,314.7358],[-7.1493,7.7218,311.5341],[-7.1542,7.7112,309.9314],[-7.17,7.6859,325.012],[-7.175,7.6736,355.5464],[-7.1923,7.6572,359.0923],[-7.1988,7.66,338.1933],[-7.2139,7.6574,314.3357],[-7.2219,7.6598,306.7733],[-7.2345,7.6582,297.8324],[-7.2512,7.6174,287.6031],[-7.2657,7.5956,283.998],[-7.2798,7.5817,276.9024],[-7.2796,7.5729,278.7116],[-7.2824,7.5659,274.9665],[-7.2822,7.5619,296.3436],[-7.2868,7.5523,285.2241],[-7.2855,7.5473,273.9865],[-7.2884,7.5411,271.0892],[-7.2826,7.5283,278.8882],[-7.2849,7.5204,270.7731],[-7.2801,7.5125,264.7044],[-7.2804,7.51,265.4311],[-7.3051,7.4925,266.5648],[-7.3437,7.4867,274.9651],[-7.3463,7.4814,273.7656],[-7.3535,7.4765,276.3841],[-7.3612,7.4755,280.6069],[-7.3764,7.4684,285.2451],[-7.3798,7.4631,287.0381],[-7.3791,7.4599,293.4072],[-7.3813,7.4542,286.6578],[-7.3814,7.4482,306.371],[-7.3882,7.4476,305.6165],[-7.3954,7.4397,322.0454],[-7.4104,7.4314,312.4062],[-7.4189,7.4288,298.8219],[-7.427,7.4209,307.6303],[-7.438,7.4206,303.5197],[-7.4485,7.4176,320.3809],[-7.4565,7.41,321.9192],[-7.4726,7.3997,356.9665],[-7.4881,7.3853,332.8613],[-7.4929,7.3651,344.3194],[-7.4927,7.3575,325.8511],[-7.4987,7.3363,331.9113],[-7.4958,7.3333,315.9147],[-7.4968,7.3263,333.2076],[-7.4953,7.3245,325.1095],[-7.5003,7.2928,316.2848],[-7.5026,7.2874,299.4786],[-7.5239,7.2709,294.6708],[-7.5214,7.2655,295.6266],[-7.5192,7.2648,293.9303],[-7.5201,7.263,293.9434],[-7.5165,7.2573,292.0573],[-7.5156,7.2448,290.1314],[-7.5053,7.2411,299.6924],[-7.5028,7.242,286.8188],[-7.4984,7.2403,282.1965],[-7.4978,7.2348,280.8544],[-7.4948,7.2292,276.8498],[-7.496,7.226,281.5753],[-7.4955,7.2193,271.7697],[-7.489,7.2126,270.6535],[-7.4888,7.1972,261.861],[-7.486,7.1925,256.6165],[-7.4767,7.1862,257.4199],[-7.4728,7.1752,258.2676],[-7.4682,7.1706,256.5012],[-7.4688,7.1683,257.1999],[-7.4739,7.1715,255.4811],[-7.4789,7.1721,266.6277],[-7.4818,7.1674,254.4445],[-7.4817,7.1658,255.1008],[-7.4798,7.166,253.797],[-7.479,7.1618,251.626],[-7.4817,7.1614,253.5871],[-7.4884,7.1561,253.8788],[-7.4869,7.1536,252.0585],[-7.503,7.132,254.2926],[-7.5279,7.1137,249.1241],[-7.5229,7.1023,268.7375],[-7.51,7.0893,269.2907],[-7.5136,7.0582,295.5936],[-7.5896,7.0298,243.5535],[-7.5895,7.0273,241.7714],[-7.6659,6.9817,256.1724],[-7.6764,6.9883,279.8635],[-7.6926,6.9943,249.8774],[-7.7059,7.005,249.3572],[-7.7376,7.0054,258.4544],[-7.7409,7.0068,252.8562],[-7.7775,7.0341,279.8197],[-7.842,7.0755,307.4077],[-7.8555,7.0832,300.3742],[-7.8758,7.0866,291.6625],[-7.8858,7.0922,291.5632],[-7.8945,7.0801,284.3564],[-7.8985,7.0771,290.688],[-7.9015,7.0759,277.1503],[-7.9087,7.0773,275.8782],[-7.9129,7.0745,279.5617],[-7.9221,7.0734,278.0091],[-7.9234,7.072,274.4793],[-7.924,7.0626,275.6166],[-7.942,7.0449,273.1476],[-7.9447,7.0396,270.8523],[-7.9665,7.0261,273.2373],[-7.9676,7.0209,274.9154],[-7.9787,7.009,268.7394],[-7.9879,6.9945,269.8385],[-7.9977,6.9933,271.1918],[-8.0059,6.9845,275.6239],[-8.0111,6.983,270.2354],[-8.0115,6.9663,273.2991],[-8.0029,6.9651,269.8849],[-8.0016,6.9673,269.1497],[-7.9774,6.9531,274.372],[-7.953,6.9452,281.0401],[-7.9402,6.9382,296.9035],[-7.9329,6.9505,315.5125],[-7.9102,6.9411,288.2039],[-7.905,6.9349,298.5059],[-7.8987,6.931,299.3514],[-7.8873,6.9298,297.2663],[-7.8411,6.8491,309.7476],[-7.6297,6.847,223.2466],[-7.637,6.8436,219.9278],[-7.6385,6.8391,223.383],[-7.6336,6.8348,229.0519],[-7.6269,6.8361,219.1863],[-7.6199,6.8287,223.3889],[-7.6111,6.8286,219.7657],[-7.6066,6.8193,219.1336],[-7.6075,6.8098,217.9231],[-7.606,6.802,221.2327],[-7.6035,6.7979,220.8637],[-7.5982,6.8027,219.4819],[-7.5948,6.8035,215.2797],[-7.5897,6.7891,223.6252],[-7.587,6.7874,224.3192],[-7.5797,6.7961,213.3456],[-7.571,6.7929,216.7204],[-7.5772,6.7745,214.0336],[-7.5808,6.772,214.2334],[-7.5862,6.7569,222.5707],[-7.589,6.7536,218.832],[-7.5871,6.7401,211.7031],[-7.585,6.7373,216.5644],[-7.5806,6.7359,210.7887],[-7.5793,6.7287,207.0583],[-7.5773,6.7261,212.873],[-7.57,6.7276,211.5658],[-7.5625,6.707,217.2601],[-7.5676,6.7024,221.5802],[-7.5659,6.6946,217.1162],[-7.5536,6.6929,209.6523],[-7.5477,6.6895,208.748],[-7.5487,6.6858,210.2981],[-7.5427,6.6678,216.1127],[-7.5024,6.6453,230.4236],[-7.4956,6.6446,259.0202],[-7.4082,6.6023,236.0495],[-7.3262,6.5483,219.4995],[-7.3103,6.5363,228.6373],[-7.26,6.4687,224.4993],[-7.2461,6.4619,206.1632],[-7.1925,6.4025,204.6697],[-7.1677,6.3274,195.0679],[-7.1268,6.2697,189.5]]]]}}