{"type": "Feature","bbox": [-5.3771,9.2111,-4.6996,9.9383],"geometry": {"type": "MultiPolygon","coordinates": [[[[-5.3375,9.3905,293.833],[-5.3181,9.3896,296.6664],[-5.3003,9.3842,302.4165],[-5.2815,9.3923,310.0553],[-5.256,9.397,325.0406],[-5.246,9.397,317.9724],[-5.2382,9.4028,331.8849],[-5.208,9.4078,365.8088],[-5.2005,9.4245,337.5166],[-5.1943,9.4178,342.9081],[-5.1922,9.4087,347.0623],[-5.1892,9.3773,377.0251],[-5.1899,9.3687,354.093],[-5.1926,9.3621,338.8118],[-5.1837,9.3543,346.3867],[-5.1503,9.348,365.1096],[-5.1431,9.3399,365.0049],[-5.1286,9.3331,381.6174],[-5.1144,9.3293,419.1932],[-5.1018,9.3293,414.1002],[-5.0927,9.3358,395.5799],[-5.0831,9.334,388.8665],[-5.0779,9.3356,377.8417],[-5.0719,9.3348,378.8135],[-5.0542,9.3437,361.6974],[-5.0467,9.3422,360.0747],[-5.0347,9.3322,346.9161],[-5.0309,9.3316,346.6845],[-5.023,9.314,336.6869],[-5.0249,9.3074,338.505],[-5.0187,9.302,341.4314],[-5.0155,9.2932,328.7304],[-5.011,9.2869,334.5387],[-5.0138,9.2804,331.5835],[-5.0109,9.2724,336.4982],[-5.0131,9.259,327.3943],[-5.0117,9.248,332.1543],[-5.016,9.2283,323.6043],[-5.0101,9.2233,326.2814],[-4.9975,9.2193,313.5576],[-4.991,9.2111,312.7439],[-4.986,9.2174,312.8767],[-4.9809,9.2195,318.4877],[-4.9783,9.2265,314.6203],[-4.9708,9.2324,323.3685],[-4.9682,9.2383,324.9908],[-4.968,9.2443,333.5963],[-4.9653,9.2477,336.7104],[-4.9616,9.2487,338.5842],[-4.9589,9.2551,342.2544],[-4.955,9.2576,356.0233],[-4.8913,9.3559,298.6547],[-4.885,9.3591,299.7793],[-4.882,9.3642,296.7709],[-4.882,9.3768,295.5764],[-4.8751,9.3833,291.4201],[-4.8732,9.3901,285.757],[-4.8592,9.4132,285.3707],[-4.8533,9.4189,278.5867],[-4.8458,9.4352,281.8902],[-4.8438,9.4415,274.0543],[-4.8444,9.446,273.048],[-4.83,9.4631,284.033],[-4.8237,9.481,275.6778],[-4.7825,9.5451,252.318],[-4.775,9.5481,251.6618],[-4.7701,9.5536,249.3533],[-4.7615,9.5756,246.8188],[-4.7603,9.5905,245.9475],[-4.7525,9.5968,244.0245],[-4.7486,9.6106,242.2068],[-4.7453,9.6141,241.3478],[-4.7428,9.6216,241.1187],[-4.7401,9.6256,245.3275],[-4.7348,9.6253,240.7283],[-4.7344,9.6337,238.9882],[-4.7302,9.6402,242.259],[-4.7229,9.6411,240.7853],[-4.7177,9.6489,238.1419],[-4.7102,9.65,238.1103],[-4.7131,9.653,236.9041],[-4.713,9.6575,236.3319],[-4.708,9.6624,236.6365],[-4.7098,9.6707,234.8334],[-4.7068,9.6732,233.2465],[-4.7053,9.6791,234.3977],[-4.6999,9.6836,228.5857],[-4.6996,9.6871,229.5675],[-4.708,9.688,238.6221],[-4.7123,9.6943,234.5885],[-4.7205,9.716,235.5815],[-4.7248,9.7221,235.1225],[-4.7275,9.7298,234.081],[-4.7369,9.7356,231.0152],[-4.7387,9.7404,236.1618],[-4.7377,9.747,239.3384],[-4.741,9.7502,232.4051],[-4.7494,9.7527,234.5658],[-4.7715,9.7538,239.5495],[-4.7727,9.7487,240.399],[-4.771,9.7368,238.4397],[-4.7768,9.7362,235.5824],[-4.7851,9.7425,237.2685],[-4.7863,9.7548,241.2337],[-4.7901,9.7573,241.1373],[-4.8002,9.7552,249.5079],[-4.7991,9.7646,236.2664],[-4.8006,9.7692,238.5369],[-4.8039,9.7698,239.7537],[-4.8098,9.7681,242.0428],[-4.8181,9.7846,255.6173],[-4.8163,9.7865,244.9773],[-4.7907,9.7832,242.291],[-4.7887,9.7851,238.6587],[-4.7888,9.7879,248.2523],[-4.7931,9.7926,255.1964],[-4.7963,9.8006,244.0784],[-4.7931,9.8117,239.6558],[-4.7944,9.8176,242.7273],[-4.7936,9.8229,241.8711],[-4.7868,9.8302,239.6139],[-4.7887,9.8334,240.9583],[-4.796,9.8357,242.5341],[-4.8043,9.845,245.4152],[-4.8133,9.8425,239.923],[-4.8205,9.8423,238.8522],[-4.8295,9.8519,239.0899],[-4.8291,9.8621,238.577],[-4.8315,9.8638,239.4799],[-4.846,9.8683,245.6936],[-4.8517,9.865,251.7907],[-4.8572,9.8646,254.7586],[-4.8646,9.8725,246.3409],[-4.8803,9.8707,256.3782],[-4.8861,9.8786,256.2625],[-4.8942,9.8784,255.4231],[-4.9138,9.8936,259.2372],[-4.9196,9.892,259.8644],[-4.928,9.8861,264.5695],[-4.9307,9.883,262.5326],[-4.9313,9.8761,267.2279],[-4.9344,9.8735,264.4243],[-4.937,9.8737,265.9586],[-4.9409,9.8796,264.9465],[-4.956,9.8829,264.1499],[-4.9679,9.8924,267.1598],[-4.9715,9.9041,263.9008],[-4.9718,9.9103,264.6216],[-4.9649,9.9137,262.7036],[-4.961,9.9245,266.9447],[-4.9694,9.928,275.5481],[-4.9716,9.9327,265.54],[-4.9779,9.9231,281.3461],[-4.9916,9.9315,270.8029],[-5.0098,9.9358,282.1071],[-5.0185,9.9347,275.5396],[-5.0332,9.9255,279.1158],[-5.0379,9.9181,284.2035],[-5.0456,9.9144,279.7281],[-5.0595,9.9136,287.485],[-5.0667,9.9086,292.6628],[-5.0827,9.903,297.1697],[-5.1017,9.9092,302.9898],[-5.1251,9.9223,312.3142],[-5.1329,9.9281,314.0127],[-5.1382,9.936,328.7763],[-5.1467,9.9383,320.4157],[-5.1547,9.9372,315.2277],[-5.1602,9.931,314.0521],[-5.172,9.9314,326.1341],[-5.1828,9.9288,342.086],[-5.1899,9.9235,334.5296],[-5.1934,9.9165,332.4047],[-5.1908,9.9097,325.4096],[-5.1911,9.9026,327.1747],[-5.1964,9.8957,326.0309],[-5.2011,9.882,322.6892],[-5.2185,9.8725,314.3217],[-5.2267,9.8501,323.8266],[-5.2516,9.8348,345.7727],[-5.2957,9.8014,343.1304],[-5.3204,9.7682,338.8445],[-5.3397,9.7474,324.526],[-5.3771,9.6674,300.5962],[-5.3714,9.6653,298.0368],[-5.3648,9.6575,305.325],[-5.3683,9.6481,296.3],[-5.3684,9.6401,299.0771],[-5.3526,9.6394,298.6151],[-5.3484,9.6454,297.4532],[-5.3447,9.6418,299.7078],[-5.3488,9.6295,299.0679],[-5.3451,9.6214,302.3958],[-5.3346,9.6266,295.1575],[-5.3353,9.6198,299.4279],[-5.332,9.612,302.9049],[-5.3222,9.6136,297.0553],[-5.3201,9.6104,296.9742],[-5.3232,9.611,296.9228],[-5.3289,9.6056,301.7715],[-5.3249,9.5969,298.0789],[-5.3197,9.5946,302.2964],[-5.311,9.5962,299.2879],[-5.303,9.5953,298.7315],[-5.3076,9.5903,294.8546],[-5.3087,9.5834,297.5291],[-5.3034,9.5756,297.2299],[-5.2968,9.5724,295.31],[-5.2969,9.5693,295.5408],[-5.3041,9.5668,291.0336],[-5.308,9.5636,303.3728],[-5.3085,9.5573,335.4094],[-5.3013,9.5549,310.02],[-5.3083,9.5437,305.7947],[-5.3047,9.5362,292.7361],[-5.3067,9.5118,292.4629],[-5.3144,9.5042,291.9097],[-5.3223,9.5108,291.7636],[-5.329,9.5131,296.3452],[-5.3355,9.5077,307.3438],[-5.3323,9.4951,294.4633],[-5.3227,9.4802,295.7833],[-5.3166,9.4794,296.7329],[-5.3019,9.4884,291.4097],[-5.2947,9.4872,290.7707],[-5.2964,9.4796,291.0948],[-5.3059,9.4805,291.8439],[-5.3275,9.4688,306.6639],[-5.3252,9.4615,300.0732],[-5.3157,9.4617,290.5],[-5.3086,9.4426,290.696],[-5.3175,9.437,289.1963],[-5.3271,9.4397,289.9275],[-5.3349,9.4369,301.3643],[-5.3334,9.42,291.8324],[-5.3414,9.4135,289.3954],[-5.3417,9.4094,291.4669],[-5.3388,9.4042,290.8357],[-5.3525,9.3916,299.5025],[-5.3498,9.3852,298.67],[-5.3443,9.3821,294.701],[-5.3395,9.3839,295.5995],[-5.3375,9.3905,293.833]]]]}
,"properties": {"GID_3": "CIV.10.3.1_1","GID_0": "CIV","country": "Côted'Ivoire","GID_1": "CIV.10_1","province": "Savanes","NL_NAME_1": "NA","GID_2": "CIV.10.3_1","county": "Tchologo","NL_NAME_2": "NA","city": "Ferkessedougou","VARNAME_3": "NA","NL_NAME_3": "NA","TYPE_3": "Département","ENGTYPE_3": "Department","CC_3": "NA","HASC_3": "NA","name": "Ferkessedougou.city","area_km2": 3590.722,"hist_schema_id": "Elevation0-9000","hist_area_km2": {"225": 7.753,"250": 136.11,"275": 288.171,"300": 586.153,"325": 928.87,"350": 843.656,"375": 541.417,"400": 225.4,"425": 30.684,"450": 0.794,"475": 0.585,"500": 0.502,"525": 0.397,"550": 0.084,"575": 0.125}}}