{"type": "Feature","bbox": [-5.3275,6.289,-5.0504,6.627],"geometry": {"type": "MultiPolygon","coordinates": [[[[-5.2096,6.3809,132.3474],[-5.1988,6.382,144.2644],[-5.1908,6.3758,148.3514],[-5.095,6.289,122.1952],[-5.0504,6.3027,151.5864],[-5.062,6.3984,134.2],[-5.0587,6.4438,122.7313],[-5.0545,6.4665,151.1684],[-5.0554,6.4848,142.4611],[-5.0598,6.504,152.5495],[-5.0808,6.5274,181.835],[-5.0991,6.5396,176.5504],[-5.1114,6.5605,244.253],[-5.1225,6.5968,156.5989],[-5.1217,6.6013,156.5692],[-5.1256,6.6157,148.3157],[-5.1587,6.6264,161.5454],[-5.1866,6.6234,159.9321],[-5.1923,6.6248,162.7736],[-5.2054,6.6191,173.0694],[-5.2087,6.6198,176.0105],[-5.2268,6.6145,215.9341],[-5.2342,6.6165,217.018],[-5.245,6.6163,199.303],[-5.2668,6.6237,176.4158],[-5.2716,6.627,162.6284],[-5.2859,6.6093,156.1934],[-5.2874,6.5984,154.6788],[-5.2854,6.5884,155.593],[-5.2869,6.5792,159.1198],[-5.2834,6.574,154.2753],[-5.2847,6.5697,175.9576],[-5.2943,6.5563,148.5629],[-5.3048,6.5542,152.6199],[-5.3026,6.5497,143.8204],[-5.3027,6.5447,142.0821],[-5.3058,6.5382,150.4693],[-5.3112,6.5346,146.0917],[-5.3247,6.5297,140.7883],[-5.3275,6.5246,142.2122],[-5.3257,6.518,142.6415],[-5.3204,6.5148,145.8365],[-5.3129,6.5134,142.7143],[-5.3002,6.5062,154.2007],[-5.298,6.4995,155.827],[-5.3048,6.4736,143.2578],[-5.3135,6.4671,146.2072],[-5.3187,6.4606,143.5984],[-5.3106,6.444,145.8717],[-5.3092,6.4322,143.6674],[-5.3141,6.4263,149.7566],[-5.3154,6.4212,139.9868],[-5.3146,6.4091,158.5899],[-5.3083,6.3954,135.6968],[-5.3083,6.3882,135.0148],[-5.301,6.3775,136.2086],[-5.2951,6.3757,135.4885],[-5.2907,6.3705,135.3055],[-5.2865,6.3694,137.1196],[-5.2835,6.365,136.5459],[-5.28,6.3632,132.7082],[-5.2635,6.369,132.4247],[-5.2523,6.3787,131.7218],[-5.218,6.3841,127.4799],[-5.2096,6.3809,132.3474]]]]}
,"properties": {"GID_3": "CIV.6.1.2_1","GID_0": "CIV","country": "Côted'Ivoire","GID_1": "CIV.6_1","province": "Lacs","NL_NAME_1": "NA","GID_2": "CIV.6.1_1","county": "Bélier","NL_NAME_2": "NA","city": "Djekanou","VARNAME_3": "NA","NL_NAME_3": "NA","TYPE_3": "Département","ENGTYPE_3": "Department","CC_3": "NA","HASC_3": "NA","name": "Djekanou.city","area_km2": 762.44,"hist_schema_id": "Elevation0-9000","hist_area_km2": {"125": 38.4955,"150": 234.2439,"175": 266.917,"200": 116.07,"225": 45.5638,"250": 20.2856,"275": 10.4903,"300": 6.7407,"325": 5.1397,"350": 4.4866,"375": 3.8546,"400": 3.1384,"425": 2.2537,"450": 2.1905,"475": 1.685,"500": 0.8425,"525": 0.0421}}}