{"type": "Feature","bbox": [-5.516,9.3719,-5.2947,9.7021],"geometry": {"type": "MultiPolygon","coordinates": [[[[-5.4609,9.4838,349.9121],[-5.4539,9.4805,366.1164],[-5.4489,9.4752,361.0673],[-5.4455,9.4641,354.2805],[-5.4388,9.4539,358.4113],[-5.4283,9.4466,340.3823],[-5.4216,9.4445,331.5959],[-5.4146,9.4351,325.5607],[-5.4207,9.3904,344.5195],[-5.4088,9.385,343.733],[-5.4024,9.3746,329.1049],[-5.3979,9.3719,329.4715],[-5.3578,9.378,319.1102],[-5.3349,9.3764,299.8809],[-5.3306,9.3743,290.2578],[-5.3226,9.3888,293.8249],[-5.3375,9.3905,293.833],[-5.3395,9.3839,295.5995],[-5.3443,9.3821,294.701],[-5.3498,9.3852,298.67],[-5.3525,9.3916,299.5025],[-5.3388,9.4042,290.8357],[-5.3417,9.4094,291.4669],[-5.3414,9.4135,289.3954],[-5.3334,9.42,291.8324],[-5.3349,9.4369,301.3643],[-5.3271,9.4397,289.9275],[-5.3175,9.437,289.1963],[-5.3086,9.4426,290.696],[-5.3157,9.4617,290.5],[-5.3252,9.4615,300.0732],[-5.3275,9.4688,306.6639],[-5.3059,9.4805,291.8439],[-5.2964,9.4796,291.0948],[-5.2947,9.4872,290.7707],[-5.3019,9.4884,291.4097],[-5.3166,9.4794,296.7329],[-5.3227,9.4802,295.7833],[-5.3323,9.4951,294.4633],[-5.3355,9.5077,307.3438],[-5.329,9.5131,296.3452],[-5.3223,9.5108,291.7636],[-5.3144,9.5042,291.9097],[-5.3067,9.5118,292.4629],[-5.3047,9.5362,292.7361],[-5.3083,9.5437,305.7947],[-5.3013,9.5549,310.02],[-5.3085,9.5573,335.4094],[-5.308,9.5636,303.3728],[-5.3041,9.5668,291.0336],[-5.2969,9.5693,295.5408],[-5.2968,9.5724,295.31],[-5.3034,9.5756,297.2299],[-5.3087,9.5834,297.5291],[-5.3076,9.5903,294.8546],[-5.303,9.5953,298.7315],[-5.311,9.5962,299.2879],[-5.3197,9.5946,302.2964],[-5.3249,9.5969,298.0789],[-5.3289,9.6056,301.7715],[-5.3232,9.611,296.9228],[-5.3201,9.6104,296.9742],[-5.3222,9.6136,297.0553],[-5.332,9.612,302.9049],[-5.3353,9.6198,299.4279],[-5.3346,9.6266,295.1575],[-5.3451,9.6214,302.3958],[-5.3488,9.6295,299.0679],[-5.3447,9.6418,299.7078],[-5.3484,9.6454,297.4532],[-5.3526,9.6394,298.6151],[-5.3684,9.6401,299.0771],[-5.3683,9.6481,296.3],[-5.3648,9.6575,305.325],[-5.3714,9.6653,298.0368],[-5.3808,9.6687,297.4795],[-5.3866,9.6636,306.2574],[-5.3929,9.6691,298.6331],[-5.3913,9.6825,299.7656],[-5.4099,9.6869,300.0061],[-5.4187,9.6996,302.7721],[-5.4327,9.6987,305.6853],[-5.4395,9.7021,300.5428],[-5.4381,9.6865,318.5641],[-5.4392,9.682,319.0916],[-5.4536,9.6615,334.3943],[-5.4581,9.6588,336.4782],[-5.4537,9.6532,320.6002],[-5.4372,9.6456,306.1611],[-5.4373,9.6406,310.2889],[-5.4434,9.6335,310.2187],[-5.4557,9.6309,316.4427],[-5.4599,9.623,312.9007],[-5.4655,9.6181,321.4164],[-5.4703,9.6097,323.4073],[-5.4807,9.5979,322.6093],[-5.4914,9.589,336.3708],[-5.4939,9.5842,326.6251],[-5.4904,9.5701,328.8814],[-5.4856,9.5598,347.3063],[-5.4859,9.5494,346.9844],[-5.4874,9.5435,360.6968],[-5.4953,9.5326,344.722],[-5.4989,9.5178,337.4481],[-5.5064,9.5015,325.8],[-5.5142,9.4991,319.6532],[-5.516,9.4908,337.1097],[-5.5132,9.4821,329.3349],[-5.5024,9.4745,318.9091],[-5.4989,9.475,320.8088],[-5.4959,9.4808,319.3625],[-5.4912,9.4849,318.9802],[-5.4832,9.4873,338.5031],[-5.4713,9.4862,367.5455],[-5.4637,9.4831,350.9469],[-5.4609,9.4838,349.9121]]]]}
,"properties": {"GID_3": "CIV.10.2.4_1","GID_0": "CIV","country": "Côted'Ivoire","GID_1": "CIV.10_1","province": "Savanes","NL_NAME_1": "NA","GID_2": "CIV.10.2_1","county": "Poro","NL_NAME_2": "NA","city": "Sinematiali","VARNAME_3": "NA","NL_NAME_3": "NA","TYPE_3": "Département","ENGTYPE_3": "Department","CC_3": "NA","HASC_3": "NA","name": "Sinematiali.city","area_km2": 493.5022,"hist_schema_id": "Elevation0-9000","hist_area_km2": {"275": 0.2092,"300": 96.3506,"325": 203.525,"350": 153.5214,"375": 39.1223,"400": 0.7736}}}