{"type": "Feature","id": "3437","bbox": [-8.17472,8.52361,-6.5805,10.45864],"geometry": {"type": "Polygon","coordinates": [[[-7.4314,10.33374,364.9588],[-7.44442,10.3342,389.6263],[-7.44577,10.34038,392.36],[-7.44329,10.34996,383.438],[-7.44468,10.36082,361.2612],[-7.46148,10.38864,378.6663],[-7.46546,10.39862,376.7834],[-7.46618,10.40748,374.1165],[-7.46535,10.418,375.0135],[-7.46618,10.42949,368.886],[-7.47161,10.4411,380.0237],[-7.48024,10.45029,361.0533],[-7.48985,10.45611,387.2287],[-7.50148,10.45864,384.8003],[-7.51584,10.45781,402.0479],[-7.53961,10.42763,397.9239],[-7.54742,10.4205,389.0142],[-7.55638,10.41727,407.5864],[-7.57434,10.41753,386.6114],[-7.58442,10.41652,395.8207],[-7.60777,10.41872,390.9948],[-7.64369,10.44047,404.534],[-7.66441,10.43714,382.6681],[-7.67004,10.42877,375.9917],[-7.67397,10.41639,390.2497],[-7.67904,10.40593,379.7063],[-7.68792,10.40309,383.478],[-7.69981,10.40453,376.927],[-7.70865,10.40247,389.8354],[-7.72229,10.39133,349.1984],[-7.72229,10.38448,348.3472],[-7.72678,10.38288,348.3985],[-7.73603,10.37828,358.567],[-7.72399,10.36361,350.4507],[-7.73534,10.3471,363.6594],[-7.75743,10.33405,350.3129],[-7.77758,10.32986,359.833],[-7.76441,10.31291,358.5412],[-7.77634,10.29273,373.6644],[-7.77825,10.27834,357.8929],[-7.78384,10.27043,370.6506],[-7.79123,10.26578,358.8534],[-7.79774,10.26028,359.5427],[-7.80125,10.24945,363.0306],[-7.80507,10.24183,361.2484],[-7.829,10.21165,363.9245],[-7.83866,10.20372,385.2339],[-7.84742,10.19793,380.6965],[-7.85722,10.19442,364.1265],[-7.88285,10.19083,398.1743],[-7.89225,10.18483,398.8156],[-7.91096,10.16941,386.2399],[-7.92905,10.16096,401.1194],[-7.94987,10.15543,403.5928],[-7.9709,10.15507,424.0665],[-7.98966,10.16199,437.5717],[-7.99984,10.1507,427.5766],[-8.00723,10.13832,442.2573],[-8.01235,10.12486,461.6682],[-8.01571,10.11037,460.354],[-8.03488,10.08579,450.1455],[-8.05788,10.07308,454.2354],[-8.10878,10.05419,426.4863],[-8.12754,10.03711,418.5555],[-8.14774,10.01004,387.1109],[-8.15849,9.98492,433.6],[-8.14888,9.97389,410.4353],[-8.13627,9.96944,399.7138],[-8.14009,9.9597,399.4696],[-8.15239,9.94999,387.2268],[-8.17384,9.94187,424.7764],[-8.17472,9.93304,400.9986],[-8.17151,9.92283,407.5764],[-8.16789,9.91469,409.6843],[-8.16454,9.91268,422.4622],[-8.15895,9.91237,406.1754],[-8.15322,9.91092,388.3572],[-8.14955,9.90534,390.8795],[-8.14722,9.88792,408.609],[-8.14567,9.8825,415.4844],[-8.14733,9.88012,417.0726],[-8.15213,9.87883,410.1244],[-8.15508,9.87524,416.0564],[-8.151,9.86614,420.4088],[-8.14686,9.8647,407.0217],[-8.1281,9.86625,389.7953],[-8.1235,9.84485,408.3659],[-8.16029,9.58481,406.9091],[-8.16159,9.57564,429.1005],[-8.16102,9.5536,437.9728],[-8.15761,9.53087,421.846],[-8.15286,9.51312,429.3044],[-8.14536,9.49715,441.3038],[-8.08718,9.4154,451.53],[-8.07043,9.39754,439.93],[-8.05405,9.38909,436.4282],[-8.0323,9.38465,445.8308],[-8.00987,9.38361,458.8414],[-7.99157,9.38532,459.4631],[-7.97106,9.39297,474.6303],[-7.93303,9.41426,456.5254],[-7.91189,9.41865,450.0974],[-7.8706,9.4186,444.1109],[-7.86538,9.40992,435.172],[-7.89174,9.33023,441.1463],[-7.89494,9.30713,468.8121],[-7.93065,9.22029,458.7024],[-7.92956,9.18388,442.048],[-7.87871,9.16391,452.0783],[-7.86631,9.16603,467.4897],[-7.85623,9.17022,458.9955],[-7.84791,9.16856,485.2186],[-7.83422,9.14298,475.3089],[-7.82337,9.13198,482.2631],[-7.80104,9.11479,475.638],[-7.75939,9.09167,449.2718],[-7.74678,9.07645,460.0858],[-7.7482,9.0754,464.8261],[-7.73629,9.07257,465.5517],[-7.71128,9.03821,453.1847],[-7.66637,8.95457,422.1823],[-7.66012,8.94535,424.2659],[-7.65278,8.93868,425.3148],[-7.64457,8.93318,452.9268],[-7.62591,8.92439,439.7621],[-7.5948,8.914,433.5926],[-7.53661,8.86341,410.5239],[-7.52917,8.85535,404.7017],[-7.50158,8.81236,393.4282],[-7.49796,8.80825,383.7353],[-7.4946,8.80561,407.5249],[-7.45807,8.78481,379.5167],[-7.41404,8.73378,370.7299],[-7.40551,8.72841,387.254],[-7.39404,8.72267,378.6629],[-7.37192,8.70887,355.3311],[-7.3651,8.70288,370.8677],[-7.36014,8.69753,355.0534],[-7.35017,8.67994,336.238],[-7.3235,8.64345,375.0639],[-7.31017,8.63012,351.4946],[-7.30149,8.625,367.9556],[-7.29187,8.62087,375.02],[-7.28123,8.61777,371.9815],[-7.27389,8.6142,367.1421],[-7.24873,8.59746,320.1742],[-7.23963,8.5893,309.7372],[-7.23389,8.58294,310.3871],[-7.23126,8.5779,303.0418],[-7.22749,8.56795,294.9137],[-7.21891,8.55299,315.5896],[-7.18646,8.52361,288.7714],[-7.19173,8.56121,296.5356],[-7.19896,8.58196,291.7276],[-7.20966,8.60056,295.8537],[-7.22253,8.61017,310.7958],[-7.21038,8.61441,295.6966],[-7.20909,8.61955,301.2207],[-7.21632,8.62345,299.7629],[-7.22997,8.62382,324.5781],[-7.22025,8.64226,307.4326],[-7.21679,8.66164,305.0338],[-7.2157,8.69893,313.5746],[-7.20382,8.74691,311.2943],[-7.20201,8.76412,303.677],[-7.2001,8.77264,307.0349],[-7.19131,8.78099,309.5589],[-7.18899,8.7883,313.045],[-7.19085,8.796,307.9005],[-7.19989,8.81334,303.7332],[-7.20201,8.81905,319.0163],[-7.20315,8.83726,309.1423],[-7.20733,8.85297,319.6636],[-7.21586,8.8645,317.9976],[-7.22997,8.87023,340.5987],[-7.22258,8.87889,312.0741],[-7.21798,8.88788,314.8079],[-7.21586,8.89845,310.8738],[-7.2157,8.91183,312.9896],[-7.2094,8.92338,322.7088],[-7.2095,8.92922,335.722],[-7.21911,8.9317,329.9799],[-7.22687,8.93232,312.674],[-7.2311,8.93452,323.3809],[-7.23358,8.93871,325.0713],[-7.23271,8.94302,308.7242],[-7.23079,8.94496,309.6693],[-7.21736,8.94542,337.0471],[-7.19209,8.95271,342.7062],[-7.17829,8.96312,352.237],[-7.16227,8.9777,354.9402],[-7.15002,8.9854,356.8363],[-7.14088,8.99648,335.1919],[-7.13922,9.0002,339.6775],[-7.13917,9.00036,339.6775],[-7.13731,9.00268,348.4007],[-7.13447,9.00508,352.2333],[-7.12951,9.00725,349.1416],[-7.12325,9.0078,352.7723],[-7.11411,9.00555,352.8401],[-7.10899,9.00291,359.2336],[-7.1063,9.00105,361.2501],[-7.10568,9.00036,367.8911],[-7.10558,9.00012,367.8911],[-7.10543,8.99997,367.8911],[-7.10315,8.99772,365.8978],[-7.09959,8.99539,372.3862],[-7.09494,8.99315,373.7931],[-7.08904,8.99214,365.0019],[-7.07153,8.99346,386.9681],[-7.06595,8.99276,389.5743],[-7.06155,8.99051,377.1456],[-7.0583,8.98684,388.6272],[-7.04724,8.97049,393.6852],[-7.04393,8.96669,405.2643],[-7.0399,8.96351,409.0927],[-7.03525,8.96103,405.7929],[-7.02993,8.9593,396.0087],[-7.02429,8.95832,396.8411],[-7.01799,8.95801,411.9586],[-7.00166,8.95961,404.0393],[-6.97329,8.96529,411.5425],[-6.96652,8.96382,399.9823],[-6.96104,8.96134,404.7933],[-6.95727,8.95806,401.2486],[-6.95164,8.95566,412.9026],[-6.94409,8.95496,418.8166],[-6.93288,8.95558,397.7338],[-6.92657,8.95387,388.4027],[-6.92167,8.95116,390.4616],[-6.91448,8.94426,391.2562],[-6.91076,8.94263,387.8823],[-6.9074,8.94271,380.5718],[-6.90554,8.94891,375.9084],[-6.90523,8.95496,376.0565],[-6.90999,8.99989,379.834],[-6.90999,9.00012,379.834],[-6.91009,9.00051,379.8745],[-6.91086,9.01485,379.7144],[-6.91014,9.02162,379.1749],[-6.90797,9.02898,388.963],[-6.90167,9.0386,390.0895],[-6.89882,9.04591,390.1097],[-6.89733,9.05226,390.4694],[-6.89138,9.05823,395.6798],[-6.88105,9.06327,419.6038],[-6.84136,9.07257,450.7861],[-6.82922,9.07678,455.208],[-6.81676,9.08516,560.2461],[-6.80772,9.0895,485.5669],[-6.78312,9.09616,423.1714],[-6.74659,9.11782,404.4444],[-6.73832,9.1459,387.6884],[-6.73868,9.15179,376.751],[-6.74038,9.15949,381.9015],[-6.74834,9.17352,410.9439],[-6.74741,9.18719,387.0731],[-6.73594,9.24406,435.3038],[-6.73491,9.26042,401.8089],[-6.73692,9.2706,398.5726],[-6.7409,9.27362,398.4285],[-6.74752,9.2816,402.8327],[-6.7502,9.28556,410.9644],[-6.75382,9.28889,426.3906],[-6.76819,9.31481,488.9358],[-6.78002,9.3561,497.7711],[-6.78359,9.37485,522.3192],[-6.784,9.38759,540.1574],[-6.77532,9.40069,464.0056],[-6.77382,9.40909,506.1998],[-6.77573,9.41653,563.3607],[-6.78007,9.42793,607.3787],[-6.78126,9.43446,480.9642],[-6.781,9.43849,500.1125],[-6.77868,9.44206,506.8653],[-6.77552,9.44501,578.7141],[-6.77284,9.44919,644.4246],[-6.77082,9.45446,448.9843],[-6.7685,9.46643,414.8661],[-6.76669,9.47185,509.3613],[-6.76354,9.47565,441.7704],[-6.75914,9.47813,484.8377],[-6.75423,9.48007,508.1389],[-6.74948,9.48425,477.5189],[-6.74545,9.49079,507.9863],[-6.74147,9.50397,541.06],[-6.74085,9.51234,415.806],[-6.74214,9.51885,397.3978],[-6.74483,9.52159,395.4474],[-6.75077,9.52539,398.7479],[-6.76452,9.53678,395.5701],[-6.77325,9.54872,406.7648],[-6.7795,9.55471,409.8465],[-6.79774,9.56533,407.6566],[-6.78591,9.61414,427.1491],[-6.77971,9.63135,416.4082],[-6.77697,9.63564,412.3806],[-6.76178,9.6544,428.5151],[-6.75981,9.66249,416.2812],[-6.75837,9.67411,419.2681],[-6.75511,9.68109,404.2774],[-6.75046,9.68654,398.7142],[-6.74379,9.69204,391.8094],[-6.74286,9.69685,402.1763],[-6.74436,9.70104,390.0689],[-6.74741,9.70592,405.4045],[-6.74989,9.7115,402.3494],[-6.75041,9.72129,417.3293],[-6.74721,9.72811,414.202],[-6.74193,9.73664,426.7539],[-6.74007,9.74333,418.6101],[-6.74028,9.74915,413.711],[-6.74286,9.75349,416.8091],[-6.747,9.75682,414.9397],[-6.75661,9.76287,422.4001],[-6.76054,9.7686,448.5782],[-6.75971,9.77785,472.8516],[-6.75485,9.79367,457.6053],[-6.75196,9.81299,459.1832],[-6.74834,9.82299,444.5394],[-6.74421,9.82968,465.1987],[-6.73945,9.8348,472.1416],[-6.73356,9.84426,476.4411],[-6.7332,9.85046,473.9132],[-6.73449,9.85568,515.2626],[-6.74018,9.86351,425.0372],[-6.74271,9.86793,434.2965],[-6.74886,9.89283,434.2338],[-6.75134,9.89911,519.3371],[-6.75449,9.90392,482.9209],[-6.75816,9.90694,485.6487],[-6.76214,9.90958,481.7737],[-6.76643,9.91392,465.2361],[-6.77067,9.92014,467.774],[-6.77842,9.93914,455.9559],[-6.78188,9.94459,503.6755],[-6.78591,9.94784,584.8058],[-6.79082,9.95025,621.5563],[-6.79671,9.95149,569.0436],[-6.80276,9.95187,452.0197],[-6.92983,9.94784,402.7517],[-6.93613,9.94908,401.5016],[-6.94213,9.9511,391.0652],[-6.94709,9.95552,387.8502],[-6.9475,9.96025,383.7499],[-6.94595,9.96497,383.8322],[-6.92864,9.99104,391.9186],[-6.92089,10.00006,386.9225],[-6.89965,10.01952,385.4236],[-6.89733,10.02512,377.4292],[-6.89459,10.03373,378.015],[-6.89469,10.04164,371.3416],[-6.89267,10.05445,367.8723],[-6.88849,10.06406,355.8626],[-6.88001,10.07716,378.8174],[-6.87676,10.08541,362.14],[-6.87619,10.09323,380.5991],[-6.87712,10.09812,372.5423],[-6.88492,10.10729,343.978],[-6.87319,10.1221,342.8923],[-6.85531,10.13093,343.0663],[-6.82829,10.13535,344.4376],[-6.8149,10.13427,343.4031],[-6.77749,10.14096,342.9557],[-6.76715,10.12225,385.5614],[-6.75542,10.11179,378.6052],[-6.74452,10.10602,366.7146],[-6.73651,10.10339,367.7882],[-6.72896,10.10215,368.0378],[-6.72281,10.10238,355.1005],[-6.71165,10.10424,358.5899],[-6.67186,10.1169,354.9855],[-6.59042,10.16072,354.7629],[-6.5867,10.16377,360.4879],[-6.58349,10.16718,369.9806],[-6.58287,10.1723,382.4066],[-6.58556,10.18943,386.0689],[-6.58504,10.20186,355.5478],[-6.5805,10.22359,343.5509],[-6.58184,10.22979,336.2026],[-6.61326,10.23901,335.5396],[-6.61931,10.24366,338.1695],[-6.62783,10.25206,335.5659],[-6.63016,10.25873,333.1905],[-6.63114,10.26508,334.5236],[-6.63062,10.27121,333.0724],[-6.62794,10.28402,333.4554],[-6.62819,10.29185,332.7419],[-6.63223,10.30808,338.2128],[-6.6391,10.31847,329.0012],[-6.6562,10.35415,330.9181],[-6.66827,10.36584,343.6928],[-6.66892,10.36102,345.5932],[-6.67739,10.34903,333.5018],[-6.70034,10.34167,340.204],[-6.72256,10.34405,345.6055],[-6.76023,10.36611,366.114],[-6.78209,10.37304,371.4202],[-6.8039,10.37087,384.1268],[-6.86275,10.34384,340.4085],[-6.88203,10.34126,355.3533],[-6.93872,10.34834,365.002],[-6.96125,10.34487,361.8647],[-6.97314,10.33229,368.9904],[-6.99711,10.25276,368.9943],[-6.99489,10.2394,405.8555],[-6.9843,10.23038,397.2758],[-6.97117,10.22206,498.9185],[-6.96161,10.21103,410.3622],[-6.95939,10.1855,420.248],[-6.97164,10.16442,453.0884],[-6.99241,10.1491,446.5142],[-7.01577,10.14088,425.7468],[-7.04052,10.14005,395.0171],[-7.05825,10.15597,527.4088],[-7.07313,10.17853,451.07619999999997],[-7.08946,10.19757,418.8039],[-7.10636,10.20726,392.2203],[-7.20475,10.23449,410.0969],[-7.28402,10.24656,402.768],[-7.34696,10.2479,383.5107],[-7.3634,10.25219,383.4329],[-7.37182,10.26452,376.7838],[-7.3727,10.2886,405.2795],[-7.36634,10.32945,382.6446],[-7.37234,10.34477,372.8217],[-7.39502,10.34622,369.2385],[-7.4222,10.33609,360.8518],[-7.4314,10.33374,364.9588]]]}
,"properties": {"ISO3166-1-Alpha-3": "CIV","country": "Ivory Coast","fill": "#FF0","name": "Denguélé","area_km2": 21374.0,"hist_schema_id": "Elevation0-9000","hist_area_km2": {"275": 0.23,"300": 34.04,"325": 252.43,"350": 1120.14,"375": 2567.22,"400": 4631.82,"425": 5472.96,"450": 3642.64,"475": 1658.03,"500": 856.28,"525": 466.66,"550": 293.89,"575": 190.48,"600": 98.27,"625": 42.26,"650": 21.79,"675": 11.69,"700": 5.63,"725": 3.24,"750": 1.8,"775": 1.57,"800": 0.46,"825": 0.36}}}