{"type":"Feature","properties":{"GID_1":"CIV.4_1","GID_0":"CIV","country":"Côted'Ivoire","province":"Denguélé","VARNAME_1":"NA","NL_NAME_1":"NA","TYPE_1":"District","ENGTYPE_1":"District","CC_1":"NA","HASC_1":"CI.DE","ISO_1":"NA","name":"Denguélé.province"},
"geometry":{"type": "MultiPolygon","coordinates": [[[[-7.1264,9.0253,338.4182],[-7.119,9.0376,344.7849],[-7.1111,9.0469,346.4609],[-7.1021,9.047,343.8696],[-7.0672,9.0284,355.5766],[-7.0556,9.0122,358.6051],[-7.0509,9.0034,363.0297],[-7.0472,8.9873,363.2383],[-7.0379,8.9744,384.2553],[-7.0264,8.9708,388.2165],[-7.0202,8.9653,402.6727],[-6.9932,8.9705,421.0206],[-6.9866,8.9702,424.4679],[-6.9756,8.9667,419.1484],[-6.9724,8.9631,405.6958],[-6.9671,8.9617,405.8719],[-6.9547,8.9645,401.3619],[-6.9451,8.9702,397.7095],[-6.9266,8.9525,391.5539],[-6.9204,8.9418,386.1968],[-6.9146,8.9375,389.885],[-6.9058,8.9344,376.9254],[-6.9085,8.9739,378.0235],[-6.9109,8.984,378.5277],[-6.9102,9.0004,379.834],[-6.908,9.008,378.8347],[-6.9107,9.0141,379.7144],[-6.9075,9.0337,392.9644],[-6.9049,9.0381,390.2731],[-6.9037,9.0468,384.4724],[-6.9011,9.052,382.9323],[-6.897,9.0524,390.4694],[-6.8873,9.0492,406.6601],[-6.8613,9.068,420.9294],[-6.848,9.0647,386.7771],[-6.8416,9.0652,604.0079],[-6.8329,9.072,598.1808],[-6.7816,9.0965,423.1714],[-6.7767,9.1008,457.8429],[-6.7681,9.1292,463.1479],[-6.7542,9.2766,408.1909],[-6.7629,9.2816,442.1772],[-6.7658,9.2849,428.2289],[-6.7854,9.2822,431.9407],[-6.7952,9.2873,423.9163],[-6.7977,9.292,431.0015],[-6.7937,9.3011,431.3394],[-6.7924,9.3194,454.9642],[-6.7884,9.3252,446.5115],[-6.8177,9.3495,520.9431],[-6.8176,9.3514,480.7194],[-6.8086,9.3567,483.7057],[-6.7999,9.3692,566.5518],[-6.789,9.4429,560.2645],[-6.7913,9.4955,426.8014],[-6.752,9.5253,398.7479],[-6.7753,9.5435,411.1984],[-6.777,9.5472,398.3062],[-6.7759,9.554,400.0539],[-6.7773,9.5565,405.4103],[-6.781,9.5544,409.8465],[-6.7898,9.5555,408.1994],[-6.7926,9.5615,409.6536],[-6.7984,9.5655,407.1424],[-6.7958,9.5721,420.3369],[-6.7919,9.5749,420.8337],[-6.79,9.5791,418.317],[-6.79,9.585,423.507],[-6.7746,9.5968,439.2794],[-6.7779,9.5996,431.313],[-6.781,9.6138,423.4002],[-6.7773,9.6208,417.7587],[-6.7757,9.6374,409.2301],[-6.7779,9.6431,409.7511],[-6.7776,9.6483,407.7954],[-6.7671,9.6558,408.2915],[-6.7639,9.6604,402.8294],[-6.7623,9.6646,405.073],[-6.7653,9.6731,405.7983],[-6.7635,9.6828,399.1033],[-6.7596,9.6883,395.6918],[-6.7462,9.6945,399.8627],[-6.7458,9.6983,393.3391],[-6.7501,9.7019,390.5535],[-6.7598,9.706,393.1519],[-6.7497,9.7319,401.9487],[-6.7493,9.7378,406.216],[-6.7436,9.7438,408.8979],[-6.7416,9.7489,413.711],[-6.745,9.7533,413.4869],[-6.7695,9.7702,433.3018],[-6.76,9.8103,459.475],[-6.7544,9.8645,457.6454],[-6.772,9.8993,441.2008],[-6.7821,9.9081,423.6521],[-6.7874,9.912,420.7975],[-6.7942,9.9128,410.7404],[-6.8182,9.9305,390.7104],[-6.8454,9.9457,377.2294],[-6.8638,9.959,371.2425],[-6.8779,9.9618,368.7479],[-6.8784,9.9537,366.6054],[-6.8892,9.9538,392.194],[-6.9491,9.9656,393.7523],[-6.9591,9.9693,374.3344],[-6.9591,9.9723,369.072],[-6.9504,9.9938,358.1483],[-6.9454,9.9959,363.3192],[-6.9311,10.0195,358.1339],[-6.9246,10.0268,354.333],[-6.9237,10.0348,353.9111],[-6.928,10.0465,360.5056],[-6.9238,10.0645,358.763],[-6.9162,10.0712,362.964],[-6.91,10.0735,351.4639],[-6.8949,10.1009,353.6426],[-6.8886,10.1062,344.8489],[-6.8832,10.1073,344.4398],[-6.879,10.1105,347.9231],[-6.8718,10.125,343.0318],[-6.8637,10.1235,342.0356],[-6.8583,10.1288,346.9597],[-6.8468,10.1331,341.7497],[-6.8281,10.1343,344.4376],[-6.8281,10.1405,348.7569],[-6.8263,10.1426,352.7672],[-6.8171,10.1399,347.2456],[-6.81,10.1336,343.5273],[-6.8067,10.138,340.5616],[-6.8025,10.1405,346.0825],[-6.7894,10.1353,342.7726],[-6.7796,10.1348,344.1719],[-6.7648,10.12,393.0574],[-6.7551,10.1046,396.8221],[-6.7453,10.1002,361.8162],[-6.706,10.1035,370.3242],[-6.6608,10.129,377.3033],[-6.645,10.1334,372.4468],[-6.5977,10.1527,360.676],[-6.5807,10.1646,365.3371],[-6.5784,10.1682,371.3735],[-6.5785,10.1727,380.5766],[-6.5842,10.1804,366.7487],[-6.5882,10.19,372.0077],[-6.584,10.2252,348.3939],[-6.5891,10.2321,342.2203],[-6.599,10.2394,337.7054],[-6.6106,10.236,339.2756],[-6.6163,10.2381,338.0715],[-6.6265,10.2499,333.0783],[-6.6313,10.2592,339.8987],[-6.6328,10.272,339.6834],[-6.6277,10.2779,332.2157],[-6.6329,10.2887,333.8546],[-6.6324,10.3123,331.9094],[-6.6382,10.3157,329.3089],[-6.6393,10.3287,330.6379],[-6.6466,10.336,329.7797],[-6.647,10.3434,331.7169],[-6.65,10.3515,330.0367],[-6.6648,10.3819,344.356],[-6.6722,10.3651,344.5659],[-6.6781,10.3606,356.7316],[-6.6905,10.3565,374.289],[-6.6993,10.3564,366.0107],[-6.7092,10.3595,361.1367],[-6.7227,10.3745,356.3329],[-6.764,10.3915,370.9698],[-6.7647,10.3901,378.0917],[-6.7743,10.3894,380.2263],[-6.7974,10.3824,403.9001],[-6.8393,10.3755,349.2967],[-6.8544,10.3624,358.7726],[-6.8653,10.3623,362.0503],[-6.8989,10.3698,362.8191],[-6.9108,10.3693,359.7693],[-6.9341,10.3646,347.6314],[-6.9475,10.3696,373.6947],[-6.9524,10.3665,364.5204],[-6.9666,10.3486,363.0161],[-6.9777,10.3384,382.6371],[-6.9953,10.3106,389.7356],[-6.9971,10.303,379.5552],[-6.995,10.2878,362.5972],[-6.9895,10.2818,362.9403],[-6.9871,10.2728,383.9408],[-6.9784,10.2625,428.3055],[-6.971,10.2504,409.5415],[-6.9668,10.2363,420.145],[-6.966,10.211,398.7929],[-6.9696,10.2012,407.9704],[-6.9743,10.198,415.009],[-6.9757999999999996,10.1951,421.2121],[-7.0161,10.169,395.2802],[-7.0302,10.1614,392.7847],[-7.0402,10.1595,396.6465],[-7.0473,10.1619,412.4425],[-7.0635,10.1801,453.3381],[-7.0699,10.1903,425.1219],[-7.0825,10.2179,409.0609],[-7.0896,10.2249,410.4739],[-7.1187,10.2302,383.8201],[-7.1367,10.2415,409.7047],[-7.1539,10.2406,389.6495],[-7.1615,10.2423,402.9327],[-7.1688,10.253,402.1939],[-7.1785,10.2573,417.696],[-7.2015,10.2551,415.3427],[-7.2168,10.2574,433.5688],[-7.2265,10.2599,413.9798],[-7.2334,10.265,405.5344],[-7.2445,10.2686,413.8565],[-7.2596,10.2693,404.0235],[-7.2815,10.264099999999999,391.0551],[-7.2854,10.2665,400.1757],[-7.294,10.2868,409.3798],[-7.296,10.2885,405.1257],[-7.3187,10.2812,399.3074],[-7.333,10.269,384.1585],[-7.3451,10.2706,403.3082],[-7.357,10.2763,388.4194],[-7.3789,10.2745,392.625],[-7.3844,10.2826,402.0003],[-7.3708,10.3066,396.1838],[-7.3634,10.338,382.8146],[-7.3651,10.3624,399.0229],[-7.3738,10.3683,387.4195],[-7.3847,10.3716,373.7519],[-7.3926,10.3759,391.0544],[-7.4021,10.3767,403.42],[-7.4196,10.3875,375.2378],[-7.4254,10.3895,367.3444],[-7.432,10.3976,379.2735],[-7.4374,10.4092,382.5949],[-7.449,10.4636,361.566],[-7.4582,10.4704,366.8173],[-7.4802,10.4749,364.9516],[-7.4862,10.4777,376.4358],[-7.5085,10.4794,366.908],[-7.5269,10.4721,395.0603],[-7.5335,10.4662,377.1551],[-7.5513,10.4444,389.2417],[-7.5585,10.4419,383.503],[-7.5652,10.4418,391.262],[-7.5841,10.4533,402.4478],[-7.5902,10.4536,395.5685],[-7.607,10.449,405.3586],[-7.6156,10.4491,417.0934],[-7.6202,10.4526,414.6734],[-7.6217,10.4738,391.0298],[-7.6318,10.4834,407.1684],[-7.6416,10.4881,414.4317],[-7.6465,10.4868,407.7223],[-7.6512,10.4797,400.014],[-7.6548,10.4678,385.4717],[-7.6641,10.4532,373.6138],[-7.6763,10.4414,368.1955],[-7.6864,10.4363,378.4304],[-7.7283,10.4258,347.6403],[-7.731,10.4198,353.2289],[-7.7359,10.4179,355.957],[-7.7434,10.4003,378.3322],[-7.7434,10.396,364.5764],[-7.7414,10.3937,351.2712],[-7.7323,10.3938,348.6256],[-7.7289,10.3889,358.1674],[-7.7285,10.3831,350.4606],[-7.7302,10.3788,349.5186],[-7.7393,10.3757,378.5743],[-7.7382,10.3722,354.5242],[-7.7297,10.3675,349.3479],[-7.7273,10.3555,357.2542],[-7.7285,10.3512,355.4776],[-7.7318,10.3471,354.9158],[-7.7374,10.3451,349.9474],[-7.7516,10.3448,351.6335],[-7.7567,10.3419,348.7003],[-7.7593,10.338,361.1165],[-7.7569,10.3269,358.678],[-7.7586,10.3224,352.7425],[-7.761,10.321,351.935],[-7.7714,10.3214,395.5461],[-7.7742,10.3187,385.7571],[-7.7757,10.3129,377.5358],[-7.7737,10.3088,358.1482],[-7.7588,10.3074,350.7896],[-7.7566,10.303,350.9853],[-7.7624,10.2992,352.5641],[-7.7648,10.2928,357.027],[-7.7773,10.2847,358.0157],[-7.7821,10.2834,358.9781],[-7.7864,10.2795,358.6297],[-7.7917,10.2777,365.0902],[-7.7974,10.2695,380.2808],[-7.8009,10.2675,382.1039],[-7.8101,10.243,368.1877],[-7.816,10.2364,360.1608],[-7.8267,10.2334,374.4333],[-7.8398,10.2234,370.3388],[-7.8559,10.2048,374.6248],[-7.8873,10.1999,369.3658],[-7.895,10.197,373.9221],[-7.9113,10.1804,391.3656],[-7.9265,10.171,401.0418],[-7.9372,10.1676,403.7858],[-7.9483,10.1678,436.7027],[-7.9663,10.1756,440.8754],[-7.9805,10.1746,410.2839],[-7.986,10.1641,430.193],[-7.9882,10.1559,449.1132],[-8.006,10.1223,433.9379],[-8.0165,10.0971,479.6848],[-8.0245,10.0887,457.4449],[-8.0451,10.0733,458.6827],[-8.0792,10.0588,442.5856],[-8.0989,10.053,426.2691],[-8.1067,10.0469,429.37],[-8.1314,10.0139,388.4205],[-8.131,10.0097,384.3849],[-8.135,10.0077,385.1357],[-8.1373,9.9922,385.4168],[-8.1506,9.9834,414.8762],[-8.1518,9.9797,425.5799],[-8.1503,9.9749,425.7544],[-8.1436,9.97,389.3829],[-8.1385,9.9685,403.7867],[-8.1273,9.9764,386.7631],[-8.1215,9.9761,388.537],[-8.1174,9.971,388.1008],[-8.1178,9.9577,386.2221],[-8.1206,9.9543,390.2794],[-8.1236,9.9536,397.9564],[-8.1301,9.9565,386.4747],[-8.1483,9.9488,386.335],[-8.164,9.9511,396.6059],[-8.1668,9.9473,419.5343],[-8.1659,9.9447,414.6633],[-8.153,9.939,388.0504],[-8.1524,9.9372,387.1262],[-8.1631,9.9314,392.9796],[-8.1655,9.9268,402.8344],[-8.1608,9.9122,417.8721],[-8.1564,9.909,397.5182],[-8.1529,9.9092,391.5624],[-8.1422,9.9168,394.2694],[-8.1334,9.9174,396.2198],[-8.1322,9.914,392.3229],[-8.1351,9.9096,391.284],[-8.1279,9.9061,388.4577],[-8.1245,9.901,388.1739],[-8.1248,9.8971,389.6327],[-8.1287,9.8824,388.9476],[-8.1308,9.8811,389.0743],[-8.134,9.8823,389.5804],[-8.1386,9.8869,391.1075],[-8.1407,9.8856,407.9418],[-8.1441,9.8739,415.6574],[-8.1434,9.8697,417.3147],[-8.1379,9.866,388.6896],[-8.1303,9.8657,389.8226],[-8.1231,9.8685,389.4139],[-8.1175,9.8689,390.2964],[-8.1133,9.8673,393.3812],[-8.1094,9.8633,396.5084],[-8.1077,9.8557,408.2587],[-8.1094,9.8493,413.6205],[-8.1087,9.8456,409.0315],[-8.113,9.8388,400.5374],[-8.1068,9.833,396.3274],[-8.1015,9.8326,395.308],[-8.1051,9.8223,395.718],[-8.1045,9.8134,395.4648],[-8.1062,9.8079,391.4942],[-8.1161,9.8117,394.1223],[-8.1187,9.8069,390.4207],[-8.1181,9.8039,390.13],[-8.1093,9.7978,395.5009],[-8.1096,9.7953,396.3233],[-8.1205,9.791,410.6067],[-8.1207,9.7791,415.6393],[-8.1135,9.7647,402.4301],[-8.1153,9.7629,402.0285],[-8.1279,9.7615,414.6578],[-8.1298,9.7583,411.0027],[-8.1236,9.7531,399.515],[-8.1295,9.7415,422.7607],[-8.1242,9.7354,405.4539],[-8.1271,9.7295,416.6802],[-8.1232,9.7085,402.2257],[-8.1251,9.7023,396.9446],[-8.1316,9.702,420.2222],[-8.1364,9.6905,412.737],[-8.1332,9.6861,429.6535],[-8.1333,9.6797,425.563],[-8.1294,9.6711,405.2156],[-8.1306,9.6688,405.9142],[-8.1353,9.6684,419.8907],[-8.1367,9.6666,415.1629],[-8.13,9.6638,404.9432],[-8.1277,9.6594,405.6908],[-8.1278,9.6548,402.4313],[-8.1328,9.647,408.1454],[-8.1336,9.6367,412.8911],[-8.1422,9.6315,421.2583],[-8.1462,9.6256,417.2787],[-8.1518,9.6254,436.6776],[-8.1523,9.6231,429.6718],[-8.1436,9.6129,408.733],[-8.1476,9.6081,408.2425],[-8.1529,9.5891,412.9141],[-8.1463,9.5831,401.5799],[-8.1443,9.5736,417.5243],[-8.1465,9.5695,416.6793],[-8.1499,9.5686,422.2919],[-8.1518,9.5661,415.9398],[-8.1507,9.5603,423.4445],[-8.1519,9.5562,430.9272],[-8.1475,9.5426,404.3581],[-8.1499,9.5367,420.7325],[-8.1492,9.5321,410.5251],[-8.1425,9.5311,404.6193],[-8.1329,9.525,410.0515],[-8.1359,9.5213,411.3338],[-8.1376,9.5149,421.9122],[-8.1333,9.5066,440.0905],[-8.1341,9.5038,438.6293],[-8.1286,9.4953,419.447],[-8.124,9.4915,430.2838],[-8.1232,9.4858,441.6184],[-8.1161,9.4783,425.8472],[-8.1152,9.4719,424.6364],[-8.1116,9.4658,431.0856],[-8.1084,9.4644,424.467],[-8.1066,9.4582,428.9945],[-8.1016,9.4556,426.3326],[-8.0989,9.4471,436.4373],[-8.0836,9.4296,444.9381],[-8.0811,9.4243,443.5764],[-8.0735,9.4199,424.9377],[-8.0603,9.4018,451.5899],[-8.047,9.4002,437.6095],[-8.0113,9.4016,448.4702],[-7.9993,9.398,450.5392],[-7.9876,9.3969,473.358],[-7.9832,9.3944,480.9817],[-7.9681,9.396,469.9982],[-7.9425,9.406,468.8441],[-7.9157,9.4195,444.4268],[-7.8917,9.4169,444.045],[-7.887,9.4242,456.373],[-7.8831,9.4356,457.1314],[-7.8722,9.4362,454.3308],[-7.8653,9.4333,433.2128],[-7.8579,9.433,427.9721],[-7.85,9.4377,421.7971],[-7.8489,9.4289,421.3474],[-7.8503,9.4255,420.5213],[-7.8554,9.4265,422.1092],[-7.8555,9.4173,422.2592],[-7.8577,9.4127,428.3326],[-7.8561,9.4099,423.8858],[-7.8626,9.3925,427.963],[-7.8665,9.3754,425.2202],[-7.8756,9.3665,427.7081],[-7.8828,9.3505,433.8317],[-7.8875,9.346,431.9106],[-7.8885,9.3423,434.0733],[-7.8864,9.3365,430.5118],[-7.8865,9.3124,447.9267],[-7.8848,9.3041,452.0143],[-7.8874,9.2906,439.8508],[-7.8914,9.2805,441.8431],[-7.8953,9.2776,448.9814],[-7.9008,9.2636,437.6334],[-7.9065,9.2573,456.3064],[-7.9155,9.2356,456.0571],[-7.9257,9.2173,454.4544],[-7.926,9.2129,443.0654],[-7.9199,9.1869,470.9273],[-7.9149,9.179,470.5542],[-7.9078,9.1729,458.9527],[-7.8819,9.1577,462.5944],[-7.8702,9.1675,474.5411],[-7.853,9.1778,463.3786],[-7.84,9.1786,490.717],[-7.8331,9.1748,484.09],[-7.8321,9.1688,480.196],[-7.8392,9.1531,486.6954],[-7.8378,9.1505,485.365],[-7.8272,9.149,488.3634],[-7.8121,9.1405,470.2414],[-7.812,9.1292,476.0021],[-7.8081,9.125,465.6547],[-7.8014,9.1226,461.6039],[-7.788,9.1061,443.9877],[-7.7776,9.1023,450.1472],[-7.7705,9.0971,441.7209],[-7.7615,9.0965,437.399],[-7.7552,9.0889,460.7152],[-7.7416,9.0838,427.9995],[-7.7365,9.0781,454.6725],[-7.7373,9.0752,459.7082],[-7.7396,9.0742,464.9973],[-7.7056,9.0636,433.7262],[-7.6915,9.0529,433.3206],[-7.6846,9.0416,415.0625],[-7.6851,9.029,428.1732],[-7.6819,9.0125,419.4498],[-7.6787,9.0059,421.9043],[-7.6784,8.9978,413.4644],[-7.6808,8.9827,416.7179],[-7.6777,8.9672,412.6162],[-7.6753,8.9633,415.1786],[-7.6527,8.9564,410.095],[-7.6451,8.9615,412.0161],[-7.6415,8.9619,418.8891],[-7.6378,8.9517,416.4586],[-7.6209,8.9483,414.2628],[-7.6179,8.9455,419.1237],[-7.6017,8.9407,402.7498],[-7.5838,8.9261,407.969],[-7.573,8.9265,393.9298],[-7.5695,8.911,387.6221],[-7.5604,8.9056,395.0096],[-7.5603,8.903,392.817],[-7.5654,8.8976,394.2524],[-7.545,8.8781,388.6516],[-7.5471,8.872,385.236],[-7.5463,8.8697,389.6692],[-7.5495,8.8664,396.5151],[-7.5478,8.8594,391.6904],[-7.5405,8.8522,377.9428],[-7.5388,8.8454,393.619],[-7.5267,8.8411,380.178],[-7.5141,8.834,374.9887],[-7.5103,8.8352,384.937],[-7.4996,8.828,383.3331],[-7.4923,8.8193,383.526],[-7.4772,8.8078,373.2631],[-7.4634,8.7882,380.3035],[-7.456,8.7816,373.7714],[-7.4531,8.7769,379.2209],[-7.4353,8.7643,378.0533],[-7.4329,8.7644,380.7089],[-7.4261,8.7562,373.1822],[-7.4185,8.7602,378.9327],[-7.4132999999999996,8.76,369.188],[-7.4057,8.7559,366.4001],[-7.4119,8.7503,361.9574],[-7.4122,8.7463,360.4919],[-7.4102,8.7419,363.5403],[-7.4058,8.7378,363.142],[-7.3976,8.7412,363.1167],[-7.3952,8.7391,359.3751],[-7.3937,8.7314,361.7836],[-7.3908,8.7311,363.2644],[-7.3908,8.7268,370.2387],[-7.3833,8.7203,354.8373],[-7.3835,8.7171,354.4181],[-7.3792,8.7145,354.9877],[-7.3768,8.7094,353.3986],[-7.3794,8.7072,352.6408],[-7.3774,8.6921,344.7048],[-7.3737,8.6828,348.2962],[-7.365,8.6792,344.7627],[-7.3531,8.6829,335.9198],[-7.3516,8.6792,339.4743],[-7.3414,8.6744,344.0461],[-7.3299,8.6791,348.1331],[-7.3163,8.6754,328.1713],[-7.3092,8.6778,341.2997],[-7.2901,8.6689,328.3861],[-7.2836,8.6678,319.5862],[-7.2748,8.6608,334.3734],[-7.2645,8.6483,317.0768],[-7.2592,8.6469,315.8758],[-7.2524,8.6392,321.9556],[-7.2512,8.6341,318.2896],[-7.2477,8.6296,314.401],[-7.2403,8.624,315.6248],[-7.2372,8.6146,320.1326],[-7.2332,8.6097,323.6145],[-7.2324,8.6063,319.692],[-7.2356,8.6016,325.9628],[-7.2364,8.5921,312.7573],[-7.2302,8.5825,321.8777],[-7.2289,8.5773,313.8089],[-7.2189,8.5657,320.6023],[-7.2196,8.5602,296.344],[-7.2251,8.5522,306.8262],[-7.2247,8.5491,296.8029],[-7.2157,8.5453,308.7831],[-7.2139,8.5414,303.9624],[-7.2134,8.5286,306.3009],[-7.2077,8.5195,303.7767],[-7.2024,8.5143,293.1964],[-7.1828,8.5086,286.2668],[-7.1791,8.51,286.1544],[-7.1852,8.5205,289.3452],[-7.1775,8.5265,302.4099],[-7.1783,8.5309,303.106],[-7.1862,8.5362,298.8087],[-7.1801,8.5432,303.1403],[-7.1882,8.5506,290.3475],[-7.1981,8.5687,289.9016],[-7.2008,8.5765,296.6942],[-7.1934,8.5912,302.1958],[-7.1941,8.5958,291.1998],[-7.1981,8.5994,297.1389],[-7.1965,8.6044,314.2172],[-7.1981,8.618,310.8092],[-7.2027,8.6266,295.9012],[-7.2062,8.6291,296.7303],[-7.2092,8.6288,301.0602],[-7.2124,8.6262,296.434],[-7.2129,8.6293,300.4739],[-7.2029,8.6462,298.1062],[-7.2034,8.653,311.0592],[-7.2102,8.6577,299.5111],[-7.2027,8.6746,315.2821],[-7.2033,8.6783,305.8985],[-7.208,8.6841,300.088],[-7.2071,8.6877,300.6385],[-7.2012,8.6941,310.4725],[-7.1942,8.7113,312.2571],[-7.1997,8.7198,302.9744],[-7.1993,8.7332,305.5227],[-7.1927,8.7345,315.6548],[-7.1922,8.7375,303.0831],[-7.1883,8.7382,300.6214],[-7.1879,8.7409,302.6458],[-7.1977,8.7551,301.0806],[-7.1955,8.7628,305.4102],[-7.1911,8.7691,300.7921],[-7.1869,8.7709,305.1999],[-7.1797,8.7791,311.8845],[-7.1825,8.7819,308.6556],[-7.1896,8.7827,304.5926],[-7.1974,8.7898,305.535],[-7.1968,8.7945,306.0309],[-7.1881,8.8022,312.858],[-7.1888,8.8052,315.0756],[-7.1919,8.8063,307.6511],[-7.1977,8.8191,305.2323],[-7.2048,8.8227,304.5609],[-7.2039,8.8246,305.6321],[-7.1963,8.8274,311.9249],[-7.1918,8.832,316.3448],[-7.19,8.8372,314.8473],[-7.1909,8.8417,313.7898],[-7.1941,8.8434,315.7997],[-7.2038,8.8424,307.726],[-7.2055,8.8547,312.4062],[-7.2035,8.8635,315.2603],[-7.2053,8.8667,315.8931],[-7.21,8.8669,306.9239],[-7.2163,8.8704,308.8852],[-7.2179,8.8745,311.2695],[-7.2171,8.8781,309.6696],[-7.2138,8.8733,312.9392],[-7.21,8.8736,315.9177],[-7.2079,8.8766,325.0497],[-7.208,8.8852,320.3318],[-7.2119,8.8882,316.5015],[-7.2124,8.8935,310.6514],[-7.207,8.9136,318.5521],[-7.2085,8.918,333.2943],[-7.2196,8.9227,313.0218],[-7.2229,8.9292,324.8525],[-7.2236,8.9363,317.1245],[-7.2209,8.9474,323.7748],[-7.2171,8.9498,330.2109],[-7.2042,8.9497,339.8024],[-7.1765,8.9461,357.489],[-7.1732,8.9491,366.524],[-7.1667,8.9881,340.3404],[-7.1511,8.9972,329.2197],[-7.1469,8.995,343.5266],[-7.1422,8.9956,342.585],[-7.1448,8.9994,332.7103],[-7.1417,9.008,347.9633],[-7.1264,9.0253,338.4182]]]]}}