{"type":"Feature","properties":{"GID_3":"CIV.12.3.2_1","GID_0":"CIV","country":"Côted'Ivoire","GID_1":"CIV.12_1","province":"Woroba","NL_NAME_1":"NA","GID_2":"CIV.12.3_1","county":"Worodougou","NL_NAME_2":"NA","city":"Séguéla","VARNAME_3":"NA","NL_NAME_3":"NA","TYPE_3":"Département","ENGTYPE_3":"Department","CC_3":"NA","HASC_3":"NA","name":"Séguéla.city"},
"geometry":{"type": "MultiPolygon","coordinates": [[[[-6.2961,7.7935,260.4827],[-6.2866,7.7905,265.2341],[-6.2732,7.7766,249.3071],[-6.2657,7.7834,235.8626],[-6.2622,7.7903,235.5027],[-6.2551,7.7985,233.3591],[-6.2585,7.8136,237.6881],[-6.2578,7.8179,239.502],[-6.2522,7.8258,234.6055],[-6.2534,7.8355,235.6507],[-6.2576,7.8455,232.9219],[-6.2573,7.8494,236.6786],[-6.252,7.86,236.1085],[-6.2537,7.867,237.3202],[-6.2512,7.8745,236.2511],[-6.2533,7.8816,236.2851],[-6.2483,7.8861,236.2036],[-6.2456,7.8942,241.7189],[-6.2491,7.9076,239.7571],[-6.2556,7.9152,240.7386],[-6.2575,7.9335,240.2273],[-6.2538,7.9428,239.0508],[-6.2557,7.9499,241.9031],[-6.2457,7.9624,243.6915],[-6.2414,7.9725,243.1518],[-6.2413,7.9761,243.706],[-6.2423,7.9806,245.0963],[-6.253,7.9889,246.1568],[-6.2646,8.0066,246.2612],[-6.2687,8.0101,251.0499],[-6.2716,8.0107,249.3417],[-6.2789,8.0064,246.8842],[-6.2818,8.0067,247.6382],[-6.2923,8.0251,250.4107],[-6.2971,8.0428,254.8647],[-6.2943,8.0513,270.8952],[-6.2943,8.0563,259.3962],[-6.2977,8.0655,253.0224],[-6.2967,8.0725,263.3636],[-6.3011,8.1033,258.1572],[-6.3044,8.1128,252.7731],[-6.3096,8.12,261.8275],[-6.3105,8.1426,255.0035],[-6.3206,8.1776,265.3414],[-6.3238,8.197,261.115],[-6.3363,8.2206,271.2054],[-6.3353,8.2237,268.6118],[-6.3481,8.2342,270.1745],[-6.3474,8.242,268.4653],[-6.3516,8.2568,267.8899],[-6.3496,8.2661,267.0157],[-6.355,8.2848,274.426],[-6.3541,8.2876,280.9798],[-6.3485,8.2911,267.9886],[-6.3482,8.2972,271.6231],[-6.3521,8.3107,275.5422],[-6.3534,8.3244,278.687],[-6.3518,8.3301,285.5876],[-6.3535,8.3342,275.561],[-6.3492,8.3463,273.2109],[-6.3496,8.3484,274.2264],[-6.3586,8.3561,268.7893],[-6.3482,8.3668,277.521],[-6.364,8.3702,278.4167],[-6.3664,8.3727,273.2761],[-6.3668,8.3772,269.8248],[-6.3584,8.3817,272.8771],[-6.3576,8.385,280.6596],[-6.3661,8.4038,282.1909],[-6.3698,8.4076,286.8897],[-6.3762,8.4071,285.9267],[-6.381,8.4143,291.4107],[-6.3797,8.4156,283.0305],[-6.3976,8.4209,279.5303],[-6.4073,8.4194,277.4421],[-6.4123,8.4157,281.467],[-6.4145,8.417,287.3685],[-6.4165,8.4252,281.1582],[-6.426,8.4214,287.3873],[-6.4322,8.4147,291.5347],[-6.4398,8.4144,290.5408],[-6.4464,8.4035,293.5037],[-6.4493,8.4018,298.7074],[-6.4774,8.321,317.6237],[-6.5663,8.3041,339.6776],[-6.5787,8.3071,356.0832],[-6.6691,8.3188,315.8354],[-6.6887,8.3243,344.5195],[-6.7103,8.3254,314.9306],[-6.7145,8.3279,316.8175],[-6.7223,8.329,328.477],[-6.7359,8.3475,320.6275],[-6.7362,8.3528,317.6559],[-6.7349,8.3542,326.4961],[-6.7278,8.3512,314.55],[-6.7239,8.3538,320.155],[-6.7267,8.3557,318.5711],[-6.7274,8.3617,325.9371],[-6.721,8.3616,319.9625],[-6.7263,8.3674,319.2521],[-6.7316,8.3796,317.2887],[-6.7336,8.3935,316.9933],[-6.7308,8.4043,330.5464],[-6.7396,8.4199,329.24],[-6.7356,8.4235,322.1797],[-6.7351,8.4328,324.6121],[-6.7419,8.4414,324.007],[-6.7421,8.4451,327.4028],[-6.737,8.4507,326.3908],[-6.7405,8.457,332.4667],[-6.7402,8.4601,332.6496],[-6.7533,8.4781,326.5408],[-6.7523,8.4975,333.749],[-6.7535,8.505,331.6811],[-6.7571,8.5099,333.1245],[-6.7568,8.5136,339.2595],[-6.7607,8.5166,345.7633],[-6.7584,8.5192,331.9839],[-6.7611,8.5225,336.5033],[-6.7635,8.54,335.4431],[-6.7679,8.5462,329.5691],[-6.7685,8.5544,332.3996],[-6.7698,8.5578,337.3146],[-6.7754,8.5621,330.7664],[-7.1981,8.5687,289.9016],[-7.1882,8.5506,290.3475],[-7.1801,8.5432,303.1403],[-7.1862,8.5362,298.8087],[-7.1783,8.5309,303.106],[-7.1775,8.5265,302.4099],[-7.1852,8.5205,289.3452],[-7.1739,8.5019,290.0028],[-7.164,8.4957,309.2258],[-7.1615,8.4685,296.7148],[-7.1703,8.4645,285.7455],[-7.1734,8.46,285.3963],[-7.1707,8.4521,284.2233],[-7.1608,8.4476,286.9954],[-7.158,8.4325,290.2209],[-7.16,8.4304,285.8733],[-7.1646,8.4297,283.4363],[-7.1645,8.4282,278.1524],[-7.158,8.4269,280.5872],[-7.1562,8.425,280.4848],[-7.1495,8.4065,288.7702],[-7.1496,8.4003,301.6556],[-7.1548,8.3916,280.6143],[-7.1534,8.3841,282.3536],[-7.1482,8.3779,279.7624],[-7.1344,8.3711,295.6653],[-7.1342,8.3649,293.1068],[-7.1462,8.3592,285.5081],[-7.1464,8.3491,287.6801],[-7.145,8.3464,287.5237],[-7.134,8.345,277.5316],[-7.126,8.3395,275.7023],[-7.1197,8.3376,275.4266],[-7.1034,8.3212,284.4016],[-7.1045,8.3097,279.4343],[-7.1213,8.305,287.3224],[-7.1342,8.3045,279.1053],[-7.1385,8.3019,276.8878],[-7.1378,8.2988,276.156],[-7.1209,8.286,294.594],[-7.118,8.2679,283.195],[-7.112,8.2555,292.57],[-7.1115,8.2504,284.9535],[-7.1172,8.2442,278.697],[-7.1339,8.2383,277.4799],[-7.1355,8.2367,275.5501],[-7.136,8.2326,274.097],[-7.1208,8.2197,272.3564],[-7.1039,8.1983,299.7708],[-7.1019,8.1941,285.2855],[-7.1015,8.1882,283.6946],[-7.0984,8.1843,280.6174],[-7.0924,8.1808,265.8434],[-7.0911,8.176,280.7815],[-7.0921,8.1714,270.6067],[-7.1035,8.1674,264.6746],[-7.1068,8.164,270.3745],[-7.1093,8.1504,264.5621],[-7.1069,8.144,265.0984],[-7.0897,8.1233,271.0327],[-7.0838,8.108,262.6331],[-7.0882,8.0983,263.2778],[-7.1077,8.0866,265.4016],[-7.1058,8.0785,259.3275],[-7.1018,8.0731,275.3429],[-7.0992,8.053,270.4016],[-7.0877,8.0452,266.8136],[-7.0852,8.0348,275.8339],[-7.0903,8.0256,261.111],[-7.0898,8.021,260.3286],[-7.0793,8.0111,268.0047],[-7.0701,8.0066,266.3783],[-7.0612,8.0,257.9727],[-7.0585,7.9947,263.7831],[-7.0605,7.9845,286.4349],[-7.0667,7.969,253.5152],[-7.0601,7.9506,269.8515],[-7.0638,7.9318,251.645],[-7.0683,7.9241,252.9553],[-7.0784,7.919,256.3274],[-7.0812,7.9143,253.7063],[-7.0868,7.9134,254.6801],[-7.0892,7.9112,252.2899],[-7.0922,7.9013,253.8522],[-7.0929,7.8867,252.6879],[-7.0967,7.8842,255.2751],[-7.1075,7.8816,256.4622],[-7.1123,7.8715,249.9491],[-7.1095,7.8644,252.4322],[-7.0956,7.8611,249.3756],[-7.0912,7.8628,246.6339],[-7.0816,7.8604,254.4339],[-7.0776,7.8577,256.3595],[-7.0742,7.8525,250.7924],[-7.0739,7.8191,249.0891],[-7.0782,7.8123,247.969],[-7.0787,7.8068,245.6362],[-7.0763,7.7966,248.059],[-7.0779,7.7901,245.761],[-7.0771,7.7638,242.6009],[-7.0727,7.7308,244.1232],[-7.0756,7.7232,243.8054],[-7.0723,7.7192,244.1485],[-7.0774,7.6886,234.6292],[-7.0697,7.6873,241.7364],[-7.05,7.6938,285.8951],[-7.0136,7.7993,310.7653],[-7.0021,7.7914,306.7065],[-6.983,7.8008,297.1052],[-6.9633,7.8064,301.103],[-6.9537,7.8017,292.7956],[-6.9441,7.8006,286.2707],[-6.9362,7.7954,277.6076],[-6.9244,7.7929,293.0822],[-6.8994,7.7919,280.3987],[-6.8743,7.7933,274.8144],[-6.8681,7.7892,284.7751],[-6.8599,7.7881,283.1317],[-6.8502,7.7976,293.8174],[-6.8326,7.7918,298.2537],[-6.8219,7.7907,320.5724],[-6.8111,7.7921,338.6992],[-6.795,7.7886,505.7348],[-6.7884,7.7827,359.3592],[-6.7729,7.7859,303.2175],[-6.7559,7.7829,288.1441],[-6.7465,7.7791,315.2705],[-6.7122,7.7711,285.001],[-6.6961,7.781,297.2488],[-6.687,7.7894,315.9659],[-6.6831,7.7961,318.0148],[-6.677,7.7977,318.895],[-6.6612,7.7962,331.7394],[-6.6446,7.7975,344.1277],[-6.6231,7.7892,325.3598],[-6.6207,7.7859,318.8276],[-6.617,7.7892,321.8625],[-6.6005,7.7917,344.747],[-6.5857,7.7894,339.4144],[-6.5787,7.7857,333.0057],[-6.5543,7.7849,302.1107],[-6.5468,7.7771,312.3069],[-6.5333,7.7731,298.0719],[-6.5297,7.7655,302.7593],[-6.5289,7.7574,292.5636],[-6.5255,7.7536,297.3756],[-6.5258,7.7488,291.1673],[-6.4903,7.7397,314.5229],[-6.4667,7.736,301.1874],[-6.4194,7.7712,321.2504],[-6.4117,7.7724,316.9583],[-6.4086,7.7785,317.5859],[-6.4026,7.7815,313.7332],[-6.3895,7.782,293.7907],[-6.3714,7.7789,297.5429],[-6.36,7.7761,297.7126],[-6.3552,7.7725,297.8795],[-6.3469,7.7826,300.5311],[-6.3347,7.7874,281.9685],[-6.3282,7.7933,277.3636],[-6.3172,7.7932,272.5485],[-6.3032,7.7895,267.1772],[-6.2961,7.7935,260.4827]]]]}}