{"type": "Feature","bbox": [-6.9591,9.5739,-6.2035,10.2417],"geometry": {"type": "MultiPolygon","coordinates": [[[[-6.9591,9.9723,369.072],[-6.9591,9.9693,374.3344],[-6.9491,9.9656,393.7523],[-6.8892,9.9538,392.194],[-6.8784,9.9537,366.6054],[-6.8779,9.9618,368.7479],[-6.8638,9.959,371.2425],[-6.8454,9.9457,377.2294],[-6.8182,9.9305,390.7104],[-6.7942,9.9128,410.7404],[-6.7874,9.912,420.7975],[-6.772,9.8993,441.2008],[-6.7683,9.8931,462.5622],[-6.7544,9.8645,457.6454],[-6.76,9.8103,459.475],[-6.7695,9.7702,433.3018],[-6.745,9.7533,413.4869],[-6.7416,9.7489,413.711],[-6.7436,9.7438,408.8979],[-6.7493,9.7378,406.216],[-6.7497,9.7319,401.9487],[-6.7598,9.706,393.1519],[-6.7501,9.7019,390.5535],[-6.7458,9.6983,393.3391],[-6.7462,9.6945,399.8627],[-6.7596,9.6883,395.6918],[-6.7635,9.6828,399.1033],[-6.7653,9.6731,405.7983],[-6.7623,9.6646,405.073],[-6.7671,9.6558,408.2915],[-6.7776,9.6483,407.7954],[-6.7779,9.6431,409.7511],[-6.7757,9.6374,409.2301],[-6.7216,9.6178,423.4662],[-6.6902,9.6182,398.9036],[-6.6782,9.6164,392.4863],[-6.6513,9.6185,384.3882],[-6.6265,9.6182,378.2664],[-6.6111,9.6229,389.0659],[-6.6065,9.6267,368.1722],[-6.5996,9.6263,368.8606],[-6.5947,9.6236,366.7576],[-6.5907,9.6188,364.0825],[-6.5763,9.6203,364.9121],[-6.5654,9.6146,365.5293],[-6.5627,9.6084,359.7523],[-6.5626,9.6005,358.3265],[-6.555,9.5946,357.1627],[-6.5521,9.5865,360.4865],[-6.5482,9.5845,357.3338],[-6.5483,9.5806,355.5761],[-6.5443,9.5776,354.5044],[-6.5345,9.5768,367.7169],[-6.5328,9.5871,355.6025],[-6.5302,9.5909,353.7572],[-6.5267,9.5924,354.2216],[-6.5234,9.59,354.9801],[-6.5224,9.5851,353.5623],[-6.5241,9.5812,353.9026],[-6.5238,9.5771,354.3666],[-6.521,9.574,355.0847],[-6.516,9.5739,352.6142],[-6.5107,9.5765,351.9091],[-6.5083,9.58,358.4153],[-6.5094,9.5912,352.0097],[-6.499,9.5981,353.6532],[-6.4963,9.603,352.5272],[-6.4921,9.6066,353.817],[-6.4813,9.6052,354.1974],[-6.4857,9.6158,358.7617],[-6.4826,9.6177,351.0174],[-6.4754,9.6168,352.63],[-6.4665,9.6096,357.6561],[-6.4664,9.6057,353.5753],[-6.4608,9.5979,350.2581],[-6.4553,9.5976,365.9486],[-6.4519,9.5953,359.9191],[-6.4512,9.5861,350.0126],[-6.448,9.5819,349.575],[-6.4425,9.5788,349.9937],[-6.4366,9.5798,356.1995],[-6.4268,9.5739,351.1099],[-6.4246,9.5771,351.5788],[-6.4179,9.5765,351.89],[-6.4154,9.5914,350.1921],[-6.4112,9.5955,354.4161],[-6.4036,9.5861,347.5655],[-6.396,9.5862,349.5746],[-6.3931,9.5957,350.3267],[-6.3905,9.5987,348.8971],[-6.3767,9.6081,348.3466],[-6.3725,9.6073,347.2802],[-6.3691,9.6166,346.3594],[-6.381,9.6237,359.1344],[-6.3649,9.6396,348.5419],[-6.3689,9.6422,345.7998],[-6.3727,9.6476,347.9457],[-6.3752,9.654,347.5363],[-6.373,9.6627,344.8508],[-6.3768,9.663,343.8667],[-6.3817,9.6801,347.3126],[-6.372,9.6839,344.5698],[-6.3641,9.6829,345.1418],[-6.36,9.6845,345.7776],[-6.3597,9.6949,343.5303],[-6.3702,9.6978,342.3787],[-6.374,9.7031,346.0749],[-6.3718,9.707,345.3874],[-6.3672,9.7084,342.5976],[-6.3632,9.7072,343.7115],[-6.3629,9.7168,343.4175],[-6.3609,9.7202,343.3088],[-6.366,9.7239,343.3836],[-6.3791,9.7238,341.9682],[-6.3816,9.7273,353.7683],[-6.3672,9.74,350.081],[-6.3708,9.7457,342.9476],[-6.371,9.7545,342.8939],[-6.3675,9.7634,341.2502],[-6.3616,9.7702,340.9321],[-6.3548,9.7738,341.2952],[-6.3549,9.7809,343.6312],[-6.3613,9.7849,340.1111],[-6.3727,9.7872,342.295],[-6.3747,9.7922,350.1524],[-6.3673,9.8008,340.523],[-6.3684,9.8046,342.9361],[-6.3738,9.8079,340.8964],[-6.3759,9.8118,341.6816],[-6.3712,9.8185,342.4255],[-6.3545,9.8243,341.3908],[-6.3519,9.8281,341.4187],[-6.3533,9.8329,339.6035],[-6.3506,9.8405,341.2009],[-6.3529,9.8458,340.9703],[-6.3625,9.854,343.356],[-6.3575,9.8605,339.056],[-6.3563,9.8673,338.9577],[-6.361,9.8746,339.9927],[-6.3727,9.8747,348.3276],[-6.3738,9.8786,346.2819],[-6.3671,9.8813,339.489],[-6.3664,9.8856,339.6499],[-6.3408,9.9026,339.5641],[-6.3429,9.9103,338.4287],[-6.3379,9.9126,338.524],[-6.3319,9.9092,336.3934],[-6.3322,9.9027,336.1506],[-6.3184,9.9072,337.3333],[-6.3191,9.913,337.342],[-6.3236,9.9191,337.1179],[-6.3206,9.9251,336.7306],[-6.3294,9.9246,336.2034],[-6.3334,9.9264,337.0297],[-6.3222,9.9395,340.1244],[-6.3118,9.9415,337.8122],[-6.3062,9.9397,334.4059],[-6.3069,9.9477,335.5483],[-6.3127,9.9588,335.7283],[-6.3121,9.9639,340.1273],[-6.3007,9.9732,335.3885],[-6.3035,9.9764,335.4561],[-6.3177,9.9755,335.7068],[-6.3165,9.983,334.1392],[-6.319,9.9873,333.039],[-6.3168,9.9991,333.2809],[-6.3108,10.0029,332.2717],[-6.3016,10.0213,333.2878],[-6.3029,10.0266,333.6519],[-6.3155,10.0324,337.1129],[-6.3239,10.0389,334.7175],[-6.3235,10.0428,332.2805],[-6.318,10.0457,331.5854],[-6.3113,10.0421,329.8958],[-6.2979,10.0528,331.5576],[-6.2878,10.0459,330.8278],[-6.2846,10.0532,331.1443],[-6.2755,10.0629,339.36],[-6.2882,10.0823,332.4877],[-6.2922,10.0838,332.9968],[-6.3045,10.0831,328.5312],[-6.3061,10.0867,329.2958],[-6.3041,10.0903,329.6395],[-6.2984,10.0912,328.4279],[-6.2922,10.0887,330.2202],[-6.2909,10.0956,329.4756],[-6.2842,10.1056,330.3055],[-6.2863,10.0957,329.5776],[-6.2765,10.0826,328.2146],[-6.2645,10.076,332.7828],[-6.2598,10.0793,336.6722],[-6.2568,10.0932,328.772],[-6.2582,10.0987,327.2197],[-6.2517,10.1116,335.3913],[-6.2564,10.1167,332.0576],[-6.2642,10.115,331.0082],[-6.2553,10.1282,326.2789],[-6.2447,10.1353,326.1449],[-6.2378,10.1324,329.6635],[-6.2358,10.1228,328.6493],[-6.2383,10.1164,327.2985],[-6.2335,10.1102,330.3454],[-6.2262,10.1095,330.2265],[-6.223,10.1121,334.4383],[-6.22,10.131,324.7205],[-6.2217,10.136,326.2037],[-6.2199,10.1397,325.88],[-6.2231,10.1455,329.9505],[-6.2335,10.1446,326.4525],[-6.2354,10.1502,325.8801],[-6.2343,10.1547,325.6458],[-6.2241,10.1656,325.5035],[-6.2065,10.1758,323.9103],[-6.2064,10.1817,322.6862],[-6.2037,10.1854,333.375],[-6.2035,10.192,344.9215],[-6.208,10.1929,343.8769],[-6.2156,10.1996,327.8062],[-6.2253,10.2037,324.3884],[-6.2276,10.2094,323.4465],[-6.2273,10.217,321.3247],[-6.3355,10.2316,353.0175],[-6.4132999999999996,10.2094,377.1486],[-6.4246,10.2264,370.0165],[-6.4284,10.2417,366.9707],[-6.5035,10.2372,355.1784],[-6.5127,10.238,358.6879],[-6.5191,10.241,354.1028],[-6.5324,10.236,352.9869],[-6.5548,10.2337,346.0914],[-6.5616,10.2311,345.0123],[-6.5655,10.2285,338.3151],[-6.5659,10.222,337.4202],[-6.5715,10.2208,336.2197],[-6.5768,10.2257,335.3596],[-6.584,10.2252,348.3939],[-6.5882,10.19,372.0077],[-6.5842,10.1804,366.7487],[-6.5785,10.1727,380.5766],[-6.5784,10.1682,371.3735],[-6.5807,10.1646,365.3371],[-6.5977,10.1527,360.676],[-6.645,10.1334,372.4468],[-6.6608,10.129,377.3033],[-6.706,10.1035,370.3242],[-6.7453,10.1002,361.8162],[-6.7551,10.1046,396.8221],[-6.7648,10.12,393.0574],[-6.7796,10.1348,344.1719],[-6.7894,10.1353,342.7726],[-6.8025,10.1405,346.0825],[-6.8067,10.138,340.5616],[-6.81,10.1336,343.5273],[-6.8171,10.1399,347.2456],[-6.8263,10.1426,352.7672],[-6.8281,10.1405,348.7569],[-6.8281,10.1343,344.4376],[-6.8468,10.1331,341.7497],[-6.8583,10.1288,346.9597],[-6.8637,10.1235,342.0356],[-6.8718,10.125,343.0318],[-6.879,10.1105,347.9231],[-6.8832,10.1073,344.4398],[-6.8886,10.1062,344.8489],[-6.8949,10.1009,353.6426],[-6.91,10.0735,351.4639],[-6.9162,10.0712,362.964],[-6.9238,10.0645,358.763],[-6.928,10.0465,360.5056],[-6.9237,10.0348,353.9111],[-6.9246,10.0268,354.333],[-6.9311,10.0195,358.1339],[-6.9454,9.9959,363.3192],[-6.9504,9.9938,358.1483],[-6.9591,9.9723,369.072]]]]}
,"properties": {"GID_3": "CIV.10.1.2_1","GID_0": "CIV","country": "Côted'Ivoire","GID_1": "CIV.10_1","province": "Savanes","NL_NAME_1": "NA","GID_2": "CIV.10.1_1","county": "Bagoué","NL_NAME_2": "NA","city": "Kouto","VARNAME_3": "NA","NL_NAME_3": "NA","TYPE_3": "Département","ENGTYPE_3": "Department","CC_3": "NA","HASC_3": "NA","name": "Kouto.city","area_km2": 3503.53,"hist_schema_id": "Elevation0-9000","hist_area_km2": {"325": 109.988,"350": 726.139,"375": 1148.516,"400": 815.966,"425": 415.83,"450": 180.876,"475": 58.364,"500": 20.114,"525": 12.428,"550": 6.558,"575": 3.738,"600": 1.921,"625": 1.19,"650": 1.316,"675": 0.376,"700": 0.084,"725": 0.084,"750": 0.042}}}