{"type":"Feature","properties":{"GID_3":"CIV.4.2.1_1","GID_0":"CIV","country":"Côted'Ivoire","GID_1":"CIV.4_1","province":"Denguélé","NL_NAME_1":"NA","GID_2":"CIV.4.2_1","county":"Kabadougou","NL_NAME_2":"NA","city":"Gbeleban","VARNAME_3":"NA","NL_NAME_3":"NA","TYPE_3":"Département","ENGTYPE_3":"Department","CC_3":"NA","HASC_3":"NA","name":"Gbeleban.city"},
"geometry":{"type": "MultiPolygon","coordinates": [[[[-8.1234,9.7097,403.0427],[-8.1251,9.7023,396.9446],[-8.1316,9.702,420.2222],[-8.1364,9.6905,412.737],[-8.1332,9.6861,429.6535],[-8.1333,9.6797,425.563],[-8.1294,9.6711,405.2156],[-8.1306,9.6688,405.9142],[-8.1353,9.6684,419.8907],[-8.1367,9.6666,415.1629],[-8.13,9.6638,404.9432],[-8.1277,9.6594,405.6908],[-8.1278,9.6548,402.4313],[-8.1328,9.647,408.1454],[-8.1336,9.6367,412.8911],[-8.1422,9.6315,421.2583],[-8.1462,9.6256,417.2787],[-8.1518,9.6254,436.6776],[-8.1523,9.6231,429.6718],[-8.1436,9.6129,408.733],[-8.1476,9.6081,408.2425],[-8.1529,9.5891,412.9141],[-8.1463,9.5831,401.5799],[-8.1443,9.5736,417.5243],[-8.1465,9.5695,416.6793],[-8.1499,9.5686,422.2919],[-8.1518,9.5661,415.9398],[-8.1507,9.5603,423.4445],[-8.1519,9.5562,430.9272],[-8.1475,9.5426,404.3581],[-8.1499,9.5367,420.7325],[-8.1492,9.5321,410.5251],[-8.1425,9.5311,404.6193],[-8.1329,9.525,410.0515],[-8.1359,9.5213,411.3338],[-8.1376,9.5149,421.9122],[-8.1333,9.5066,440.0905],[-8.1341,9.5038,438.6293],[-8.1286,9.4953,419.447],[-8.124,9.4915,430.2838],[-8.1232,9.4858,441.6184],[-8.1161,9.4783,425.8472],[-8.1152,9.4719,424.6364],[-8.1116,9.4658,431.0856],[-8.1084,9.4644,424.467],[-8.1066,9.4582,428.9945],[-8.1016,9.4556,426.3326],[-8.0985,9.4467,439.0181],[-8.0009,9.6155,413.4456],[-8.0069,9.6187,414.4565],[-8.0097,9.6246,416.4183],[-8.0144,9.6261,415.7445],[-8.0378,9.6461,406.7176],[-8.0408,9.6528,409.4249],[-8.0477,9.6567,410.8279],[-8.0536,9.6636,413.1243],[-8.0678,9.6676,407.7584],[-8.0752,9.6772,409.0063],[-8.0913,9.6824,409.8647],[-8.0933,9.6845,410.1875],[-8.0929,9.6879,401.3688],[-8.1014,9.6903,416.8651],[-8.1036,9.6936,403.1821],[-8.1043,9.6997,402.7725],[-8.1234,9.7097,403.0427]]]]}}