{"type":"Feature","properties":{"GID_1":"CIV.9_1","GID_0":"CIV","country":"Côted'Ivoire","province":"Sassandra-Marahoué","VARNAME_1":"NA","NL_NAME_1":"NA","TYPE_1":"District","ENGTYPE_1":"District","CC_1":"NA","HASC_1":"CI.SM","ISO_1":"NA","name":"Sassandra-Marahoué.province"},
"geometry":{"type": "MultiPolygon","coordinates": [[[[-6.9918,6.4463,189.5],[-6.9876,6.4452,189.5],[-6.9858,6.4427,189.5],[-6.9785,6.4226,189.5],[-6.8154,6.2491,219.4172],[-6.6806,6.2479,175.9624],[-6.59,6.3209,173.6839],[-6.5082,6.2628,223.317],[-6.4808,6.272,213.5943],[-6.4718,6.2793,199.7811],[-6.4359,6.2951,191.9222],[-6.4237,6.2975,194.2375],[-6.3737,6.2992,219.1934],[-6.3369,6.3095,223.8439],[-6.325,6.3279,253.5082],[-6.3116,6.3408,255.2306],[-6.2068,6.3337,201.8106],[-6.1918,6.329,198.6272],[-6.183,6.3334,196.6397],[-6.173,6.3409,195.9846],[-6.1676,6.3405,210.8259],[-6.1409,6.3254,189.8576],[-6.1311,6.3257,191.4894],[-6.1145,6.323,191.2968],[-6.1116,6.3388,187.9511],[-6.1046,6.3524,189.9624],[-6.1054,6.3649,191.7546],[-6.1036,6.3695,189.0876],[-6.0955,6.3765,191.7731],[-6.0899,6.3897,189.7328],[-6.087,6.4143,199.3114],[-6.0789,6.4244,195.7826],[-6.0716,6.4409,204.0915],[-6.0578,6.4511,200.4841],[-6.056,6.4626,198.102],[-6.051,6.4699,199.9788],[-6.0486,6.4878,197.7502],[-6.0481,6.5087,199.0415],[-6.0409,6.5305,201.4382],[-5.9317,6.5282,243.4844],[-5.7421,6.5002,216.9924],[-5.5002,6.6541,412.9138],[-5.4047,6.6525,147.3936],[-5.3995,6.6602,150.8753],[-5.3983,6.6714,147.4303],[-5.405,6.6921,152.2368],[-5.405,6.7048,149.7202],[-5.4233,6.741,147.946],[-5.4328,6.7545,149.1152],[-5.4333,6.7705,154.9061],[-5.4358,6.7791,148.5518],[-5.4388,6.7847,148.525],[-5.4629,6.8046,148.6546],[-5.4815,6.8126,146.8269],[-5.4839,6.8206,147.3622],[-5.4815,6.8307,147.4333],[-5.4854,6.845,149.9409],[-5.4837,6.8523,161.6979],[-5.486,6.8577,156.6367],[-5.4929,6.8631,157.1104],[-5.5107,6.867,148.8579],[-5.5174,6.8763,154.9884],[-5.5211,6.885,153.0657],[-5.5189,6.89,153.4042],[-5.5199,6.8947,156.8028],[-5.5273,6.9019,152.606],[-5.5281,6.9072,152.9365],[-5.5263,6.9125,152.7658],[-5.5193,6.9161,160.4525],[-5.513,6.9235,156.7052],[-5.5053,6.9261,156.7643],[-5.5013,6.9309,157.8093],[-5.4981,6.9461,162.8947],[-5.4995,6.9531,162.4655],[-5.499,6.9659,177.8779],[-5.4953,6.984,193.9352],[-5.4964,6.9889,187.9601],[-5.4897,7.0024,167.8193],[-5.484,7.007,168.0319],[-5.4794,7.025,164.2525],[-5.4739,7.0311,187.2115],[-5.4691,7.0331,181.5],[-5.4587,7.0285,181.5],[-5.456,7.0288,181.5],[-5.4475,7.0356,181.5],[-5.4492,7.0408,181.5],[-5.4675,7.0458,181.5],[-5.4843,7.0532,181.5],[-5.4872,7.0569,181.5],[-5.4935,7.1059,181.5],[-5.4921,7.1106,181.5],[-5.4885,7.1134,181.5],[-5.4848,7.1266,181.5],[-5.479,7.1365,181.5],[-5.4802,7.1399,181.5],[-5.5216,7.1593,181.5],[-5.5382,7.1578,181.5],[-5.5504,7.1437,181.9478],[-5.5722,7.1431,181.5],[-5.5849,7.1435,181.5],[-5.6073,7.1597,181.5],[-5.5962,7.1733,181.5],[-5.5959,7.1783,181.5],[-5.5981,7.187,181.5],[-5.6066,7.192,181.5],[-5.6199,7.1945,181.5],[-5.636,7.2023,181.5],[-5.6489,7.2048,181.5],[-5.666,7.2201,181.5],[-5.6688,7.2257,181.5],[-5.6688,7.235,181.5],[-5.6662,7.2372,181.5],[-5.6635,7.2384,181.5],[-5.6534,7.2337,181.5],[-5.6502,7.2344,181.5],[-5.6482,7.2375,181.5],[-5.6468,7.25,181.5],[-5.6471,7.2758,191.8933],[-5.6682,7.295,181.5],[-5.6723,7.2972,181.5],[-5.6795,7.2981,181.5],[-5.6958,7.3066,181.5],[-5.7149,7.3233,181.5],[-5.7137,7.3283,181.5],[-5.6905,7.3414,181.5],[-5.6865,7.3453,186.2599],[-5.6832,7.3546,181.5],[-5.6874,7.3617,181.5],[-5.6949,7.3669,181.5],[-5.7082,7.3656,181.5],[-5.7145,7.3687,181.5],[-5.7227,7.3808,181.5],[-5.7269,7.4066,181.5],[-5.7261,7.4104,181.5],[-5.7204,7.4169,181.5],[-5.718,7.4308,181.5],[-5.7107,7.4433,195.2584],[-5.7107,7.461,184.6572],[-5.7268,7.4716,181.5],[-5.7335,7.4858,189.2963],[-5.734,7.4968,181.5],[-5.7303,7.5019,181.5],[-5.7174,7.506,181.5],[-5.7118,7.5108,181.5],[-5.7112,7.5238,181.5],[-5.7054,7.5283,181.5],[-5.7024,7.529,181.5],[-5.6923,7.5376,181.5],[-5.6818,7.5425,181.5],[-5.6639,7.5473,191.8739],[-5.6624,7.552,181.8418],[-5.6639,7.556,181.5],[-5.6841,7.5654,181.816],[-5.6971,7.5786,181.5],[-5.6964,7.5857,182.08],[-5.659,7.6022,181.5],[-5.6322,7.6099,189.4154],[-5.6337,7.6161,183.733],[-5.6372,7.6195,181.5],[-5.6626,7.6237,183.1086],[-5.6883,7.6399,184.9145],[-5.6874,7.6422,181.5],[-5.6675,7.6505,199.9975],[-5.6639,7.6562,198.3591],[-5.6671,7.6605,187.9713],[-5.6705,7.662,182.5673],[-5.6829,7.6627,183.6329],[-5.6952,7.6689,185.4272],[-5.6949,7.6785,185.3271],[-5.689,7.6826,183.9139],[-5.6781,7.6853,199.9035],[-5.6729,7.6934,202.8849],[-5.6733,7.695,197.6364],[-5.6864,7.7023,185.7342],[-5.6873,7.7053,185.8884],[-5.6855,7.7118,186.4595],[-5.6767,7.7177,184.9412],[-5.6823,7.7261,187.7239],[-5.699,7.737,205.2626],[-5.7137,7.7391,203.9511],[-5.7456,7.7471,215.4483],[-5.7662,7.7466,209.7711],[-5.7897,7.7549,225.6768],[-5.8267,7.7564,248.4565],[-5.8279,7.7664,275.2302],[-5.8415,7.7779,286.7469],[-5.8776,7.7619,312.0319],[-5.9779,7.7439,254.6009],[-5.998,7.7514,292.0378],[-6.0033,7.7557,272.98],[-6.0084,7.7572,257.7025],[-6.0347,7.7582,240.5122],[-6.0386,7.7534,236.275],[-6.0363,7.7444,236.6489],[-6.0439,7.732,235.6945],[-6.0518,7.711,238.9861],[-6.0525,7.7144,238.3395],[-6.0596,7.7152,239.7554],[-6.0662,7.6958,233.1376],[-6.0586,7.6911,227.9789],[-6.0583,7.6849,233.1889],[-6.0608,7.6833,233.1793],[-6.0613,7.6771,231.6621],[-6.0667,7.6749,230.4347],[-6.0701,7.6703,230.8166],[-6.0701,7.6664,231.1791],[-6.0779,7.6572,226.7289],[-6.0786,7.6551,230.119],[-6.0766,7.6513,230.1494],[-6.0797,7.6455,229.2806],[-6.079,7.6418,224.0533],[-6.0931,7.6363,222.7639],[-6.1082,7.6374,205.8595],[-6.1123,7.6434,207.8435],[-6.1337,7.6542,204.4967],[-6.1683,7.661,207.5945],[-6.1734,7.6645,208.6946],[-6.1814,7.6739,209.734],[-6.2029,7.685,212.1435],[-6.2093,7.6852,216.3663],[-6.214,7.6871,217.6463],[-6.2168,7.6925,214.3426],[-6.21,7.7264,230.0865],[-6.2376,7.7566,237.7023],[-6.2382,7.7625,223.9982],[-6.2355,7.7738,237.3308],[-6.2493,7.7726,236.4551],[-6.2732,7.7766,249.3071],[-6.2866,7.7905,265.2341],[-6.2961,7.7935,260.4827],[-6.3032,7.7895,267.1772],[-6.3172,7.7932,272.5485],[-6.3282,7.7933,277.3636],[-6.3347,7.7874,281.9685],[-6.3469,7.7826,300.5311],[-6.3552,7.7725,297.8795],[-6.36,7.7761,297.7126],[-6.3714,7.7789,297.5429],[-6.3895,7.782,293.7907],[-6.4026,7.7815,313.7332],[-6.4086,7.7785,317.5859],[-6.4117,7.7724,316.9583],[-6.4194,7.7712,321.2504],[-6.4667,7.736,301.1874],[-6.4903,7.7397,314.5229],[-6.5258,7.7488,291.1673],[-6.5255,7.7536,297.3756],[-6.5289,7.7574,292.5636],[-6.5297,7.7655,302.7593],[-6.5333,7.7731,298.0719],[-6.5468,7.7771,312.3069],[-6.5543,7.7849,302.1107],[-6.5787,7.7857,333.0057],[-6.5857,7.7894,339.4144],[-6.6005,7.7917,344.747],[-6.617,7.7892,321.8625],[-6.6207,7.7859,318.8276],[-6.6231,7.7892,325.3598],[-6.6446,7.7975,344.1277],[-6.6612,7.7962,331.7394],[-6.677,7.7977,318.895],[-6.6831,7.7961,318.0148],[-6.687,7.7894,315.9659],[-6.6961,7.781,297.2488],[-6.7122,7.7711,285.001],[-6.7465,7.7791,315.2705],[-6.7559,7.7829,288.1441],[-6.7729,7.7859,303.2175],[-6.7884,7.7827,359.3592],[-6.795,7.7886,505.7348],[-6.8111,7.7921,338.6992],[-6.8219,7.7907,320.5724],[-6.8326,7.7918,298.2537],[-6.8502,7.7976,293.8174],[-6.8599,7.7881,283.1317],[-6.8681,7.7892,284.7751],[-6.8743,7.7933,274.8144],[-6.8994,7.7919,280.3987],[-6.9244,7.7929,293.0822],[-6.9362,7.7954,277.6076],[-6.9441,7.8006,286.2707],[-6.9537,7.8017,292.7956],[-6.9633,7.8064,301.103],[-6.983,7.8008,297.1052],[-7.0021,7.7914,306.7065],[-7.0136,7.7993,310.7653],[-7.05,7.6938,285.8951],[-7.0697,7.6873,241.7364],[-7.0774,7.6886,234.6292],[-7.0809,7.6792,240.7117],[-7.0748,7.6644,239.502],[-7.0685,7.6566,239.6658],[-7.0668,7.6497,234.824],[-7.0687,7.6432,230.5],[-7.0675,7.6364,238.4351],[-7.0559,7.6238,235.8854],[-7.0487,7.6216,234.1562],[-7.043,7.6069,234.0441],[-7.0333,7.6091,233.4409],[-7.0248,7.6134,235.897],[-7.0209,7.613,234.9407],[-7.0034,7.5905,228.8141],[-7.0032,7.5861,236.7206],[-6.9996,7.5844,231.8556],[-6.9948,7.5862,229.6597],[-6.9903,7.5844,231.0704],[-6.9862,7.5793,226.3169],[-6.9872,7.5711,235.9678],[-6.9855,7.5566,231.9921],[-6.9909,7.5521,230.1612],[-6.9981,7.5521,235.9026],[-7.0063,7.556,243.2106],[-7.0166,7.5546,237.8651],[-7.0301,7.5461,234.1772],[-7.0385,7.5427,230.6099],[-7.0449,7.5351,231.3448],[-7.045,7.529,227.6226],[-7.0255,7.5064,227.9183],[-7.0298,7.4887,226.5675],[-7.0244,7.4746,226.5458],[-7.0176,7.4644,225.6234],[-7.012,7.457,228.8119],[-7.0063,7.454,227.0314],[-7.0063,7.4378,224.6149],[-7.0203,7.4237,224.1718],[-7.0476,7.4194,225.7847],[-7.052,7.4152,223.3414],[-7.0479,7.4031,226.0163],[-7.0488,7.3979,225.1422],[-7.0561,7.3952,223.3152],[-7.0615,7.3891,233.7175],[-7.0646,7.3826,228.9639],[-7.0817,7.3806,226.89],[-7.0872,7.3709,219.8914],[-7.0849,7.3653,222.7332],[-7.0787,7.3616,216.0562],[-7.0637,7.3344,220.6599],[-7.0639,7.3258,228.9122],[-7.0722,7.307,228.5289],[-7.0725,7.2996,222.5294],[-7.0681,7.2888,225.4785],[-7.0675,7.283,222.7638],[-7.0724,7.2678,219.6063],[-7.0734,7.2609,215.4998],[-7.0723,7.2484,216.3326],[-7.0772,7.2308,217.0959],[-7.0763,7.22,216.6337],[-7.0714,7.2046,214.4724],[-7.0663,7.1981,215.957],[-7.0686,7.192,210.0],[-7.078,7.1925,217.1403],[-7.0869,7.188,215.3873],[-7.0913,7.1832,221.1092],[-7.091,7.1735,216.9096],[-7.0853,7.1639,218.3735],[-7.0791,7.1592,214.7427],[-7.0694,7.1565,215.1754],[-7.0638,7.1429,214.7991],[-7.0681,7.1323,216.0516],[-7.0682,7.11,211.6769],[-7.0524,7.095,206.2143],[-7.0476,7.0885,203.9148],[-7.0486,7.0823,209.4149],[-7.0571,7.0605,208.9895],[-7.0608,7.0251,207.0771],[-7.0671,7.0051,203.4531],[-7.0652,7.0015,203.869],[-7.0593,6.998,206.9466],[-7.059,6.9904,213.4101],[-7.0599,6.9696,206.1697],[-7.0649,6.9598,201.8961],[-7.0652,6.9517,206.7781],[-7.0643,6.9405,197.0],[-7.0586,6.9336,201.3968],[-7.0516,6.9327,201.9132],[-7.044,6.9284,202.8085],[-7.0413,6.9202,199.6086],[-7.0435,6.9123,199.1721],[-7.0428,6.9054,201.3371],[-7.0464,6.8976,200.6303],[-7.0609,6.8906,196.9257],[-7.0641,6.8828,193.0],[-7.0614,6.8729,193.4857],[-7.061,6.8595,199.5465],[-7.0634,6.8508,193.8182],[-7.0607,6.8477,197.3177],[-7.0403,6.8388,195.5197],[-7.0258,6.8399,194.9831],[-7.0178,6.8388,198.5392],[-7.0081,6.8333,191.4906],[-7.0041,6.8275,189.5],[-6.9982,6.8159,190.5028],[-6.9948,6.7925,189.5],[-6.9961,6.7742,189.5],[-6.9898,6.7666,189.5],[-6.9819,6.7454,198.8674],[-6.9827,6.7384,189.5],[-6.9888,6.7288,189.5],[-6.9899,6.723,189.5],[-6.9872,6.7198,189.5],[-6.9786,6.7171,190.7672],[-6.9743,6.7131,189.5],[-6.9715,6.7073,189.5],[-6.9863,6.6869,189.5],[-6.9913,6.6728,189.5],[-6.9898,6.6648,189.5],[-6.9836,6.6567,189.5],[-6.9835,6.6415,189.5],[-6.988,6.6185,189.5],[-6.9956,6.6079,191.0092],[-7.0027,6.6039,189.5],[-7.0202,6.5878,189.5],[-7.0201,6.5794,189.5],[-7.0159,6.5719,189.5],[-6.9875,6.5569,189.5],[-6.9801,6.5495,189.5],[-6.9739,6.5323,189.5],[-6.9639,6.5237,197.3593],[-6.9611,6.5057,190.5311],[-6.9525,6.488,189.5],[-6.9536,6.4842,189.5],[-6.9635,6.4712,189.5],[-6.9789,6.461,189.5],[-6.9844,6.4587,189.5],[-6.9949,6.4606,189.5],[-6.9973,6.4631,189.5],[-7.0009,6.4632,189.5],[-7.0046,6.4611,189.5],[-7.0059,6.4501,189.5],[-7.0036,6.4456,189.5],[-6.9918,6.4463,189.5]]]]}}