{"type":"Feature","properties":{"GID_3":"CIV.8.1.4_1","GID_0":"CIV","country":"Côted'Ivoire","GID_1":"CIV.8_1","province":"Montagnes","NL_NAME_1":"NA","GID_2":"CIV.8.1_1","county":"Cavally","NL_NAME_2":"NA","city":"Toulepleu","VARNAME_3":"NA","NL_NAME_3":"NA","TYPE_3":"Département","ENGTYPE_3":"Department","CC_3":"NA","HASC_3":"NA","name":"Toulepleu.city"},
"geometry":{"type": "MultiPolygon","coordinates": [[[[-8.2451,6.6254,259.3819],[-8.2518,6.629,255.236],[-8.2558,6.6275,255.8398],[-8.2623,6.632,253.0682],[-8.2662,6.6279,264.7774],[-8.2691,6.6195,278.4695],[-8.2789,6.6157,256.9332],[-8.2823,6.6028,254.5802],[-8.2866,6.6089,262.2904],[-8.3024,6.6073,279.611],[-8.3074,6.5952,252.6283],[-8.3187,6.5869,256.8018],[-8.4293,6.6595,248.0267],[-8.4326,6.6543,229.1487],[-8.4353,6.6548,227.997],[-8.4399,6.6596,242.368],[-8.4431,6.6594,238.4908],[-8.4475,6.6549,225.5493],[-8.4487,6.6493,229.3596],[-8.4476,6.6406,226.1825],[-8.449,6.636,230.0547],[-8.4529,6.6333,235.1628],[-8.4607,6.6347,227.8862],[-8.4626,6.6336,244.0325],[-8.4647,6.6274,230.5254],[-8.4704,6.6334,226.0038],[-8.4729,6.6329,230.3878],[-8.4762,6.6254,224.1695],[-8.4824,6.6247,223.2217],[-8.4847,6.6217,223.2504],[-8.4852,6.6197,221.6707],[-8.4822,6.6127,235.7712],[-8.488,6.608,238.7036],[-8.4898,6.6073,237.9875],[-8.4919,6.6089,229.3315],[-8.4916,6.6142,227.803],[-8.4939,6.616,223.0089],[-8.4999,6.6149,225.4575],[-8.5038,6.6119,228.716],[-8.5057,6.6069,223.4269],[-8.5041,6.5977,222.0019],[-8.5062,6.5913,235.8785],[-8.5088,6.5895,230.1125],[-8.5133,6.5938,224.9265],[-8.5212,6.5916,227.4616],[-8.5228,6.5943,225.0915],[-8.5211,6.601,226.7348],[-8.5287,6.6082,223.34],[-8.5328,6.6045,227.1122],[-8.5333,6.6015,223.056],[-8.5304,6.5921,223.017],[-8.5311,6.5767,226.3945],[-8.5263,6.5709,229.9381],[-8.537,6.557,224.7746],[-8.5397,6.5561,223.279],[-8.5466,6.5623,228.7833],[-8.5562,6.564,228.8332],[-8.5606,6.5615,226.9329],[-8.5637,6.5532,231.0064],[-8.563,6.5509,232.7046],[-8.5554,6.5488,245.8585],[-8.5543,6.546,226.5469],[-8.5626,6.5369,229.9856],[-8.5687,6.5188,239.4846],[-8.5783,6.5188,227.6265],[-8.5872,6.5264,220.7972],[-8.5919,6.5242,226.2907],[-8.5993,6.5056,223.3832],[-8.5924,6.4984,226.868],[-8.5851,6.4959,241.0987],[-8.5812,6.4952,243.4671],[-8.5706,6.4988,243.8334],[-8.5653,6.496,238.8405],[-8.5479,6.4952,241.9876],[-8.5405,6.4922,235.5868],[-8.528,6.4786,249.9964],[-8.5156,6.4588,249.8381],[-8.5042,6.4454,259.1551],[-8.4903,6.4324,296.0672],[-8.4834,6.4296,272.665],[-8.4811,6.4322,294.4281],[-8.4735,6.4307,285.4384],[-8.4696,6.4344,278.1282],[-8.4678,6.4491,288.708],[-8.4588,6.4619,271.3643],[-8.4565,6.4712,263.7785],[-8.4577,6.4868,272.9073],[-8.4555,6.4887,285.2934],[-8.4517,6.4887,294.9563],[-8.436,6.4803,283.6472],[-8.4271,6.4704,270.4125],[-8.4141,6.4598,251.263],[-8.3936,6.4475,265.7167],[-8.386,6.4449,251.3872],[-8.386,6.4417,246.8605],[-8.3899,6.436,252.7414],[-8.4059,6.431,246.3439],[-8.4082,6.427,257.062],[-8.4074,6.4221,254.5187],[-8.3991,6.4232,256.2481],[-8.3934,6.4067,247.1],[-8.3926,6.3945,258.6696],[-8.3828,6.3804,255.2896],[-8.386,6.3747,261.8654],[-8.3929,6.3745,253.2495],[-8.3982,6.3702,252.1043],[-8.4051,6.37,251.3152],[-8.412,6.3668,246.7182],[-8.3969,6.355,242.354],[-8.3924,6.3467,275.0228],[-8.3859,6.3462,276.6633],[-8.3804,6.3565,252.4591],[-8.3732,6.3558,263.0245],[-8.3718,6.3629,262.1949],[-8.3693,6.3647,263.3604],[-8.3617,6.3564,260.3683],[-8.3585,6.3562,289.2773],[-8.355,6.3619,249.7517],[-8.3525,6.3628,252.5299],[-8.3456,6.3611,271.1955],[-8.3426,6.3692,259.5212],[-8.3394,6.3728,245.5088],[-8.3236,6.3629,253.3567],[-8.3165,6.3555,269.5302],[-8.3121,6.3545,251.6423],[-8.3082,6.358,234.3098],[-8.303,6.3446,280.3182],[-8.3007,6.3423,272.7235],[-8.2984,6.3437,269.4626],[-8.2967,6.3482,287.0154],[-8.2804,6.3468,241.4408],[-8.2786,6.3436,239.866],[-8.2767,6.3464,235.7774],[-8.2738,6.3592,236.7763],[-8.2693,6.3601,261.0502],[-8.2681,6.363,258.639],[-8.2694,6.3695,239.9639],[-8.2655,6.3718,249.4345],[-8.2636,6.3782,246.5379],[-8.2581,6.3845,260.2357],[-8.2198,6.6165,260.3867],[-8.2315,6.6189,261.4902],[-8.2318,6.6218,257.4286],[-8.2451,6.6254,259.3819]]]]}}