{"type":"Feature","properties":{"GID_3":"CIV.7.3.4_1","GID_0":"CIV","country":"Côted'Ivoire","GID_1":"CIV.7_1","province":"Lagunes","NL_NAME_1":"NA","GID_2":"CIV.7.3_1","county":"LaMé","NL_NAME_2":"NA","city":"Yakasse-Attobrou","VARNAME_3":"NA","NL_NAME_3":"NA","TYPE_3":"Département","ENGTYPE_3":"Department","CC_3":"NA","HASC_3":"NA","name":"Yakasse-Attobrou.city"},
"geometry":{"type": "MultiPolygon","coordinates": [[[[-3.6436,6.4405,114.843],[-3.6447,6.4442,126.1475],[-3.6484,6.4296,109.0148],[-3.6214,6.3227,132.5818],[-3.66,6.2701,125.0606],[-3.6621,6.2619,128.784],[-3.6733,6.2524,116.7469],[-3.6767,6.2455,109.6774],[-3.6871,6.2372,106.3821],[-3.6909,6.2105,101.3934],[-3.697,6.1993,91.6681],[-3.7135,6.1762,84.156],[-3.717,6.1527,80.6416],[-3.7102,6.1307,77.2527],[-3.7035,6.1216,83.9409],[-3.7012,6.1151,72.4105],[-3.7001,6.0966,71.0831],[-3.6978,6.0912,76.5286],[-3.7023,6.0784,69.7707],[-3.7115,6.0707,70.1779],[-3.7114,6.0662,68.4442],[-3.7133,6.0633,66.822],[-3.7124,6.0553,72.9644],[-3.7102,6.0527,67.6936],[-3.7072,6.0537,67.7267],[-3.7059,6.0445,68.3126],[-3.7075,6.0398,71.9339],[-3.7037,6.0382,66.288],[-3.6994,6.0323,68.3308],[-3.7005,6.0223,62.3722],[-3.6961,6.0206,62.09],[-3.7127,5.9617,67.2985],[-3.7394,5.9167,58.0005],[-3.73,5.9176,52.1643],[-3.7263,5.9162,74.4355],[-3.7177,5.9104,64.5695],[-3.708,5.8992,72.8565],[-3.7063,5.8914,73.8885],[-3.678,5.8793,93.3788],[-3.6056,5.8646,90.2657],[-3.5959,5.8722,84.1454],[-3.5803,5.877,99.7523],[-3.5704,5.8744,107.7101],[-3.5557,5.8741,104.8615],[-3.5437,5.8774,123.4948],[-3.5351,5.875,117.0565],[-3.5269,5.8667,126.2334],[-3.4521,5.8512,113.5873],[-3.4403,5.8441,109.1454],[-3.4413,5.8537,70.6034],[-3.4494,5.8633,73.4105],[-3.4519,5.8642,73.3377],[-3.459,5.8827,101.875],[-3.4571,5.8846,94.8277],[-3.4541,5.9003,100.8594],[-3.4447,5.9165,125.1222],[-3.4405,5.9299,88.8672],[-3.4315,5.938,90.6678],[-3.4293,5.9479,90.7518],[-3.4298,5.9524,93.0154],[-3.4363,5.9638,94.951],[-3.4298,5.9714,98.4479],[-3.4093,5.9718,98.4563],[-3.4022,5.9795,101.8326],[-3.3987,5.9958,93.786],[-3.4006,6.0048,92.8699],[-3.3907,6.0089,114.1924],[-3.3892,6.012,124.9669],[-3.3888,6.0176,95.7831],[-3.3958,6.0253,94.5727],[-3.3983,6.0351,96.1295],[-3.4008,6.0373,95.8909],[-3.4038,6.0444,97.6222],[-3.4121,6.0493,98.5898],[-3.4048,6.0591,95.1984],[-3.4043,6.0654,107.1549],[-3.4109,6.0695,97.962],[-3.4176,6.0695,103.0691],[-3.4228,6.0667,91.7159],[-3.4242,6.0693,100.7153],[-3.4227,6.0773,108.3676],[-3.4193,6.0835,105.7031],[-3.4088,6.0869,106.0331],[-3.398,6.0863,120.4764],[-3.3952,6.0887,119.9087],[-3.3937,6.1007,99.5159],[-3.4076,6.1121,98.3514],[-3.4114,6.1242,105.9966],[-3.4103,6.1283,114.526],[-3.4073,6.1301,110.803],[-3.3989,6.1275,103.7528],[-3.3959,6.1292,107.8187],[-3.3954,6.1453,102.8199],[-3.4112,6.1629,96.5903],[-3.4176,6.1836,93.1227],[-3.4234,6.1944,98.3252],[-3.4265,6.1967,97.7871],[-3.4526,6.195,119.9035],[-3.455,6.1896,131.6072],[-3.454,6.1834,104.5863],[-3.4436,6.1738,95.1618],[-3.4576,6.1749,102.0811],[-3.4569,6.194,134.1998],[-3.4627,6.2047,103.9586],[-3.4797,6.2128,95.9712],[-3.4817,6.2171,102.498],[-3.4821,6.2283,104.7977],[-3.4754,6.2376,102.2801],[-3.4723,6.2386,98.2814],[-3.4489,6.2292,118.159],[-3.445,6.2312,107.7664],[-3.4426,6.2352,105.1684],[-3.4423,6.2394,118.0092],[-3.4442,6.2431,110.4506],[-3.4647,6.2549,98.3279],[-3.4695,6.2709,102.7246],[-3.4706,6.2893,142.8035],[-3.4734,6.2953,127.1139],[-3.4928,6.3123,105.4901],[-3.4941,6.3162,107.1775],[-3.5032,6.3227,105.002],[-3.4954,6.3455,105.1276],[-3.5021,6.3496,115.0607],[-3.511,6.3463,101.83],[-3.513,6.3612,108.755],[-3.511,6.3649,115.3826],[-3.5313,6.3848,110.8064],[-3.5381,6.3875,106.9161],[-3.5483,6.382,105.6109],[-3.5435,6.3719,107.4832],[-3.5483,6.3661,104.7404],[-3.5736,6.3856,136.0408],[-3.5782,6.3864,114.2749],[-3.5861,6.3844,122.2767],[-3.5891,6.3757,114.0211],[-3.591,6.3744,114.8865],[-3.598,6.3863,102.0],[-3.6082,6.3943,104.1242],[-3.6108,6.3987,102.5834],[-3.6139,6.4265,109.7553],[-3.6185,6.4325,125.5153],[-3.6364,6.443,109.7619],[-3.6436,6.4405,114.843]]]]}}