{"type":"Feature","properties":{"GID_2":"CIV.7.3_1","GID_0":"CIV","country":"Côted'Ivoire","GID_1":"CIV.7_1","province":"Lagunes","NL_NAME_1":"NA","county":"LaMé","VARNAME_2":"Massan","NL_NAME_2":"NA","TYPE_2":"Région","ENGTYPE_2":"Region","CC_2":"NA","HASC_2":"CI.LN.ME","name":"La_Mé.county"},
"geometry":{"type": "MultiPolygon","coordinates": [[[[-3.8249,5.3858,22.2822],[-3.8241,5.3753,16.7259],[-3.7831,5.3556,0.0],[-3.7673,5.3398,0.0],[-3.752,5.3309,0.0],[-3.748,5.3158,0.0],[-3.7442,5.31,0.0],[-3.7279,5.3031,0.0],[-3.7194,5.297,0.0],[-3.7218,5.2881,2.6842],[-3.7304,5.273,0.0],[-3.731,5.251,0.0],[-3.7214,5.2418,3.8282],[-3.7186,5.2298,0.0],[-3.719,5.2217,1.2327],[-3.7172,5.2205,3.3252],[-3.7149,5.2206,2.478],[-3.7093,5.2298,0.479],[-3.6991,5.2357,3.8907],[-3.6899,5.2314,2.2507],[-3.6817,5.2312,2.0585],[-3.6728,5.234,0.5],[-3.6691,5.2395,2.6018],[-3.6667,5.2495,6.4276],[-3.6624,5.2571,1.5592],[-3.6554,5.2589,2.9265],[-3.6551,5.2639,6.3618],[-3.6453,5.2616,5.4747],[-3.6351,5.2537,6.7915],[-3.6317,5.253,7.4281],[-3.6243,5.2565,11.3643],[-3.6205,5.2618,20.3188],[-3.6138,5.267,7.7226],[-3.6138,5.2706,16.495],[-3.6194,5.2784,12.2149],[-3.6214,5.2843,11.135],[-3.623,5.2974,12.678],[-3.6177,5.3038,13.1044],[-3.618,5.3066,7.2823],[-3.6225,5.3114,16.6861],[-3.6298,5.3136,23.8226],[-3.6316,5.3158,22.5506],[-3.6325,5.3231,16.4574],[-3.6404,5.3397,19.7412],[-3.6411,5.3465,21.5847],[-3.6395,5.3586,7.9991],[-3.6442,5.4001,20.9418],[-3.6599,5.4179,13.3715],[-3.662,5.4252,14.1132],[-3.6527,5.4691,22.3511],[-3.6583,5.4842,21.9393],[-3.6526,5.4952,16.7763],[-3.6523,5.4985,11.8308],[-3.6558,5.5052,7.8911],[-3.6523,5.5081,11.3274],[-3.6424,5.5122,33.6158],[-3.6343,5.5268,20.1426],[-3.6277,5.5309,23.4047],[-3.6187,5.5401,21.112],[-3.6141,5.5542,21.3821],[-3.6097,5.5608,21.8742],[-3.6108,5.5668,15.9239],[-3.6081,5.5722,18.8475],[-3.5965,5.5768,14.5921],[-3.5895,5.5859,20.7758],[-3.5814,5.5923,25.9897],[-3.5804,5.5953,17.5568],[-3.5815,5.6034,10.5085],[-3.5865,5.6199,42.0094],[-3.5813,5.6321,21.2756],[-3.5557,5.6461,57.7136],[-3.5454,5.6621,22.9871],[-3.5347,5.6726,24.8974],[-3.5269,5.6844,23.96],[-3.5218,5.682,55.5953],[-3.5096,5.6866,20.233],[-3.4862,5.7165,43.1895],[-3.4847,5.7205,51.4371],[-3.4858,5.7304,18.8135],[-3.4846,5.7322,40.5569],[-3.4669,5.7427,45.9946],[-3.4563,5.7535,37.5926],[-3.4425,5.7637,37.2911],[-3.4278,5.7681,77.6255],[-3.4332,5.7786,36.7525],[-3.4371,5.7803,58.196],[-3.4434,5.7794,44.3879],[-3.4544,5.781,44.3367],[-3.4554,5.7867,87.7124],[-3.4596,5.7946,74.7466],[-3.4488,5.8298,83.2316],[-3.451,5.8391,61.5709],[-3.4469,5.842,50.9559],[-3.4495,5.8495,114.4334],[-3.4403,5.8441,109.1454],[-3.4413,5.8537,70.6034],[-3.4494,5.8633,73.4105],[-3.4519,5.8642,73.3377],[-3.459,5.8827,101.875],[-3.4571,5.8846,94.8277],[-3.4541,5.9003,100.8594],[-3.4447,5.9165,125.1222],[-3.4405,5.9299,88.8672],[-3.4315,5.938,90.6678],[-3.4293,5.9479,90.7518],[-3.4298,5.9524,93.0154],[-3.4363,5.9638,94.951],[-3.4298,5.9714,98.4479],[-3.4093,5.9718,98.4563],[-3.4022,5.9795,101.8326],[-3.3987,5.9958,93.786],[-3.4006,6.0048,92.8699],[-3.3907,6.0089,114.1924],[-3.3892,6.012,124.9669],[-3.3888,6.0176,95.7831],[-3.3958,6.0253,94.5727],[-3.3983,6.0351,96.1295],[-3.4008,6.0373,95.8909],[-3.4038,6.0444,97.6222],[-3.4121,6.0493,98.5898],[-3.4048,6.0591,95.1984],[-3.4043,6.0654,107.1549],[-3.4109,6.0695,97.962],[-3.4176,6.0695,103.0691],[-3.4228,6.0667,91.7159],[-3.4242,6.0693,100.7153],[-3.4227,6.0773,108.3676],[-3.4193,6.0835,105.7031],[-3.4088,6.0869,106.0331],[-3.398,6.0863,120.4764],[-3.3952,6.0887,119.9087],[-3.3937,6.1007,99.5159],[-3.4076,6.1121,98.3514],[-3.4114,6.1242,105.9966],[-3.4103,6.1283,114.526],[-3.4073,6.1301,110.803],[-3.3989,6.1275,103.7528],[-3.3959,6.1292,107.8187],[-3.3954,6.1453,102.8199],[-3.4112,6.1629,96.5903],[-3.4176,6.1836,93.1227],[-3.4234,6.1944,98.3252],[-3.4265,6.1967,97.7871],[-3.4526,6.195,119.9035],[-3.455,6.1896,131.6072],[-3.454,6.1834,104.5863],[-3.4436,6.1738,95.1618],[-3.4576,6.1749,102.0811],[-3.4569,6.194,134.1998],[-3.4627,6.2047,103.9586],[-3.4797,6.2128,95.9712],[-3.4817,6.2171,102.498],[-3.4821,6.2283,104.7977],[-3.4754,6.2376,102.2801],[-3.4723,6.2386,98.2814],[-3.4489,6.2292,118.159],[-3.445,6.2312,107.7664],[-3.4426,6.2352,105.1684],[-3.4423,6.2394,118.0092],[-3.4442,6.2431,110.4506],[-3.4647,6.2549,98.3279],[-3.4695,6.2709,102.7246],[-3.4706,6.2893,142.8035],[-3.4734,6.2953,127.1139],[-3.4928,6.3123,105.4901],[-3.4941,6.3162,107.1775],[-3.5032,6.3227,105.002],[-3.4954,6.3455,105.1276],[-3.5021,6.3496,115.0607],[-3.511,6.3463,101.83],[-3.513,6.3612,108.755],[-3.511,6.3649,115.3826],[-3.5313,6.3848,110.8064],[-3.5381,6.3875,106.9161],[-3.5483,6.382,105.6109],[-3.5435,6.3719,107.4832],[-3.5483,6.3661,104.7404],[-3.5736,6.3856,136.0408],[-3.5782,6.3864,114.2749],[-3.5861,6.3844,122.2767],[-3.5891,6.3757,114.0211],[-3.591,6.3744,114.8865],[-3.598,6.3863,102.0],[-3.6082,6.3943,104.1242],[-3.6108,6.3987,102.5834],[-3.6139,6.4265,109.7553],[-3.6185,6.4325,125.5153],[-3.6364,6.443,109.7619],[-3.6436,6.4405,114.843],[-3.6438,6.4519,103.4392],[-3.6472,6.4579,108.1551],[-3.6472,6.4629,119.6934],[-3.6354,6.49,108.2935],[-3.6402,6.5102,116.3788],[-3.6461,6.5216,108.3309],[-3.6466,6.5352,112.3766],[-3.6505,6.5434,111.7359],[-3.6588,6.5504,116.4035],[-3.6607,6.5548,115.4225],[-3.6574,6.5689,117.3153],[-3.6603,6.5762,110.9297],[-3.6649,6.5812,115.8802],[-3.6828,6.5893,117.1658],[-3.6853,6.594,116.8814],[-3.6846,6.6029,118.1383],[-3.6894,6.6095,115.8766],[-3.678,6.6221,117.0157],[-3.6769,6.6353,110.3735],[-3.6807,6.6449,110.2398],[-3.6826,6.6466,114.8898],[-3.7,6.6495,115.547],[-3.7111,6.6431,115.6977],[-3.7195,6.632,115.0258],[-3.7286,6.6301,116.6556],[-3.7405,6.6372,119.1686],[-3.7579,6.6378,120.2796],[-3.7624,6.6345,127.0876],[-3.7699,6.6221,115.0217],[-3.7949,6.5889,130.3012],[-3.8067,6.5855,133.333],[-3.8144,6.5852,144.8824],[-3.8334,6.5763,142.5631],[-3.8498,6.5728,146.7042],[-3.8651,6.5656,146.4194],[-3.893,6.5573,137.1358],[-3.9144,6.5441,156.7881],[-3.9343,6.5402,138.1789],[-3.9574,6.5468,133.3539],[-3.9757,6.5624,115.2054],[-3.9847,6.5606,123.7906],[-4.0145,6.5607,111.2199],[-4.0281,6.5555,104.7209],[-4.0429,6.5596,95.6044],[-4.0509,6.5587,95.0383],[-4.0576,6.5551,93.5137],[-4.0784,6.5248,89.3444],[-4.0914,6.5116,89.0046],[-4.1055,6.5047,87.3039],[-4.1064,6.5021,107.9047],[-4.1043,6.4942,94.8809],[-4.1071,6.4854,87.7462],[-4.1054,6.4777,82.8554],[-4.108,6.4648,84.1882],[-4.1126,6.4583,86.6139],[-4.1145,6.4508,95.4082],[-4.1388,6.4364,76.8397],[-4.1403,6.4293,81.1601],[-4.1471,6.4247,81.8402],[-4.1565,6.4015,75.2905],[-4.1577,6.394,79.58],[-4.1633,6.3852,82.6331],[-4.1613,6.3735,74.3026],[-4.1638,6.369,72.6681],[-4.1633,6.3664,73.5005],[-4.1591,6.3605,71.9546],[-4.1601,6.3565,81.1011],[-4.1551,6.3515,78.3571],[-4.1527,6.3422,71.2493],[-4.1571,6.3332,69.9486],[-4.1541,6.3153,86.4979],[-4.1584,6.2956,71.268],[-4.1542,6.274,87.8879],[-4.1449,6.27,63.4181],[-4.1439,6.2676,64.1976],[-4.1493,6.2612,62.4375],[-4.1454,6.255,62.0485],[-4.139,6.2579,61.9841],[-4.1286,6.2582,67.4226],[-4.1201,6.2646,69.3978],[-4.1147,6.2662,86.5954],[-4.113,6.2722,68.7748],[-4.1003,6.2785,76.4556],[-4.0888,6.2688,72.7855],[-4.0844,6.2628,77.4525],[-4.0813,6.2551,83.9566],[-4.0752,6.2489,82.3084],[-4.0695,6.235,94.5673],[-4.061,6.2262,92.9434],[-4.0468,6.216,125.4354],[-4.0261,6.1942,108.0008],[-4.0022,6.1636,114.5594],[-3.9857,6.153,118.3724],[-3.9774,6.1383,99.9462],[-3.9782,6.1311,100.7618],[-3.9821,6.125,100.0796],[-3.9812,6.1189,96.7977],[-3.9784,6.1144,96.0162],[-3.9785,6.1044,97.5269],[-3.974,6.0942,94.8912],[-3.984,6.0834,87.8578],[-4.0022,6.0455,83.3961],[-4.0239,6.0163,82.6532],[-4.0483,5.9931,74.1601],[-4.0584,5.9873,74.3326],[-4.0619,5.9743,69.7228],[-4.0671,5.9715,65.2159],[-4.08,5.9504,66.0247],[-4.082,5.9445,60.6927],[-4.0821,5.9373,59.4252],[-4.0674,5.9288,65.8039],[-4.0641,5.9064,57.5438],[-4.065,5.9044,54.7888],[-4.0696,5.903,58.8102],[-4.076,5.8822,52.2418],[-4.0799,5.8768,50.9287],[-4.0835,5.8622,52.1636],[-4.0617,5.8404,51.1258],[-4.0599,5.8266,48.3212],[-4.0377,5.8138,46.352],[-4.0316,5.8179,44.9387],[-4.0234,5.8135,41.5981],[-4.0206,5.8074,42.9341],[-4.015,5.8076,36.0434],[-4.0102,5.8035,39.7127],[-3.9993,5.8093,41.2329],[-3.9923,5.8058,33.2074],[-3.9887,5.806,49.2639],[-3.9855,5.8033,36.3354],[-3.9762,5.8036,33.76],[-3.9668,5.7931,33.6368],[-3.9609,5.7908,33.8608],[-3.9488,5.7791,39.2335],[-3.9413,5.762,25.6298],[-3.9467,5.7584,22.6428],[-3.9483,5.7511,22.8772],[-3.9475,5.7438,21.2027],[-3.9528,5.7407,26.6285],[-3.9539,5.7347,29.1743],[-3.951,5.7273,28.2985],[-3.9395,5.7189,21.2547],[-3.9363,5.7182,35.8988],[-3.9363,5.7161,34.4608],[-3.9327,5.7122,21.2859],[-3.9353,5.7065,20.214],[-3.9361,5.6898,20.2641],[-3.9436,5.6849,38.4315],[-3.9437,5.6826,45.3867],[-3.94,5.6778,24.6372],[-3.9438,5.669,21.4603],[-3.9383,5.6659,23.0607],[-3.9295,5.6393,18.3771],[-3.9356,5.6363,20.0508],[-3.9335,5.6318,16.9849],[-3.9351,5.6258,17.9216],[-3.9343,5.6218,18.6144],[-3.9301,5.616,17.2851],[-3.9369,5.5972,19.0752],[-3.9229,5.5782,22.7473],[-3.9213,5.5731,16.086],[-3.9219,5.5653,13.018],[-3.9172,5.5625,15.5286],[-3.9121,5.5643,18.7348],[-3.9082,5.5637,22.2974],[-3.9029,5.5575,22.125],[-3.8966,5.5546,32.1378],[-3.8784,5.5257,30.9131],[-3.8717,5.5221,16.2158],[-3.8708,5.5105,19.3331],[-3.8684,5.504,17.3385],[-3.862,5.5086,13.5253],[-3.8567,5.5071,16.0592],[-3.8462,5.5089,14.3984],[-3.8428,5.5067,37.5843],[-3.8389,5.497,23.586],[-3.8389,5.4929,16.905],[-3.8312,5.4869,17.7676],[-3.8284,5.4719,14.247],[-3.8251,5.4645,9.3574],[-3.8271,5.459,12.5172],[-3.8312,5.4551,14.552],[-3.8293,5.4513,11.6927],[-3.8288,5.4435,12.8564],[-3.8249,5.4415,12.7269],[-3.8227,5.4337,14.5761],[-3.8193,5.4354,9.9092],[-3.8165,5.4345,9.9513],[-3.8137,5.4328,12.0647],[-3.814,5.4292,10.8696],[-3.8109,5.4262,23.4624],[-3.8144,5.4226,21.8217],[-3.8141,5.4164,16.865],[-3.8168,5.4148,15.2333],[-3.8185,5.4092,13.1936],[-3.8242,5.4008,15.9436],[-3.8251,5.3945,21.9778],[-3.8288,5.3897,21.0824],[-3.8249,5.3858,22.2822]]]]}}