{"type":"Feature","properties":{"GID_2":"CIV.6.2_1","GID_0":"CIV","country":"Côted'Ivoire","GID_1":"CIV.6_1","province":"Lacs","NL_NAME_1":"NA","county":"Iffou","VARNAME_2":"NA","NL_NAME_2":"NA","TYPE_2":"Région","ENGTYPE_2":"Region","CC_2":"NA","HASC_2":"CI.LA.IF","name":"Iffou.county"},
"geometry":{"type": "MultiPolygon","coordinates": [[[[-3.6341,7.0514,137.1317],[-3.6221,7.0705,133.9284],[-3.6286,7.0773,141.4073],[-3.6299,7.0829,134.2247],[-3.6257,7.092,157.937],[-3.61,7.0846,136.4504],[-3.5938,7.0798,135.3936],[-3.5827,7.0649,137.9652],[-3.5802,7.0687,138.9275],[-3.5825,7.0784,142.0087],[-3.5819,7.0852,137.871],[-3.579,7.0919,137.56],[-3.5672,7.1063,140.9703],[-3.5702,7.1085,147.3916],[-3.5769,7.1079,138.9811],[-3.5825,7.1022,141.1998],[-3.5978,7.1037,181.7502],[-3.6068,7.1067,136.9726],[-3.6275,7.1231,143.4399],[-3.6348,7.1247,137.2396],[-3.6408,7.1286,137.853],[-3.6424,7.1319,139.1133],[-3.6424,7.1464,136.6432],[-3.6482,7.1613,144.0479],[-3.6508,7.1786,141.9885],[-3.6459,7.1988,151.7312],[-3.6408,7.204,147.3244],[-3.6152,7.1964,138.3896],[-3.6108,7.1915,145.8621],[-3.6091,7.1852,136.8087],[-3.6039,7.182,136.6438],[-3.5935,7.1887,141.1685],[-3.5851,7.2,141.3494],[-3.5827,7.2126,149.1785],[-3.5786,7.2206,142.503],[-3.5767,7.2293,141.6991],[-3.5802,7.2391,143.3894],[-3.5924,7.2529,150.191],[-3.5942,7.2761,156.0888],[-3.5863,7.2826,141.3047],[-3.5798,7.2839,156.0695],[-3.555,7.2796,155.4493],[-3.5416,7.2796,145.675],[-3.5284,7.2894,139.2269],[-3.5304,7.2906,138.9693],[-3.537,7.2898,166.2337],[-3.5489,7.2985,168.0092],[-3.5548,7.3009,173.611],[-3.5588,7.3072,152.4788],[-3.5595,7.3131,149.1219],[-3.548,7.3309,147.0238],[-3.5392,7.3408,148.2783],[-3.5348,7.3433,142.2309],[-3.5303,7.3426,149.4077],[-3.5178,7.3523,150.3548],[-3.5232,7.3692,145.2833],[-3.5141,7.3886,142.1549],[-3.5049,7.3953,141.2532],[-3.5021,7.4263,144.9277],[-3.5034,7.4321,145.3837],[-3.5096,7.4446,147.3748],[-3.5262,7.4591,147.5359],[-3.5317,7.4678,146.8128],[-3.5333,7.4789,143.7543],[-3.5399,7.4925,142.9485],[-3.5586,7.496,149.0721],[-3.5749,7.5013,160.139],[-3.5837,7.5095,148.781],[-3.5895,7.5109,147.4804],[-3.5923,7.5164,149.6155],[-3.6014,7.5199,160.5205],[-3.6033,7.5231,151.4659],[-3.603,7.5278,155.0368],[-3.5993,7.5345,151.721],[-3.5919,7.5371,158.349],[-3.5852,7.5416,161.1444],[-3.5748,7.5542,160.4759],[-3.5791,7.577,146.2982],[-3.5824,7.5824,155.4947],[-3.5966,7.5922,150.7848],[-3.6088,7.594,145.865],[-3.6167,7.5919,147.9078],[-3.6356,7.5773,146.9208],[-3.6422,7.5752,162.6823],[-3.6519,7.577,163.8984],[-3.658,7.5825,154.7732],[-3.6611,7.5883,153.4717],[-3.6667,7.6058,147.2307],[-3.6831,7.6252,154.0294],[-3.6837,7.6285,152.0544],[-3.681,7.6399,148.5424],[-3.6979,7.6479,147.7943],[-3.7079,7.6481,158.499],[-3.7315,7.6654,159.7571],[-3.7346,7.6772,155.1227],[-3.7351,7.6888,152.165],[-3.7308,7.7061,150.6003],[-3.7324,7.7139,157.2772],[-3.7285,7.7216,149.3141],[-3.7325,7.736,149.8286],[-3.7369,7.7401,152.7152],[-3.7424,7.7338,176.5411],[-3.7549,7.7319,163.1681],[-3.7615,7.7374,155.3644],[-3.7816,7.7349,155.8693],[-3.788,7.7382,154.2312],[-3.8037,7.7418,156.6035],[-3.8209,7.7375,157.4446],[-3.8296,7.7418,155.3425],[-3.8326,7.7468,154.5714],[-3.8333,7.7548,154.4993],[-3.8282,7.7596,155.244],[-3.8269,7.7627,156.2871],[-3.8289,7.765,157.0551],[-3.8449,7.7721,155.6656],[-3.8551,7.7696,160.0777],[-3.8714,7.7691,156.4515],[-3.874,7.7695,158.2293],[-3.8763,7.7719,159.7826],[-3.877,7.7764,159.1906],[-3.8693,7.7831,152.8198],[-3.8623,7.7985,155.4009],[-3.859,7.8023,153.8184],[-3.8608,7.8069,154.8033],[-3.8741,7.8152,164.1268],[-3.8776,7.82,157.2409],[-3.8784,7.824,166.3811],[-3.8759,7.8332,167.272],[-3.8677,7.8416,158.4364],[-3.8634,7.8486,155.0411],[-3.865,7.8603,157.9034],[-3.8704,7.8652,158.3961],[-3.8805,7.8795,157.7434],[-3.8949,7.8848,161.1367],[-3.9035,7.8851,162.5957],[-3.9113,7.8829,160.2914],[-3.921,7.8851,159.3484],[-3.9357,7.8936,161.2403],[-3.9497,7.8937,162.3469],[-3.9838,7.9,161.9012],[-3.9868,7.9024,164.8373],[-3.9899,7.9025,168.6494],[-3.9939,7.9072,159.5925],[-3.9933,7.9119,166.2351],[-3.9898,7.916,164.7933],[-3.9741,7.9165,165.4379],[-3.9703,7.9191,163.1308],[-3.9584,7.9218,168.2981],[-3.9462,7.9276,162.6048],[-3.944,7.9296,163.5254],[-3.9406,7.9417,171.1415],[-3.931,7.9482,158.2701],[-3.9243,7.9553,162.9454],[-3.9203,7.9623,161.2236],[-3.9202,7.9654,160.9551],[-3.9242,7.975,166.897],[-3.9284,7.9779,167.1904],[-3.9614,7.9689,166.0782],[-3.9734,7.971,163.596],[-3.9809,7.9691,164.8358],[-3.9943,7.9562,173.7064],[-4.0002,7.953,168.4622],[-4.0052,7.9542,167.2155],[-4.0089,7.9572,162.8712],[-4.0164,7.9816,167.2573],[-4.0143,7.9907,177.8851],[-4.0082,7.9978,166.0704],[-4.0003,8.0011,166.0782],[-3.9868,8.0135,170.4851],[-3.9752,8.0138,172.7897],[-3.9688,8.0123,192.9563],[-3.9646,8.0153,191.5889],[-3.9634,8.0182,191.2375],[-3.9641,8.0248,186.7957],[-3.9654,8.0294,173.6353],[-3.9684,8.032,171.7082],[-3.9813,8.0322,168.9312],[-3.9963,8.0422,168.4524],[-4.0008,8.0434,177.953],[-4.0015,8.0408,166.941],[-4.0037,8.0416,172.0795],[-4.0109,8.0463,173.0054],[-4.0135,8.0513,177.5234],[-4.0449,8.0274,191.3941],[-4.0557,8.026,196.6437],[-4.0779,8.0129,238.8097],[-4.0849,8.0122,241.5092],[-4.0913,8.0092,245.7151],[-4.1365,8.0028,229.6348],[-4.1456,8.0073,248.1572],[-4.166,8.0081,245.8454],[-4.1785,8.0056,219.315],[-4.1852,8.0015,238.2623],[-4.1968,7.9904,211.9194],[-4.2648,7.9155,208.5681],[-4.3036,7.8563,153.3452],[-4.3569,7.8536,176.8498],[-4.4461,7.8177,197.416],[-4.4823,7.8166,213.6017],[-4.4982,7.8224,239.5669],[-4.5046,7.8205,216.2442],[-4.5102,7.8236,224.9363],[-4.5183,7.8226,245.0538],[-4.5246,7.8249,259.7625],[-4.5308,7.8307,249.9361],[-4.5339,7.8307,246.6082],[-4.5392,7.8186,240.253],[-4.5495,7.8029,231.2321],[-4.5496,7.7996,222.711],[-4.5426,7.7863,217.2273],[-4.5428,7.7796,212.5793],[-4.5252,7.7554,185.8751],[-4.5231,7.7448,186.3628],[-4.5184,7.7369,180.7172],[-4.5193,7.7306,180.1233],[-4.5158,7.7081,174.4281],[-4.5125,7.6983,170.344],[-4.5104,7.6784,167.0917],[-4.5033,7.6694,177.2461],[-4.4972,7.6441,163.2517],[-4.4992,7.6399,160.3896],[-4.4984,7.6233,155.8439],[-4.5051,7.6152,151.7876],[-4.5095,7.6152,149.6089],[-4.5164,7.6121,148.0081],[-4.5216,7.6069,140.6225],[-4.5313,7.605,140.3317],[-4.538,7.6087,142.5518],[-4.5439,7.6185,145.0947],[-4.5581,7.6213,142.349],[-4.562,7.6193,150.4349],[-4.5704,7.6221,146.5175],[-4.5758,7.6219,144.0533],[-4.5835,7.6137,147.2656],[-4.5971,7.6045,150.195],[-4.5998,7.5948,151.4496],[-4.6025,7.5907,150.8691],[-4.6025,7.5855,153.8911],[-4.6084,7.5819,151.2095],[-4.6105,7.5755,151.6958],[-4.626,7.5707,152.6864],[-4.6286,7.5677,152.6328],[-4.6325,7.5674,155.2234],[-4.6364,7.5649,155.7281],[-4.6489,7.5665,157.9021],[-4.6577,7.5577,157.9632],[-4.6597,7.5548,156.1356],[-4.6557,7.5465,157.6562],[-4.6593,7.5399,158.0488],[-4.6685,7.532,161.7744],[-4.6716,7.5157,170.1443],[-4.6782,7.4949,175.7113],[-4.677,7.4877,184.3805],[-4.6731,7.4823,174.2302],[-4.6686,7.4814,176.1164],[-4.6577,7.4726,181.9176],[-4.6468,7.4757,197.9501],[-4.6399,7.47,208.4223],[-4.6324,7.4593,203.9715],[-4.6234,7.4563,203.9106],[-4.6201,7.4531,202.0212],[-4.6121,7.4411,193.0269],[-4.6054,7.436,189.9535],[-4.5987,7.4173,164.2521],[-4.5972,7.4061,156.7395],[-4.5945,7.4028,154.1378],[-4.5841,7.3976,151.4843],[-4.5666,7.3834,147.8357],[-4.5589,7.3691,138.8918],[-4.5587,7.366,136.6642],[-4.5517,7.3567,142.0112],[-4.5436,7.3505,147.9502],[-4.5344,7.3519,144.0834],[-4.5241,7.3479,156.2917],[-4.503,7.3318,155.8717],[-4.4877,7.323,142.754],[-4.4724,7.3232,127.8761],[-4.4463,7.3011,127.9038],[-4.4438,7.2935,125.7884],[-4.4475,7.2885,114.7437],[-4.4707,7.2821,112.224],[-4.4731,7.278,128.5672],[-4.4726,7.2723,128.2362],[-4.4636,7.2652,109.7499],[-4.4652,7.2612,110.7845],[-4.4093,7.251,174.4132],[-4.3737,7.2413,151.6987],[-4.3682,7.2297,156.5747],[-4.3449,7.2144,195.5724],[-4.344,7.213,184.0015],[-4.3483,7.2074,165.2639],[-4.3443,7.2046,198.989],[-4.3358,7.2012,192.8192],[-4.3302,7.2009,188.5159],[-4.3208,7.1964,176.673],[-4.2434,7.1446,168.4883],[-4.2379,7.1426,173.8599],[-4.2344,7.1442,171.2067],[-4.2167,7.1447,169.0357],[-4.0886,7.0608,225.8446],[-4.0708,7.0534,250.0956],[-4.0629,7.0484,280.9689],[-4.0573,7.0268,252.1912],[-4.0335,6.9985,227.027],[-4.0116,7.0044,202.1305],[-4.0019,6.9985,193.6976],[-3.9782,6.9922,187.0352],[-3.9668,6.9933,199.9878],[-3.9517,6.9889,211.4772],[-3.9477,6.9899,204.9828],[-3.9233,6.9757999999999996,174.1594],[-3.9145,6.9774,157.777],[-3.9082,6.9875,162.7804],[-3.9035,6.9899,166.6681],[-3.8925,6.9916,185.423],[-3.8798,6.9851,200.7844],[-3.8751,6.9855,179.3735],[-3.8656,6.99,169.5575],[-3.8527,6.9912,165.3357],[-3.8447,6.9889,150.7305],[-3.8423,6.9865,144.7506],[-3.838,6.9814,144.6536],[-3.8313,6.9664,138.9643],[-3.8157,6.9668,139.5178],[-3.8118,6.9616,136.7538],[-3.8073,6.9589,131.3377],[-3.79,6.9522,138.3436],[-3.7871,6.949,137.2526],[-3.7863,6.9442,139.9172],[-3.7842,6.9483,127.4717],[-3.7856,6.9534,136.5528],[-3.7822,6.9689,136.6416],[-3.7635,6.9955,136.8387],[-3.7566,7.002,131.0084],[-3.7324,7.0093,133.4299],[-3.7218,7.007,134.4083],[-3.7181,7.0047,132.338],[-3.7164,7.0059,133.4122],[-3.7173,7.0134,131.162],[-3.7162,7.0183,130.5737],[-3.7089,7.0259,131.1586],[-3.6875,7.0387,131.2174],[-3.6789,7.0481,137.7909],[-3.6681,7.0533,139.2741],[-3.6607,7.0538,138.0687],[-3.6399,7.0461,133.3013],[-3.6341,7.0514,137.1317]]]]}}