{"type": "Feature","bbox": [-5.3839,7.6238,-5.0973,7.9691],"geometry": {"type": "MultiPolygon","coordinates": [[[[-5.3839,7.665,261.6713],[-5.3724,7.6634,266.5045],[-5.3596,7.6665,276.4046],[-5.3559,7.6638,274.5801],[-5.347,7.6625,289.2767],[-5.3176,7.6417,299.2158],[-5.3069,7.637,284.8202],[-5.2958,7.6354,268.8514],[-5.2939,7.6296,293.6069],[-5.2891,7.6265,263.142],[-5.282,7.6274,266.5007],[-5.2666,7.6413,253.9456],[-5.2646,7.6395,258.4579],[-5.255,7.6381,265.0978],[-5.2505,7.6393,271.2621],[-5.2485,7.6418,269.7478],[-5.2224,7.6303,264.1563],[-5.2121,7.6238,286.7447],[-5.2057,7.6246,275.0382],[-5.2037,7.627,281.7573],[-5.193,7.6282,271.1549],[-5.1926,7.6682,311.8968],[-5.1901,7.6741,324.1372],[-5.1767,7.6984,321.1923],[-5.1303,7.7694,368.0305],[-5.1263,7.7871,357.6992],[-5.123,7.7932,352.1439],[-5.1238,7.8134,314.8679],[-5.1206,7.8292,297.3211],[-5.1208,7.844,283.8586],[-5.1151,7.859,295.7671],[-5.1024,7.8802,270.994],[-5.1053,7.9169,296.9666],[-5.104,7.9334,304.7368],[-5.0973,7.9503,283.4872],[-5.1028,7.9616,301.6609],[-5.1031,7.9691,288.733],[-5.1221,7.9642,311.5827],[-5.1381,7.963,325.2057],[-5.1491,7.9551,333.2482],[-5.151,7.9494,316.192],[-5.1548,7.9475,304.5041],[-5.1664,7.946,298.1122],[-5.1742,7.9401,309.1819],[-5.177,7.9325,305.5104],[-5.1828,7.9239,290.5797],[-5.1897,7.9164,276.1022],[-5.196,7.9144,267.0513],[-5.203,7.8988,292.8042],[-5.2114,7.8954,275.4056],[-5.2127,7.8935,270.2883],[-5.2118,7.8902,279.7185],[-5.1991,7.8827,283.706],[-5.1984,7.8797,288.4979],[-5.2005,7.8685,282.9078],[-5.2078,7.8611,272.7518],[-5.2167,7.8396,289.2128],[-5.2171,7.8309,303.3812],[-5.214,7.8271,295.726],[-5.2138,7.8217,287.3477],[-5.2214,7.8032,315.0576],[-5.2272,7.799,324.5554],[-5.231,7.7986,330.5267],[-5.236,7.8014,297.4766],[-5.2433,7.809,286.7568],[-5.2789,7.7779,307.2763],[-5.2828,7.7773,307.047],[-5.2913,7.7796,296.4382],[-5.2967,7.7705,316.4395],[-5.3056,7.768,319.487],[-5.3118,7.7636,311.3775],[-5.3153,7.7628,307.9675],[-5.321,7.7644,324.0999],[-5.3283,7.7617,316.0592],[-5.3371,7.7514,313.074],[-5.3543,7.722,279.8439],[-5.3746,7.7048,263.5205],[-5.3789,7.6885,291.3486],[-5.3794,7.6774,272.9667],[-5.3839,7.665,261.6713]]]]}
,"properties": {"GID_3": "CIV.11.1.4_1","GID_0": "CIV","country": "Côted'Ivoire","GID_1": "CIV.11_1","province": "ValléeduBandama","NL_NAME_1": "NA","GID_2": "CIV.11.1_1","county": "Gbeke","NL_NAME_2": "NA","city": "Diabo","VARNAME_3": "NA","NL_NAME_3": "NA","TYPE_3": "Département","ENGTYPE_3": "Department","CC_3": "NA","HASC_3": "NA","name": "Diabo.city","area_km2": 533.0454,"hist_schema_id": "Elevation0-9000","hist_area_km2": {"250": 6.115,"275": 85.3843,"300": 232.9536,"325": 155.4659,"350": 48.9041,"375": 4.0334,"400": 0.126,"425": 0.063}}}