{"type": "Feature","bbox": [-4.5566,6.9442,-3.5021,7.5109],"geometry": {"type": "MultiPolygon","coordinates": [[[[-3.6322,7.0532,132.5431],[-3.6221,7.0705,133.9284],[-3.6286,7.0773,141.4073],[-3.6299,7.0829,134.2247],[-3.6257,7.092,157.937],[-3.61,7.0846,136.4504],[-3.5938,7.0798,135.3936],[-3.5827,7.0649,137.9652],[-3.5802,7.0687,138.9275],[-3.5825,7.0784,142.0087],[-3.5819,7.0852,137.871],[-3.579,7.0919,137.56],[-3.5672,7.1063,140.9703],[-3.5702,7.1085,147.3916],[-3.5769,7.1079,138.9811],[-3.5825,7.1022,141.1998],[-3.5978,7.1037,181.7502],[-3.6068,7.1067,136.9726],[-3.6275,7.1231,143.4399],[-3.6348,7.1247,137.2396],[-3.6408,7.1286,137.853],[-3.6424,7.1319,139.1133],[-3.6424,7.1464,136.6432],[-3.6482,7.1613,144.0479],[-3.6508,7.1786,141.9885],[-3.6459,7.1988,151.7312],[-3.6408,7.204,147.3244],[-3.6152,7.1964,138.3896],[-3.6108,7.1915,145.8621],[-3.6091,7.1852,136.8087],[-3.6039,7.182,136.6438],[-3.5935,7.1887,141.1685],[-3.5888,7.1938,143.5278],[-3.5851,7.2,141.3494],[-3.5827,7.2126,149.1785],[-3.5786,7.2206,142.503],[-3.5767,7.2293,141.6991],[-3.5802,7.2391,143.3894],[-3.5924,7.2529,150.191],[-3.5942,7.2761,156.0888],[-3.5863,7.2826,141.3047],[-3.5798,7.2839,156.0695],[-3.555,7.2796,155.4493],[-3.5416,7.2796,145.675],[-3.5284,7.2894,139.2269],[-3.5304,7.2906,138.9693],[-3.537,7.2898,166.2337],[-3.5489,7.2985,168.0092],[-3.5548,7.3009,173.611],[-3.5588,7.3072,152.4788],[-3.5595,7.3131,149.1219],[-3.548,7.3309,147.0238],[-3.5392,7.3408,148.2783],[-3.5348,7.3433,142.2309],[-3.5303,7.3426,149.4077],[-3.5178,7.3523,150.3548],[-3.5222,7.3642,145.3047],[-3.5222,7.3732,146.0204],[-3.5141,7.3886,142.1549],[-3.5049,7.3953,141.2532],[-3.5032,7.403,141.339],[-3.5021,7.4263,144.9277],[-3.5034,7.4321,145.3837],[-3.5096,7.4446,147.3748],[-3.5262,7.4591,147.5359],[-3.5317,7.4678,146.8128],[-3.5333,7.4789,143.7543],[-3.5399,7.4925,142.9485],[-3.5586,7.496,149.0721],[-3.5749,7.5013,160.139],[-3.5837,7.5095,148.781],[-3.5895,7.5109,147.4804],[-3.592,7.5047,153.0214],[-3.5966,7.5004,152.0548],[-3.6071,7.5033,153.8195],[-3.6187,7.4994,159.789],[-3.632,7.4995,164.3681],[-3.6558,7.5068,167.8756],[-3.6718,7.5039,180.4633],[-3.6863,7.4926,172.76],[-3.6913,7.486,172.8838],[-3.6994,7.4708,174.5102],[-3.7031,7.46,191.6538],[-3.7137,7.4431,202.8784],[-3.7145,7.4368,192.256],[-3.7197,7.429,194.5849],[-3.7297,7.4223,196.8625],[-3.7339,7.4218,199.2131],[-3.7467,7.4154,198.3221],[-3.7618,7.4155,200.7359],[-3.7986,7.4,215.0732],[-3.8118,7.3912,219.8996],[-3.8235,7.3986,243.5172],[-3.8386,7.4149,263.4694],[-3.8507,7.4163,244.7497],[-3.8622,7.4211,262.5913],[-3.8676,7.4268,271.9107],[-3.8741,7.4486,251.6754],[-3.878,7.455,277.956],[-3.8812,7.4562,277.88],[-3.9044,7.4561,255.1877],[-3.9096,7.4581,220.0048],[-3.9353,7.4538,227.5654],[-3.9435,7.4465,203.3765],[-3.9547,7.4262,198.0886],[-3.9529,7.3811,210.0767],[-3.9682,7.36,187.094],[-3.9845,7.3485,180.789],[-3.9965,7.3421,178.0495],[-4.0002,7.3435,175.0624],[-4.0017,7.3527,177.793],[-4.0064,7.361,177.8173],[-4.0287,7.3575,220.1518],[-4.0416,7.3538,224.1133],[-4.0523,7.3478,228.7947],[-4.0679,7.3524,216.0809],[-4.0786,7.349,189.8447],[-4.084,7.3507,188.5235],[-4.0995,7.3583,217.067],[-4.112,7.3683,231.0537],[-4.1203,7.3725,221.2974],[-4.1465,7.4009,197.2703],[-4.1549,7.4064,185.978],[-4.176,7.4163,176.8206],[-4.2052,7.421,161.7711],[-4.2658,7.4241,131.1449],[-4.2804,7.4218,127.8371],[-4.3076,7.4073,137.0358],[-4.3294,7.4014,134.6815],[-4.3406,7.3945,129.4038],[-4.3421,7.4042,124.8973],[-4.3495,7.4149,120.4028],[-4.3645,7.41,121.5195],[-4.3685,7.4111,127.0262],[-4.3757,7.416,133.528],[-4.3817,7.4301,139.9154],[-4.3854,7.4298,132.9983],[-4.401,7.4374,140.1001],[-4.4266,7.4423,160.6271],[-4.4612,7.4383,154.7675],[-4.4674,7.4331,148.8583],[-4.4784,7.4196,160.5032],[-4.4994,7.3855,158.593],[-4.505,7.3806,161.4609],[-4.5159,7.3762,159.3114],[-4.5299,7.3766,181.1041],[-4.5566,7.3624,140.6294],[-4.5436,7.3505,147.9502],[-4.5344,7.3519,144.0834],[-4.5241,7.3479,156.2917],[-4.4921,7.3249,148.4943],[-4.4877,7.323,142.754],[-4.4724,7.3232,127.8761],[-4.4463,7.3011,127.9038],[-4.4438,7.2935,125.7884],[-4.4475,7.2885,114.7437],[-4.4707,7.2821,112.224],[-4.4731,7.278,128.5672],[-4.4726,7.2723,128.2362],[-4.4636,7.2652,109.7499],[-4.4652,7.2612,110.7845],[-4.4093,7.251,174.4132],[-4.3737,7.2413,151.6987],[-4.3682,7.2297,156.5747],[-4.3449,7.2144,195.5724],[-4.344,7.213,184.0015],[-4.3483,7.2074,165.2639],[-4.3443,7.2046,198.989],[-4.3358,7.2012,192.8192],[-4.3302,7.2009,188.5159],[-4.3208,7.1964,176.673],[-4.2434,7.1446,168.4883],[-4.2379,7.1426,173.8599],[-4.2344,7.1442,171.2067],[-4.2167,7.1447,169.0357],[-4.0886,7.0608,225.8446],[-4.0708,7.0534,250.0956],[-4.0629,7.0484,280.9689],[-4.0573,7.0268,252.1912],[-4.0335,6.9985,227.027],[-4.0116,7.0044,202.1305],[-4.0019,6.9985,193.6976],[-3.9782,6.9922,187.0352],[-3.9668,6.9933,199.9878],[-3.9517,6.9889,211.4772],[-3.9477,6.9899,204.9828],[-3.9233,6.9757999999999996,174.1594],[-3.9145,6.9774,157.777],[-3.9082,6.9875,162.7804],[-3.9035,6.9899,166.6681],[-3.8925,6.9916,185.423],[-3.8798,6.9851,200.7844],[-3.8751,6.9855,179.3735],[-3.8656,6.99,169.5575],[-3.8527,6.9912,165.3357],[-3.8447,6.9889,150.7305],[-3.8423,6.9865,144.7506],[-3.838,6.9814,144.6536],[-3.8313,6.9664,138.9643],[-3.8157,6.9668,139.5178],[-3.8118,6.9616,136.7538],[-3.8073,6.9589,131.3377],[-3.79,6.9522,138.3436],[-3.7871,6.949,137.2526],[-3.7863,6.9442,139.9172],[-3.7842,6.9483,127.4717],[-3.7856,6.9534,136.5528],[-3.7822,6.9689,136.6416],[-3.7635,6.9955,136.8387],[-3.7566,7.002,131.0084],[-3.7324,7.0093,133.4299],[-3.7218,7.007,134.4083],[-3.7181,7.0047,132.338],[-3.7164,7.0059,133.4122],[-3.7173,7.0134,131.162],[-3.7162,7.0183,130.5737],[-3.7089,7.0259,131.1586],[-3.6875,7.0387,131.2174],[-3.6789,7.0481,137.7909],[-3.6681,7.0533,139.2741],[-3.6607,7.0538,138.0687],[-3.6399,7.0461,133.3013],[-3.6322,7.0532,132.5431]]]]}
,"properties": {"GID_3": "CIV.6.2.1_1","GID_0": "CIV","country": "Côted'Ivoire","GID_1": "CIV.6_1","province": "Lacs","NL_NAME_1": "NA","GID_2": "CIV.6.2_1","county": "Iffou","NL_NAME_2": "NA","city": "Daoukro","VARNAME_3": "NA","NL_NAME_3": "NA","TYPE_3": "Département","ENGTYPE_3": "Department","CC_3": "NA","HASC_3": "NA","name": "Daoukro.city","area_km2": 3827.339,"hist_schema_id": "Elevation0-9000","hist_area_km2": {"100": 7.234,"125": 226.45,"150": 609.688,"175": 813.86,"200": 882.123,"225": 700.471,"250": 413.064,"275": 147.143,"300": 20.657,"325": 4.776,"350": 1.115,"375": 0.61,"400": 0.147}}}