{"type":"Feature","properties":{"GID_2":"CIV.12.2_1","GID_0":"CIV","country":"Côted'Ivoire","GID_1":"CIV.12_1","province":"Woroba","NL_NAME_1":"NA","county":"Béré","VARNAME_2":"NA","NL_NAME_2":"NA","TYPE_2":"Région","ENGTYPE_2":"Region","CC_2":"NA","HASC_2":"CI.WB.BR","name":"Béré.county"},
"geometry":{"type": "MultiPolygon","coordinates": [[[[-5.6823,7.7261,187.7239],[-5.6767,7.7177,184.9412],[-5.6726,7.7423,183.631],[-5.661,7.7475,183.5811],[-5.6595,7.7499,183.9767],[-5.6594,7.7548,183.3825],[-5.6634,7.7624,185.5781],[-5.6642,7.7693,183.3999],[-5.6654,7.7976,185.2475],[-5.6554,7.8057,191.4588],[-5.6521,7.8189,184.7586],[-5.6557,7.827,186.7107],[-5.6623,7.831,185.6593],[-5.6606,7.8417,185.7247],[-5.655,7.8401,187.7702],[-5.6517,7.8409,186.5435],[-5.6348,7.8313,185.535],[-5.6308,7.8312,187.4974],[-5.6245,7.8331,191.554],[-5.6117,7.85,186.1856],[-5.613,7.8559,187.1353],[-5.6192,7.8599,193.4387],[-5.6209,7.8756,189.7853],[-5.6283,7.8876,186.0928],[-5.6173,7.9071,189.7126],[-5.604,7.9158,188.6839],[-5.6017,7.9189,187.2987],[-5.6042,7.9317,189.1326],[-5.6035,7.9348,193.3902],[-5.5955,7.9423,190.3006],[-5.5959,7.9477,191.9941],[-5.5931,7.9541,189.4159],[-5.5942,7.9598,191.2094],[-5.5929,7.9653,189.5517],[-5.5833,7.9753,193.5079],[-5.5804,7.9797,190.25],[-5.578,7.9887,194.7391],[-5.5692,7.9991,199.6828],[-5.5718,8.0117,193.1906],[-5.5707,8.0194,197.4823],[-5.5638,8.0246,199.1129],[-5.5566,8.0257,198.1787],[-5.5633,8.0324,202.0818],[-5.5638,8.0361,194.6332],[-5.5509,8.0342,196.7622],[-5.5487,8.0359,198.026],[-5.5465,8.0453,198.922],[-5.5473,8.0509,196.8452],[-5.5451,8.0549,195.9791],[-5.5313,8.0598,196.7647],[-5.53,8.062,199.1191],[-5.5324,8.0754,196.1122],[-5.5213,8.0757,196.5633],[-5.5237,8.0866,195.4891],[-5.5217,8.0962,195.7842],[-5.5227,8.1004,198.3343],[-5.5298,8.1074,199.5199],[-5.5294,8.1143,197.1573],[-5.5162,8.1199,197.2262],[-5.5094,8.1067,198.7385],[-5.4993,8.105,198.6547],[-5.4951,8.1064,203.9386],[-5.4894,8.1149,196.3083],[-5.4854,8.1175,196.9349],[-5.4809,8.1155,196.2518],[-5.4783,8.1117,198.0801],[-5.4759,8.1029,199.9597],[-5.4701,8.103,201.6317],[-5.4637,8.1005,202.8978],[-5.4601,8.1081,198.0648],[-5.4526,8.1108,204.2841],[-5.4442,8.1099,203.3248],[-5.4416,8.1083,203.2818],[-5.4344,8.1086,202.8922],[-5.4326,8.102,205.4601],[-5.4234,8.0998,209.7046],[-5.4218,8.1003,205.3107],[-5.4228,8.1084,204.1161],[-5.4188,8.1129,208.4281],[-5.4142,8.1122,205.9939],[-5.4051,8.1046,214.192],[-5.4021,8.1047,216.3463],[-5.3974,8.1086,207.795],[-5.3963,8.1134,206.8161],[-5.3972,8.1172,212.1444],[-5.4005,8.1206,209.6627],[-5.3979,8.1404,208.1288],[-5.4076,8.1534,209.2803],[-5.4049,8.1627,210.9198],[-5.3992,8.1649,204.475],[-5.397,8.1633,206.3583],[-5.3885,8.1645,210.1974],[-5.3805,8.1615,206.4622],[-5.3704,8.166,209.884],[-5.3615,8.1612,208.1109],[-5.3578,8.1623,209.0124],[-5.3494,8.1745,214.1507],[-5.3507,8.18,209.5694],[-5.3548,8.1843,212.6884],[-5.3569,8.1927,216.9122],[-5.3549,8.2029,223.0881],[-5.3472,8.2127,221.7966],[-5.3466,8.2175,220.3803],[-5.349,8.2202,221.318],[-5.3534,8.2213,222.7877],[-5.358,8.2274,222.8002],[-5.3666,8.2329,224.9786],[-5.37,8.2416,223.2782],[-5.3731,8.2448,223.8307],[-5.3719,8.2588,224.7567],[-5.3683,8.259,225.5376],[-5.3556,8.2499,216.4792],[-5.3485,8.2472,225.5447],[-5.3372,8.2484,219.6919],[-5.3385,8.2515,228.5228],[-5.3494,8.2618,225.3808],[-5.3617,8.2682,224.6034],[-5.3711,8.2717,229.3404],[-5.3868,8.2723,239.4672],[-5.3919,8.2763,236.7429],[-5.3921,8.3016,222.8368],[-5.4128,8.3087,232.4644],[-5.4197,8.313,231.837],[-5.4369,8.3358,224.763],[-5.4501,8.3414,230.8743],[-5.4619,8.3505,226.721],[-5.4643,8.3482,229.7998],[-5.4732,8.3512,232.4784],[-5.4818,8.3585,242.0566],[-5.492,8.3551,250.2643],[-5.503,8.3658,246.2427],[-5.5032,8.3767,251.1609],[-5.5067,8.3798,251.3244],[-5.509,8.3778,263.9901],[-5.5198,8.3746,252.9633],[-5.5312,8.3774,250.0142],[-5.5367,8.3749,264.885],[-5.5549,8.3825,251.7283],[-5.5657,8.3925,251.6102],[-5.5682,8.3973,248.0],[-5.581,8.412,251.8576],[-5.6007,8.419,255.2737],[-5.6102,8.4251,253.4197],[-5.6166,8.4264,263.8338],[-5.6309,8.4366,265.0709],[-5.6333,8.4397,260.4861],[-5.6306,8.4505,256.1235],[-5.6272,8.4521,255.2891],[-5.6102,8.4525,257.3436],[-5.6056,8.4599,250.6493],[-5.6019,8.4592,252.1766],[-5.5951,8.4613,266.4777],[-5.5908,8.4651,266.3823],[-5.5692,8.4588,256.5572],[-5.5598,8.4479,253.0878],[-5.5537,8.4459,256.7647],[-5.5416,8.4464,256.2315],[-5.5358,8.4482,257.08],[-5.5301,8.4565,255.7289],[-5.5225,8.461,252.7992],[-5.5322,8.4642,286.0848],[-5.5509,8.4774,256.935],[-5.5746,8.4843,263.2002],[-5.611,8.5076,255.5746],[-5.6181,8.5168,259.445],[-5.6194,8.5268,262.2368],[-5.618,8.5301,255.8362],[-5.6119,8.5321,259.636],[-5.6119,8.537,269.2143],[-5.6519,8.5368,284.1519],[-5.7129,8.5415,333.5706],[-5.8069,8.5918,373.7842],[-5.8254,8.6039,342.6702],[-5.8508,8.6171,349.1657],[-5.8584,8.6196,369.6542],[-5.8809,8.6337,346.8262],[-5.9047,8.6456,337.7533],[-5.9082,8.6466,343.5562],[-5.9145,8.6399,339.178],[-5.9199,8.6442,339.1888],[-5.9602,8.6537,346.4122],[-5.9935,8.675,393.7711],[-5.9987,8.6849,398.3462],[-5.9996,8.6951,383.8437],[-6.0232,8.7329,379.162],[-6.0643,8.806,341.886],[-6.0671,8.8042,335.9807],[-6.0696,8.8064,335.8936],[-6.0702,8.8118,336.7637],[-6.0731,8.8165,343.7789],[-6.0783,8.8167,345.9668],[-6.0802,8.8143,346.5525],[-6.0849,8.8144,345.1915],[-6.0953,8.8175,342.6363],[-6.1068,8.8413,342.829],[-6.1225,8.8602,345.8819],[-6.1275,8.8627,339.2476],[-6.1263,8.8701,340.7562],[-6.1276,8.8743,342.3147],[-6.1368,8.8889,345.5059],[-6.1453,8.8945,346.1672],[-6.15,8.9093,348.5076],[-6.1591,8.9162,348.3404],[-6.1618,8.9205,353.1653],[-6.1751,8.9295,346.952],[-6.1931,8.9508,347.5235],[-6.2078,8.9557,353.794],[-6.2139,8.9614,349.0002],[-6.2111,8.9808,364.1593],[-6.2132,8.9844,360.5619],[-6.2419,8.9979,361.8454],[-6.2685,9.0842,378.2014],[-6.19,9.1527,376.0769],[-6.2589,9.204,364.2219],[-6.2643,9.2032,365.4757],[-6.2699,9.2047,366.572],[-6.2833,9.1992,364.869],[-6.2964,9.2056,369.1656],[-6.3013,9.2035,369.747],[-6.3091,9.2042,371.8564],[-6.3193,9.2143,369.4159],[-6.334,9.2157,373.2971],[-6.3386,9.2137,373.6981],[-6.344,9.2138,370.9254],[-6.3478,9.2105,372.217],[-6.3494,9.205,371.5144],[-6.3479,9.195,382.1758],[-6.3501,9.1899,382.1639],[-6.3495,9.184,389.5377],[-6.345,9.1747,398.8203],[-6.3791,9.1269,378.7106],[-6.4352,9.1052,381.2526],[-6.4415,9.1013,369.6913],[-6.4505,9.0875,359.2199],[-6.469,9.0715,359.4537],[-6.4716,9.0608,346.0619],[-6.4649,9.0523,340.2604],[-6.4648,9.0502,340.0393],[-6.4693,9.0493,348.6596],[-6.473,9.0543,348.6399],[-6.4828,9.0595,363.2655],[-6.4862,9.0647,358.1662],[-6.4889,9.0861,384.5452],[-6.4912,9.0932,370.2586],[-6.503,9.1006,372.7842],[-6.5161,9.1237,374.8984],[-6.5217,9.129,377.1384],[-6.5236,9.1348,390.0475],[-6.5236,9.1475,394.2637],[-6.5268,9.1534,388.3151],[-6.5799,9.1499,397.7502],[-6.5469,9.0836,396.9373],[-6.6007,9.0879,383.1912],[-6.6024,9.0915,381.1604],[-6.6073,9.0952,383.1974],[-6.6127,9.0962,376.0872],[-6.617,9.0964,378.7307],[-6.6304,9.0915,369.3932],[-6.6416,9.0968,368.8165],[-6.6522,9.1053,362.8212],[-6.6614,9.0987,356.439],[-6.6679,9.0881,352.5541],[-6.6786,9.0886,355.6261],[-6.6932,9.0869,347.4252],[-6.697,9.085,349.4908],[-6.6995,9.0861,347.5629],[-6.7016,9.0827,346.5841],[-6.7025,9.0574,345.4231],[-6.7073,9.0471,353.0251],[-6.7007,9.037,351.0799],[-6.7089,9.0105,345.7914],[-6.7083,9.0034,345.1295],[-6.7113,8.9993,344.0016],[-6.7099,8.995,344.9632],[-6.7057,8.9907,343.6051],[-6.7097,8.9845,346.7415],[-6.7001,8.9794,341.8409],[-6.7003,8.9773,344.8454],[-6.7054,8.9729,343.6868],[-6.7133,8.9704,338.1078],[-6.7151,8.9668,341.0178],[-6.7082,8.956,346.1278],[-6.7033,8.9532,337.2311],[-6.7018,8.9479,336.1754],[-6.706,8.9385,335.9412],[-6.7052,8.9354,337.9706],[-6.6989,8.9334,336.9799],[-6.6919,8.9186,336.6419],[-6.6807,8.9174,330.5612],[-6.6786,8.9189,334.6877],[-6.6785,8.9266,334.1706],[-6.6745,8.9242,331.3658],[-6.6695,8.9246,342.0798],[-6.6666,8.9262,339.8161],[-6.6641,8.9325,331.3615],[-6.6535,8.9309,328.4552],[-6.6411,8.9353,332.3909],[-6.6289,8.9313,333.2939],[-6.6251,8.9225,330.8006],[-6.6213,8.9192,327.3671],[-6.6174,8.9193,331.3051],[-6.6143,8.9228,324.0603],[-6.6057,8.9214,330.5465],[-6.6025,8.9302,326.9555],[-6.5932,8.9349,324.7189],[-6.5911,8.9378,331.3667],[-6.5876,8.9354,324.6184],[-6.5836,8.937,324.8417],[-6.5849,8.9312,329.1134],[-6.5838,8.9278,326.2195],[-6.5812,8.9254,331.1008],[-6.5775,8.9257,340.0507],[-6.576,8.9356,320.2736],[-6.5696,8.9413,321.8537],[-6.5634,8.9366,324.4809],[-6.5574,8.9351,320.5737],[-6.5508,8.9263,326.8741],[-6.5503,8.9215,320.7254],[-6.5578,8.909,319.8999],[-6.5545,8.9049,321.1204],[-6.5485,8.9017,319.1175],[-6.5446,8.894,319.682],[-6.5347,8.8891,330.5281],[-6.5295,8.8909,325.2576],[-6.5227,8.8896,319.3989],[-6.5198,8.8825,317.7469],[-6.5026,8.8759,320.2809],[-6.4896,8.8635,315.5898],[-6.487,8.8603,315.6995],[-6.4875,8.8557,315.7959],[-6.4849,8.8524,314.9736],[-6.4808,8.8525,312.6427],[-6.4782,8.8549,314.1418],[-6.4726,8.8399,310.5409],[-6.4644,8.8348,317.8442],[-6.4644,8.8314,312.4778],[-6.4652,8.8281,311.8013],[-6.4768,8.8293,315.4756],[-6.4803,8.8266,315.0852],[-6.4826,8.82,316.5023],[-6.4784,8.8176,315.9127],[-6.4693,8.818,311.8645],[-6.4677,8.813,314.7901],[-6.4628,8.8084,313.459],[-6.4613,8.8031,315.3938],[-6.4527,8.7987,317.5544],[-6.452,8.7955,314.6121],[-6.4496,8.7939,312.3034],[-6.4403,8.7981,316.4295],[-6.4342,8.8047,315.0481],[-6.4361,8.8116,311.6777],[-6.4353,8.8132,308.3185],[-6.4276,8.8153,310.0046],[-6.422,8.8098,306.8769],[-6.4206,8.8053,308.455],[-6.4219,8.8008,305.4313],[-6.4187,8.7975,306.7428],[-6.4087,8.7957,310.4393],[-6.4035,8.7909,306.5805],[-6.4048,8.7863,302.8205],[-6.4126,8.7812,305.4402],[-6.4148,8.7764,307.3685],[-6.4139,8.7682,312.186],[-6.4048,8.7628,306.7233],[-6.4143,8.7591,304.0654],[-6.4236,8.7469,310.1334],[-6.4195,8.7345,311.5595],[-6.4196,8.7304,308.0911],[-6.4216,8.7267,299.2505],[-6.4328,8.7213,312.8342],[-6.4338,8.7191,305.877],[-6.4334,8.7164,310.4372],[-6.4195,8.7141,302.8762],[-6.4193,8.7118,301.5357],[-6.4227,8.7102,300.419],[-6.4261,8.7128,301.4756],[-6.4346,8.7129,303.4376],[-6.4391,8.7238,306.9263],[-6.4435,8.7248,304.8341],[-6.4457,8.7234,300.4745],[-6.4452,8.7166,302.1407],[-6.4506,8.7185,309.9305],[-6.4565,8.7181,313.0825],[-6.4608,8.7153,305.4218],[-6.4669,8.6997,303.8425],[-6.4662,8.6908,302.2321],[-6.4611,8.6872,307.0439],[-6.4472,8.6841,299.443],[-6.4643,8.6755,297.4],[-6.4762,8.6776,296.7906],[-6.4789,8.6742,302.5368],[-6.4654,8.6565,311.272],[-6.4622,8.6585,316.067],[-6.4616,8.6611,301.4582],[-6.4637,8.6665,298.3236],[-6.4601,8.6643,299.478],[-6.456,8.6509,294.1238],[-6.4476,8.6429,302.5861],[-6.446,8.6387,295.3517],[-6.4463,8.6359,295.6595],[-6.4519,8.6362,297.4244],[-6.459,8.6318,291.5125],[-6.4654,8.6319,294.2255],[-6.4682,8.627,292.9962],[-6.4734,8.6229,297.3845],[-6.4737,8.6191,296.8549],[-6.4784,8.6119,302.877],[-6.4763,8.6077,302.704],[-6.468,8.6062,301.1372],[-6.4546,8.6104,306.9357],[-6.4462,8.6225,300.6185],[-6.4441,8.6048,292.8237],[-6.4384,8.6002,297.5429],[-6.4373,8.5977,296.5959],[-6.4472,8.5946,286.2149],[-6.4484,8.5922,304.4869],[-6.4487,8.5892,307.4411],[-6.4432,8.581,291.1089],[-6.4537,8.5771,295.5144],[-6.4573,8.5731,299.2297],[-6.4482,8.5608,300.6805],[-6.4433,8.5617,299.419],[-6.4391,8.568,290.4428],[-6.4337,8.5479,287.3304],[-6.4331,8.534,290.6948],[-6.4257,8.5244,287.3217],[-6.4278,8.5181,288.3892],[-6.432,8.5124,286.2722],[-6.4355,8.5136,289.0678],[-6.4398,8.5061,288.7633],[-6.4423,8.5135,285.2174],[-6.4457,8.5169,285.7159],[-6.4496,8.5181,283.8157],[-6.4565,8.5132,291.5076],[-6.459,8.511,293.2114],[-6.4588,8.5047,287.1965],[-6.4623,8.502,288.3437],[-6.4622,8.4977,287.2908],[-6.4597,8.4906,285.2404],[-6.4524,8.4815,303.1878],[-6.4347,8.4804,288.2381],[-6.4296,8.4776,283.8036],[-6.4324,8.4687,295.7349],[-6.4318,8.4562,281.5373],[-6.4339,8.4523,290.0695],[-6.4248,8.4446,284.0292],[-6.4194,8.4451,282.6951],[-6.4178,8.4426,282.2567],[-6.4189,8.4344,285.8583],[-6.4159,8.4285,281.9794],[-6.4145,8.417,287.3685],[-6.4123,8.4157,281.467],[-6.4073,8.4194,277.4421],[-6.3976,8.4209,279.5303],[-6.3797,8.4156,283.0305],[-6.381,8.4143,291.4107],[-6.3762,8.4071,285.9267],[-6.3698,8.4076,286.8897],[-6.3661,8.4038,282.1909],[-6.3576,8.385,280.6596],[-6.3584,8.3817,272.8771],[-6.3668,8.3772,269.8248],[-6.3664,8.3727,273.2761],[-6.364,8.3702,278.4167],[-6.3482,8.3668,277.521],[-6.3586,8.3561,268.7893],[-6.3496,8.3484,274.2264],[-6.3492,8.3463,273.2109],[-6.3535,8.3342,275.561],[-6.3518,8.3301,285.5876],[-6.3534,8.3244,278.687],[-6.3521,8.3107,275.5422],[-6.3482,8.2972,271.6231],[-6.3485,8.2911,267.9886],[-6.3541,8.2876,280.9798],[-6.355,8.2848,274.426],[-6.3496,8.2661,267.0157],[-6.3516,8.2568,267.8899],[-6.3474,8.242,268.4653],[-6.3481,8.2342,270.1745],[-6.3353,8.2237,268.6118],[-6.3363,8.2206,271.2054],[-6.3238,8.197,261.115],[-6.3206,8.1776,265.3414],[-6.3105,8.1426,255.0035],[-6.3096,8.12,261.8275],[-6.3044,8.1128,252.7731],[-6.3011,8.1033,258.1572],[-6.2967,8.0725,263.3636],[-6.2977,8.0655,253.0224],[-6.2943,8.0563,259.3962],[-6.2943,8.0513,270.8952],[-6.2971,8.0428,254.8647],[-6.2923,8.0251,250.4107],[-6.2818,8.0067,247.6382],[-6.2789,8.0064,246.8842],[-6.2716,8.0107,249.3417],[-6.2687,8.0101,251.0499],[-6.2646,8.0066,246.2612],[-6.253,7.9889,246.1568],[-6.2423,7.9806,245.0963],[-6.2413,7.9761,243.706],[-6.2414,7.9725,243.1518],[-6.2457,7.9624,243.6915],[-6.2557,7.9499,241.9031],[-6.2538,7.9428,239.0508],[-6.2575,7.9335,240.2273],[-6.2556,7.9152,240.7386],[-6.2491,7.9076,239.7571],[-6.2456,7.8942,241.7189],[-6.2483,7.8861,236.2036],[-6.2533,7.8816,236.2851],[-6.2512,7.8745,236.2511],[-6.2537,7.867,237.3202],[-6.252,7.86,236.1085],[-6.2573,7.8494,236.6786],[-6.2576,7.8455,232.9219],[-6.2534,7.8355,235.6507],[-6.2522,7.8258,234.6055],[-6.2578,7.8179,239.502],[-6.2585,7.8136,237.6881],[-6.2551,7.7985,233.3591],[-6.2622,7.7903,235.5027],[-6.2657,7.7834,235.8626],[-6.2732,7.7766,249.3071],[-6.2493,7.7726,236.4551],[-6.2355,7.7738,237.3308],[-6.2382,7.7625,223.9982],[-6.2376,7.7566,237.7023],[-6.21,7.7264,230.0865],[-6.2168,7.6925,214.3426],[-6.214,7.6871,217.6463],[-6.2093,7.6852,216.3663],[-6.2029,7.685,212.1435],[-6.1814,7.6739,209.734],[-6.1734,7.6645,208.6946],[-6.1683,7.661,207.5945],[-6.1337,7.6542,204.4967],[-6.1123,7.6434,207.8435],[-6.1082,7.6374,205.8595],[-6.0931,7.6363,222.7639],[-6.079,7.6418,224.0533],[-6.0797,7.6455,229.2806],[-6.0766,7.6513,230.1494],[-6.0786,7.6551,230.119],[-6.0779,7.6572,226.7289],[-6.0701,7.6664,231.1791],[-6.0701,7.6703,230.8166],[-6.0667,7.6749,230.4347],[-6.0613,7.6771,231.6621],[-6.0608,7.6833,233.1793],[-6.0583,7.6849,233.1889],[-6.0586,7.6911,227.9789],[-6.0662,7.6958,233.1376],[-6.0596,7.7152,239.7554],[-6.0525,7.7144,238.3395],[-6.0518,7.711,238.9861],[-6.0439,7.732,235.6945],[-6.0363,7.7444,236.6489],[-6.0386,7.7534,236.275],[-6.0347,7.7582,240.5122],[-6.0084,7.7572,257.7025],[-6.0033,7.7557,272.98],[-5.998,7.7514,292.0378],[-5.9779,7.7439,254.6009],[-5.8776,7.7619,312.0319],[-5.8415,7.7779,286.7469],[-5.8279,7.7664,275.2302],[-5.8267,7.7564,248.4565],[-5.7897,7.7549,225.6768],[-5.7662,7.7466,209.7711],[-5.7456,7.7471,215.4483],[-5.7137,7.7391,203.9511],[-5.699,7.737,205.2626],[-5.6823,7.7261,187.7239]]]]}}