{"type": "Feature","id": "3459","bbox": [-8.61872,5.62776,-6.96993,6.96836],"geometry": {"type": "Polygon","coordinates": [[[-7.8027,6.84191,308.0083],[-7.81913,6.84323,298.9189],[-7.8335,6.84625,326.3826],[-7.84275,6.85503,304.2107],[-7.84703,6.86155,310.6125],[-7.8584,6.89327,305.8785],[-7.863,6.90258,332.4128],[-7.86802,6.90699,312.3749],[-7.87551,6.9111,310.0639],[-7.89974,6.91795,311.4213],[-7.91375,6.92028,307.7341],[-7.92119,6.92353,310.6224],[-7.92977,6.92888,304.5561],[-7.9509,6.94828,276.299],[-7.95902,6.95433,276.0088],[-7.96388,6.95735,274.1366],[-7.98966,6.96836,280.7253],[-8.01209,6.96069,270.3577],[-8.05152,6.92307,272.2827],[-8.06289,6.9171,269.4279],[-8.0711,6.91524,267.2739],[-8.07622,6.91663,273.3307],[-8.07927,6.91358,272.3504],[-8.0818,6.90847,272.3908],[-8.08625,6.90219,265.7587],[-8.09177,6.8987,267.763],[-8.09937,6.89545,266.2089],[-8.10061,6.89227,271.6544],[-8.09751,6.88537,266.9153],[-8.10185,6.87209,269.0034],[-8.11002,6.85519,268.9593],[-8.11177,6.84888,268.7422],[-8.11193,6.84385,268.6662],[-8.11033,6.84013,268.6102],[-8.10712,6.8392,265.7013],[-8.10351,6.83858,266.7333],[-8.10092,6.83524,263.8307],[-8.09141,6.81088,268.95],[-8.09208,6.80475,265.6834],[-8.09622,6.80227,263.2768],[-8.10226,6.8,269.3561],[-8.11022,6.79566,268.3429],[-8.11947,6.78822,271.7818],[-8.13115,6.7814,261.7759],[-8.13699,6.77868,261.9921],[-8.14252,6.7709,266.1576],[-8.15404,6.76238,268.2966],[-8.15616,6.75819,261.8984],[-8.15647,6.74827,263.3182],[-8.16004,6.72794,260.8451],[-8.16428,6.71701,299.6726],[-8.17208,6.70915,313.8768],[-8.17813,6.70528,328.3752],[-8.18386,6.70473,279.7311],[-8.18753,6.70698,271.0251],[-8.1896,6.71078,267.5012],[-8.19006,6.71504,274.1217],[-8.19239,6.71809,264.4918],[-8.19838,6.71786,270.4139],[-8.21843,6.70559,257.8368],[-8.22164,6.69985,256.3842],[-8.2206,6.6959,257.0455],[-8.21399,6.682,266.9311],[-8.21358,6.6751,305.2652],[-8.21709,6.67246,289.0941],[-8.22722,6.67083,264.6569],[-8.23197,6.66944,254.7236],[-8.23719,6.66859,253.7601],[-8.24768,6.67014,266.8059],[-8.25011,6.66797,267.9822],[-8.24799,6.6598,252.0207],[-8.24768,6.65422,263.3629],[-8.24975,6.64771,257.5664],[-8.25037,6.6422,292.7106],[-8.24954,6.63693,305.0209],[-8.24934,6.6321,267.4813],[-8.25016,6.62598,255.749],[-8.2575,6.62234,281.7444],[-8.28179,6.60332,254.5802],[-8.28851,6.60223,255.303],[-8.30122,6.59781,256.6671],[-8.30928,6.59386,252.6622],[-8.32034,6.58595,256.8018],[-8.32768,6.58619,266.5711],[-8.33698,6.58999,302.6254],[-8.43496,6.65259,231.1866],[-8.44165,6.65531,228.1293],[-8.46131,6.63342,233.5997],[-8.53356,6.57634,238.2678],[-8.54715,6.56004,223.7292],[-8.54947,6.56014,237.8966],[-8.56611,6.55092,229.2892],[-8.5672,6.55061,229.2892],[-8.56611,6.54906,235.2602],[-8.57061,6.53513,231.778],[-8.57273,6.53084,230.5994],[-8.57733,6.52803,221.0688],[-8.58937,6.52606,228.2838],[-8.59412,6.52389,227.8288],[-8.61872,6.49283,231.1894],[-8.60185,6.49175,233.9932],[-8.59211,6.48968,238.095],[-8.56808,6.49041,241.4914],[-8.5565,6.48702,249.1425],[-8.54534,6.4772,282.1958],[-8.51563,6.43759,284.9693],[-8.49723,6.43137,289.359],[-8.48477,6.44157,287.5531],[-8.47692,6.46015,260.7365],[-8.47237,6.47865,272.2335],[-8.46751,6.48707,271.1064],[-8.46121,6.48289,268.767],[-8.44963,6.46793,274.8915],[-8.41827,6.45121,267.9368],[-8.40509,6.43633,252.9006],[-8.40648,6.43054,246.3439],[-8.41387,6.42418,254.7958],[-8.41904,6.40765,285.509],[-8.41723,6.39819,290.3681],[-8.40824,6.37992,246.8014],[-8.40597,6.37225,254.9353],[-8.41098,6.36318,255.154],[-8.42015,6.35809,259.093],[-8.42369,6.35199,273.1027],[-8.41181,6.34003,252.8332],[-8.40106,6.35044,250.3504],[-8.38881,6.35509,239.9355],[-8.37656,6.35473,259.2731],[-8.36597,6.35008,273.2136],[-8.35295,6.36106,266.6125],[-8.34261,6.35695,274.4556],[-8.33295,6.34597,277.8524],[-8.32236,6.33646,290.0981],[-8.3175,6.33698,275.9373],[-8.31419,6.34153,283.3841],[-8.31,6.34463,272.7263],[-8.30272,6.34065,266.3341],[-8.29771,6.33259,263.93],[-8.29657,6.3244,266.0099],[-8.29657,6.3175,257.2571],[-8.29507,6.31336,261.5341],[-8.28598,6.31006,255.4311],[-8.20849,6.29254,279.8078],[-8.19658,6.28814,247.9019],[-8.18572,6.28184,251.6877],[-8.17906,6.27685,254.5947],[-8.17058,6.27401,244.0326],[-8.15436,6.27422,218.7756],[-8.14061,6.27758,255.8247],[-8.11829,6.2899,217.5385],[-8.10661,6.29468,215.7416],[-8.0601,6.30114,250.3377],[-8.03302,6.30176,239.0538],[-8.01571,6.29778,225.6296],[-7.99938,6.2867,224.2757],[-7.93489,6.27143,222.4559],[-7.92951,6.27076,217.5891],[-7.92522,6.27251,207.5643],[-7.92055,6.2738,205.8734],[-7.91437,6.27174,200.4093],[-7.91266,6.26843,222.048],[-7.91003,6.25678,229.5904],[-7.90657,6.252,219.9304],[-7.86213,6.21639,221.3815],[-7.84662,6.19748,208.5606],[-7.84414,6.18396,223.1931],[-7.85737,6.14539,191.6945],[-7.86202,6.12438,209.753],[-7.8645,6.1017,188.9678],[-7.86182,6.08149,217.3162],[-7.85091,6.06756,215.0659],[-7.8505,6.07224,213.6355],[-7.84089,6.07736,198.2018],[-7.82838,6.08072,209.6359],[-7.81939,6.0801,203.9189],[-7.80967,6.07121,214.4232],[-7.80569,6.06203,188.8855],[-7.80244,6.03924,204.5894],[-7.79923,6.03568,217.8653],[-7.79386,6.03408,214.544],[-7.78874,6.03149,210.5859],[-7.78647,6.02511,192.1103],[-7.78859,6.01979,193.4816],[-7.79774,6.01475,195.5043],[-7.79996,6.01015,216.474],[-7.80068,5.98173,194.5962],[-7.79965,5.97447,189.2813],[-7.78663,5.95816,186.8827],[-7.74715,5.9376,180.2693],[-7.73495,5.92563,190.2877],[-7.71717,5.90075,179.3936],[-7.70322,5.90788,173.6133],[-7.69154,5.92773,177.4159],[-7.68048,5.94093,187.2982],[-7.67402,5.93574,177.748],[-7.66312,5.9231,164.2731],[-7.64834,5.91129,176.0037],[-7.63061,5.90861,169.4205],[-7.62912,5.90494,197.5654],[-7.6085,5.8937,177.3801],[-7.60576,5.89313,162.8465],[-7.58416,5.8837,187.7864],[-7.57909,5.87719,175.8978],[-7.58721,5.86677,193.138],[-7.57951,5.86034,188.5769],[-7.56628,5.84373,188.9535],[-7.55915,5.83985,175.6224],[-7.54757,5.84543,168.0951],[-7.53519,5.85585,180.8172],[-7.52778,5.85884,164.0049],[-7.53109,5.84202,174.9296],[-7.51558,5.83923,153.7852],[-7.50881,5.82618,169.2895],[-7.5039,5.8121,174.7065],[-7.4944,5.80618,187.6581],[-7.48664,5.81381,154.4818],[-7.48168,5.83021,166.192],[-7.47858,5.85988,156.9131],[-7.44654,5.84595,166.3713],[-7.44205,5.81127,164.9569],[-7.44856,5.76905,173.4945],[-7.44949,5.73236,191.6563],[-7.43104,5.65397,148.0468],[-7.41796,5.62776,144.6121],[-7.39962,5.63149,142.1288],[-7.09406,5.69061,183.7897],[-7.08155,5.99925,194.2048],[-7.08625,6.08847,234.1961],[-7.09742,6.13115,226.6897],[-7.1108,6.32729,189.5],[-7.11545,6.45955,221.6712],[-7.11028,6.49097,222.0407],[-7.09902,6.50046,226.8917],[-7.09106,6.50565,224.1876],[-7.08414,6.50852,223.7413],[-7.07969,6.5096,216.3829],[-7.07535,6.51177,219.922],[-7.07142,6.51472,195.5534],[-7.06801,6.51831,205.038],[-7.05509,6.53722,200.8854],[-7.05272,6.53963,205.1674],[-7.0369,6.5488,204.1345],[-7.0321,6.55081,214.0926],[-7.00517,6.55709,189.5],[-6.99742,6.55787,189.5],[-7.00652,6.56516,189.5],[-7.00988,6.56903,189.5],[-7.00647,6.58626,209.2665],[-6.9752,6.63399,195.2045],[-6.97815,6.66254,195.6789],[-6.97593,6.67587,194.8966],[-6.9736,6.68052,210.4418],[-6.97174,6.68548,204.2972],[-6.97055,6.69094,212.6963],[-6.96993,6.69675,197.3048],[-6.98698,6.78225,208.6181],[-6.99143,6.79403,189.5],[-6.99701,6.80375,189.5],[-7.00967,6.81933,194.9128],[-7.01696,6.8263,202.8411],[-7.02326,6.83144,192.5222],[-7.04341,6.83865,192.7374],[-7.04796,6.84098,195.9842],[-7.05199,6.84516,197.0412],[-7.05571,6.85067,199.8474],[-7.06016,6.85945,199.5465],[-7.06191,6.86728,193.476],[-7.06202,6.87527,192.5],[-7.05747,6.88622,198.6514],[-7.05365,6.89234,200.9755],[-7.04982,6.89731,194.6311],[-7.04796,6.90746,213.0851],[-7.06274,6.9295,208.6088],[-7.06967,6.92981,205.7401],[-7.11669,6.93787,235.076],[-7.13137,6.94394,214.6965],[-7.15591,6.96045,224.6591],[-7.16062,6.96278,225.5134],[-7.17106,6.96317,220.2165],[-7.24774,6.95511,251.097],[-7.28164,6.96332,263.2349],[-7.28774,6.96394,274.8247],[-7.30133,6.96425,263.5389],[-7.39523,6.94875,284.8032],[-7.42365,6.94108,279.1978],[-7.43388,6.93953,289.877],[-7.53941,6.93906,270.1728],[-7.60379,6.92927,237.1456],[-7.6163,6.90614,231.9168],[-7.61806,6.89917,234.76],[-7.62214,6.84702,226.8125],[-7.63563,6.84423,223.3543],[-7.8027,6.84191,308.0083]]]}
,"properties": {"ISO3166-1-Alpha-3": "CIV","country": "Ivory Coast","fill": "#F00","name": "Moyen-Cavally","area_km2": 14500.04,"hist_schema_id": "Elevation0-9000","hist_area_km2": {"125": 53.34,"150": 181.91,"175": 695.88,"200": 2394.48,"225": 4104.28,"250": 3986.29,"275": 2019.23,"300": 842.6,"325": 132.41,"350": 35.3,"375": 17.94,"400": 10.61,"425": 6.61,"450": 4.19,"475": 3.12,"500": 2.7,"525": 1.81,"550": 1.73,"575": 1.56,"600": 1.1,"625": 1.01,"650": 0.88,"675": 0.46,"700": 0.27}}}