{"type":"Feature","properties":{"GID_3":"CIV.12.1.1_1","GID_0":"CIV","country":"Côted'Ivoire","GID_1":"CIV.12_1","province":"Woroba","NL_NAME_1":"NA","GID_2":"CIV.12.1_1","county":"Bafing","NL_NAME_2":"NA","city":"Koro","VARNAME_3":"NA","NL_NAME_3":"NA","TYPE_3":"Département","ENGTYPE_3":"Department","CC_3":"NA","HASC_3":"NA","name":"Koro.city"},
"geometry":{"type": "MultiPolygon","coordinates": [[[[-7.312,8.6765,327.9884],[-7.3163,8.6754,328.1713],[-7.3299,8.6791,348.1331],[-7.3414,8.6744,344.0461],[-7.3516,8.6792,339.4743],[-7.3531,8.6829,335.9198],[-7.365,8.6792,344.7627],[-7.3737,8.6828,348.2962],[-7.3774,8.6921,344.7048],[-7.3794,8.7072,352.6408],[-7.3768,8.7094,353.3986],[-7.3792,8.7145,354.9877],[-7.3835,8.7171,354.4181],[-7.3833,8.7203,354.8373],[-7.3908,8.7268,370.2387],[-7.3908,8.7311,363.2644],[-7.3937,8.7314,361.7836],[-7.3952,8.7391,359.3751],[-7.3976,8.7412,363.1167],[-7.4058,8.7378,363.142],[-7.4102,8.7419,363.5403],[-7.4122,8.7463,360.4919],[-7.4119,8.7503,361.9574],[-7.4057,8.7559,366.4001],[-7.4132999999999996,8.76,369.188],[-7.4185,8.7602,378.9327],[-7.4261,8.7562,373.1822],[-7.4329,8.7644,380.7089],[-7.4353,8.7643,378.0533],[-7.4531,8.7769,379.2209],[-7.456,8.7816,373.7714],[-7.4634,8.7882,380.3035],[-7.4772,8.8078,373.2631],[-7.4923,8.8193,383.526],[-7.4996,8.828,383.3331],[-7.5103,8.8352,384.937],[-7.5141,8.834,374.9887],[-7.5267,8.8411,380.178],[-7.5388,8.8454,393.619],[-7.5405,8.8522,377.9428],[-7.5478,8.8594,391.6904],[-7.5495,8.8664,396.5151],[-7.5463,8.8697,389.6692],[-7.5471,8.872,385.236],[-7.545,8.8781,388.6516],[-7.5654,8.8976,394.2524],[-7.5603,8.903,392.817],[-7.5604,8.9056,395.0096],[-7.5695,8.911,387.6221],[-7.573,8.9265,393.9298],[-7.5838,8.9261,407.969],[-7.6017,8.9407,402.7498],[-7.6179,8.9455,419.1237],[-7.6209,8.9483,414.2628],[-7.6378,8.9517,416.4586],[-7.6415,8.9619,418.8891],[-7.6451,8.9615,412.0161],[-7.6527,8.9564,410.095],[-7.6753,8.9633,415.1786],[-7.6777,8.9672,412.6162],[-7.6808,8.9827,416.7179],[-7.6784,8.9978,413.4644],[-7.6787,9.0059,421.9043],[-7.6819,9.0125,419.4498],[-7.6851,9.029,428.1732],[-7.6846,9.0416,415.0625],[-7.6915,9.0529,433.3206],[-7.7056,9.0636,433.7262],[-7.7396,9.0742,464.9973],[-7.7542,9.0679,450.2941],[-7.7649,9.0662,472.2885],[-7.79,9.0727,458.4136],[-7.8015,9.0772,474.0488],[-7.8038,9.0795,488.818],[-7.813,9.0822,475.6426],[-7.8409,9.0708,510.6505],[-7.8538,9.0593,516.2823],[-7.8651,9.0403,571.5583],[-7.896,9.0281,474.0007],[-7.9183,9.004,542.0787],[-7.9208,8.9886,635.1095],[-7.9171,8.967,636.1469],[-7.9304,8.9424,667.4455],[-7.9459,8.9012,613.6809],[-7.9548,8.8694,559.8411],[-7.9626,8.8217,555.6688],[-7.9613,8.8104,534.5981],[-7.947,8.7866,515.1188],[-7.9404,8.7794,526.6419],[-7.9258,8.7693,518.5144],[-7.9159,8.7655,514.6296],[-7.9011,8.7653,528.4586],[-7.8744,8.7753,523.9395],[-7.8612,8.7777,486.2079],[-7.8455,8.7768,427.6457],[-7.8239,8.7659,443.8912],[-7.8124,8.766,419.435],[-7.7904,8.7733,433.1841],[-7.7816,8.7718,422.9799],[-7.7727,8.7671,418.5581],[-7.7679,8.762,440.9771],[-7.7636,8.7544,411.528],[-7.7621,8.7445,443.4247],[-7.7526,8.7255,440.1596],[-7.7507,8.7168,434.1361],[-7.7361,8.6826,493.3819],[-7.7268,8.6673,512.4979],[-7.7239,8.6597,525.2017],[-7.7128,8.626,528.5493],[-7.7115,8.6175,536.1259],[-7.7017,8.5957,933.2012],[-7.6993,8.5817,514.0774],[-7.697,8.5803,503.9713],[-7.6876,8.5448,504.4888],[-7.6844,8.542,503.1847],[-7.6781,8.5281,506.6172],[-7.666,8.516,494.8641],[-7.6611,8.5059,472.0123],[-7.6602,8.4854,464.4994],[-7.6663,8.4793,469.4895],[-7.6717,8.4702,435.1103],[-7.6757,8.4594,443.1132],[-7.68,8.4549,444.7724],[-7.6814,8.4485,429.7586],[-7.6801,8.4407,432.5056],[-7.6731,8.4282,427.6104],[-7.666,8.409,431.3545],[-7.6328,8.4027,412.8852],[-7.598,8.373,401.6567],[-7.5859,8.3654,407.1096],[-7.5775,8.3662,385.3693],[-7.5761,8.3587,398.6414],[-7.5735,8.3577,384.3217],[-7.568,8.35,397.6422],[-7.5648,8.3498,409.2573],[-7.5544,8.3539,384.1457],[-7.5459,8.348,406.7202],[-7.5422,8.3486,398.1689],[-7.536,8.3553,381.3258],[-7.5295,8.3547,392.8051],[-7.5252,8.3752,402.0747],[-7.5265,8.3778,383.1291],[-7.5379,8.3801,383.8038],[-7.5397,8.3821,389.7651],[-7.5354,8.3837,393.0659],[-7.5184,8.3797,396.4177],[-7.5157,8.3809,398.2184],[-7.5151,8.391,388.2468],[-7.5204,8.3943,382.0092],[-7.5212,8.3965,389.7307],[-7.5087,8.3979,383.7327],[-7.5059,8.399,381.3676],[-7.5011,8.4049,381.9256],[-7.4921,8.4068,394.6374],[-7.4894,8.409,394.8798],[-7.4882,8.4168,379.2835],[-7.4859,8.4192,378.5403],[-7.4764,8.4166,408.4695],[-7.4732,8.4202,399.1048],[-7.4791,8.4275,378.425],[-7.4811,8.4339,377.4814],[-7.4766,8.4353,376.1801],[-7.4575,8.4164,394.9182],[-7.4495,8.4195,375.5434],[-7.4459,8.4091,398.0989],[-7.4416,8.4077,395.2728],[-7.438,8.4115,380.9947],[-7.434,8.412,374.1962],[-7.4304,8.4057,374.4187],[-7.4157,8.4026,376.0757],[-7.4132999999999996,8.3997,374.3649],[-7.4066,8.3978,372.7272],[-7.3988,8.3873,372.6196],[-7.3956,8.3883,382.3167],[-7.3947,8.3904,384.149],[-7.3965,8.3948,378.4864],[-7.3938,8.4037,375.7888],[-7.3921,8.4029,373.4229],[-7.3909,8.3967,377.168],[-7.3874,8.3934,383.3874],[-7.3842,8.394,379.5482],[-7.3718,8.4079,379.1809],[-7.3746,8.4135,377.721],[-7.3649,8.4156,367.8536],[-7.3636,8.4265,373.8428],[-7.3723,8.4341,373.666],[-7.3581,8.4378,368.1965],[-7.3529,8.4361,366.9005],[-7.3469,8.4299,359.7248],[-7.342,8.4289,354.287],[-7.3364,8.4241,353.025],[-7.332,8.4238,356.1567],[-7.3257,8.4258,360.3782],[-7.319,8.4351,351.7346],[-7.3176,8.4449,345.9038],[-7.3131,8.4445,334.5258],[-7.3108,8.4476,336.3062],[-7.3137,8.4638,331.8264],[-7.3127,8.4682,340.8344],[-7.3103,8.4714,336.6315],[-7.2928,8.4782,315.641],[-7.2738,8.4779,307.0582],[-7.2752,8.4723,316.716],[-7.2683,8.4684,307.1951],[-7.2664,8.4633,312.3911],[-7.2586,8.4558,306.9397],[-7.259,8.4503,310.0358],[-7.2568,8.4431,305.9017],[-7.2512,8.4348,310.8318],[-7.2411,8.4357,306.8393],[-7.2225,8.4507,294.6018],[-7.2205,8.4472,292.519],[-7.2135,8.4417,298.4135],[-7.2067,8.4412,292.7598],[-7.1968,8.4477,288.61],[-7.1866,8.4483,286.9113],[-7.1851,8.4407,293.4767],[-7.1787,8.4321,286.4054],[-7.1753,8.4313,285.282],[-7.1756,8.4276,286.0902],[-7.1682,8.4269,285.4731],[-7.158,8.4325,290.2209],[-7.1608,8.4476,286.9954],[-7.1707,8.4521,284.2233],[-7.1734,8.46,285.3963],[-7.1703,8.4645,285.7455],[-7.1615,8.4685,296.7148],[-7.164,8.4957,309.2258],[-7.1739,8.5019,290.0028],[-7.1791,8.51,286.1544],[-7.1828,8.5086,286.2668],[-7.2024,8.5143,293.1964],[-7.2077,8.5195,303.7767],[-7.2134,8.5286,306.3009],[-7.2139,8.5414,303.9624],[-7.2157,8.5453,308.7831],[-7.2247,8.5491,296.8029],[-7.2251,8.5522,306.8262],[-7.2196,8.5602,296.344],[-7.2189,8.5657,320.6023],[-7.2289,8.5773,313.8089],[-7.2302,8.5825,321.8777],[-7.2364,8.5921,312.7573],[-7.2356,8.6016,325.9628],[-7.2324,8.6063,319.692],[-7.2332,8.6097,323.6145],[-7.2372,8.6146,320.1326],[-7.2403,8.624,315.6248],[-7.2477,8.6296,314.401],[-7.2556,8.6431,317.7736],[-7.2592,8.6469,315.8758],[-7.2645,8.6483,317.0768],[-7.279,8.6647,325.0618],[-7.2836,8.6678,319.5862],[-7.2901,8.6689,328.3861],[-7.3092,8.6778,341.2997],[-7.312,8.6765,327.9884]]]]}}