{"type":"Feature","properties":{"featurecla":"Coast","name":"Ivory Coast","namealt":null,"region":"Africa","subregion":null,"min_label":5.4,"max_label":10.0,"scalerank":5},
"geometry":{"type": "Polygon","coordinates": [[[-2.543718644735947,4.9573733120590191,0.0],[-3.8586930003849891,5.253241278119134,5.2548],[-5.5784805980412671,5.1341616882753272,12.4863],[-5.9356583324162671,5.0415713562440772,34.6248],[-6.7426651683537946,4.7372500671815772,19.9857],[-7.0336807933537386,4.5917422546816056,41.5474],[-7.4569851249953842,4.4065771246065566,25.0575],[-7.42607581288496,4.3138491882753556,0.0],[-7.3996475902287946,4.2345645203065772,0.0],[-6.90575110585371,4.5343692078065487,0.0],[-6.37657630116621,4.7990176453065487,0.0],[-5.7768448558537671,4.9577090515565487,0.0],[-4.9301651683537386,5.0459658874940914,0.0],[-3.9071549144474891,5.1341006531191056,0.0],[-2.5842179027287391,4.86957428593162,0.0],[-2.543718644735947,4.9573733120590191,0.0]]]}}