{"type":"Feature","properties":{"ISO3166-1-Alpha-3":"CIV","country":"Ivory Coast","fill":"#F0F","id":"3462","name":"Sud-Comoé"},
"geometry":{"type": "MultiPolygon","coordinates": [[[[-3.18497,5.13227,0.0],[-3.19319,5.13614,0.0],[-3.19595,5.1402,0.0],[-3.19742,5.1459,0.0],[-3.20031,5.1518,0.0],[-3.20739,5.15664,2.7961],[-3.23412,5.16348,0.0],[-3.25329,5.1496,22.313],[-3.27233,5.13239,6.6958],[-3.27636,5.11811,0.0],[-3.26207,5.11099,0.0],[-3.16381,5.10155,0.0],[-3.12023,5.0915,0.0],[-3.11962,5.09134,0.0],[-3.1196,5.09133,0.0],[-3.11528,5.10782,9.6491],[-3.11531,5.10781,9.6491],[-3.11832,5.107,8.7963],[-3.1317,5.10814,11.6713],[-3.14635,5.12157,0.0],[-3.15514,5.12788,6.352],[-3.15909,5.12556,6.5368],[-3.1634,5.12547,7.6939],[-3.18497,5.13227,0.0]]],
[[[-3.01997,5.81835,202.7668],[-3.02252,5.8545,155.5025],[-3.03472,5.8907,140.2664],[-3.07324,5.96096,132.1028],[-3.08777,5.99669,135.372],[-3.11807,6.16348,120.0932],[-3.13936,6.21929,159.5685],[-3.16879,6.24605,145.2034],[-3.17172,6.24958,143.7989],[-3.17182,6.24941,143.7989],[-3.21109,6.17769,134.2902],[-3.22075,6.15254,136.5782],[-3.2207,6.1465,126.4652],[-3.21714,6.12634,113.8363],[-3.21626,6.11454,118.4026],[-3.21827,6.10531,112.4522],[-3.2206,6.0987,119.2501],[-3.22344,6.09436,111.7524],[-3.23,6.08738,148.1353],[-3.23941,6.07932,123.6252],[-3.24892,6.06364,124.1918],[-3.30897,5.91879,140.4395],[-3.38183,5.79947,109.6686],[-3.38503,5.79567,109.9809],[-3.38881,5.79272,115.6527],[-3.39377,5.79076,113.2821],[-3.43413,5.78029,55.5062],[-3.41873,5.76058,95.0427],[-3.41454,5.75228,125.143],[-3.41516,5.74732,129.8915],[-3.41929,5.73911,112.342],[-3.43082,5.72652,97.265],[-3.43382,5.71908,101.0155],[-3.43919,5.64025,111.5841],[-3.43816,5.62994,109.3821],[-3.43413,5.6256,77.2248],[-3.42917,5.62302,81.0438],[-3.42519,5.62038,82.1722],[-3.42214,5.61635,64.9238],[-3.41997,5.61185,59.6771],[-3.41821,5.60333,67.3497],[-3.41315,5.55878,47.8667],[-3.41066,5.55095,53.313],[-3.4086,5.54654,49.478],[-3.40689,5.54134,41.7321],[-3.40689,5.53341,47.7231],[-3.40824,5.52349,44.8358],[-3.41743,5.49664,65.1336],[-3.43599,5.45491,70.4797],[-3.43893,5.44403,94.4104],[-3.4396,5.42029,98.7951],[-3.43258,5.34892,79.7176],[-3.44059,5.30438,113.6371],[-3.44059,5.29864,104.5157],[-3.44002,5.29298,92.9592],[-3.43878,5.28787,96.8988],[-3.43702,5.28319,99.8469],[-3.43428,5.27916,100.7978],[-3.43113,5.2756,103.1848],[-3.41216,5.25986,56.2433],[-3.40886,5.25622,62.663],[-3.40601,5.25232,65.5247],[-3.4041,5.24782,65.996],[-3.40271,5.24294,53.9644],[-3.40229,5.2372,63.9642],[-3.42767,5.215,17.8803],[-3.53862,5.15736,0.0],[-3.53875,5.15729,0.0],[-3.37804,5.1232,0.0],[-3.31216,5.11994,0.0],[-3.27579,5.14912,0.0],[-3.29052,5.15135,6.9006],[-3.30309,5.15571,0.0],[-3.30899,5.16376,0.0],[-3.30305,5.17707,7.5325],[-3.319,5.1848,5.7682],[-3.32071,5.19351,0.0],[-3.31359,5.19725,3.6675],[-3.30305,5.19013,0.0],[-3.29833,5.20067,7.6145],[-3.29198,5.21052,0.0],[-3.28429,5.21906,3.2879],[-3.27579,5.22549,0.0],[-3.2657,5.22871,0.0],[-3.2504,5.22736,0.0],[-3.24096,5.23168,0.0],[-3.24096,5.23851,0.0],[-3.25202,5.23786,0.0],[-3.26281,5.23884,7.4707],[-3.27306,5.24116,6.1445],[-3.28262,5.24478,0.0],[-3.27579,5.24478,0.0],[-3.28026,5.24616,0.0],[-3.28942,5.25218,0.0],[-3.28213,5.25873,0.0],[-3.27819,5.26545,0.0],[-3.27819,5.27253,0.0],[-3.28262,5.28018,0.0],[-3.2543,5.2836,0.0],[-3.24694,5.29759,0.0],[-3.25206,5.3181,0.0],[-3.26207,5.34089,0.0],[-3.24942,5.34536,0.0],[-3.23021,5.35863,0.0],[-3.22053,5.36205,1.303],[-3.21182,5.36148,2.6845],[-3.19811,5.3559,5.7833],[-3.18977,5.35464,0.0],[-3.18073,5.35684,0.0],[-3.17333,5.36176,0.0],[-3.16739,5.36664,0.0],[-3.16275,5.36884,4.3446],[-3.14607,5.36884,9.8163],[-3.13443,5.36677,14.1362],[-3.12776,5.35961,8.2431],[-3.12548,5.34463,5.4902],[-3.12792,5.3249,14.4907],[-3.13476,5.31859,19.6567],[-3.14538,5.31599,17.3912],[-3.15909,5.30744,12.6253],[-3.16503,5.29588,20.013],[-3.16796,5.2663,60.6995],[-3.17272,5.25218,25.6601],[-3.17882,5.24885,28.3906],[-3.19433,5.23444,40.459],[-3.20507,5.21865,61.3927],[-3.19689,5.21117,21.8512],[-3.1809,5.20319,35.9852],[-3.16246,5.18415,21.5102],[-3.14684,5.16132,15.2634],[-3.13915,5.14232,0.0],[-3.12239,5.14997,2.664],[-3.08275,5.15107,23.8722],[-3.06281,5.15664,0.0],[-3.04629,5.14411,13.1747],[-2.9934,5.11953,0.0],[-2.97777,5.11498,0.0],[-2.958,5.12116,0.0],[-2.94351,5.13679,0.0],[-2.93847,5.15693,8.5537],[-2.94669,5.17707,0.0],[-2.9204,5.1765,7.8443],[-2.87938,5.18134,0.0],[-2.84618,5.17699,15.0393],[-2.84366,5.14912,18.6791],[-2.80386,5.14757,14.2232],[-2.78088,5.15088,18.5374],[-2.76662,5.16103,16.083],[-2.75701,5.17987,17.3186],[-2.76249,5.1863,19.835],[-2.77567,5.19754,18.2545],[-2.77882,5.201,31.1081],[-2.77964,5.21012,11.8871],[-2.77541,5.23103,10.3873],[-2.77489,5.23958,19.7472],[-2.77933,5.25108,21.2264],[-2.79329,5.2711,23.8101],[-2.79613,5.28498,13.3362],[-2.78957,5.34686,41.6172],[-2.75587,5.34071,20.3932],[-2.74259,5.34314,36.7948],[-2.73267,5.35572,83.6068],[-2.73014,5.37316,85.7458],[-2.73443,5.39114,75.3049],[-2.76171,5.45491,98.381],[-2.77944,5.52649,97.551],[-2.78182,5.57889,71.3028],[-2.78559,5.59503,79.9527],[-2.79344,5.60813,69.2444],[-2.80626,5.6185,69.5324],[-2.87749,5.63681,118.0836],[-2.89375,5.63036,90.3469],[-2.9263,5.61072,128.042],[-2.94586,5.60829,131.8028],[-2.9695,5.62144,123.8337],[-2.9749,5.64728,137.2447],[-2.9648,5.70978,199.8358],[-3.02976,5.70425,172.2484],[-3.01997,5.81835,202.7668]]]]}}