{"type":"Feature","properties":{"GID_2":"CIV.3.2_1","GID_0":"CIV","country":"Côted'Ivoire","GID_1":"CIV.3_1","province":"Comoé","NL_NAME_1":"NA","county":"SudComoé","VARNAME_2":"NA","NL_NAME_2":"NA","TYPE_2":"Région","ENGTYPE_2":"Region","CC_2":"NA","HASC_2":"CI.CM.SC","name":"Sud_Comoé.county"},
"geometry":{"type": "MultiPolygon","coordinates": [[[[-3.1976,5.1096,4.4992],[-3.1107,5.0921,12.8809],[-3.1115,5.1107,10.9282],[-3.1089,5.1102,6.1014],[-3.109,5.116,5.2468],[-3.1017,5.1124,0.0],[-3.0964,5.1133,3.6352],[-3.0943,5.1154,4.0134],[-3.0851,5.1119,8.3754],[-3.0724,5.1131,1.7831],[-3.0713,5.1141,0.103],[-3.0718,5.1194,0.0],[-3.0689,5.1213,2.0279],[-3.0623,5.1218,1.1496],[-3.0519,5.116,0.3876],[-3.0483,5.1204,4.9495],[-3.042,5.1166,3.3824],[-3.034,5.1181,1.2204],[-3.0275,5.117,3.5259],[-3.0233,5.1197,1.6986],[-3.019,5.116,0.7252],[-3.0118,5.1129,3.1251],[-3.0044,5.1124,0.5965],[-2.9881,5.0955,0.6905],[-2.9762,5.0871,1.3059],[-2.9651,5.0879,1.4412],[-2.9491,5.0841,5.2599],[-2.9416,5.094,0.1996],[-2.9296,5.0967,1.5],[-2.93,5.1007,1.3364],[-2.9343,5.1026,1.9228],[-2.9328,5.1054,0.9364],[-2.9358,5.1095,0.9418],[-2.9346,5.1108,8.0359],[-2.9366,5.11,0.9418],[-2.9417,5.112,0.0],[-2.9431,5.1143,0.9203],[-2.9399,5.1205,0.8136],[-2.9399,5.1252,0.7329],[-2.9354,5.1256,2.5186],[-2.934,5.1223,6.3048],[-2.931,5.1231,7.8875],[-2.9282,5.1208,5.2011],[-2.9218,5.1223,7.6484],[-2.9104,5.1205,9.2728],[-2.9061,5.1235,7.3846],[-2.9021,5.1212,4.7983],[-2.896,5.1228,7.6306],[-2.8917,5.1195,6.3802],[-2.8906,5.1268,7.9232],[-2.884,5.1238,12.9338],[-2.8816,5.1268,6.3171],[-2.8768,5.1281,6.8112],[-2.8693,5.1228,4.5827],[-2.8634,5.1231,9.5109],[-2.8585,5.1161,2.7342],[-2.8542,5.1156,5.754],[-2.8524,5.1108,11.2395],[-2.844,5.1073,5.7761],[-2.8381,5.1096,9.7026],[-2.8409,5.1146,12.0963],[-2.8366,5.1152,5.3346],[-2.8351,5.1207,6.316],[-2.8322,5.1214,4.2954],[-2.8273,5.1199,4.3227],[-2.8242,5.1161,12.9597],[-2.8235,5.1113,6.7693],[-2.8188,5.1095,6.5772],[-2.8176,5.1056,11.3495],[-2.8145,5.1073,7.0241],[-2.8167,5.111,7.8355],[-2.8135,5.1134,7.3946],[-2.8102,5.1063,3.8281],[-2.8083,5.1065,4.9305],[-2.8061,5.1116,3.6275],[-2.8014,5.1077,4.5856],[-2.7906,5.107,16.1204],[-2.7857,5.1176,7.0694],[-2.784,5.1096,4.8737],[-2.7804,5.1124,12.3814],[-2.7787,5.111,6.3466],[-2.7718,5.1113,5.6579],[-2.7686,5.1087,7.6185],[-2.7662,5.1095,4.2212],[-2.7658,5.1058,5.485],[-2.7637,5.1037,10.5224],[-2.7602,5.1035,6.443],[-2.7599,5.1014,4.3473],[-2.758,5.1012,5.1825],[-2.7541,5.1166,6.1036],[-2.7511,5.1149,7.4542],[-2.7473,5.1168,5.6884],[-2.7422,5.1139,5.5293],[-2.7406,5.1158,7.5677],[-2.7405,5.1248,4.1037],[-2.7352,5.1322,5.8414],[-2.7328,5.1321,4.1942],[-2.7327,5.1345,4.6232],[-2.731,5.1347,5.1027],[-2.7277,5.1314,4.3784],[-2.7277,5.137,4.9381],[-2.7248,5.1372,3.5164],[-2.7238,5.1409,4.4811],[-2.7272,5.1401,4.7509],[-2.7267,5.1446,5.3755],[-2.7301,5.1482,7.1744],[-2.731,5.1518,5.2466],[-2.733,5.1514,5.6396],[-2.734,5.1486,7.1516],[-2.7365,5.1487,6.454],[-2.7416,5.1557,5.4148],[-2.7358,5.1623,8.4989],[-2.7406,5.1611,6.0307],[-2.7456,5.1669,6.297],[-2.7412,5.1757,6.7156],[-2.7421,5.1811,9.0016],[-2.7459,5.1842,9.4822],[-2.7458,5.1873,13.3913],[-2.7495,5.1945,7.2485],[-2.7476,5.2021,9.5685],[-2.7571,5.2005,10.4626],[-2.7601,5.2069,7.1361],[-2.7603,5.212,15.8664],[-2.7634,5.2134,13.0211],[-2.7648,5.2169,30.999],[-2.7635,5.2185,10.9081],[-2.757,5.2184,17.6232],[-2.7591,5.2215,8.5896],[-2.7578,5.2256,11.0694],[-2.7588,5.2284,16.471],[-2.7609,5.2297,8.1346],[-2.7598,5.2323,7.2464],[-2.7567,5.2304,14.3742],[-2.7554,5.233,11.4571],[-2.7589,5.2353,9.85],[-2.7649,5.2348,19.0399],[-2.7658,5.2363,9.6642],[-2.7624,5.2457,12.2237],[-2.7596,5.2458,11.094],[-2.7589,5.2419,17.7016],[-2.7547,5.2422,9.7906],[-2.7549,5.245,10.0599],[-2.7608,5.2498,14.0001],[-2.7563,5.2497,9.5209],[-2.7549,5.2462,7.9659],[-2.7533,5.2488,10.7818],[-2.7546,5.2532,12.4123],[-2.7574,5.2559,9.8144],[-2.7639,5.2552,11.2586],[-2.7655,5.2599,11.2129],[-2.7687,5.2577,12.2819],[-2.7728,5.2584,10.7603],[-2.7759,5.2653,8.7335],[-2.7773,5.2631,8.1432],[-2.7789,5.2636,8.1432],[-2.7793,5.266,11.8337],[-2.7741,5.2676,10.4362],[-2.77,5.2666,15.9648],[-2.7693,5.2682,8.9104],[-2.7731,5.2687,10.4362],[-2.7748,5.2738,13.0447],[-2.7815,5.2773,12.0747],[-2.7853,5.2859,11.7727],[-2.7844,5.2925,11.1903],[-2.7812,5.2947,9.5349],[-2.7721,5.2928,9.2585],[-2.7695,5.2946,8.6561],[-2.7664,5.3052,11.4808],[-2.768,5.3072,11.6167],[-2.7661,5.3172,11.7069],[-2.7707,5.3232,15.5474],[-2.7718,5.329,33.2796],[-2.7774,5.3309,10.5354],[-2.7742,5.3364,11.5248],[-2.7706,5.3354,19.8082],[-2.7761,5.3421,11.3027],[-2.7767,5.3464,12.7795],[-2.7697,5.3522,11.9277],[-2.7688,5.3566,11.663],[-2.7644,5.3561,15.2377],[-2.7557,5.3438,12.422],[-2.7422,5.3451,13.4164],[-2.7384,5.3472,50.8088],[-2.7349,5.3433,14.4835],[-2.7266,5.3409,12.3088],[-2.7206,5.3459,15.9559],[-2.7242,5.3575,105.4417],[-2.7242,5.3878,46.6487],[-2.7478,5.4379,70.9673],[-2.7683,5.5544,83.6313],[-2.7614,5.5993,59.198],[-2.7641,5.6004,62.0465],[-2.764,5.6023,61.0364],[-2.7657,5.6033,62.8785],[-2.7699,5.6022,60.3418],[-2.7714,5.6042,61.279],[-2.7748,5.6032,65.284],[-2.7772,5.6064,65.9077],[-2.7789,5.6058,65.9077],[-2.7753,5.6151,62.0125],[-2.7767,5.6162,64.6235],[-2.7797,5.6136,63.9537],[-2.785,5.6142,63.0622],[-2.7846,5.619,62.6305],[-2.7874,5.6205,72.3348],[-2.7863,5.6248,66.6784],[-2.7903,5.6234,63.8413],[-2.7892,5.6264,68.6918],[-2.7927,5.6279,72.1407],[-2.7933,5.6232,67.0155],[-2.802,5.6216,69.1487],[-2.8041,5.6172,67.5431],[-2.8048,5.6195,67.2061],[-2.8071,5.6183,69.5324],[-2.8051,5.6213,69.3487],[-2.808,5.6246,68.36],[-2.8105,5.6249,73.6215],[-2.8087,5.6273,67.8819],[-2.8138,5.6288,71.1923],[-2.8155,5.6263,71.2918],[-2.8222,5.6264,71.2404],[-2.8234,5.6298,77.3113],[-2.8284,5.632,78.1381],[-2.8285,5.6345,71.7491],[-2.8322,5.6341,76.4698],[-2.8353,5.6364,75.7447],[-2.8365,5.6398,77.4863],[-2.8394,5.6394,78.1221],[-2.8439,5.6434,78.1626],[-2.8459,5.6427,78.5484],[-2.8487,5.6486,89.3361],[-2.8511,5.6477,84.251],[-2.8562,5.6493,87.8684],[-2.8576,5.6522,84.1788],[-2.8563,5.6553,83.8174],[-2.8584,5.6571,91.7267],[-2.8602,5.6533,90.1253],[-2.865,5.6516,84.6182],[-2.8686,5.6451,84.8296],[-2.8714,5.6455,82.8591],[-2.8728,5.6431,85.8586],[-2.8762,5.6434,86.4206],[-2.876,5.6417,85.4587],[-2.8785,5.6395,86.2355],[-2.8821,5.6401,88.2803],[-2.884,5.6388,88.9556],[-2.8839,5.636,87.1512],[-2.886,5.6347,87.741],[-2.8874,5.6358,87.6005],[-2.8999,5.6292,92.642],[-2.9031,5.6313,97.4927],[-2.9054,5.629,94.5241],[-2.9074,5.6302,97.7287],[-2.9085,5.6286,91.7112],[-2.9207,5.628,98.897],[-2.9244,5.6212,108.579],[-2.9345,5.6198,99.9132],[-2.9393,5.6281,119.0124],[-2.9418,5.6288,117.8087],[-2.9431,5.6331,125.0],[-2.9476,5.6366,131.2952],[-2.9509,5.6354,112.5034],[-2.9544,5.6373,119.6969],[-2.9596,5.6367,115.7317],[-2.9635,5.6405,122.3087],[-2.9667,5.6406,117.9048],[-2.961,5.6697,127.1743],[-2.9533,5.6738,135.341],[-2.9527,5.716,230.6194],[-3.0261,5.7097,178.1963],[-3.0205,5.8571,143.0987],[-3.074,5.9853,144.241],[-3.1023,6.1519,121.0753],[-3.1077,6.1651,120.7726],[-3.1548,6.2522,137.4705],[-3.1743,6.252,134.3792],[-3.1773,6.2435,132.842],[-3.1798,6.242,130.6684],[-3.1823,6.2312,126.5022],[-3.1809,6.217,126.2988],[-3.1825,6.2132,130.1315],[-3.1936,6.2049,122.0878],[-3.1989,6.198,123.5438],[-3.2031,6.1821,126.0009],[-3.203,6.1773,125.4908],[-3.1971,6.1634,118.1262],[-3.1953,6.1535,117.6996],[-3.1965,6.1468,123.6307],[-3.204,6.1376,118.1817],[-3.2038,6.1336,128.2565],[-3.2094,6.121,115.4269],[-3.2124,6.1086,111.3151],[-3.2234,6.0922,115.7644],[-3.222,6.0557,114.9523],[-3.2324,6.0346,117.8648],[-3.2287,6.0198,109.083],[-3.2354,6.0065,110.4667],[-3.2412,6.0042,105.6259],[-3.2436,5.9928,114.5336],[-3.2465,5.9871,105.3073],[-3.2552,5.9821,112.9747],[-3.2643,5.9807,101.3631],[-3.2738,5.9716,126.4843],[-3.2804,5.9621,123.6043],[-3.304,5.9123,134.9526],[-3.3095,5.9216,146.7919],[-3.3135,5.8939,141.8377],[-3.3174,5.8939,143.0471],[-3.3331,5.8756,154.9137],[-3.3542,5.8431,146.23],[-3.3659,5.8287,124.0058],[-3.3722,5.8189,123.6155],[-3.3726,5.8096,118.4236],[-3.3867,5.7868,107.1569],[-3.3944,5.7845,126.0307],[-3.4072,5.7967,110.0716],[-3.4156,5.7966,111.3537],[-3.4228,5.7994,116.9866],[-3.4241,5.7981,114.6453],[-3.4185,5.791,102.4887],[-3.4164,5.7848,86.9762],[-3.4192,5.7745,84.2921],[-3.425,5.772,77.9882],[-3.4278,5.7681,77.6255],[-3.4425,5.7637,37.2911],[-3.4563,5.7535,37.5926],[-3.4669,5.7427,45.9946],[-3.4846,5.7322,40.5569],[-3.4858,5.7304,18.8135],[-3.4847,5.7205,51.4371],[-3.4862,5.7165,43.1895],[-3.5096,5.6866,20.233],[-3.5218,5.682,55.5953],[-3.5269,5.6844,23.96],[-3.5347,5.6726,24.8974],[-3.5454,5.6621,22.9871],[-3.5557,5.6461,57.7136],[-3.5813,5.6321,21.2756],[-3.5865,5.6199,42.0094],[-3.5815,5.6034,10.5085],[-3.5804,5.5953,17.5568],[-3.5814,5.5923,25.9897],[-3.5895,5.5859,20.7758],[-3.5965,5.5768,14.5921],[-3.6081,5.5722,18.8475],[-3.6108,5.5668,15.9239],[-3.6097,5.5608,21.8742],[-3.6141,5.5542,21.3821],[-3.6187,5.5401,21.112],[-3.6277,5.5309,23.4047],[-3.6343,5.5268,20.1426],[-3.6424,5.5122,33.6158],[-3.6523,5.5081,11.3274],[-3.6558,5.5052,7.8911],[-3.6523,5.4985,11.8308],[-3.6526,5.4952,16.7763],[-3.6583,5.4842,21.9393],[-3.6527,5.4691,22.3511],[-3.662,5.4252,14.1132],[-3.6599,5.4179,13.3715],[-3.6442,5.4001,20.9418],[-3.6395,5.3586,7.9991],[-3.6411,5.3465,21.5847],[-3.6404,5.3397,19.7412],[-3.6325,5.3231,16.4574],[-3.6316,5.3158,22.5506],[-3.6298,5.3136,23.8226],[-3.6225,5.3114,16.6861],[-3.618,5.3066,7.2823],[-3.6177,5.3038,13.1044],[-3.623,5.2974,12.678],[-3.6214,5.2843,11.135],[-3.6194,5.2784,12.2149],[-3.6138,5.2706,16.495],[-3.6138,5.267,7.7226],[-3.6205,5.2618,20.3188],[-3.6243,5.2565,11.3643],[-3.6317,5.253,7.4281],[-3.6351,5.2537,6.7915],[-3.6453,5.2616,5.4747],[-3.6551,5.2639,6.3618],[-3.6554,5.2589,2.9265],[-3.6624,5.2571,1.5592],[-3.6667,5.2495,6.4276],[-3.6691,5.2395,2.6018],[-3.6728,5.234,0.5],[-3.6817,5.2312,2.0585],[-3.6899,5.2314,2.2507],[-3.6991,5.2357,3.8907],[-3.7093,5.2298,0.479],[-3.7149,5.2206,2.478],[-3.7172,5.2205,3.3252],[-3.719,5.2217,1.2327],[-3.7186,5.2298,0.0],[-3.7214,5.2418,3.8282],[-3.731,5.251,0.0],[-3.7304,5.273,0.0],[-3.7206,5.291,0.0],[-3.7194,5.297,0.0],[-3.7208,5.2987,0.0],[-3.7879,5.2728,0.0],[-3.8107,5.2864,0.0],[-3.8213,5.2719,5.9239],[-3.8221,5.2669,9.732],[-3.818,5.2618,7.6418],[-3.8172,5.2541,9.7637],[-3.8196,5.2507,11.2947],[-3.844,5.2541,5.6146],[-3.8546,5.2274,8.0814],[-3.8224,5.2135,0.0],[-3.8051,5.2079,2.8666],[-3.7154,5.1896,0.0],[-3.6265,5.1779,8.7794],[-3.594,5.1729,4.961],[-3.5918,5.1713,0.0],[-3.5293,5.1676,10.3363],[-3.4762,5.1607,9.2012],[-3.3987,5.1468,0.0],[-3.3846,5.1457,9.0257],[-3.2885,5.1271,1.4315],[-3.2868,5.1271,1.0491],[-3.286,5.129,1.7629],[-3.2807,5.129,2.5401],[-3.2765,5.124,1.6009],[-3.1976,5.1096,4.4992]]]]}}