{"type": "Feature","bbox": [-7.992,7.3665,-7.0723,8.157],"geometry": {"type": "MultiPolygon","coordinates": [[[[-7.0732,7.7175,240.4476],[-7.0723,7.7192,244.1485],[-7.0756,7.7232,243.8054],[-7.0727,7.7308,244.1232],[-7.0771,7.7638,242.6009],[-7.0779,7.7901,245.761],[-7.0763,7.7966,248.059],[-7.0787,7.8068,245.6362],[-7.0782,7.8123,247.969],[-7.0739,7.8191,249.0891],[-7.0742,7.8525,250.7924],[-7.0776,7.8577,256.3595],[-7.088,7.8623,250.1097],[-7.0956,7.8611,249.3756],[-7.1095,7.8644,252.4322],[-7.1108,7.8596,258.2261],[-7.1135,7.8585,249.7007],[-7.1202,7.8644,260.1797],[-7.126,7.8657,258.4398],[-7.1299,7.8732,260.0819],[-7.139,7.875,254.135],[-7.1471,7.873,256.5267],[-7.1501,7.87,268.369],[-7.1588,7.8676,260.937],[-7.1623,7.8645,275.4377],[-7.1731,7.8634,263.6],[-7.1807,7.8608,265.1161],[-7.188,7.8689,263.8382],[-7.1985,7.8765,269.9636],[-7.202,7.8767,270.8222],[-7.206,7.8834,268.3656],[-7.2031,7.8878,270.1151],[-7.2004,7.9064,276.7046],[-7.2017,7.9102,282.5517],[-7.2075,7.911,280.5937],[-7.2077,7.9145,280.1878],[-7.21,7.915,279.899],[-7.2125,7.9225,285.1088],[-7.2111,7.9329,286.7331],[-7.2148,7.9443,284.819],[-7.2148,7.9544,292.3702],[-7.2181,7.963,294.4089],[-7.2238,7.9681,299.6248],[-7.2262,7.9728,299.4001],[-7.2283,7.9717,297.3488],[-7.2349,7.9774,301.9232],[-7.2386,7.9789,306.4335],[-7.243,7.9784,307.0692],[-7.2458,7.9805,309.9671],[-7.249,7.9914,311.6331],[-7.2527,7.9908,312.7225],[-7.2552,8.0105,321.9279],[-7.2578,8.018,324.4607],[-7.2657,8.0262,326.7035],[-7.2695,8.0364,333.2846],[-7.2726,8.0401,329.264],[-7.2845,8.0483,337.5683],[-7.2877,8.0572,344.3325],[-7.2922,8.0622,349.0569],[-7.2931,8.0658,346.6384],[-7.3053,8.0675,351.416],[-7.3092,8.0688,353.3508],[-7.3117,8.0724,359.3318],[-7.3156,8.0716,357.4117],[-7.3189,8.0729,358.2014],[-7.3245,8.08,360.4661],[-7.333,8.0868,364.7483],[-7.3393,8.086,368.4581],[-7.3423,8.0871,367.4606],[-7.3536,8.0961,382.3684],[-7.3855,8.1138,398.7009],[-7.3976,8.1241,410.4998],[-7.4097,8.1298,435.159],[-7.4226,8.1295,428.3867],[-7.4284,8.1382,403.8521],[-7.4328,8.1558,384.2545],[-7.4482,8.157,392.8212],[-7.4541,8.1559,399.5836],[-7.463,8.1491,405.7066],[-7.4691,8.1465,414.4183],[-7.4798,8.1315,410.8965],[-7.4846,8.1289,408.8256],[-7.516,8.0579,446.585],[-7.509,8.0519,450.8355],[-7.5077,8.0472,440.0856],[-7.5029,8.044,448.0822],[-7.5049,8.0258,461.3611],[-7.5083,8.0228,430.7099],[-7.5088,8.0198,437.3997],[-7.506,8.0149,436.1974],[-7.5083,8.0013,455.3964],[-7.5135,7.9896,427.8935],[-7.5135,7.982,425.3742],[-7.5106,7.9769,405.1399],[-7.5132,7.9582,408.4265],[-7.5184,7.9421,394.4088],[-7.5134,7.9381,383.0642],[-7.5091,7.9377,382.7163],[-7.5024,7.9322,393.6604],[-7.5012,7.9267,364.8961],[-7.5045,7.9229,366.9197],[-7.5067,7.922,374.9805],[-7.5113,7.9233,362.9686],[-7.5209,7.9172,369.3049],[-7.5109,7.9081,372.8798],[-7.5129,7.8983,389.4288],[-7.5146,7.8961,381.5072],[-7.5186,7.8964,380.9507],[-7.5206,7.8951,378.6862],[-7.5186,7.8835,377.7116],[-7.5211,7.8809,383.6713],[-7.53,7.8829,377.7793],[-7.5337,7.8806,377.3784],[-7.5432,7.8837,379.6811],[-7.5452,7.8779,388.9004],[-7.5493,7.8743,385.8392],[-7.55,7.8707,389.4286],[-7.5545,7.8656,388.9003],[-7.5599,7.8671,381.4413],[-7.5644,7.8617,395.0276],[-7.568,7.8609,381.1116],[-7.5728,7.8701,384.0768],[-7.5734,7.8672,391.5925],[-7.5808,7.8669,386.2458],[-7.5874,7.8595,386.7126],[-7.5966,7.8595,393.3552],[-7.6058,7.8649,387.5535],[-7.6094,7.8703,404.0642],[-7.626,7.8706,414.3093],[-7.6292,7.859,411.1149],[-7.6285,7.8525,428.3073],[-7.6305,7.8499,412.8765],[-7.6419,7.8486,405.3353],[-7.6474,7.8414,418.5167],[-7.6619,7.8415,416.114],[-7.67,7.8442,404.5312],[-7.6819,7.8267,455.942],[-7.6799,7.8227,446.0046],[-7.6707,7.8171,443.9055],[-7.6689,7.8133,437.7178],[-7.6694,7.81,442.905],[-7.6777,7.8056,441.8543],[-7.6897,7.7927,469.1354],[-7.6951,7.7904,463.7669],[-7.6947,7.7884,474.5904],[-7.7058,7.7789,468.9657],[-7.7081,7.7699,483.8835],[-7.7199,7.7613,481.0157],[-7.7372,7.7423,521.845],[-7.735,7.7405,570.132],[-7.7325,7.6832,510.6561],[-7.7344,7.6748,503.4698],[-7.7414,7.6622,471.365],[-7.7517,7.6593,468.7833],[-7.7551,7.6523,456.7976],[-7.7785,7.6612,420.2996],[-7.802,7.6736,499.7342],[-7.8085,7.6817,497.4819],[-7.8082,7.6837,480.9516],[-7.8183,7.6909,494.2607],[-7.9068,7.7178,768.1412],[-7.9273,7.7223,837.6487],[-7.9472,7.7317,547.657],[-7.9552,7.7339,565.8214],[-7.9602,7.7335,522.853],[-7.9634,7.7378,491.909],[-7.9674,7.7393,480.0051],[-7.9752,7.7327,486.0832],[-7.9826,7.7318,518.101],[-7.992,7.7217,513.9661],[-7.9915,7.6756,880.1526],[-7.9718,7.6599,593.6023],[-7.9665,7.6527,596.6317],[-7.9636,7.6338,623.7599],[-7.9677,7.5991,704.8354],[-7.9628,7.5738,646.9963],[-7.9608,7.495,666.4863],[-7.9581,7.4846,687.6358],[-7.9614,7.475,720.2031],[-7.9614,7.4396,732.1371],[-7.9584,7.4167,650.8543],[-7.9521,7.4004,654.598],[-7.9541,7.3966,656.3596],[-7.9531,7.3877,483.4525],[-7.9561,7.369,347.9771],[-7.9551,7.3665,353.8851],[-7.9405,7.3805,594.2632],[-7.9218,7.3921,767.0696],[-7.9028,7.411,674.3617],[-7.8993,7.4306,561.7547],[-7.8899,7.4562,547.1625],[-7.8901,7.4601,556.8884],[-7.8842,7.4718,683.6758],[-7.8568,7.5048,843.3049],[-7.8502,7.5228,757.3329],[-7.8443,7.5325,736.0868],[-7.8463,7.5437,811.7208],[-7.8425,7.5495,709.0943],[-7.8121,7.5483,523.8655],[-7.8059,7.546,372.8085],[-7.7885,7.5509,389.5616],[-7.7822,7.5488,389.1299],[-7.7785,7.5447,409.3613],[-7.7763,7.5392,487.5548],[-7.768,7.5318,506.006],[-7.7627,7.5113,560.2012],[-7.7619,7.502,511.1392],[-7.75,7.5078,666.2596],[-7.7388,7.5101,529.1327],[-7.7304,7.5165,416.114],[-7.7257999999999996,7.5287,389.2299],[-7.7233,7.5415,380.2051],[-7.717,7.5453,526.5784],[-7.7018,7.55,591.2485],[-7.6891,7.5573,659.0909],[-7.677,7.5687,726.8068],[-7.6518,7.5803,558.9892],[-7.631,7.5944,583.4952],[-7.6244,7.5889,615.8138],[-7.6127,7.5831,642.3453],[-7.604,7.5859,840.511],[-7.5952,7.5841,841.5601],[-7.5853,7.5888,767.8743],[-7.5881,7.5979,697.0953],[-7.5879,7.6141,838.7896],[-7.5898,7.6237,750.4793],[-7.5885,7.6309,621.5974],[-7.5714,7.6441,549.3328],[-7.5077,7.6452,513.311],[-7.5002,7.6466,504.5701],[-7.4675,7.6437,482.2929],[-7.4691,7.6369,650.5154],[-7.4664,7.608,1005.8142],[-7.4626,7.6036,986.1793],[-7.4433,7.5946,645.1674],[-7.4375,7.5878,434.6373],[-7.4356,7.5826,415.2684],[-7.438,7.5762,414.2256],[-7.4543,7.5745,719.4138],[-7.4642,7.5666,675.6711],[-7.4672,7.5567,730.1811],[-7.4614,7.5525,877.7337],[-7.459,7.5438,764.9889],[-7.4636,7.5143,499.4185],[-7.4588,7.5088,479.0881],[-7.449,7.5023,373.0266],[-7.4378,7.4986,358.0061],[-7.4189,7.4768,320.7879],[-7.4079,7.4609,313.9622],[-7.4024,7.457,303.1767],[-7.3798,7.4631,287.0381],[-7.3764,7.4684,285.2451],[-7.368,7.4727,285.8707],[-7.3612,7.4755,280.6069],[-7.3535,7.4765,276.3841],[-7.3463,7.4814,273.7656],[-7.3437,7.4867,274.9651],[-7.3051,7.4925,266.5648],[-7.2804,7.51,265.4311],[-7.2801,7.5125,264.7044],[-7.2849,7.5204,270.7731],[-7.2826,7.5283,278.8882],[-7.2884,7.5411,271.0892],[-7.2855,7.5473,273.9865],[-7.2868,7.5523,285.2241],[-7.2822,7.5619,296.3436],[-7.2824,7.5659,274.9665],[-7.2796,7.5729,278.7116],[-7.2798,7.5817,276.9024],[-7.2657,7.5956,283.998],[-7.2512,7.6174,287.6031],[-7.2345,7.6582,297.8324],[-7.2219,7.6598,306.7733],[-7.2139,7.6574,314.3357],[-7.1988,7.66,338.1933],[-7.1923,7.6572,359.0923],[-7.175,7.6736,355.5464],[-7.17,7.6859,325.012],[-7.1542,7.7112,309.9314],[-7.1493,7.7218,311.5341],[-7.145,7.7231,314.7358],[-7.1341,7.7219,315.239],[-7.1037,7.7155,269.4978],[-7.0732,7.7175,240.4476]]]]}
,"properties": {"GID_3": "CIV.8.3.1_1","GID_0": "CIV","country": "Côted'Ivoire","GID_1": "CIV.8_1","province": "Montagnes","NL_NAME_1": "NA","GID_2": "CIV.8.3_1","county": "Tonkpi","NL_NAME_2": "NA","city": "Biankouma","VARNAME_3": "NA","NL_NAME_3": "NA","TYPE_3": "Département","ENGTYPE_3": "Department","CC_3": "NA","HASC_3": "NA","name": "Biankouma.city","area_km2": 3542.74,"hist_schema_id": "Elevation0-9000","hist_area_km2": {"225": 1.008,"250": 52.011,"275": 126.797,"300": 156.478,"325": 135.735,"350": 100.267,"375": 117.047,"400": 169.865,"425": 212.08,"450": 223.782,"475": 211.642,"500": 212.762,"525": 196.664,"550": 166.712,"575": 154.89,"600": 171.41,"625": 145.688,"650": 125.726,"675": 112.951,"700": 103.013,"725": 95.449,"750": 82.739,"775": 76.038,"800": 67.699,"825": 61.774,"850": 59.106,"875": 51.206,"900": 39.23,"925": 32.086,"950": 24.04,"975": 16.98,"1000": 12.378,"1025": 9.457,"1050": 6.704,"1075": 3.825,"1100": 3.195,"1125": 1.661,"1150": 0.925,"1175": 0.526,"1200": 0.294,"1225": 0.294,"1250": 0.084,"1275": 0.084,"1300": 0.147,"1325": 0.189,"1350": 0.084}}}