{"type":"Feature","properties":{"GID_3":"CIV.2.2.5_1","GID_0":"CIV","country":"Côted'Ivoire","GID_1":"CIV.2_1","province":"Bas-Sassandra","NL_NAME_1":"NA","GID_2":"CIV.2.2_1","county":"Nawa","NL_NAME_2":"NA","city":"Soubré","VARNAME_3":"NA","NL_NAME_3":"NA","TYPE_3":"Département","ENGTYPE_3":"Department","CC_3":"NA","HASC_3":"NA","name":"Soubré.city"},
"geometry":{"type": "MultiPolygon","coordinates": [[[[-6.7271,5.8219,191.1636],[-7.0875,5.82,229.8485],[-7.0871,5.7042,188.6772],[-7.0833,5.6985,185.9932],[-7.0843,5.6665,188.2877],[-7.0345,5.5677,150.6424],[-6.9885,5.5949,144.3713],[-6.9385,5.602,180.8805],[-6.9117,5.5878,164.5267],[-6.8867,5.5592,171.377],[-6.8796,5.5556,170.7543],[-6.8582,5.5521,171.8786],[-6.7868,5.5556,177.2192],[-6.7136,5.5521,153.5189],[-6.6869,5.5574,124.4336],[-6.7208,5.5895,163.5701],[-6.6476,5.6324,114.0774],[-6.6476,5.6466,112.5077],[-6.6405,5.6806,128.6538],[-6.5887,5.6895,100.9636],[-6.5722,5.703,101.9585],[-6.5612,5.6788,90.6012],[-6.5446,5.6639,86.4677],[-6.4973,5.6379,108.185],[-6.4845,5.6192,82.4626],[-6.47,5.6156,90.7772],[-6.4599,5.5799,85.1926],[-6.4498,5.5153,80.8617],[-6.4316,5.4999,63.6743],[-6.4309,5.5156,69.5178],[-6.4255,5.5336,77.0942],[-6.4153,5.5448,73.6505],[-6.4054,5.5435,65.3476],[-6.3949,5.5537,68.2913],[-6.3892,5.5543,85.1161],[-6.387,5.5577,85.6651],[-6.3804,5.56,70.5917],[-6.3713,5.57,72.267],[-6.3639,5.5699,72.8927],[-6.3554,5.5723,82.2301],[-6.3422,5.5719,74.2207],[-6.3363,5.5729,73.1778],[-6.3328,5.5753,74.9833],[-6.3264,5.5715,82.01],[-6.3069,5.5713,91.2471],[-6.2982,5.5765,98.32],[-6.2959,5.5789,91.3569],[-6.2952,5.5827,96.475],[-6.2718,5.5952,109.0309],[-6.2675,5.5937,115.6352],[-6.2629,5.5884,122.6658],[-6.2544,5.5866,120.5229],[-6.2481,5.589,115.3385],[-6.241,5.5871,112.4951],[-6.2367,5.5791,124.7654],[-6.2214,5.5746,125.9539],[-6.1995,5.6187,140.7708],[-6.1998,5.6428,140.6206],[-6.205,5.646,143.0403],[-6.2056,5.6586,127.9812],[-6.2098,5.6615,132.4582],[-6.2097,5.6645,136.0859],[-6.2166,5.6732,136.4672],[-6.2169,5.6763,139.1351],[-6.2214,5.6796,129.1544],[-6.2203,5.6853,132.0082],[-6.2222,5.6873,140.3883],[-6.2213,5.6897,134.555],[-6.2249,5.7019,149.7719],[-6.2224,5.7069,137.2299],[-6.2189,5.7095,145.8865],[-6.2185,5.713,139.9493],[-6.2236,5.7203,138.2898],[-6.2278,5.7325,142.9436],[-6.2255,5.7412,148.0561],[-6.2224,5.7438,154.152],[-6.2174,5.7561,158.2276],[-6.2257,5.7711,147.5772],[-6.2249,5.7729,157.296],[-6.2263,5.7763,148.016],[-6.2245,5.7788,155.9247],[-6.2269,5.7895,175.2766],[-6.2331,5.7966,169.8152],[-6.2367,5.7976,156.3099],[-6.2434,5.8101,156.5184],[-6.2389,5.8237,155.1909],[-6.2469,5.8475,159.1095],[-6.2488,5.8492,159.9281],[-6.2515,5.8489,158.4656],[-6.2556,5.8553,160.1645],[-6.2656,5.8572,161.0307],[-6.2772,5.8636,164.5683],[-6.2818,5.8758,167.3633],[-6.2818,5.8809,166.0583],[-6.2774,5.8876,170.7034],[-6.2803,5.893,170.8186],[-6.2801,5.8967,170.5871],[-6.2849,5.9026,171.7759],[-6.286,5.9733,209.917],[-6.2999,5.9912,212.7778],[-6.3053,5.9926,206.0502],[-6.313,5.9992,214.0889],[-6.3492,6.0215,208.9829],[-6.3582,6.0286,207.1379],[-6.3663,6.0427,219.4512],[-6.3886,6.0953,199.5993],[-6.3951,6.1214,237.1366],[-6.4166,6.177,228.7676],[-6.4222,6.1994,211.5279],[-6.4201,6.209,206.2076],[-6.4234,6.2428,200.2953],[-6.4277,6.2551,196.11],[-6.427,6.2639,196.125],[-6.4299,6.2805,192.335],[-6.4345,6.2841,192.0464],[-6.4359,6.2951,191.9222],[-6.4718,6.2793,199.7811],[-6.4808,6.272,213.5943],[-6.5082,6.2628,223.317],[-6.59,6.3209,173.6839],[-6.6806,6.2479,175.9624],[-6.741,6.2477,188.5558],[-6.7382,6.2406,181.2686],[-6.7246,6.2319,177.443],[-6.7141,6.2201,177.0989],[-6.7106,6.2114,173.0865],[-6.7032,6.2056,173.0275],[-6.7016,6.2026,171.1969],[-6.7,6.1903,172.1201],[-6.7021,6.1775,170.9973],[-6.7124,6.1713,166.0319],[-6.7135,6.1628,169.782],[-6.7157,6.1622,171.0185],[-6.7175,6.1592,170.6002],[-6.7159,6.1561,169.0608],[-6.7176,6.1528,170.5788],[-6.7211,6.1513,170.6234],[-6.7252,6.1521,170.7108],[-6.7269,6.1451,169.4033],[-6.725,6.1274,168.128],[-6.7266,6.127,171.7581],[-6.7316,6.1325,169.7517],[-6.7343,6.1331,169.4663],[-6.7441,6.1293,167.5713],[-6.7562,6.133,168.7233],[-6.7603,6.1325,168.3384],[-6.7699,6.1282,170.082],[-6.7751,6.1191,164.9976],[-6.7781,6.1215,166.6922],[-6.7961,6.1205,170.0654],[-6.8117,6.1165,166.7088],[-6.8151,6.1145,167.9176],[-6.8152,6.1098,164.9127],[-6.8083,6.1006,167.0981],[-6.7878,6.1007,170.8442],[-6.7852,6.0937,167.1022],[-6.7793,6.091,167.5354],[-6.7781,6.0882,167.199],[-6.7772,6.0841,167.4348],[-6.7888,6.075,166.6207],[-6.7855,6.0562,170.8518],[-6.7918,6.0466,164.8817],[-6.7924,6.0419,166.9278],[-6.7891,6.0384,164.6672],[-6.7604,6.028,161.6938],[-6.7591,6.0321,162.7653],[-6.7469,6.0338,162.5143],[-6.7192,6.0324,162.9391],[-6.7133,6.03,164.0664],[-6.7002,6.0197,163.2001],[-6.6791,6.0127,162.7949],[-6.6786,6.0088,162.341],[-6.6815,6.0056,160.035],[-6.6826,5.9985,164.6559],[-6.6791,5.988,164.5619],[-6.6779,5.9777,161.8184],[-6.6832,5.979,162.4999],[-6.6903,5.9768,158.0],[-6.6936,5.9734,163.2018],[-6.7045,5.9518,157.0],[-6.7153,5.9451,156.5],[-6.7202,5.9426,156.5],[-6.7308,5.9456,161.3925],[-6.7334,5.9432,156.0],[-6.7423,5.9415,161.6639],[-6.7482,5.9345,159.7599],[-6.7555,5.9192,158.7021],[-6.7538,5.8976,165.1542],[-6.7378,5.8836,171.7341],[-6.7278,5.8819,172.2773],[-6.7264,5.8716,160.1671],[-6.7219,5.8682,166.702],[-6.7153,5.8672,161.3473],[-6.7143,5.8574,172.3754],[-6.7104,5.8573,160.7207],[-6.7065,5.8592,158.0372],[-6.7014,5.8505,161.2607],[-6.6968,5.8489,159.0413],[-6.6951,5.846,155.6138],[-6.6883,5.8425,154.7154],[-6.6866,5.833,155.5779],[-6.6886,5.8291,153.3997],[-6.6931,5.8288,152.4843],[-6.6996,5.8249,153.4211],[-6.7025,5.8212,153.4986],[-6.7271,5.8219,191.1636]]]]}}