{"type":"Feature","properties":{"GID_2":"CIV.11.2_1","GID_0":"CIV","country":"Côted'Ivoire","GID_1":"CIV.11_1","province":"ValléeduBandama","NL_NAME_1":"NA","county":"Hambol","VARNAME_2":"NA","NL_NAME_2":"NA","TYPE_2":"Région","ENGTYPE_2":"Region","CC_2":"NA","HASC_2":"CI.VB.HB","name":"Hambol.county"},
"geometry":{"type": "MultiPolygon","coordinates": [[[[-4.4408,7.819,183.3228],[-4.3569,7.8536,176.8498],[-4.3036,7.8563,153.3452],[-4.2648,7.9155,208.5681],[-4.1852,8.0015,238.2623],[-4.1719,8.0076,237.1642],[-4.1456,8.0073,248.1572],[-4.1365,8.0028,229.6348],[-4.0987,8.0075,244.3529],[-4.0849,8.0122,241.5092],[-4.0779,8.0129,238.8097],[-4.0557,8.026,196.6437],[-4.0449,8.0274,191.3941],[-4.0135,8.0513,177.5234],[-4.0117,8.067,175.769],[-4.005,8.0714,165.3209],[-4.0005,8.0774,165.1006],[-3.9977,8.0897,165.2264],[-3.9992,8.0944,165.1163],[-3.9976,8.1003,165.1373],[-3.9926,8.1054,167.2084],[-3.9867,8.1088,183.9147],[-3.9645,8.1098,171.9745],[-3.9512,8.1057,174.7465],[-3.9351,8.1039,165.5042],[-3.9296,8.1054,164.9735],[-3.9271,8.1138,167.0249],[-3.9284,8.1209,167.0825],[-3.9375,8.1236,169.7087],[-3.9458,8.1238,167.6859],[-3.9464,8.129,166.7369],[-3.952,8.1345,175.0489],[-3.9572,8.1367,176.1932],[-3.9578,8.1421,167.1726],[-3.9725,8.1551,172.6698],[-3.9755,8.1608,175.5148],[-3.9757,8.1661,170.0713],[-4.0076,8.1755,170.0915],[-4.0188,8.1733,183.1619],[-4.0249,8.1784,174.7748],[-4.0288,8.1851,206.4695],[-4.0294,8.1921,174.2133],[-4.0212,8.2065,180.599],[-4.0077,8.2194,177.3498],[-4.0023,8.2282,179.9255],[-4.0024,8.2334,181.3637],[-4.0113,8.2465,170.5298],[-4.0305,8.2607,179.5011],[-4.0463,8.2793,174.2734],[-4.0558,8.2879,177.1359],[-4.0551,8.2942,183.4736],[-4.047,8.3072,172.6542],[-4.0332,8.3086,174.5661],[-4.0163,8.3054,177.6677],[-4.0079,8.3082,181.5374],[-4.0,8.3047,176.0307],[-3.9861,8.3021,182.999],[-3.9706,8.2969,173.5979],[-3.9669,8.2972,179.2322],[-3.9612,8.3071,179.0234],[-3.9595,8.3249,176.2669],[-3.9527,8.3388,177.581],[-3.9517,8.346,176.3957],[-3.9739,8.3524,183.0497],[-3.9764,8.3581,182.5358],[-3.9814,8.3631,181.783],[-3.9823,8.3669,173.0126],[-3.9789,8.3726,176.1535],[-3.9736,8.3746,178.5197],[-3.9584,8.3762,177.1168],[-3.9542,8.3795,178.382],[-3.9484,8.3947,184.3721],[-3.9505,8.3987,178.5565],[-3.9732,8.4022,181.8617],[-3.9863,8.4005,187.5689],[-3.99,8.4057,179.0513],[-3.9927,8.4193,175.6562],[-3.9965,8.4243,187.7145],[-3.9956,8.4315,188.1017],[-3.993,8.4347,180.0269],[-3.9808,8.4342,180.2852],[-3.9761,8.4308,176.8996],[-3.9706,8.4314,177.7698],[-3.9561,8.4354,176.5826],[-3.9379,8.4479,181.6433],[-3.9363,8.4539,188.9425],[-3.9358,8.4709,187.3947],[-3.9274,8.486,183.8689],[-3.9265,8.4957,180.489],[-3.9502,8.5076,186.6702],[-3.9572,8.5097,187.9464],[-3.9663,8.5083,182.5461],[-3.9746,8.5112,190.377],[-3.979,8.5166,179.9637],[-3.9806,8.5243,181.977],[-3.9771,8.5396,188.4481],[-3.9721,8.5453,181.6926],[-3.9655,8.5489,183.394],[-3.9526,8.549,179.6921],[-3.9428,8.552,184.9937],[-3.9359,8.5578,187.873],[-3.9322,8.5632,195.6295],[-3.9257,8.5661,192.8692],[-3.9203,8.5715,195.2581],[-3.9034,8.5784,185.4131],[-3.905,8.5842,187.7309],[-3.9109,8.5905,184.7318],[-3.9186,8.6109,184.9375],[-3.9295,8.6213,183.1237],[-3.9289,8.6278,196.3691],[-3.9316,8.6342,193.2028],[-3.931,8.6394,201.0955],[-3.9425,8.6352,192.0385],[-3.9521,8.6258,214.1242],[-3.962,8.6266,189.2215],[-3.9713,8.6231,188.4983],[-3.977,8.6277,187.2633],[-3.9822,8.6281,187.818],[-3.9846,8.632,196.8254],[-3.9842,8.6378,187.8431],[-3.991,8.6421,196.9633],[-4.0008,8.638,196.8617],[-4.0219,8.6489,199.4133],[-4.0342,8.6521,224.0536],[-4.0467,8.6418,247.717],[-4.0505,8.6415,220.8885],[-4.0564,8.6478,192.9448],[-4.063,8.6461,197.2072],[-4.0717,8.6573,196.799],[-4.0783,8.6591,197.455],[-4.0747,8.6517,201.0933],[-4.0767,8.6451,224.7868],[-4.0807,8.6484,196.7887],[-4.0903,8.6496,196.8793],[-4.0936,8.6431,211.1126],[-4.1061,8.6479,205.0654],[-4.1077,8.6454,210.3624],[-4.1128,8.6426,221.5401],[-4.1234,8.6418,221.4001],[-4.1294,8.6433,287.4396],[-4.138,8.6505,204.3882],[-4.1552,8.6602,203.4306],[-4.1608,8.6572,200.8296],[-4.1628,8.6516,215.7551],[-4.1672,8.6462,216.838],[-4.172,8.6485,204.0544],[-4.1729,8.6539,217.1025],[-4.1716,8.6601,204.6119],[-4.1946,8.675,240.2479],[-4.1953,8.6712,215.0128],[-4.2021,8.668,204.9825],[-4.2008,8.6646,206.5856],[-4.2068,8.6547,221.45],[-4.2155,8.6498,210.5026],[-4.2228,8.6515,207.641],[-4.232,8.663,209.111],[-4.2456,8.6717,207.5105],[-4.2499,8.6788,210.4998],[-4.2568,8.685,213.7889],[-4.2628,8.6867,222.0592],[-4.2644,8.7045,210.0877],[-4.2686,8.704,216.4051],[-4.273,8.706,218.8771],[-4.2772,8.7117,219.6347],[-4.2782,8.7169,220.0245],[-4.2726,8.7194,211.3562],[-4.2802,8.7264,221.7787],[-4.2818,8.7313,219.6475],[-4.28,8.7396,213.8016],[-4.2816,8.7424,217.115],[-4.2856,8.741,217.8629],[-4.2904,8.7366,217.9011],[-4.2982,8.7418,222.1539],[-4.3033,8.737,229.8378],[-4.3159,8.7317,229.3815],[-4.3244,8.7338,223.6973],[-4.3324,8.7313,228.058],[-4.3394,8.7213,229.2322],[-4.3476,8.7197,225.7092],[-4.3532,8.7263,234.0961],[-4.3798,8.7848,230.5172],[-4.3776,8.7946,225.0642],[-4.3835,8.8046,235.6891],[-4.3785,8.8185,238.6753],[-4.3875,8.8311,242.6747],[-4.4077,8.8657,242.0471],[-4.4183,8.8544,240.3344],[-4.4262,8.8566,250.6512],[-4.4315,8.8609,246.795],[-4.4339,8.869,254.3492],[-4.4554,8.8799,260.76],[-4.4611,8.886,259.7],[-4.4658,8.8847,275.1937],[-4.471,8.8862,265.7193],[-4.4779,8.8814,267.3737],[-4.4922,8.8768,289.1864],[-4.4977,8.8812,276.9117],[-4.4991,8.8926,272.1016],[-4.5128,8.9115,282.8711],[-4.5355,8.9064,297.6597],[-4.5425,8.9106,299.6368],[-4.5483,8.9115,305.4622],[-4.5552,8.9199,303.975],[-4.5608,8.9219,305.4578],[-4.5691,8.9143,314.155],[-4.9545,8.9223,261.9095],[-4.9639,8.9415,268.077],[-4.9566,8.9495,262.986],[-4.9488,8.9505,275.9835],[-4.9466,8.942,268.1547],[-4.9427,8.942,266.5505],[-4.9392,8.9496,277.113],[-4.9288,8.9541,271.8384],[-4.9256,8.9654,277.1114],[-4.9138,8.9714,268.9509],[-4.9149,8.981,274.0618],[-4.9132,8.9864,269.1848],[-4.9051,8.9942,270.9041],[-4.9112,8.996,283.1252],[-4.9059,9.0169,271.9174],[-4.9066,9.0276,271.5669],[-4.9036,9.0411,275.2632],[-4.8973,9.0454,272.2393],[-4.8972,9.0525,272.575],[-4.8929,9.0723,274.4904],[-4.8846,9.099,278.0884],[-4.8857,9.1113,280.7032],[-4.8935,9.1288,281.6939],[-4.8993,9.1203,296.5863],[-4.906,9.121,289.7276],[-4.9142,9.1272,283.6992],[-4.9169,9.1268,291.0642],[-4.9221,9.1303,288.7837],[-4.9261,9.1285,291.9457],[-4.9308,9.1324,287.5993],[-4.9401,9.1347,292.9147],[-4.9475,9.1387,292.9643],[-4.9525,9.1441,292.0046],[-4.9556,9.1546,291.0999],[-4.9612,9.155,297.8141],[-4.9654,9.1627,292.2307],[-4.9742,9.1641,303.6036],[-4.9827,9.1698,297.7466],[-4.9859,9.175,295.9871],[-4.9817,9.1794,296.7794],[-4.9804,9.1838,303.7876],[-4.9809,9.1923,306.2745],[-4.9896,9.2093,315.0138],[-4.9975,9.2193,313.5576],[-5.0101,9.2233,326.2814],[-5.016,9.2283,323.6043],[-5.0117,9.248,332.1543],[-5.0131,9.259,327.3943],[-5.0109,9.2724,336.4982],[-5.0138,9.2804,331.5835],[-5.011,9.2869,334.5387],[-5.0155,9.2932,328.7304],[-5.0187,9.302,341.4314],[-5.0249,9.3074,338.505],[-5.023,9.314,336.6869],[-5.0309,9.3316,346.6845],[-5.0347,9.3322,346.9161],[-5.0467,9.3422,360.0747],[-5.0542,9.3437,361.6974],[-5.0719,9.3348,378.8135],[-5.0779,9.3356,377.8417],[-5.0831,9.334,388.8665],[-5.0927,9.3358,395.5799],[-5.1018,9.3293,414.1002],[-5.1144,9.3293,419.1932],[-5.1286,9.3331,381.6174],[-5.1431,9.3399,365.0049],[-5.1503,9.348,365.1096],[-5.1837,9.3543,346.3867],[-5.1926,9.3621,338.8118],[-5.1899,9.3687,354.093],[-5.1892,9.3773,377.0251],[-5.1922,9.4087,347.0623],[-5.1943,9.4178,342.9081],[-5.2005,9.4245,337.5166],[-5.208,9.4078,365.8088],[-5.2382,9.4028,331.8849],[-5.246,9.397,317.9724],[-5.256,9.397,325.0406],[-5.2815,9.3923,310.0553],[-5.3003,9.3842,302.4165],[-5.3181,9.3896,296.6664],[-5.3226,9.3888,293.8249],[-5.3306,9.3743,290.2578],[-5.3324,9.363,295.6016],[-5.3345,9.3599,302.4963],[-5.3426,9.3562,291.3699],[-5.3442,9.3494,286.1642],[-5.3495,9.3467,291.4849],[-5.3426,9.3423,300.9161],[-5.3445,9.3371,298.963],[-5.3554,9.3326,295.2014],[-5.3501,9.3252,291.816],[-5.3501,9.3219,295.6418],[-5.3522,9.3191,299.1808],[-5.3589,9.3166,292.4608],[-5.3603,9.31,294.1658],[-5.3671,9.3031,297.0225],[-5.3718,9.3018,288.2357],[-5.3806,9.307,287.2012],[-5.3821,9.304,293.1105],[-5.3759,9.2972,289.7317],[-5.3715,9.2886,304.8698],[-5.3722,9.2853,306.8509],[-5.3748,9.2828,298.6068],[-5.3815,9.2807,289.2919],[-5.3812,9.2668,303.4032],[-5.3848,9.2552,296.7831],[-5.3917,9.2484,285.638],[-5.3983,9.2388,288.2123],[-5.3936,9.2346,295.2852],[-5.3963,9.2266,302.0125],[-5.3947,9.2201,305.1082],[-5.3984,9.2121,292.4849],[-5.4046,9.2078,296.7012],[-5.4036,9.2039,296.9396],[-5.4134,9.1988,286.7618],[-5.4277,9.2038,284.5563],[-5.4323,9.2043,287.3386],[-5.4345,9.2021,288.9527],[-5.4295,9.1987,290.3848],[-5.4169,9.194,290.5035],[-5.4195,9.1886,293.5326],[-5.424,9.1878,288.0861],[-5.4293,9.1891,285.261],[-5.4286,9.186,286.9471],[-5.42,9.1776,284.6448],[-5.4199,9.1715,290.5289],[-5.4226,9.1676,288.3473],[-5.4359,9.158,287.33],[-5.4331,9.1537,282.6864],[-5.4291,9.1511,295.7044],[-5.4285,9.1437,302.8606],[-5.4486,9.1253,282.3136],[-5.4491,9.1224,284.6305],[-5.4428,9.1069,293.4906],[-5.4425,9.1006,297.5681],[-5.4451,9.0963,293.5622],[-5.4577,9.0885,281.4496],[-5.4635,9.0867,291.4951],[-5.4748,9.0876,286.7971],[-5.4807,9.0908,286.2482],[-5.4826,9.0889,281.8924],[-5.4824,9.0833,290.4221],[-5.4798,9.0771,295.1317],[-5.4902,9.0651,290.5709],[-5.4895,9.0602,289.4997],[-5.4813,9.0473,281.9958],[-5.4751,9.0439,279.9075],[-5.4647,9.0421,294.7553],[-5.461,9.0397,281.772],[-5.4473,9.0363,292.4988],[-5.4368,9.0299,300.903],[-5.4296,9.0237,295.7799],[-5.4223,9.0117,277.8444],[-5.4129,9.004,279.0168],[-5.4088,8.9972,290.5169],[-5.4087,8.9895,290.4398],[-5.4142,8.9845,281.839],[-5.4181,8.9838,278.0345],[-5.4424,8.9974,279.0257],[-5.4526,8.9956,279.1783],[-5.4567,8.9921,281.3911],[-5.4496,8.9927,288.4606],[-5.4393,8.9837,296.4037],[-5.4385,8.9751,280.4494],[-5.4398,8.9706,280.6978],[-5.4428,8.9672,282.6025],[-5.4521,8.9599,279.4016],[-5.4585,8.9635,282.9747],[-5.4634,8.9735,277.4305],[-5.4675,8.9729,283.025],[-5.4651,8.9588,281.954],[-5.4674,8.9465,287.0591],[-5.4727,8.9373,278.4555],[-5.4568,8.9327,284.5856],[-5.4521,8.9304,295.8946],[-5.4503,8.9273,290.6306],[-5.4501,8.9236,288.2265],[-5.4541,8.9169,281.2353],[-5.4564,8.9044,273.6123],[-5.4587,8.9025,276.693],[-5.4659,8.9024,278.0764],[-5.4844,8.914,277.6158],[-5.4883,8.9132,281.3803],[-5.4847,8.9059,289.9401],[-5.4768,8.8978,276.7631],[-5.4627,8.8972,285.0166],[-5.4518,8.8933,290.5003],[-5.4439,8.8834,277.8603],[-5.4468,8.873,286.3727],[-5.4537,8.869,283.1232],[-5.4642,8.8661,273.6872],[-5.4736,8.8601,276.6518],[-5.483,8.8657,276.9885],[-5.4891,8.8718,281.9341],[-5.4932,8.8711,275.677],[-5.5037,8.8763,307.8627],[-5.513,8.8788,315.0317],[-5.5409,8.8746,356.9223],[-5.5574,8.8749,360.7511],[-5.5613,8.8716,340.4924],[-5.5743,8.8752,351.9039],[-5.5795,8.8744,356.8259],[-5.5873,8.8708,381.8504],[-5.5939,8.8587,347.6004],[-5.5936,8.8522,345.6033],[-5.601,8.8461,349.5957],[-5.6119,8.8424,377.2247],[-5.6477,8.8348,342.0293],[-5.6515,8.8387,342.5135],[-5.6643,8.8402,374.2195],[-5.7035,8.7813,335.842],[-5.7033,8.7761,324.7438],[-5.6811,8.7586,307.4836],[-5.6936,8.7498,304.9745],[-5.6694,8.7381,319.5547],[-5.6651,8.7344,324.3397],[-5.6647,8.7297,322.002],[-5.6732,8.7245,306.0253],[-5.6897,8.7254,310.0275],[-5.6953,8.7243,306.136],[-5.6994,8.7222,306.3908],[-5.7011,8.7189,307.4854],[-5.6921,8.7169,315.0398],[-5.6754,8.7078,320.1409],[-5.6741,8.7029,328.5399],[-5.6804,8.6954,312.0414],[-5.68,8.6874,323.5233],[-5.6832,8.6847,319.2645],[-5.6827,8.6759,319.4092],[-5.6849,8.673,311.1291],[-5.6897,8.6715,307.6677],[-5.6871,8.6679,312.3586],[-5.6875,8.6571,319.4552],[-5.6919,8.6528,318.8029],[-5.706,8.6538,302.0209],[-5.7075,8.6507,303.9541],[-5.6969,8.6355,308.608],[-5.6954,8.6302,321.318],[-5.7012,8.6248,303.6741],[-5.6966,8.62,302.4045],[-5.6901,8.617,295.0324],[-5.681,8.6053,285.0332],[-5.6786,8.6124,295.1706],[-5.6674,8.6213,285.6874],[-5.6638,8.622,276.1475],[-5.6589,8.6206,282.0027],[-5.6568,8.6171,264.7572],[-5.652,8.6183,266.4243],[-5.6396,8.6167,278.3973],[-5.6316,8.6107,274.1273],[-5.6319,8.6053,269.8444],[-5.6277,8.5981,265.71],[-5.6275,8.5916,274.0451],[-5.6324,8.5887,269.3877],[-5.6374,8.5887,264.5541],[-5.6439,8.5917,262.7578],[-5.646,8.5902,263.372],[-5.6426,8.5811,261.4956],[-5.637,8.5759,262.1551],[-5.6374,8.5724,268.2682],[-5.6432,8.5711,262.5284],[-5.6335,8.5645,265.1574],[-5.6342,8.5605,274.2929],[-5.6428,8.5556,264.301],[-5.6443,8.5529,261.3391],[-5.6423,8.55,260.6246],[-5.6335,8.5493,262.5833],[-5.6245,8.5445,265.1665],[-5.6226,8.5465,259.8994],[-5.6252,8.5528,268.1714],[-5.6223,8.5532,271.9716],[-5.6118,8.5498,271.0412],[-5.6119,8.5321,259.636],[-5.618,8.5301,255.8362],[-5.6194,8.5268,262.2368],[-5.6181,8.5168,259.445],[-5.611,8.5076,255.5746],[-5.5783,8.4863,257.6124],[-5.5682,8.4815,274.905],[-5.5509,8.4774,256.935],[-5.5322,8.4642,286.0848],[-5.5225,8.461,252.7992],[-5.5301,8.4565,255.7289],[-5.5358,8.4482,257.08],[-5.5416,8.4464,256.2315],[-5.5537,8.4459,256.7647],[-5.5598,8.4479,253.0878],[-5.5692,8.4588,256.5572],[-5.5908,8.4651,266.3823],[-5.5951,8.4613,266.4777],[-5.6019,8.4592,252.1766],[-5.6056,8.4599,250.6493],[-5.6102,8.4525,257.3436],[-5.6272,8.4521,255.2891],[-5.6306,8.4505,256.1235],[-5.6333,8.4397,260.4861],[-5.6166,8.4264,263.8338],[-5.6102,8.4251,253.4197],[-5.6007,8.419,255.2737],[-5.581,8.412,251.8576],[-5.5682,8.3973,248.0],[-5.5657,8.3925,251.6102],[-5.5549,8.3825,251.7283],[-5.5367,8.3749,264.885],[-5.5312,8.3774,250.0142],[-5.5198,8.3746,252.9633],[-5.509,8.3778,263.9901],[-5.5067,8.3798,251.3244],[-5.5032,8.3767,251.1609],[-5.503,8.3658,246.2427],[-5.492,8.3551,250.2643],[-5.4818,8.3585,242.0566],[-5.4732,8.3512,232.4784],[-5.4643,8.3482,229.7998],[-5.4619,8.3505,226.721],[-5.4501,8.3414,230.8743],[-5.4369,8.3358,224.763],[-5.4197,8.313,231.837],[-5.4128,8.3087,232.4644],[-5.3921,8.3016,222.8368],[-5.3919,8.2763,236.7429],[-5.3868,8.2723,239.4672],[-5.3711,8.2717,229.3404],[-5.3617,8.2682,224.6034],[-5.3494,8.2618,225.3808],[-5.3385,8.2515,228.5228],[-5.3372,8.2484,219.6919],[-5.3485,8.2472,225.5447],[-5.3556,8.2499,216.4792],[-5.3683,8.259,225.5376],[-5.3719,8.2588,224.7567],[-5.3729,8.2555,220.0161],[-5.3731,8.2448,223.8307],[-5.37,8.2416,223.2782],[-5.3666,8.2329,224.9786],[-5.358,8.2274,222.8002],[-5.3534,8.2213,222.7877],[-5.349,8.2202,221.318],[-5.3466,8.2175,220.3803],[-5.3472,8.2127,221.7966],[-5.3549,8.2029,223.0881],[-5.3569,8.1927,216.9122],[-5.3548,8.1843,212.6884],[-5.3507,8.18,209.5694],[-5.3494,8.1745,214.1507],[-5.3578,8.1623,209.0124],[-5.3554,8.1587,214.7038],[-5.3481,8.1534,227.3161],[-5.3391,8.1403,265.9456],[-5.3367,8.134,249.827],[-5.3321,8.1301,257.7618],[-5.3038,8.0896,255.1157],[-5.2866,8.0719,268.8874],[-5.2823,8.0627,282.857],[-5.2756,8.0594,277.6202],[-5.2626,8.0588,282.2129],[-5.2543,8.0562,288.6395],[-5.2494,8.063,290.4416],[-5.2464,8.0638,289.9643],[-5.2436,8.0623,303.6039],[-5.2419,8.051,299.4472],[-5.2377,8.046,288.1083],[-5.2369,8.0424,281.6722],[-5.2393,8.0196,268.7948],[-5.2373,8.017,284.2092],[-5.2277,8.0149,290.0867],[-5.2192,8.0103,291.3208],[-5.2128,8.0104,297.1547],[-5.2064,8.0133,310.2213],[-5.1491,7.9551,333.2482],[-5.1381,7.963,325.2057],[-5.1221,7.9642,311.5827],[-5.1004,7.9697,285.6006],[-5.0886,7.9704,280.8018],[-5.0826,7.9662,274.6789],[-5.0657,7.9651,266.5286],[-5.0462,7.9734,259.4426],[-5.036,7.9828,263.3387],[-5.025,7.9873,263.8702],[-5.0162,7.9858,258.1355],[-5.0057,7.9883,249.202],[-5.0023,7.984,245.8809],[-5.0004,7.9838,245.4845],[-4.9982,7.9856,251.295],[-4.9972,7.9936,258.6335],[-4.9942,7.9968,259.8685],[-4.9885,7.9952,270.0558],[-4.9817,7.9979,279.7611],[-4.9769,7.9939,277.3748],[-4.97,7.9915,268.3509],[-4.9528,7.9891,262.5193],[-4.9391,7.977,252.1094],[-4.9294,7.9708,249.6246],[-4.7804,8.0167,267.7694],[-4.767,8.0168,273.1235],[-4.7587,8.0271,189.8282],[-4.7452,8.0252,201.3319],[-4.7391,8.0287,187.9409],[-4.7352,8.0261,179.038],[-4.7336,8.0214,182.2312],[-4.7183,8.0245,352.8646],[-4.7078,8.0221,388.2975],[-4.7022,8.0231,370.8401],[-4.6934,8.0195,285.3848],[-4.6914,8.0209,258.6916],[-4.6842,8.0209,235.8786],[-4.6782,8.0178,260.9246],[-4.6743,8.0136,274.9743],[-4.6644,8.0119,330.777],[-4.6575,8.0121,299.7579],[-4.6489,8.0209,305.7357],[-4.6389,8.0228,319.1253],[-4.6269,8.0308,299.119],[-4.6239,8.031,297.1768],[-4.6196,8.0257,317.5528],[-4.6188,8.0176,357.5252],[-4.6364,7.999,305.7216],[-4.6356,7.9922,300.9191],[-4.6301,7.9814,328.0356],[-4.6214,7.9704,294.2419],[-4.5928,7.9477,243.1949],[-4.6008,7.9149,270.0605],[-4.6125,7.8805,226.1274],[-4.6097,7.8747,219.5407],[-4.6021,7.8689,197.1724],[-4.5978,7.8632,206.2049],[-4.5852,7.8545,194.6811],[-4.5731,7.8526,189.0347],[-4.5688,7.8499,181.9846],[-4.5678,7.8473,183.9574],[-4.5708,7.8447,183.8447],[-4.5736,7.8369,183.6507],[-4.5727,7.8295,180.9118],[-4.5715,7.8283,179.5434],[-4.5702,7.831,176.8037],[-4.5574,7.8343,185.1311],[-4.5495,7.8276,200.1722],[-4.5425,7.8277,219.7758],[-4.5363,7.8306,237.5484],[-4.5308,7.8307,249.9361],[-4.5246,7.8249,259.7625],[-4.5183,7.8226,245.0538],[-4.5102,7.8236,224.9363],[-4.5046,7.8205,216.2442],[-4.4982,7.8224,239.5669],[-4.4782,7.816,202.8125],[-4.4408,7.819,183.3228]]]]}}