{"type":"Feature","properties":{"GID_3":"CIV.11.1.1_1","GID_0":"CIV","country":"Côted'Ivoire","GID_1":"CIV.11_1","province":"ValléeduBandama","NL_NAME_1":"NA","GID_2":"CIV.11.1_1","county":"Gbeke","NL_NAME_2":"NA","city":"Béoumi","VARNAME_3":"NA","NL_NAME_3":"NA","TYPE_3":"Département","ENGTYPE_3":"Department","CC_3":"NA","HASC_3":"NA","name":"Béoumi.city"},
"geometry":{"type": "MultiPolygon","coordinates": [[[[-5.7107,7.461,184.6572],[-5.7107,7.459,181.5],[-5.7073,7.4613,181.5],[-5.7015,7.4604,185.1111],[-5.6961,7.4628,211.0432],[-5.6877,7.461,199.7851],[-5.6799,7.4689,218.7129],[-5.665,7.4746,230.7842],[-5.5705,7.4911,216.9479],[-5.4336,7.4986,196.6506],[-5.4339,7.522,204.81],[-5.4246,7.5419,202.2248],[-5.4244,7.5452,202.3833],[-5.4325,7.5599,207.0722],[-5.4359,7.5716,207.956],[-5.4462,7.5764,209.9163],[-5.4506,7.5925,214.9548],[-5.4357,7.6124,271.8889],[-5.4291,7.6169,264.4813],[-5.3839,7.665,261.6713],[-5.3794,7.6774,272.9667],[-5.3789,7.6885,291.3486],[-5.3746,7.7048,263.5205],[-5.3543,7.722,279.8439],[-5.3371,7.7514,313.074],[-5.3314,7.7578,326.5319],[-5.3355,7.7592,313.4462],[-5.3489,7.7694,291.61],[-5.3566,7.7713,277.0421],[-5.3805,7.7903,242.35],[-5.3865,7.808,234.1353],[-5.4058,7.8363,243.0132],[-5.415,7.8693,226.0381],[-5.4151,7.8755,214.4715],[-5.4076,7.8931,216.6848],[-5.3941,7.9085,220.6721],[-5.3777,7.9177,231.9239],[-5.3645,7.948,235.2259],[-5.3682,7.958,238.0766],[-5.371,7.9594,230.6145],[-5.3705,7.9672,239.4084],[-5.3773,7.9796,238.687],[-5.3774,7.9841,243.4802],[-5.3741,7.9933,248.0054],[-5.3684,8.0312,255.8997],[-5.3585,8.0563,251.9915],[-5.3557,8.0726,253.8733],[-5.3504,8.0893,242.8032],[-5.3446,8.0938,237.4897],[-5.3087,8.0975,248.2794],[-5.3321,8.1301,257.7618],[-5.3367,8.134,249.827],[-5.3391,8.1403,265.9456],[-5.3481,8.1534,227.3161],[-5.3554,8.1587,214.7038],[-5.3578,8.1623,209.0124],[-5.3634,8.1613,208.1109],[-5.3704,8.166,209.884],[-5.3805,8.1615,206.4622],[-5.3885,8.1645,210.1974],[-5.397,8.1633,206.3583],[-5.3992,8.1649,204.475],[-5.4049,8.1627,210.9198],[-5.4076,8.1534,209.2803],[-5.3979,8.1404,208.1288],[-5.4005,8.1206,209.6627],[-5.3972,8.1172,212.1444],[-5.3963,8.1134,206.8161],[-5.3974,8.1086,207.795],[-5.4021,8.1047,216.3463],[-5.4051,8.1046,214.192],[-5.4142,8.1122,205.9939],[-5.4188,8.1129,208.4281],[-5.4228,8.1084,204.1161],[-5.4218,8.1003,205.3107],[-5.4234,8.0998,209.7046],[-5.4326,8.102,205.4601],[-5.4344,8.1086,202.8922],[-5.4416,8.1083,203.2818],[-5.4442,8.1099,203.3248],[-5.4526,8.1108,204.2841],[-5.4601,8.1081,198.0648],[-5.4637,8.1005,202.8978],[-5.4701,8.103,201.6317],[-5.4759,8.1029,199.9597],[-5.4783,8.1117,198.0801],[-5.4809,8.1155,196.2518],[-5.4854,8.1175,196.9349],[-5.4894,8.1149,196.3083],[-5.4951,8.1064,203.9386],[-5.4993,8.105,198.6547],[-5.5094,8.1067,198.7385],[-5.5162,8.1199,197.2262],[-5.5294,8.1143,197.1573],[-5.5298,8.1074,199.5199],[-5.5227,8.1004,198.3343],[-5.5217,8.0962,195.7842],[-5.5237,8.0866,195.4891],[-5.5213,8.0757,196.5633],[-5.5324,8.0754,196.1122],[-5.53,8.062,199.1191],[-5.5313,8.0598,196.7647],[-5.5451,8.0549,195.9791],[-5.5473,8.0509,196.8452],[-5.5465,8.0453,198.922],[-5.5487,8.0359,198.026],[-5.5509,8.0342,196.7622],[-5.5638,8.0361,194.6332],[-5.5633,8.0324,202.0818],[-5.5566,8.0257,198.1787],[-5.5638,8.0246,199.1129],[-5.5707,8.0194,197.4823],[-5.5718,8.0117,193.1906],[-5.5692,7.9991,199.6828],[-5.578,7.9887,194.7391],[-5.5804,7.9797,190.25],[-5.5833,7.9753,193.5079],[-5.5929,7.9653,189.5517],[-5.5942,7.9598,191.2094],[-5.5931,7.9541,189.4159],[-5.5959,7.9477,191.9941],[-5.5955,7.9423,190.3006],[-5.6035,7.9348,193.3902],[-5.6042,7.9317,189.1326],[-5.6017,7.9189,187.2987],[-5.604,7.9158,188.6839],[-5.6173,7.9071,189.7126],[-5.6283,7.8876,186.0928],[-5.6209,7.8756,189.7853],[-5.6192,7.8599,193.4387],[-5.613,7.8559,187.1353],[-5.6117,7.85,186.1856],[-5.6245,7.8331,191.554],[-5.6308,7.8312,187.4974],[-5.6348,7.8313,185.535],[-5.6517,7.8409,186.5435],[-5.655,7.8401,187.7702],[-5.6606,7.8417,185.7247],[-5.6623,7.8361,184.8427],[-5.6623,7.831,185.6593],[-5.6557,7.827,186.7107],[-5.6521,7.8189,184.7586],[-5.6554,7.8057,191.4588],[-5.6654,7.7976,185.2475],[-5.6642,7.7693,183.3999],[-5.6634,7.7624,185.5781],[-5.6594,7.7548,183.3825],[-5.6595,7.7499,183.9767],[-5.661,7.7475,183.5811],[-5.6726,7.7423,183.631],[-5.6767,7.7177,184.9412],[-5.6855,7.7118,186.4595],[-5.6873,7.7053,185.8884],[-5.6864,7.7023,185.7342],[-5.6733,7.695,197.6364],[-5.6729,7.6934,202.8849],[-5.6781,7.6853,199.9035],[-5.689,7.6826,183.9139],[-5.6949,7.6785,185.3271],[-5.6952,7.6689,185.4272],[-5.6829,7.6627,183.6329],[-5.6705,7.662,182.5673],[-5.6671,7.6605,187.9713],[-5.6639,7.6562,198.3591],[-5.6675,7.6505,199.9975],[-5.6874,7.6422,181.5],[-5.6883,7.6399,184.9145],[-5.6853,7.637,182.8958],[-5.6626,7.6237,183.1086],[-5.6372,7.6195,181.5],[-5.6337,7.6161,183.733],[-5.6322,7.6099,189.4154],[-5.659,7.6022,181.5],[-5.6964,7.5857,182.08],[-5.6971,7.5786,181.5],[-5.6841,7.5654,181.816],[-5.6639,7.556,181.5],[-5.6624,7.552,181.8418],[-5.6639,7.5473,191.8739],[-5.6818,7.5425,181.5],[-5.6923,7.5376,181.5],[-5.7024,7.529,181.5],[-5.7054,7.5283,181.5],[-5.7112,7.5238,181.5],[-5.7118,7.5108,181.5],[-5.7174,7.506,181.5],[-5.7303,7.5019,181.5],[-5.734,7.4968,181.5],[-5.7335,7.4858,189.2963],[-5.7268,7.4716,181.5],[-5.7107,7.461,184.6572]]]]}}