{"type": "Feature","bbox": [-4.3051,9.5577,-3.2999,9.9571],"geometry": {"type": "MultiPolygon","coordinates": [[[[-4.3051,9.6164,225.5618],[-4.2841,9.5958,237.1166],[-4.2701,9.6025,233.4837],[-4.2411,9.599,260.3029],[-4.2298,9.6028,263.0823],[-4.2119,9.6122,245.9438],[-4.2042,9.6114,261.6624],[-4.1963,9.6078,259.4887],[-4.1737,9.5918,277.8286],[-4.1676,9.5893,260.3338],[-4.161,9.583,257.4881],[-4.1519,9.5703,241.3405],[-4.1468,9.5666,242.9875],[-4.1343,9.5608,249.057],[-4.1211,9.5588,242.4916],[-4.1066,9.559,249.5399],[-4.1026,9.5606,251.2597],[-4.0776,9.5756,287.1903],[-4.0745,9.5761,283.1478],[-4.0719,9.5805,288.7595],[-4.0598,9.5906,295.0984],[-4.0425,9.5922,302.0807],[-4.0355,9.5915,297.1918],[-4.0321,9.5891,303.0936],[-4.021,9.5761,316.676],[-4.0031,9.5694,288.7082],[-3.994,9.5699,310.7182],[-3.9681,9.5788,330.9338],[-3.9612,9.5787,343.7594],[-3.924,9.5682,301.1994],[-3.9024,9.5655,283.0769],[-3.8918,9.5601,278.3994],[-3.8791,9.5577,253.9029],[-3.8203,9.5909,276.0708],[-3.7969,9.5941,316.1882],[-3.7678,9.6051,322.8947],[-3.7508,9.6084,289.0971],[-3.741,9.5997,303.7878],[-3.7299,9.6008,293.6457],[-3.7144,9.6069,298.3593],[-3.7073,9.6049,296.884],[-3.695,9.6062,279.1774],[-3.6302,9.5884,315.4953],[-3.6105,9.5771,335.872],[-3.5914,9.5778,339.4753],[-3.5692,9.5762,324.5533],[-3.5563,9.5807,333.7774],[-3.5406,9.5888,309.8268],[-3.5355,9.589,316.4616],[-3.5311,9.5958,335.4091],[-3.5287,9.6083,336.855],[-3.523,9.5976,314.7773],[-3.5151,9.6238,345.5531],[-3.5026,9.6416,328.9843],[-3.5005,9.676,359.3593],[-3.4945,9.7121,374.8353],[-3.4889,9.7263,364.707],[-3.4751,9.7545,375.0468],[-3.447,9.7868,350.2829],[-3.4365,9.7968,324.1761],[-3.4158,9.8118,316.4243],[-3.3602,9.8409,293.2183],[-3.3537,9.8426,296.6348],[-3.3388,9.8412,291.6956],[-3.3117,9.8436,284.6597],[-3.3094,9.8493,284.2204],[-3.2999,9.8533,282.7186],[-3.3119,9.8533,286.5725],[-3.3185,9.8591,296.3028],[-3.3198,9.8653,297.3586],[-3.3116,9.8811,325.129],[-3.3101,9.8883,332.3044],[-3.3107,9.8949,327.2758],[-3.3153,9.9015,317.5573],[-3.3204,9.9023,312.6818],[-3.3433,9.8906,323.8019],[-3.3496,9.8911,331.6222],[-3.3567,9.8986,328.3652],[-3.3668,9.9041,327.1624],[-3.3972,9.9165,359.5642],[-3.4047,9.9161,368.9994],[-3.4208,9.9114,351.6876],[-3.4698,9.9251,386.5784],[-3.492,9.923,405.7297],[-3.5039,9.9248,464.1442],[-3.5234,9.9244,477.7982],[-3.5494,9.9263,379.3213],[-3.5686,9.9254,360.6871],[-3.5797,9.9222,387.2786],[-3.5993,9.9197,352.8737],[-3.6323,9.9527,338.5986],[-3.6417,9.9571,345.2174],[-3.6486,9.9556,338.5358],[-3.6738,9.9401,355.614],[-3.6809,9.9392,343.3034],[-3.7086,9.9425,339.8874],[-3.7116,9.9399,322.2249],[-3.7269,9.9391,338.6561],[-3.752,9.9316,361.4858],[-3.7724,9.9229,356.2955],[-3.7886,9.912,330.2229],[-3.8092,9.8883,324.7376],[-3.9004,9.9006,310.4578],[-3.9048,9.893,308.3843],[-3.9187,9.8789,318.939],[-3.9284,9.8794,303.8123],[-3.937,9.8714,320.1497],[-3.9449,9.8724,309.2693],[-3.9581,9.8702,314.5782],[-3.9619,9.8734,303.5153],[-3.9644,9.8733,302.0747],[-3.969,9.8695,294.2214],[-3.9729,9.8695,312.4594],[-3.9745,9.8667,309.3745],[-3.9737,9.8628,307.1804],[-3.9781,9.8523,305.9543],[-3.9728,9.8435,290.9267],[-3.9753,9.8386,297.9881],[-3.981,9.833,280.5992],[-3.9876,9.8296,275.3367],[-3.9932,9.8293,270.015],[-4.0002,9.8314,273.667],[-4.0086,9.8365,269.3723],[-4.0171,9.8338,277.9898],[-4.0306,9.8342,264.7893],[-4.0356,9.8306,264.7214],[-4.0445,9.8184,277.2409],[-4.0429,9.8016,278.3631],[-4.0635,9.7991,282.6906],[-4.0663,9.8015,283.3356],[-4.0789,9.8045,283.7189],[-4.0921,9.814,289.2164],[-4.1092,9.821,308.5181],[-4.1234,9.8317,311.7006],[-4.1301,9.8319,305.4562],[-4.1354,9.8295,317.8207],[-4.1408,9.8227,313.3742],[-4.1452,9.812,307.5627],[-4.1671,9.7973,302.3839],[-4.1732,9.7826,308.547],[-4.1804,9.7753,308.3128],[-4.2091,9.762,296.1361],[-4.2276,9.762,265.8381],[-4.2353,9.7544,259.7301],[-4.2524,9.7535,242.9563],[-4.2588,9.7561,229.8691],[-4.2636,9.7546,235.8765],[-4.2688,9.7582,232.2434],[-4.2711,9.757,236.8672],[-4.2777,9.7396,236.2502],[-4.2767,9.7373,231.9508],[-4.2672,9.7373,231.196],[-4.2655,9.736,228.6964],[-4.2657,9.7336,231.9478],[-4.2713,9.725,234.1457],[-4.27,9.7198,231.8296],[-4.271,9.7138,228.7126],[-4.2756,9.7086,234.3218],[-4.2751,9.7006,228.1952],[-4.2795,9.6989,233.6153],[-4.2844,9.6912,235.9733],[-4.2801,9.6839,228.7626],[-4.2838,9.676,223.2438],[-4.2895,9.6692,234.806],[-4.2872,9.6626,223.8485],[-4.2896,9.6554,223.3782],[-4.2888,9.6499,223.6429],[-4.2909,9.6379,225.2695],[-4.3051,9.6164,225.5618]]]]}
,"properties": {"GID_3": "CIV.14.1.4_1","GID_0": "CIV","country": "Côted'Ivoire","GID_1": "CIV.14_1","province": "Zanzan","NL_NAME_1": "NA","GID_2": "CIV.14.1_1","county": "Bounkani","NL_NAME_2": "NA","city": "Tehini","VARNAME_3": "NA","NL_NAME_3": "NA","TYPE_3": "Département","ENGTYPE_3": "Department","CC_3": "NA","HASC_3": "NA","name": "Tehini.city","area_km2": 2943.497,"hist_schema_id": "Elevation0-9000","hist_area_km2": {"225": 37.685,"250": 168.509,"275": 373.432,"300": 575.025,"325": 714.789,"350": 587.465,"375": 283.143,"400": 119.768,"425": 43.587,"450": 21.772,"475": 10.175,"500": 5.348,"525": 2.11,"550": 0.627,"575": 0.063}}}