{"type": "Feature","bbox": [-8.2488,7.8414,-7.0585,9.0822],"geometry": {"type": "MultiPolygon","coordinates": [[[[-7.1945,7.8727,266.8485],[-7.188,7.8689,263.8382],[-7.1807,7.8608,265.1161],[-7.1731,7.8634,263.6],[-7.1623,7.8645,275.4377],[-7.1588,7.8676,260.937],[-7.1501,7.87,268.369],[-7.1471,7.873,256.5267],[-7.1336,7.8747,254.5399],[-7.1299,7.8732,260.0819],[-7.126,7.8657,258.4398],[-7.1202,7.8644,260.1797],[-7.1135,7.8585,249.7007],[-7.1108,7.8596,258.2261],[-7.1091,7.8624,254.7948],[-7.1123,7.8715,249.9491],[-7.1097,7.8789,261.6649],[-7.1075,7.8816,256.4622],[-7.0967,7.8842,255.2751],[-7.0929,7.8867,252.6879],[-7.0922,7.9013,253.8522],[-7.0892,7.9112,252.2899],[-7.0868,7.9134,254.6801],[-7.0812,7.9143,253.7063],[-7.0784,7.919,256.3274],[-7.0683,7.9241,252.9553],[-7.0618,7.9378,253.9469],[-7.0601,7.9506,269.8515],[-7.0667,7.969,253.5152],[-7.0605,7.9845,286.4349],[-7.0585,7.9947,263.7831],[-7.0612,8.0,257.9727],[-7.0701,8.0066,266.3783],[-7.0793,8.0111,268.0047],[-7.0898,8.021,260.3286],[-7.0903,8.0256,261.111],[-7.0852,8.0348,275.8339],[-7.0877,8.0452,266.8136],[-7.0992,8.053,270.4016],[-7.1018,8.0731,275.3429],[-7.1058,8.0785,259.3275],[-7.1077,8.0866,265.4016],[-7.0882,8.0983,263.2778],[-7.0838,8.108,262.6331],[-7.0897,8.1233,271.0327],[-7.1069,8.144,265.0984],[-7.1093,8.1504,264.5621],[-7.1068,8.164,270.3745],[-7.1035,8.1674,264.6746],[-7.0921,8.1714,270.6067],[-7.0911,8.176,280.7815],[-7.0924,8.1808,265.8434],[-7.0984,8.1843,280.6174],[-7.1015,8.1882,283.6946],[-7.1019,8.1941,285.2855],[-7.1039,8.1983,299.7708],[-7.1128,8.208,281.5831],[-7.1168,8.2147,279.8286],[-7.136,8.2326,274.097],[-7.1355,8.2367,275.5501],[-7.1339,8.2383,277.4799],[-7.1172,8.2442,278.697],[-7.1115,8.2504,284.9535],[-7.112,8.2555,292.57],[-7.118,8.2679,283.195],[-7.1209,8.286,294.594],[-7.1378,8.2988,276.156],[-7.1385,8.3019,276.8878],[-7.1342,8.3045,279.1053],[-7.1213,8.305,287.3224],[-7.1045,8.3097,279.4343],[-7.1034,8.3212,284.4016],[-7.1197,8.3376,275.4266],[-7.126,8.3395,275.7023],[-7.134,8.345,277.5316],[-7.145,8.3464,287.5237],[-7.1464,8.3491,287.6801],[-7.1462,8.3592,285.5081],[-7.1342,8.3649,293.1068],[-7.1344,8.3711,295.6653],[-7.1482,8.3779,279.7624],[-7.1534,8.3841,282.3536],[-7.1548,8.3916,280.6143],[-7.1496,8.4003,301.6556],[-7.1495,8.4065,288.7702],[-7.1562,8.425,280.4848],[-7.158,8.4269,280.5872],[-7.1645,8.4282,278.1524],[-7.1646,8.4297,283.4363],[-7.16,8.4304,285.8733],[-7.158,8.4325,290.2209],[-7.1608,8.4476,286.9954],[-7.1707,8.4521,284.2233],[-7.1734,8.46,285.3963],[-7.1703,8.4645,285.7455],[-7.1615,8.4685,296.7148],[-7.164,8.4957,309.2258],[-7.1739,8.5019,290.0028],[-7.1791,8.51,286.1544],[-7.1828,8.5086,286.2668],[-7.2024,8.5143,293.1964],[-7.2104,8.5237,308.9354],[-7.2134,8.5286,306.3009],[-7.2139,8.5414,303.9624],[-7.2157,8.5453,308.7831],[-7.2247,8.5491,296.8029],[-7.2251,8.5522,306.8262],[-7.2196,8.5602,296.344],[-7.2189,8.5657,320.6023],[-7.2289,8.5773,313.8089],[-7.2302,8.5825,321.8777],[-7.2364,8.5921,312.7573],[-7.2356,8.6016,325.9628],[-7.2324,8.6063,319.692],[-7.2332,8.6097,323.6145],[-7.2372,8.6146,320.1326],[-7.2403,8.624,315.6248],[-7.2477,8.6296,314.401],[-7.2512,8.6341,318.2896],[-7.2524,8.6392,321.9556],[-7.2592,8.6469,315.8758],[-7.2645,8.6483,317.0768],[-7.2748,8.6608,334.3734],[-7.2836,8.6678,319.5862],[-7.2901,8.6689,328.3861],[-7.3092,8.6778,341.2997],[-7.3163,8.6754,328.1713],[-7.3299,8.6791,348.1331],[-7.3414,8.6744,344.0461],[-7.3516,8.6792,339.4743],[-7.3531,8.6829,335.9198],[-7.365,8.6792,344.7627],[-7.3737,8.6828,348.2962],[-7.3774,8.6921,344.7048],[-7.3794,8.7072,352.6408],[-7.3768,8.7094,353.3986],[-7.3792,8.7145,354.9877],[-7.3835,8.7171,354.4181],[-7.3833,8.7203,354.8373],[-7.3908,8.7268,370.2387],[-7.3908,8.7311,363.2644],[-7.3937,8.7314,361.7836],[-7.3952,8.7391,359.3751],[-7.3976,8.7412,363.1167],[-7.4058,8.7378,363.142],[-7.4102,8.7419,363.5403],[-7.4122,8.7463,360.4919],[-7.4119,8.7503,361.9574],[-7.4057,8.7559,366.4001],[-7.4132999999999996,8.76,369.188],[-7.4185,8.7602,378.9327],[-7.4261,8.7562,373.1822],[-7.4329,8.7644,380.7089],[-7.4353,8.7643,378.0533],[-7.4531,8.7769,379.2209],[-7.456,8.7816,373.7714],[-7.4634,8.7882,380.3035],[-7.4772,8.8078,373.2631],[-7.4923,8.8193,383.526],[-7.4996,8.828,383.3331],[-7.5103,8.8352,384.937],[-7.5141,8.834,374.9887],[-7.5267,8.8411,380.178],[-7.5388,8.8454,393.619],[-7.5405,8.8522,377.9428],[-7.5478,8.8594,391.6904],[-7.5495,8.8664,396.5151],[-7.5463,8.8697,389.6692],[-7.5471,8.872,385.236],[-7.545,8.8781,388.6516],[-7.5654,8.8976,394.2524],[-7.5603,8.903,392.817],[-7.5604,8.9056,395.0096],[-7.5695,8.911,387.6221],[-7.573,8.9265,393.9298],[-7.5838,8.9261,407.969],[-7.6017,8.9407,402.7498],[-7.6179,8.9455,419.1237],[-7.6209,8.9483,414.2628],[-7.6378,8.9517,416.4586],[-7.6415,8.9619,418.8891],[-7.6451,8.9615,412.0161],[-7.6527,8.9564,410.095],[-7.6753,8.9633,415.1786],[-7.6777,8.9672,412.6162],[-7.6808,8.9827,416.7179],[-7.6784,8.9978,413.4644],[-7.6787,9.0059,421.9043],[-7.6819,9.0125,419.4498],[-7.6851,9.029,428.1732],[-7.6846,9.0416,415.0625],[-7.6915,9.0529,433.3206],[-7.697,9.0575,427.0574],[-7.7056,9.0636,433.7262],[-7.7396,9.0742,464.9973],[-7.7542,9.0679,450.2941],[-7.7649,9.0662,472.2885],[-7.79,9.0727,458.4136],[-7.8015,9.0772,474.0488],[-7.8038,9.0795,488.818],[-7.813,9.0822,475.6426],[-7.8409,9.0708,510.6505],[-7.8538,9.0593,516.2823],[-7.8651,9.0403,571.5583],[-7.896,9.0281,474.0007],[-7.9183,9.004,542.0787],[-7.9208,8.9886,635.1095],[-7.9171,8.967,636.1469],[-7.9304,8.9424,667.4455],[-7.9459,8.9012,613.6809],[-7.9548,8.8694,559.8411],[-7.9626,8.8217,555.6688],[-7.9613,8.8104,534.5981],[-7.947,8.7866,515.1188],[-7.9404,8.7794,526.6419],[-7.9258,8.7693,518.5144],[-7.9159,8.7655,514.6296],[-7.9011,8.7653,528.4586],[-7.8744,8.7753,523.9395],[-7.8612,8.7777,486.2079],[-7.8455,8.7768,427.6457],[-7.8239,8.7659,443.8912],[-7.8124,8.766,419.435],[-7.7904,8.7733,433.1841],[-7.7816,8.7718,422.9799],[-7.7727,8.7671,418.5581],[-7.7679,8.762,440.9771],[-7.7636,8.7544,411.528],[-7.7621,8.7445,443.4247],[-7.7526,8.7255,440.1596],[-7.7507,8.7168,434.1361],[-7.7361,8.6826,493.3819],[-7.7268,8.6673,512.4979],[-7.7239,8.6597,525.2017],[-7.7128,8.626,528.5493],[-7.7115,8.6175,536.1259],[-7.7017,8.5957,933.2012],[-7.6993,8.5817,514.0774],[-7.697,8.5803,503.9713],[-7.6876,8.5448,504.4888],[-7.6844,8.542,503.1847],[-7.6781,8.5281,506.6172],[-7.666,8.516,494.8641],[-7.6611,8.5059,472.0123],[-7.6602,8.4854,464.4994],[-7.6663,8.4793,469.4895],[-7.6717,8.4702,435.1103],[-7.6757,8.4594,443.1132],[-7.68,8.4549,444.7724],[-7.6814,8.4485,429.7586],[-7.6801,8.4407,432.5056],[-7.6731,8.4282,427.6104],[-7.666,8.409,431.3545],[-7.6546,8.4006,426.0707],[-7.6514,8.3964,421.5902],[-7.6497,8.3879,421.9169],[-7.6411,8.3774,414.5769],[-7.6517,8.3745,418.7429],[-7.6628,8.3754,422.9305],[-7.6769,8.3742,431.0919],[-7.6834,8.372,438.2172],[-7.6896,8.373,438.1734],[-7.6954,8.371,453.6668],[-7.717,8.3748,458.5256],[-7.7451,8.3733,464.8423],[-7.7517,8.3789,455.5371],[-7.7642,8.4112,457.3879],[-7.7804,8.4436,469.1604],[-7.7884,8.4637,480.0271],[-7.7937,8.4684,478.5673],[-7.7992,8.4703,478.7432],[-7.8037,8.477,481.9869],[-7.8083,8.4801,469.1136],[-7.8228,8.4823,472.513],[-7.8273,8.4902,460.1864],[-7.8317,8.4868,472.7154],[-7.835,8.4809,478.1486],[-7.8377,8.4685,467.4333],[-7.831,8.436,463.4235],[-7.8329,8.4328,463.1707],[-7.8476,8.4218,469.8168],[-7.8524,8.42,475.1308],[-7.8764,8.4215,479.7833],[-7.8866,8.417,505.5062],[-7.8875,8.4214,479.1245],[-7.8841,8.4326,483.1204],[-7.8847,8.4349,485.9325],[-7.8926,8.4327,481.4514],[-7.909,8.4357,478.3265],[-7.9097,8.4476,475.9985],[-7.9111,8.449,478.4178],[-7.9213,8.4473,487.5233],[-7.923,8.4515,488.9294],[-7.9194,8.4627,477.0302],[-7.9171,8.4636,481.0367],[-7.9133,8.4571,488.9188],[-7.9114,8.458,485.4222],[-7.9118,8.4647,482.0191],[-7.9186,8.4762,482.2893],[-7.9234,8.4798,494.1322],[-7.9132,8.4833,478.0291],[-7.9154,8.4863,475.3225],[-7.9292,8.4913,482.6894],[-7.9381,8.5011,486.5455],[-7.9427,8.5007,480.0392],[-7.9502,8.4937,512.2543],[-7.9573,8.4947,478.9895],[-7.9631,8.4934,503.7575],[-7.9676,8.4989,496.4536],[-7.9709,8.4987,482.792],[-7.9781,8.4933,481.9886],[-7.9805,8.4862,496.9715],[-7.9851,8.4838,493.6246],[-7.998,8.4894,504.5748],[-8.0028,8.4897,483.5878],[-8.0098,8.4875,500.8822],[-8.0226,8.495,505.3002],[-8.0311,8.4958,490.0066],[-8.0378,8.4936,497.6624],[-8.045,8.4953,511.2339],[-8.0651,8.5066,493.427],[-8.0769,8.4993,494.8235],[-8.0818,8.4979,518.4692],[-8.0954,8.5058,498.3856],[-8.0984,8.504,519.5565],[-8.1036,8.4919,511.1],[-8.1197,8.4806,509.1581],[-8.1209,8.4887,497.4767],[-8.1253,8.4894,497.3527],[-8.1295,8.4872,512.9479],[-8.1341,8.4879,520.1208],[-8.1391,8.4942,501.4247],[-8.1432,8.4952,505.3414],[-8.147,8.4904,501.3948],[-8.1509,8.4895,501.8622],[-8.1533,8.484,502.5026],[-8.157,8.4862,511.2855],[-8.1564,8.4937,505.3044],[-8.1578,8.4963,502.921],[-8.1621,8.4968,502.278],[-8.1696,8.4923,505.442],[-8.1753,8.4992,504.2272],[-8.1782,8.5004,508.7505],[-8.1838,8.4996,520.2687],[-8.1969,8.5027,536.847],[-8.1983,8.5016,527.9719],[-8.1968,8.4954,527.89],[-8.2059,8.4817,528.6838],[-8.2151,8.4727,523.8843],[-8.2234,8.4681,546.4633],[-8.2205,8.4596,544.1565],[-8.2226,8.4582,536.4795],[-8.2304,8.459,548.9495],[-8.2334,8.4604,543.1534],[-8.2338,8.4657,532.5894],[-8.2354,8.4657,531.457],[-8.2408,8.4608,547.2247],[-8.2424,8.4569,558.8703],[-8.2416,8.4504,535.9872],[-8.2456,8.4426,540.0318],[-8.2397,8.4292,551.7484],[-8.2368,8.3951,579.6951],[-8.2258,8.3607,580.6439],[-8.2257,8.3549,542.0392],[-8.2288,8.3453,571.298],[-8.238,8.3278,546.0142],[-8.2376,8.3202,559.8113],[-8.2307,8.3003,539.8717],[-8.2317,8.2891,544.2238],[-8.2302,8.2804,534.2289],[-8.2329,8.2733,523.6545],[-8.2464,8.2603,521.8842],[-8.2488,8.2537,520.6021],[-8.2481,8.236,534.233],[-8.244,8.2286,517.7709],[-8.2303,8.226,542.8434],[-8.2251,8.2334,517.0811],[-8.2191,8.234,530.6571],[-8.2074,8.2274,526.7138],[-8.1894,8.2065,508.1849],[-8.1796,8.1998,523.532],[-8.1667,8.1964,495.0596],[-8.1264,8.1962,498.6294],[-8.1037,8.184,507.7026],[-8.1017,8.1775,510.1458],[-8.0937,8.1731,508.679],[-8.0891,8.1671,521.0443],[-8.0689,8.1615,488.3987],[-8.0645,8.1644,503.8489],[-8.0514,8.1804,496.8872],[-8.0433,8.2021,512.4658],[-8.0396,8.2055,512.9439],[-8.0348,8.2045,488.8799],[-8.0237,8.1876,490.1923],[-8.0179,8.1864,504.2656],[-8.0142,8.1914,491.6864],[-8.0042,8.1986,500.2718],[-7.9984,8.1985,497.1953],[-7.9936,8.1927,520.5489],[-7.9933,8.1836,487.5846],[-7.9959,8.1762,495.7274],[-8.009,8.1638,493.146],[-8.01,8.1574,481.827],[-8.0076,8.1422,498.0763],[-8.0093,8.1337,465.6767],[-8.0154,8.1246,476.6092],[-8.0143,8.1195,498.7582],[-8.0102,8.1148,475.6721],[-8.0145,8.1023,468.6751],[-8.0106,8.094,492.8462],[-7.9932,8.0868,483.9917],[-7.9871,8.0817,478.6],[-7.9811,8.0793,473.9117],[-7.9696,8.062,461.2454],[-7.9633,8.0472,469.6026],[-7.9466,8.0424,448.4188],[-7.9504,8.0305,469.6339],[-7.9463,8.0252,447.0104],[-7.9465,8.023,447.3309],[-7.9394,8.0171,443.2256],[-7.9346,8.0199,441.8944],[-7.9284,8.0132,438.3179],[-7.9249,8.012,442.2018],[-7.9154,8.0131,440.6612],[-7.9144,8.0109,443.4539],[-7.9106,8.0106,443.6687],[-7.9083,8.007,441.0883],[-7.897,8.0081,441.0906],[-7.8885,8.0117,435.9],[-7.8859,8.0227,438.3837],[-7.8835,8.0208,446.9176],[-7.8673,8.02,440.3182],[-7.8592,8.0173,441.018],[-7.8577,8.0146,448.6353],[-7.8585,8.0011,434.8675],[-7.85,7.9979,435.8639],[-7.8495,7.9961,440.4875],[-7.8531,7.9898,434.7998],[-7.8475,7.9866,433.2509],[-7.844,7.9799,434.5636],[-7.8484,7.9725,441.3754],[-7.8451,7.956,431.3809],[-7.8466,7.9548,441.545],[-7.8431,7.9555,431.3809],[-7.839,7.9591,436.4199],[-7.8328,7.9552,439.8347],[-7.8281,7.954,434.7698],[-7.8243,7.9552,440.5304],[-7.8216,7.9538,434.3664],[-7.8177,7.9435,445.3377],[-7.815,7.941,437.1055],[-7.8007,7.9392,436.6703],[-7.7992,7.9367,437.012],[-7.8012,7.9337,439.9783],[-7.8025,7.9245,434.0906],[-7.8034,7.9166,434.4406],[-7.8021,7.9141,442.1978],[-7.7954,7.9168,429.8711],[-7.7878,7.9134,437.9119],[-7.7851,7.9088,430.9258],[-7.7839,7.9026,435.3763],[-7.773,7.8905,429.7467],[-7.7644,7.8873,435.0657],[-7.7615,7.8885,439.6459],[-7.7587,7.8956,436.6042],[-7.7544,7.8953,434.7329],[-7.7322,7.8829,437.2689],[-7.7227,7.8874,435.9821],[-7.7207,7.8865,432.4197],[-7.7176,7.882,432.6274],[-7.7202,7.8788,433.2776],[-7.7161,7.8678,429.0653],[-7.7116,7.8633,439.7159],[-7.7039,7.8641,439.0411],[-7.7016,7.8541,423.9529],[-7.697,7.8495,412.3687],[-7.6924,7.8467,415.9632],[-7.6804,7.8542,406.0399],[-7.67,7.8442,404.5312],[-7.6619,7.8415,416.114],[-7.6474,7.8414,418.5167],[-7.6419,7.8486,405.3353],[-7.6305,7.8499,412.8765],[-7.6285,7.8525,428.3073],[-7.6292,7.859,411.1149],[-7.626,7.8706,414.3093],[-7.6094,7.8703,404.0642],[-7.6058,7.8649,387.5535],[-7.5966,7.8595,393.3552],[-7.5874,7.8595,386.7126],[-7.5808,7.8669,386.2458],[-7.5734,7.8672,391.5925],[-7.5728,7.8701,384.0768],[-7.568,7.8609,381.1116],[-7.5644,7.8617,395.0276],[-7.5599,7.8671,381.4413],[-7.5545,7.8656,388.9003],[-7.55,7.8707,389.4286],[-7.5493,7.8743,385.8392],[-7.5452,7.8779,388.9004],[-7.5432,7.8837,379.6811],[-7.5337,7.8806,377.3784],[-7.53,7.8829,377.7793],[-7.5211,7.8809,383.6713],[-7.5186,7.8835,377.7116],[-7.5206,7.8951,378.6862],[-7.5186,7.8964,380.9507],[-7.5146,7.8961,381.5072],[-7.5129,7.8983,389.4288],[-7.5109,7.9081,372.8798],[-7.5209,7.9172,369.3049],[-7.5113,7.9233,362.9686],[-7.5067,7.922,374.9805],[-7.5045,7.9229,366.9197],[-7.5012,7.9267,364.8961],[-7.5024,7.9322,393.6604],[-7.5091,7.9377,382.7163],[-7.5134,7.9381,383.0642],[-7.5184,7.9421,394.4088],[-7.5132,7.9582,408.4265],[-7.5106,7.9769,405.1399],[-7.5135,7.982,425.3742],[-7.5135,7.9896,427.8935],[-7.5083,8.0013,455.3964],[-7.506,8.0149,436.1974],[-7.5088,8.0198,437.3997],[-7.5083,8.0228,430.7099],[-7.5049,8.0258,461.3611],[-7.5029,8.044,448.0822],[-7.5077,8.0472,440.0856],[-7.509,8.0519,450.8355],[-7.516,8.0579,446.585],[-7.4846,8.1289,408.8256],[-7.4798,8.1315,410.8965],[-7.4691,8.1465,414.4183],[-7.463,8.1491,405.7066],[-7.4541,8.1559,399.5836],[-7.4482,8.157,392.8212],[-7.4328,8.1558,384.2545],[-7.4284,8.1382,403.8521],[-7.4226,8.1295,428.3867],[-7.4097,8.1298,435.159],[-7.3976,8.1241,410.4998],[-7.3855,8.1138,398.7009],[-7.3536,8.0961,382.3684],[-7.3423,8.0871,367.4606],[-7.3393,8.086,368.4581],[-7.333,8.0868,364.7483],[-7.3245,8.08,360.4661],[-7.3189,8.0729,358.2014],[-7.3156,8.0716,357.4117],[-7.3117,8.0724,359.3318],[-7.3092,8.0688,353.3508],[-7.3053,8.0675,351.416],[-7.2931,8.0658,346.6384],[-7.2922,8.0622,349.0569],[-7.2877,8.0572,344.3325],[-7.2845,8.0483,337.5683],[-7.2726,8.0401,329.264],[-7.2695,8.0364,333.2846],[-7.2657,8.0262,326.7035],[-7.2578,8.018,324.4607],[-7.2552,8.0105,321.9279],[-7.2527,7.9908,312.7225],[-7.249,7.9914,311.6331],[-7.2458,7.9805,309.9671],[-7.243,7.9784,307.0692],[-7.2386,7.9789,306.4335],[-7.2349,7.9774,301.9232],[-7.2283,7.9717,297.3488],[-7.2262,7.9728,299.4001],[-7.2238,7.9681,299.6248],[-7.2181,7.963,294.4089],[-7.2148,7.9544,292.3702],[-7.2148,7.9443,284.819],[-7.2111,7.9329,286.7331],[-7.2125,7.9225,285.1088],[-7.21,7.915,279.899],[-7.2077,7.9145,280.1878],[-7.2075,7.911,280.5937],[-7.2017,7.9102,282.5517],[-7.2004,7.9064,276.7046],[-7.2031,7.8878,270.1151],[-7.206,7.8834,268.3656],[-7.2054,7.8805,268.415],[-7.202,7.8767,270.8222],[-7.1985,7.8765,269.9636],[-7.1945,7.8727,266.8485]]]]}
,"properties": {"GID_2": "CIV.12.1_1","GID_0": "CIV","country": "Côted'Ivoire","GID_1": "CIV.12_1","province": "Woroba","NL_NAME_1": "NA","county": "Bafing","VARNAME_2": "NA","NL_NAME_2": "NA","TYPE_2": "Région","ENGTYPE_2": "Region","CC_2": "NA","HASC_2": "CI.WB.BF","name": "Bafing.county","area_km2": 8976.927,"hist_schema_id": "Elevation0-9000","hist_area_km2": {"250": 61.333,"275": 202.189,"300": 279.98,"325": 325.226,"350": 321.869,"375": 482.855,"400": 833.078,"425": 1132.288,"450": 1088.243,"475": 1123.363,"500": 986.023,"525": 827.732,"550": 591.786,"575": 294.867,"600": 139.497,"625": 87.811,"650": 54.47,"675": 40.859,"700": 29.038,"725": 20.088,"750": 15.748,"775": 11.638,"800": 8.43,"825": 6.25,"850": 4.593,"875": 2.747,"900": 1.992,"925": 1.258,"950": 1.216,"975": 0.356,"1000": 0.105}}}