{"type": "Feature","id": "3440","bbox": [-8.26598,7.84278,-7.08383,9.0754],"geometry": {"type": "Polygon","coordinates": [[[-7.18646,8.52361,288.7714],[-7.21891,8.55299,315.5896],[-7.22749,8.56795,294.9137],[-7.23126,8.5779,303.0418],[-7.23389,8.58294,310.3871],[-7.23963,8.5893,309.7372],[-7.24873,8.59746,320.1742],[-7.27389,8.6142,367.1421],[-7.28123,8.61777,371.9815],[-7.29187,8.62087,375.02],[-7.30149,8.625,367.9556],[-7.31017,8.63012,351.4946],[-7.3235,8.64345,375.0639],[-7.35017,8.67994,336.238],[-7.36014,8.69753,355.0534],[-7.3651,8.70288,370.8677],[-7.37192,8.70887,355.3311],[-7.39404,8.72267,378.6629],[-7.40551,8.72841,387.254],[-7.41404,8.73378,370.7299],[-7.45807,8.78481,379.5167],[-7.4946,8.80561,407.5249],[-7.49796,8.80825,383.7353],[-7.50158,8.81236,393.4282],[-7.52917,8.85535,404.7017],[-7.53661,8.86341,410.5239],[-7.5948,8.914,433.5926],[-7.62591,8.92439,439.7621],[-7.64457,8.93318,452.9268],[-7.65278,8.93868,425.3148],[-7.66012,8.94535,424.2659],[-7.66637,8.95457,422.1823],[-7.71128,9.03821,453.1847],[-7.73629,9.07257,465.5517],[-7.7482,9.0754,464.8261],[-7.7642,9.06361,479.3574],[-7.78807,9.06004,495.4306],[-7.80781,9.06004,499.7782],[-7.82704,9.05782,487.4715],[-7.91675,9.01235,505.3297],[-7.93179,8.99656,525.3055],[-7.93184,8.99656,525.3055],[-7.93184,8.99645,525.3055],[-7.93189,8.99645,525.3055],[-7.9416,8.97222,552.4922],[-7.94646,8.9486,699.8164],[-7.9507,8.89954,749.7704],[-7.96894,8.81285,545.5795],[-7.95892,8.782,531.5076],[-7.91313,8.76823,523.217],[-7.89096,8.76569,523.0272],[-7.83102,8.74766,464.8744],[-7.82657,8.74823,432.9348],[-7.81606,8.75352,454.179],[-7.81019,8.75337,458.3925],[-7.80368,8.74905,468.6492],[-7.7957,8.73647,444.4319],[-7.79092,8.73094,458.9837],[-7.77205,8.71453,430.8751],[-7.76513,8.70608,457.3032],[-7.7412,8.66291,476.5065],[-7.73182,8.65208,487.9753],[-7.70394,8.63348,503.21],[-7.69681,8.62485,549.3574],[-7.69159,8.60614,592.9541],[-7.69397,8.56777,510.0261],[-7.6917,8.54666,516.5742],[-7.67924,8.50509,478.4307],[-7.67929,8.48773,488.2411],[-7.68648,8.46259,440.2546],[-7.68958,8.43866,463.9509],[-7.68322,8.41732,455.8058],[-7.66245,8.37486,422.9305],[-7.72074,8.36853,471.0731],[-7.74833,8.37231,448.5259],[-7.77102,8.38652,493.8904],[-7.80244,8.4492,488.2271],[-7.82383,8.47786,488.7851],[-7.84574,8.47432,480.302],[-7.84941,8.4592,492.0051],[-7.84678,8.44269,494.5312],[-7.84859,8.42863,473.6718],[-7.86559,8.42088,480.1493],[-7.88233,8.42145,482.0582],[-7.89858,8.42628,514.1278],[-7.91287,8.43419,478.7056],[-7.92383,8.44378,500.0798],[-7.93158,8.45703,487.1388],[-7.93695,8.47142,511.2905],[-7.94388,8.48463,514.9526],[-7.95628,8.49437,478.9895],[-7.97054,8.49695,497.5644],[-7.98589,8.49493,493.481],[-8.01571,8.48721,496.8062],[-8.02491,8.4886,512.1215],[-8.04248,8.48716,519.8249],[-8.05067,8.48767,503.0567],[-8.0572,8.49085,530.2815],[-8.06811,8.50046,492.1609],[-8.07663,8.50325,493.5324],[-8.09689,8.5017,520.1018],[-8.13012,8.4886,512.9479],[-8.15053,8.48649,501.3041],[-8.18634,8.49369,537.9559],[-8.2003,8.49183,533.103],[-8.24887,8.45357,544.7037],[-8.2544,8.44651,563.9485],[-8.2543,8.4345,590.6367],[-8.24908,8.42378,590.7532],[-8.2421,8.41277,582.9553],[-8.23688,8.40008,559.7505],[-8.23528,8.37952,556.2651],[-8.24763,8.32257,532.8406],[-8.24763,8.30384,555.4506],[-8.24531,8.28508,532.4214],[-8.24825,8.27358,526.4187],[-8.26458,8.2565,545.8458],[-8.26598,8.24598,528.4362],[-8.18293,8.19167,508.755],[-8.08552,8.16204,493.0221],[-8.07596,8.16338,478.2198],[-8.01571,8.18389,482.7061],[-8.00331,8.18405,506.2097],[-8.00243,8.17431,488.0815],[-8.00827,8.16043,493.5558],[-8.01571,8.14816,482.4896],[-8.0217,8.11772,492.646],[-8.02129,8.10266,506.4715],[-8.01571,8.08847,493.8815],[-7.99705,8.07734,484.5666],[-7.98041,8.05899,479.3658],[-7.96822,8.03703,470.7397],[-7.96564,8.02693,454.6155],[-7.94687,8.01866,443.2831],[-7.92853,8.01091,444.1114],[-7.90527,8.00716,441.4398],[-7.89856,8.0085,441.0906],[-7.89515,8.01393,443.125],[-7.8907,8.01781,440.1984],[-7.88373,8.01866,440.0273],[-7.87065,8.01377,437.6415],[-7.85628,8.00049,433.9928],[-7.85582,8.00026,435.0745],[-7.85577,8.00018,435.0745],[-7.85551,7.99972,435.0745],[-7.8537,7.9953,452.7066],[-7.85236,7.99057,438.1653],[-7.85024,7.98592,434.0631],[-7.84435,7.97863,435.3879],[-7.84337,7.97435,435.6387],[-7.84466,7.97016,437.7101],[-7.84647,7.96621,436.4101],[-7.84595,7.96225,435.4896],[-7.84233,7.95985,434.3],[-7.83536,7.95791,431.2308],[-7.8305,7.95504,435.5974],[-7.82528,7.95303,435.4387],[-7.82099,7.95021,437.6942],[-7.8136,7.94362,430.6093],[-7.80931,7.94052,431.127],[-7.80399,7.93766,439.8425],[-7.80156,7.93277,439.9783],[-7.79975,7.9275,431.004],[-7.79737,7.92282,437.0616],[-7.79009,7.91631,429.6358],[-7.78704,7.91251,428.2073],[-7.77898,7.89996,430.0858],[-7.7767,7.89554,429.191],[-7.77148,7.89125,429.7467],[-7.7612,7.88815,439.6459],[-7.74053,7.88482,442.8449],[-7.72363,7.87939,439.0995],[-7.71609,7.87381,432.838],[-7.712,7.86854,425.6408],[-7.70777,7.8651,428.0934],[-7.70213,7.86161,415.9065],[-7.69914,7.85727,408.4771],[-7.69629,7.84774,408.7382],[-7.69268,7.8458,415.9632],[-7.68865,7.84665,424.1608],[-7.68131,7.85409,407.2245],[-7.67728,7.85293,405.1362],[-7.67418,7.84968,403.8618],[-7.67134,7.8458,403.7021],[-7.66849,7.84278,404.6852],[-7.66312,7.84293,411.663],[-7.65604,7.84534,404.0269],[-7.64079,7.8534,422.0072],[-7.62984,7.86427,409.7518],[-7.62467,7.86815,423.0203],[-7.62136,7.8721,405.5357],[-7.61806,7.87513,413.298],[-7.61511,7.87528,433.3301],[-7.61155,7.87195,396.202],[-7.60943,7.86691,421.1062],[-7.60664,7.86254,394.6047],[-7.60214,7.86146,387.9442],[-7.59491,7.86208,388.3135],[-7.58602,7.86567,384.967],[-7.57744,7.86474,406.9234],[-7.5701,7.8652,383.8035],[-7.56307,7.86681,385.1344],[-7.55336,7.87257,387.5038],[-7.54364,7.88156,383.389],[-7.53941,7.88404,380.3214],[-7.53424,7.88582,388.6875],[-7.52793,7.88613,379.8293],[-7.5237,7.89094,375.1648],[-7.52059,7.89531,378.6862],[-7.51724,7.89895,379.8083],[-7.51414,7.90143,375.3003],[-7.51062,7.9036,381.1154],[-7.50861,7.9067,393.4429],[-7.50974,7.91042,377.9889],[-7.51171,7.91438,384.9669],[-7.51326,7.91856,375.5093],[-7.51259,7.92246,365.0309],[-7.50912,7.9258,368.2339],[-7.50396,7.92921,369.5957],[-7.49688,7.93502,377.0013],[-7.49527,7.94021,382.1361],[-7.49538,7.94556,394.3873],[-7.49662,7.95083,410.0837],[-7.4977,7.98189,431.1669],[-7.49889,7.98639,456.7788],[-7.50003,7.98941,459.3907],[-7.50633,8.00018,431.6508],[-7.50711,8.00204,450.3567],[-7.50804,8.00571,439.8358],[-7.5083,8.01114,426.5439],[-7.50737,8.01649,429.6275],[-7.50551,8.02114,451.0106],[-7.50085,8.02788,460.0239],[-7.49992,8.02967,448.5565],[-7.50049,8.03168,435.2515],[-7.50199,8.03408,426.8136],[-7.50799,8.04062,427.4589],[-7.51078,8.04465,439.367],[-7.51264,8.04977,436.5786],[-7.51357,8.05581,442.68],[-7.51222,8.08103,472.7744],[-7.50313,8.11493,447.5522],[-7.49956,8.12155,419.0591],[-7.49744,8.12465,412.6703],[-7.4946,8.1279,411.95],[-7.48742,8.13426,414.6782],[-7.47166,8.14591,407.3709],[-7.46478,8.1525,396.6911],[-7.45879,8.1601,401.7897],[-7.45491,8.16374,389.4202],[-7.44969,8.16676,409.0219],[-7.44101,8.16707,397.586],[-7.43388,8.16475,395.7996],[-7.41864,8.15149,420.7614],[-7.40804,8.14421,412.9622],[-7.40288,8.13906,422.6212],[-7.39895,8.13426,440.42],[-7.39409,8.12534,415.7525],[-7.39099,8.12131,407.2889],[-7.38562,8.11759,413.7898],[-7.37781,8.11462,416.3321],[-7.34283,8.1064,417.54],[-7.32598,8.09834,408.5247],[-7.28929,8.07483,367.4802],[-7.28547,8.07165,375.2152],[-7.28226,8.06754,364.5494],[-7.24847,8.01308,333.103],[-7.23948,7.99484,328.428],[-7.20992,7.98863,345.2483],[-7.08383,7.98925,261.3309],[-7.10098,8.03111,261.4453],[-7.10584,8.05155,255.4987],[-7.10584,8.0863,267.1748],[-7.10357,8.09488,260.3886],[-7.09426,8.10816,269.3731],[-7.09277,8.11609,262.3599],[-7.09861,8.13248,265.6468],[-7.10739,8.14545,270.7378],[-7.11214,8.15924,265.4476],[-7.10584,8.17818,270.8419],[-7.11783,8.19206,273.1292],[-7.13044,8.21787,274.9413],[-7.13679,8.24275,273.187],[-7.12636,8.25919,274.6663],[-7.12651,8.3036,280.8097],[-7.12729,8.30942,279.0592],[-7.12413,8.31494,281.4783],[-7.11266,8.3228,273.0625],[-7.13199,8.33502,280.7906],[-7.14728,8.35089,282.9659],[-7.15741,8.37055,284.7765],[-7.16723,8.43204,278.8742],[-7.16723,8.473,285.8181],[-7.17333,8.49576,285.4918],[-7.18646,8.52361,288.7714]]]}
,"properties": {"ISO3166-1-Alpha-3": "CIV","country": "Ivory Coast","fill": "#F0F","name": "Bafing","area_km2": 8717.032,"hist_schema_id": "Elevation0-9000","hist_area_km2": {"250": 10.937,"275": 105.353,"300": 221.209,"325": 267.253,"350": 287.297,"375": 455.732,"400": 809.735,"425": 1123.647,"450": 1109.989,"475": 1128.01,"500": 994.309,"525": 852.513,"550": 611.92,"575": 302.144,"600": 140.943,"625": 89.905,"650": 56.041,"675": 43.98,"700": 31.258,"725": 21.721,"750": 15.999,"775": 11.408,"800": 8.241,"825": 5.998,"850": 4.362,"875": 2.537,"900": 1.845,"925": 1.174,"950": 1.111,"975": 0.356,"1000": 0.105}}}