{"type":"Feature","properties":{"featurecla":"River","scalerank":6,"rivernum":273,"dissolve":"273River","name":"Sassandra3","name_alt":null,"note":null,"min_zoom":5.0,"strokeweig":0.2,"name_en":"Sassandra","min_label":6.0},
"geometry":{"type": "LineString","coordinates": [[-7.236328125,8.9453311218691169,324.9404],[-7.2337402343749773,8.93866608280662,325.0713],[-7.23125,8.9344424499941084,323.3809],[-7.22705078125,8.9322451843691084,312.674],[-7.21923828125,8.9316592468691169,329.9799],[-7.209716796875,8.92914459843162,335.722],[-7.2095703124999773,8.9233584656191169,322.7088],[-7.2158203125,8.9117373718691084,312.9896],[-7.216064453125,8.89838287968162,310.8738],[-7.2181152343749773,8.8878115906191084,314.8079],[-7.2227539062499773,8.87885162968162,312.0741],[-7.2300781249999773,8.87018463749412,340.5987],[-7.216064453125,8.86444733280662,317.9976],[-7.20751953125,8.8528994812441084,319.6636],[-7.2033203124999829,8.83722565311912,309.1423],[-7.2021484375,8.8189639343691084,319.0163],[-7.2000488281249773,8.8132510437441169,303.7332],[-7.1910156249999773,8.7959170593691169,307.9005],[-7.1891601562499829,8.78827545780662,313.045],[-7.1914550781249886,8.7808779968691084,309.5589],[-7.2002441406249886,8.7725772156191084,307.0349],[-7.2021484375,8.7640322937441084,303.677],[-7.2039550781249773,8.7468447937441169,311.2943],[-7.2158203125,8.6988467468691084,313.5746],[-7.217041015625,8.66156647343162,305.0338],[-7.220458984375,8.64215729374412,307.4326],[-7.2300781249999773,8.6237979187441169,324.5781],[-7.216552734375,8.62335846561912,299.7629],[-7.209228515625,8.6195010437441084,301.2207],[-7.2105468749999773,8.61432526249412,295.6966],[-7.22265625,8.6101260437441169,310.7958],[-7.2098144531249773,8.6004580749941084,295.8537],[-7.1991455078124886,8.5819033874941084,289.6061],[-7.19189453125,8.5611514343691084,296.5356],[-7.1866210937499773,8.5235537781191084,288.7714],[-7.1734374999999773,8.4957217468691084,285.4918],[-7.16748046875,8.47296784061912,285.8181],[-7.16748046875,8.43195221561912,278.8742],[-7.1575683593749773,8.3704776062441084,284.7765],[-7.1474609375,8.35077545780662,282.9659],[-7.1321289062499886,8.3349795593691169,280.7906],[-7.11279296875,8.3227725281191169,273.0625],[-7.1243164062499886,8.31488678593162,281.4783],[-7.12744140625,8.30939362186912,279.0592],[-7.126708984375,8.30353424686912,280.8097],[-7.1265136718749886,8.25910065311912,274.6663],[-7.136962890625,8.2426944031191169,273.187],[-7.130615234375,8.2177920593691169,274.9413],[-7.1179687499999886,8.1920108093691084,273.1292],[-7.1060058593749886,8.1780947937441084,270.8419],[-7.1123046875,8.1591983093691169,265.4476],[-7.1075195312499773,8.1453799499941084,265.0984],[-7.0988037109374886,8.13239166874412,265.6468],[-7.0929443359374886,8.11603424686912,262.3599],[-7.0944091796874886,8.10809967655662,269.3731],[-7.103759765625,8.0948428406191084,260.3886],[-7.1060058593749886,8.08624909061912,267.1748],[-7.1060058593749886,8.0515322937441169,255.4987],[-7.1011718749999773,8.03107330936912,261.4453],[-7.0718261718749886,7.9583682312441084,253.8453],[-7.0719238281249943,7.93793366093162,252.0426],[-7.0787109374999773,7.9260440124941169,254.8492],[-7.0888671875,7.9166201843691084,250.6478],[-7.09912109375,7.90375397343162,260.8188],[-7.1028808593749773,7.89630768436912,256.8066],[-7.1048339843749773,7.8897647156191084,249.9859],[-7.1060058593749886,7.8736514343691084,251.1755],[-7.10390625,7.86347077030662,253.8779],[-7.0950195312499886,7.8528018249941169,248.9745],[-7.0929443359374886,7.8457217468691169,250.8123],[-7.0892089843749773,7.7803897156191084,245.6498],[-7.0828124999999886,7.7457217468691084,240.9291],[-7.0718261718749886,7.71942780155662,244.1485]]}}