{"type": "Feature","bbox": [-5.8295,8.6231,-3.7757,10.465],"geometry": {"type": "MultiPolygon","coordinates": [[[[-4.5902,9.694,233.3276],[-4.5917,9.7023,228.3985],[-4.6032,9.7153,224.1299],[-4.6095,9.7161,227.027],[-4.6128,9.7183,228.019],[-4.6147,9.7222,225.8277],[-4.6177,9.7226,225.8627],[-4.6198,9.72,225.4069],[-4.6191,9.7132,226.9667],[-4.623,9.71,227.9581],[-4.6283,9.7016,226.3072],[-4.6314,9.702,227.3402],[-4.6359,9.7065,229.2144],[-4.6445,9.7074,229.4263],[-4.6486,9.7142,237.8162],[-4.6528,9.7141,247.3775],[-4.6573,9.711,233.5912],[-4.6597,9.7062,225.7416],[-4.6591,9.6977,232.2775],[-4.6658,9.6888,230.7294],[-4.6688,9.6882,231.0836],[-4.6747,9.6906,240.343],[-4.6823,9.6792,230.0325],[-4.6924,9.6771,230.0797],[-4.6945,9.6782,230.343],[-4.6961,9.6864,233.2629],[-4.708,9.688,238.6221],[-4.7123,9.6943,234.5885],[-4.7205,9.716,235.5815],[-4.7248,9.7221,235.1225],[-4.7275,9.7298,234.081],[-4.7369,9.7356,231.0152],[-4.7387,9.7404,236.1618],[-4.7377,9.747,239.3384],[-4.741,9.7502,232.4051],[-4.7494,9.7527,234.5658],[-4.7715,9.7538,239.5495],[-4.7727,9.7487,240.399],[-4.771,9.7368,238.4397],[-4.7768,9.7362,235.5824],[-4.7851,9.7425,237.2685],[-4.7863,9.7548,241.2337],[-4.7901,9.7573,241.1373],[-4.8002,9.7552,249.5079],[-4.7991,9.7646,236.2664],[-4.8006,9.7692,238.5369],[-4.8039,9.7698,239.7537],[-4.8098,9.7681,242.0428],[-4.8181,9.7846,255.6173],[-4.8163,9.7865,244.9773],[-4.7907,9.7832,242.291],[-4.7887,9.7851,238.6587],[-4.7888,9.7879,248.2523],[-4.7931,9.7926,255.1964],[-4.7963,9.8006,244.0784],[-4.7931,9.8117,239.6558],[-4.7944,9.8176,242.7273],[-4.7936,9.8229,241.8711],[-4.7868,9.8302,239.6139],[-4.7887,9.8334,240.9583],[-4.796,9.8357,242.5341],[-4.8043,9.845,245.4152],[-4.8133,9.8425,239.923],[-4.8205,9.8423,238.8522],[-4.8295,9.8519,239.0899],[-4.8291,9.8621,238.577],[-4.8315,9.8638,239.4799],[-4.846,9.8683,245.6936],[-4.8517,9.865,251.7907],[-4.8572,9.8646,254.7586],[-4.8646,9.8725,246.3409],[-4.8803,9.8707,256.3782],[-4.8861,9.8786,256.2625],[-4.8942,9.8784,255.4231],[-4.9138,9.8936,259.2372],[-4.9196,9.892,259.8644],[-4.928,9.8861,264.5695],[-4.9307,9.883,262.5326],[-4.9313,9.8761,267.2279],[-4.9344,9.8735,264.4243],[-4.937,9.8737,265.9586],[-4.9409,9.8796,264.9465],[-4.956,9.8829,264.1499],[-4.9679,9.8924,267.1598],[-4.9727,9.9077,266.8895],[-4.9718,9.9103,264.6216],[-4.9649,9.9137,262.7036],[-4.9614,9.922,265.3167],[-4.9602,9.9297,262.0613],[-4.9646,9.9383,268.2957],[-4.9615,9.9434,266.5048],[-4.9583,9.9456,268.8865],[-4.9498,9.9472,265.657],[-4.9469,9.9525,268.8809],[-4.9488,9.9552,271.6656],[-4.9591,9.9591,276.1396],[-4.9631,9.9625,272.6608],[-4.9633,9.9698,265.5186],[-4.9667,9.9739,269.3556],[-4.9831,9.9806,265.8233],[-4.9878,9.9844,266.1976],[-4.9896,10.0066,273.2787],[-4.9883,10.0106,268.903],[-4.9862,10.0117,266.7245],[-4.9644,10.004,271.7694],[-4.9641,10.0084,269.1436],[-4.9684,10.0138,276.791],[-4.9615,10.0236,269.9708],[-4.9697,10.0299,270.1766],[-4.9717,10.0422,268.6003],[-4.9824,10.045,274.4293],[-4.9902,10.0517,267.8166],[-4.9937,10.0608,269.2924],[-5.0044,10.0656,268.7996],[-5.0123,10.0634,280.2802],[-5.0176,10.0649,277.9493],[-5.0212,10.0703,272.7739],[-5.0221,10.0736,280.6102],[-5.0201,10.0784,283.9626],[-5.0149,10.0828,270.2566],[-5.0092,10.0967,272.4036],[-5.0037,10.1039,270.1948],[-5.0104,10.1053,271.0872],[-5.0168,10.1008,268.9341],[-5.0231,10.1005,271.4375],[-5.0273,10.0985,269.4178],[-5.0414,10.0885,275.228],[-5.0451,10.081,278.1522],[-5.0525,10.0837,272.1482],[-5.063,10.0807,282.5758],[-5.0652,10.0851,281.4955],[-5.0632,10.0897,281.387],[-5.0473,10.1038,272.8601],[-5.0478,10.1061,272.2622],[-5.0517,10.1072,270.2931],[-5.0589,10.1048,278.0608],[-5.0663,10.108,273.5032],[-5.0765,10.1066,274.1694],[-5.08,10.109,277.2989],[-5.0817,10.1157,283.0237],[-5.0787,10.1239,281.4419],[-5.0739,10.1212,275.0208],[-5.0664,10.1241,272.3165],[-5.0631,10.1233,273.9211],[-5.0602,10.1186,281.1637],[-5.0572,10.1174,281.192],[-5.0544,10.1189,276.8154],[-5.0479,10.1188,273.6995],[-5.0441,10.1238,272.3094],[-5.0492,10.1317,275.0896],[-5.0682,10.1347,277.5581],[-5.0799,10.1423,286.201],[-5.0816,10.1479,280.8333],[-5.0803,10.1534,279.7795],[-5.0811,10.1571,289.7451],[-5.077,10.1639,292.6635],[-5.0736,10.1817,273.8658],[-5.0747,10.1829,279.1762],[-5.0955,10.1797,280.2792],[-5.1051,10.1756,275.9487],[-5.1104,10.1764,275.6777],[-5.1147,10.1813,293.2832],[-5.1116,10.1849,295.8133],[-5.0985,10.1878,288.4417],[-5.0913,10.201,286.8237],[-5.0885,10.2104,285.8044],[-5.0891,10.219,277.8685],[-5.0948,10.2268,282.5774],[-5.1025,10.2178,278.3526],[-5.1229,10.209,278.1866],[-5.1171,10.2236,280.2599],[-5.1088,10.229,280.6353],[-5.1072,10.238,280.6873],[-5.1138,10.2381,280.8354],[-5.1196,10.2422,281.7904],[-5.1209,10.2497,278.3853],[-5.1188,10.2564,278.1716],[-5.1067,10.2617,279.222],[-5.1002,10.2686,278.3994],[-5.099,10.2721,281.3284],[-5.1041,10.2756,280.5259],[-5.1205,10.2788,283.8897],[-5.1212,10.2825,279.3177],[-5.1146,10.2915,281.284],[-5.1111,10.3047,279.211],[-5.1147,10.3041,279.8169],[-5.1243,10.2985,293.0457],[-5.1287,10.3071,280.1159],[-5.1314,10.3079,281.2892],[-5.1325,10.3011,283.3215],[-5.1369,10.3003,279.7693],[-5.148,10.288,287.5043],[-5.1575,10.2839,285.1783],[-5.1709,10.2856,287.7054],[-5.175,10.2914,282.947],[-5.1876,10.2848,293.5444],[-5.1912,10.2907,281.9924],[-5.1872,10.299,282.0552],[-5.1961,10.3048,287.7428],[-5.206,10.3085,289.1477],[-5.208,10.3111,283.8001],[-5.2056,10.3161,283.9117],[-5.2069,10.3223,288.268],[-5.2101,10.3222,295.4166],[-5.2225,10.3094,283.861],[-5.2321,10.3156,283.8945],[-5.2593,10.3132,293.972],[-5.2664,10.3099,291.5685],[-5.2702,10.3148,288.1459],[-5.2786,10.3157,293.6352],[-5.2807,10.3141,285.9972],[-5.2813,10.3091,293.2001],[-5.2861,10.3094,297.5021],[-5.2954,10.3188,287.2414],[-5.3003,10.3199,308.5792],[-5.305,10.3184,310.1254],[-5.3081,10.3154,306.2388],[-5.3021,10.3121,299.711],[-5.3015,10.3084,292.5988],[-5.3039,10.3048,285.9572],[-5.3092,10.3079,296.7758],[-5.3139,10.3015,288.4803],[-5.3207,10.3015,295.3112],[-5.3297,10.2934,289.8039],[-5.3346,10.2933,289.5092],[-5.346,10.2999,292.8139],[-5.352,10.3017,289.8505],[-5.3529,10.3036,290.394],[-5.351,10.3061,291.8183],[-5.3547,10.3068,290.5183],[-5.3592,10.3042,295.8551],[-5.3651,10.2875,294.1703],[-5.3682,10.2853,294.4561],[-5.3742,10.2859,296.0529],[-5.3822,10.2946,290.2244],[-5.3917,10.2922,290.1969],[-5.3968,10.2953,292.8444],[-5.4072,10.2956,299.0382],[-5.4172,10.3061,299.5536],[-5.4232,10.3083,298.8932],[-5.4239,10.3178,297.3448],[-5.4282,10.3229,293.6229],[-5.4329,10.3226,294.3023],[-5.438,10.3192,293.5307],[-5.4408,10.32,296.8545],[-5.4444,10.3251,302.1641],[-5.4447,10.3325,292.0157],[-5.4467,10.3378,294.9522],[-5.4515,10.3414,292.424],[-5.4615,10.3421,303.1793],[-5.4681,10.3459,317.5358],[-5.4726,10.3522,328.1964],[-5.4672,10.3558,311.9902],[-5.4676,10.3581,311.5176],[-5.465,10.3608,304.9598],[-5.4699,10.3696,299.6486],[-5.4687,10.3733,295.996],[-5.4728,10.3768,294.3538],[-5.4788,10.3765,295.3076],[-5.4828,10.3736,306.5464],[-5.4881,10.3778,309.7996],[-5.4892,10.3804,309.8557],[-5.4865,10.3847,299.9294],[-5.4997,10.4082,305.0486],[-5.503,10.409,306.2881],[-5.5095,10.4167,296.9292],[-5.5091,10.4252,297.849],[-5.5138,10.423,311.3346],[-5.5175,10.4233,315.1348],[-5.5155,10.4284,304.933],[-5.5189,10.4333,297.3507],[-5.5245,10.4329,304.81],[-5.5339,10.438,311.9984],[-5.5536,10.4536,314.864],[-5.5631,10.4639,305.6016],[-5.5698,10.465,315.7175],[-5.5794,10.4615,320.6264],[-5.5896,10.4543,304.6561],[-5.597,10.4527,307.2462],[-5.6119,10.4541,316.4949],[-5.6263,10.4533,313.0912],[-5.6406,10.4582,316.2383],[-5.6534,10.4564,319.5737],[-5.6763,10.4629,334.1256],[-5.7008,10.4445,352.0909],[-5.7082,10.441,367.7343],[-5.7352,10.4375,364.9933],[-5.7458,10.4314,352.4691],[-5.7578,10.4314,348.2466],[-5.7725,10.4403,345.09],[-5.7774,10.4404,345.2826],[-5.7905,10.4344,344.4822],[-5.8042,10.4253,343.0672],[-5.8113,10.423,341.4826],[-5.7995,10.4061,343.5663],[-5.785,10.4051,347.7362],[-5.778,10.4001,356.3444],[-5.7846,10.3808,359.6939],[-5.8007,10.3784,345.3785],[-5.8247,10.3685,334.4105],[-5.8295,10.364,332.183],[-5.8245,10.3515,335.657],[-5.814,10.3351,335.1449],[-5.8074,10.3178,340.2928],[-5.8079,10.3078,343.5223],[-5.7959,10.3007,349.3607],[-5.7868,10.2883,346.0233],[-5.7913,10.2738,348.3504],[-5.7926,10.2577,353.4981],[-5.7863,10.2525,357.2401],[-5.7835,10.2453,358.9579],[-5.7857,10.234,360.5192],[-5.7904,10.2237,373.1848],[-5.7968,10.2164,379.265],[-5.7991,10.2113,365.2531],[-5.7978,10.2056,361.7614],[-5.7821,10.1925,353.8284],[-5.7805,10.174,343.063],[-5.7668,10.1618,339.8777],[-5.7604,10.1486,334.8453],[-5.7413,10.1294,338.8637],[-5.7395,10.121,335.491],[-5.742,10.1125,327.7065],[-5.7283,10.0869,334.505],[-5.728,10.0699,327.9068],[-5.7334,10.0556,327.6032],[-5.7304,10.0383,322.7446],[-5.7283,10.0336,332.5712],[-5.7243,10.0307,324.7896],[-5.7255,10.0235,323.4742],[-5.7238,10.0165,323.0269],[-5.728,10.0065,321.7543],[-5.7328,9.9997,321.5693],[-5.7305,9.9908,322.2177],[-5.7328,9.9853,321.7294],[-5.7257,9.9788,320.5],[-5.7262,9.9722,320.5],[-5.7298,9.9677,336.8868],[-5.7288,9.963,321.4838],[-5.7223,9.9616,320.5],[-5.7196,9.9533,325.4085],[-5.7194,9.9345,317.2343],[-5.7161,9.9287,324.9458],[-5.716,9.9209,311.7611],[-5.7106,9.9119,316.6928],[-5.7035,9.9056,315.804],[-5.7014,9.9059,318.0092],[-5.6914,9.8989,326.2392],[-5.6849,9.8999,319.9216],[-5.6816,9.8962,316.9065],[-5.6811,9.8924,317.3421],[-5.6892,9.8833,319.4249],[-5.6875,9.8696,316.2664],[-5.6749,9.8607,316.1873],[-5.668,9.8605,319.8812],[-5.664,9.8418,314.6353],[-5.6509,9.833,320.4428],[-5.6301,9.8245,313.3564],[-5.6339,9.8212,322.5363],[-5.6284,9.8146,312.9765],[-5.6326,9.7981,313.6442],[-5.6376,9.793,313.2593],[-5.6441,9.7911,315.4746],[-5.6463,9.787,310.6854],[-5.6521,9.7847,322.3021],[-5.6522,9.7816,319.1876],[-5.6494,9.7778,308.9844],[-5.652,9.7717,308.4836],[-5.6501,9.7668,312.2036],[-5.6406,9.7701,306.7306],[-5.64,9.7612,306.9447],[-5.6377,9.7548,318.526],[-5.6319,9.7531,315.3485],[-5.6284,9.7592,308.7816],[-5.6232,9.7601,307.7788],[-5.6192,9.7555,307.4885],[-5.6183,9.7422,307.6677],[-5.6127,9.7363,312.0133],[-5.6033,9.7437,309.1512],[-5.5941,9.7391,306.5168],[-5.5865,9.7386,305.9004],[-5.5754,9.733,307.6909],[-5.5708,9.7429,307.6757],[-5.564,9.7441,306.8639],[-5.5688,9.7381,307.4608],[-5.564,9.7293,306.0751],[-5.5569,9.7216,305.2329],[-5.5523,9.7192,302.3307],[-5.5488,9.7222,304.4796],[-5.5513,9.7333,305.0985],[-5.5368,9.7353,305.2446],[-5.5245,9.7403,303.6971],[-5.5161,9.734,306.5081],[-5.512,9.7409,304.3958],[-5.5036,9.7429,303.6465],[-5.4946,9.7381,301.4952],[-5.4683,9.7542,303.8273],[-5.464,9.7468,303.4283],[-5.4625,9.7401,303.3878],[-5.4646,9.731,307.8616],[-5.451,9.7242,303.1207],[-5.4665,9.7251,301.7965],[-5.4717,9.7151,303.3257],[-5.4668,9.7095,301.7693],[-5.4588,9.7092,302.2737],[-5.4513,9.7132,302.2328],[-5.4395,9.7021,300.5428],[-5.4327,9.6987,305.6853],[-5.4187,9.6996,302.7721],[-5.4099,9.6869,300.0061],[-5.3913,9.6825,299.7656],[-5.3929,9.6691,298.6331],[-5.3866,9.6636,306.2574],[-5.3808,9.6687,297.4795],[-5.3714,9.6653,298.0368],[-5.3648,9.6575,305.325],[-5.3683,9.6481,296.3],[-5.3684,9.6401,299.0771],[-5.3526,9.6394,298.6151],[-5.3484,9.6454,297.4532],[-5.3447,9.6418,299.7078],[-5.3488,9.6295,299.0679],[-5.3451,9.6214,302.3958],[-5.3346,9.6266,295.1575],[-5.3353,9.6198,299.4279],[-5.332,9.612,302.9049],[-5.3222,9.6136,297.0553],[-5.3201,9.6104,296.9742],[-5.3232,9.611,296.9228],[-5.3289,9.6056,301.7715],[-5.3249,9.5969,298.0789],[-5.3197,9.5946,302.2964],[-5.311,9.5962,299.2879],[-5.303,9.5953,298.7315],[-5.3076,9.5903,294.8546],[-5.3087,9.5834,297.5291],[-5.3034,9.5756,297.2299],[-5.2968,9.5724,295.31],[-5.2969,9.5693,295.5408],[-5.3041,9.5668,291.0336],[-5.308,9.5636,303.3728],[-5.3085,9.5573,335.4094],[-5.3013,9.5549,310.02],[-5.3083,9.5437,305.7947],[-5.3047,9.5362,292.7361],[-5.3067,9.5118,292.4629],[-5.3144,9.5042,291.9097],[-5.3223,9.5108,291.7636],[-5.329,9.5131,296.3452],[-5.3355,9.5077,307.3438],[-5.3323,9.4951,294.4633],[-5.3227,9.4802,295.7833],[-5.3166,9.4794,296.7329],[-5.3019,9.4884,291.4097],[-5.2947,9.4872,290.7707],[-5.2964,9.4796,291.0948],[-5.3059,9.4805,291.8439],[-5.3275,9.4688,306.6639],[-5.3252,9.4615,300.0732],[-5.3157,9.4617,290.5],[-5.3086,9.4426,290.696],[-5.3175,9.437,289.1963],[-5.3271,9.4397,289.9275],[-5.3349,9.4369,301.3643],[-5.3334,9.42,291.8324],[-5.3414,9.4135,289.3954],[-5.3417,9.4094,291.4669],[-5.3388,9.4042,290.8357],[-5.3525,9.3916,299.5025],[-5.3498,9.3852,298.67],[-5.3443,9.3821,294.701],[-5.3395,9.3839,295.5995],[-5.3375,9.3905,293.833],[-5.3181,9.3896,296.6664],[-5.3003,9.3842,302.4165],[-5.2815,9.3923,310.0553],[-5.256,9.397,325.0406],[-5.246,9.397,317.9724],[-5.2382,9.4028,331.8849],[-5.208,9.4078,365.8088],[-5.2005,9.4245,337.5166],[-5.1943,9.4178,342.9081],[-5.1922,9.4087,347.0623],[-5.1892,9.3773,377.0251],[-5.1899,9.3687,354.093],[-5.1926,9.3621,338.8118],[-5.1837,9.3543,346.3867],[-5.1503,9.348,365.1096],[-5.1431,9.3399,365.0049],[-5.1286,9.3331,381.6174],[-5.1144,9.3293,419.1932],[-5.1018,9.3293,414.1002],[-5.0927,9.3358,395.5799],[-5.0831,9.334,388.8665],[-5.0779,9.3356,377.8417],[-5.0719,9.3348,378.8135],[-5.0542,9.3437,361.6974],[-5.0467,9.3422,360.0747],[-5.0347,9.3322,346.9161],[-5.0309,9.3316,346.6845],[-5.023,9.314,336.6869],[-5.0249,9.3074,338.505],[-5.0187,9.302,341.4314],[-5.0155,9.2932,328.7304],[-5.011,9.2869,334.5387],[-5.0138,9.2804,331.5835],[-5.0109,9.2724,336.4982],[-5.0131,9.259,327.3943],[-5.0117,9.248,332.1543],[-5.016,9.2283,323.6043],[-5.0101,9.2233,326.2814],[-4.9975,9.2193,313.5576],[-4.9896,9.2093,315.0138],[-4.9809,9.1923,306.2745],[-4.9804,9.1838,303.7876],[-4.9817,9.1794,296.7794],[-4.9859,9.175,295.9871],[-4.9827,9.1698,297.7466],[-4.9742,9.1641,303.6036],[-4.9654,9.1627,292.2307],[-4.9612,9.155,297.8141],[-4.9556,9.1546,291.0999],[-4.9525,9.1441,292.0046],[-4.9475,9.1387,292.9643],[-4.9401,9.1347,292.9147],[-4.9308,9.1324,287.5993],[-4.9261,9.1285,291.9457],[-4.9221,9.1303,288.7837],[-4.9169,9.1268,291.0642],[-4.9142,9.1272,283.6992],[-4.906,9.121,289.7276],[-4.8993,9.1203,296.5863],[-4.8935,9.1288,281.6939],[-4.8857,9.1113,280.7032],[-4.8846,9.099,278.0884],[-4.8929,9.0723,274.4904],[-4.8972,9.0525,272.575],[-4.8973,9.0454,272.2393],[-4.9036,9.0411,275.2632],[-4.9066,9.0276,271.5669],[-4.9059,9.0169,271.9174],[-4.9112,8.996,283.1252],[-4.9051,8.9942,270.9041],[-4.9132,8.9864,269.1848],[-4.9149,8.981,274.0618],[-4.9138,8.9714,268.9509],[-4.9256,8.9654,277.1114],[-4.9288,8.9541,271.8384],[-4.9392,8.9496,277.113],[-4.9427,8.942,266.5505],[-4.9466,8.942,268.1547],[-4.9488,8.9505,275.9835],[-4.9566,8.9495,262.986],[-4.9639,8.9415,268.077],[-4.9545,8.9223,261.9095],[-4.5691,8.9143,314.155],[-4.5608,8.9219,305.4578],[-4.5552,8.9199,303.975],[-4.5483,8.9115,305.4622],[-4.5425,8.9106,299.6368],[-4.5355,8.9064,297.6597],[-4.5128,8.9115,282.8711],[-4.4991,8.8926,272.1016],[-4.4977,8.8812,276.9117],[-4.4922,8.8768,289.1864],[-4.4779,8.8814,267.3737],[-4.471,8.8862,265.7193],[-4.4658,8.8847,275.1937],[-4.4611,8.886,259.7],[-4.4554,8.8799,260.76],[-4.4339,8.869,254.3492],[-4.4315,8.8609,246.795],[-4.4262,8.8566,250.6512],[-4.4183,8.8544,240.3344],[-4.4077,8.8657,242.0471],[-4.3875,8.8311,242.6747],[-4.3785,8.8185,238.6753],[-4.3835,8.8046,235.6891],[-4.3776,8.7946,225.0642],[-4.3798,8.7848,230.5172],[-4.3532,8.7263,234.0961],[-4.3476,8.7197,225.7092],[-4.3394,8.7213,229.2322],[-4.3324,8.7313,228.058],[-4.3244,8.7338,223.6973],[-4.3159,8.7317,229.3815],[-4.3033,8.737,229.8378],[-4.2982,8.7418,222.1539],[-4.2904,8.7366,217.9011],[-4.2856,8.741,217.8629],[-4.2816,8.7424,217.115],[-4.28,8.7396,213.8016],[-4.2818,8.7313,219.6475],[-4.2802,8.7264,221.7787],[-4.2726,8.7194,211.3562],[-4.2782,8.7169,220.0245],[-4.2772,8.7117,219.6347],[-4.273,8.706,218.8771],[-4.2686,8.704,216.4051],[-4.2644,8.7045,210.0877],[-4.2628,8.6867,222.0592],[-4.2568,8.685,213.7889],[-4.2499,8.6788,210.4998],[-4.2456,8.6717,207.5105],[-4.232,8.663,209.111],[-4.2228,8.6515,207.641],[-4.2155,8.6498,210.5026],[-4.2068,8.6547,221.45],[-4.2008,8.6646,206.5856],[-4.2021,8.668,204.9825],[-4.1953,8.6712,215.0128],[-4.1946,8.675,240.2479],[-4.1716,8.6601,204.6119],[-4.1729,8.6539,217.1025],[-4.172,8.6485,204.0544],[-4.1672,8.6462,216.838],[-4.1628,8.6516,215.7551],[-4.1608,8.6572,200.8296],[-4.1552,8.6602,203.4306],[-4.138,8.6505,204.3882],[-4.1294,8.6433,287.4396],[-4.1234,8.6418,221.4001],[-4.1128,8.6426,221.5401],[-4.1077,8.6454,210.3624],[-4.1061,8.6479,205.0654],[-4.0936,8.6431,211.1126],[-4.0903,8.6496,196.8793],[-4.0807,8.6484,196.7887],[-4.0767,8.6451,224.7868],[-4.0747,8.6517,201.0933],[-4.0783,8.6591,197.455],[-4.0717,8.6573,196.799],[-4.063,8.6461,197.2072],[-4.0564,8.6478,192.9448],[-4.0505,8.6415,220.8885],[-4.0467,8.6418,247.717],[-4.0342,8.6521,224.0536],[-4.0219,8.6489,199.4133],[-4.0008,8.638,196.8617],[-3.991,8.6421,196.9633],[-3.9842,8.6378,187.8431],[-3.9846,8.632,196.8254],[-3.9822,8.6281,187.818],[-3.977,8.6277,187.2633],[-3.9713,8.6231,188.4983],[-3.962,8.6266,189.2215],[-3.9521,8.6258,214.1242],[-3.9425,8.6352,192.0385],[-3.931,8.6394,201.0955],[-3.9299,8.6662,185.8176],[-3.9252,8.6786,189.712],[-3.9185,8.6844,194.1499],[-3.9015,8.6814,195.6101],[-3.892,8.6864,185.5653],[-3.8846,8.693,192.6804],[-3.8496,8.6942,196.7004],[-3.8506,8.7017,192.6686],[-3.8567,8.7061,190.9681],[-3.8643,8.707,186.8586],[-3.8684,8.7129,195.8308],[-3.8704,8.7278,190.9131],[-3.859,8.7305,198.6824],[-3.8539,8.7268,199.6239],[-3.8434,8.7281,200.6728],[-3.8221,8.7415,197.2207],[-3.817,8.7502,187.9812],[-3.8181,8.7598,193.9427],[-3.8255,8.7667,189.2124],[-3.8246,8.7781,195.9555],[-3.8135,8.7821,206.0209],[-3.8054,8.7799,194.5743],[-3.8048,8.7725,219.4273],[-3.8003,8.7675,219.9211],[-3.7881,8.7675,196.839],[-3.7779,8.7729,194.5203],[-3.7757,8.783,189.6597],[-3.7784,8.7925,190.122],[-3.7896,8.8126,200.7217],[-3.7933,8.8259,198.2126],[-3.8041,8.8344,197.865],[-3.8178,8.8383,189.8133],[-3.8243,8.8317,197.9394],[-3.8308,8.8439,193.0057],[-3.8251,8.8476,195.7112],[-3.8117,8.8493,202.4673],[-3.8057,8.8547,200.0404],[-3.818,8.8683,196.7747],[-3.8231,8.8771,197.6373],[-3.832,8.884,191.6435],[-3.8418,8.886,194.5093],[-3.8441,8.8928,206.4535],[-3.8448,8.9069,197.0221],[-3.8509,8.9168,195.2894],[-3.8797,8.9271,191.8091],[-3.886,8.9348,195.8456],[-3.8887,8.9481,193.0848],[-3.8961,8.9589,199.4561],[-3.8909,8.9625,200.1757],[-3.8707,8.9538,203.438],[-3.8508,8.9743,196.5993],[-3.8422,8.9786,193.3109],[-3.834,8.9791,195.8477],[-3.8238,8.9867,195.5041],[-3.8071,8.9954,214.735],[-3.8003,9.0034,196.7274],[-3.8028,9.0135,220.111],[-3.8099,9.0203,198.3377],[-3.8207,9.0265,196.2772],[-3.8347,9.0317,197.2569],[-3.8559,9.0342,199.0584],[-3.8739,9.0498,212.5556],[-3.8807,9.0579,201.2724],[-3.8874,9.0586,196.5071],[-3.8929,9.0564,199.6758],[-3.9049,9.0631,201.3352],[-3.8952,9.0657,206.3585],[-3.8893,9.0707,199.816],[-3.8899,9.0957,199.0872],[-3.8818,9.1032,199.9253],[-3.8734,9.0946,200.3924],[-3.8669,9.0842,201.8357],[-3.8601,9.0785,224.3186],[-3.8538,9.0782,214.0761],[-3.8489,9.0859,200.6918],[-3.8472,9.0968,201.0666],[-3.8516,9.1126,202.6576],[-3.8473,9.1207,211.9188],[-3.8558,9.1282,200.2335],[-3.8727,9.1285,200.7776],[-3.8762,9.1262,200.0544],[-3.8788,9.1187,201.9588],[-3.8842,9.1144,202.4308],[-3.8935,9.1127,201.083],[-3.9055,9.1149,200.5059],[-3.9098,9.1246,204.4769],[-3.9121,9.1428,202.8471],[-3.9104,9.1507,205.6692],[-3.8907,9.1693,205.3267],[-3.8884,9.1739,201.5989],[-3.8964,9.1806,201.8649],[-3.913,9.1766,206.4396],[-3.9343,9.1759,202.3632],[-3.9445,9.1821,206.5545],[-3.9527,9.1894,204.0526],[-3.9605,9.2084,203.9822],[-3.9871,9.2116,204.0458],[-4.0089,9.2086,203.2662],[-4.0138,9.2145,212.5092],[-4.0201,9.2181,207.6166],[-4.0315,9.2201,209.0799],[-4.0379,9.2159,208.7909],[-4.0454,9.2224,207.7555],[-4.0588,9.2411,209.769],[-4.0687,9.2427,208.8458],[-4.0773,9.2485,212.099],[-4.0818,9.2584,204.6608],[-4.0932,9.2602,207.7765],[-4.1086,9.2577,207.4709],[-4.128,9.2611,207.534],[-4.134,9.2607,209.0103],[-4.1424,9.252,206.4946],[-4.154,9.2478,211.0276],[-4.1647,9.2382,210.0913],[-4.1682,9.23,212.9813],[-4.1708,9.2286,208.4762],[-4.1811,9.2406,216.2269],[-4.1949,9.2488,209.2634],[-4.1978,9.2584,213.4327],[-4.193,9.267,212.7031],[-4.1797,9.2725,211.5046],[-4.1726,9.2796,209.4972],[-4.1782,9.298,213.5301],[-4.21,9.3375,215.3042],[-4.2096,9.3428,215.6117],[-4.1984,9.3462,225.312],[-4.1919,9.3547,223.6365],[-4.189,9.364,213.7901],[-4.1897,9.3761,218.4886],[-4.1837,9.3837,217.1631],[-4.1806,9.3954,217.0276],[-4.187,9.4019,209.5109],[-4.1972,9.4038,215.2599],[-4.2024,9.4116,218.0108],[-4.1997,9.4204,214.5092],[-4.1964,9.4457,220.8786],[-4.2021,9.4549,220.6186],[-4.2145,9.4581,211.6378],[-4.2233,9.4659,215.5924],[-4.2386,9.4753,212.085],[-4.2411,9.4856,217.2616],[-4.2476,9.491,215.9622],[-4.2491,9.5,215.5271],[-4.2456,9.5132,221.0888],[-4.2449,9.5232,222.7704],[-4.2493,9.5347,214.0266],[-4.2591,9.5438,215.2546],[-4.2716,9.551,216.7939],[-4.3114,9.6086,219.968],[-4.3187,9.5996,217.6354],[-4.3508,9.626,215.1912],[-4.3612,9.6262,218.1668],[-4.3708,9.6189,223.2808],[-4.3732,9.6122,220.5547],[-4.3714,9.6028,219.1754],[-4.3749,9.5965,220.0021],[-4.3802,9.5941,220.2228],[-4.3895,9.5945,218.4746],[-4.3944,9.597,220.5614],[-4.4043,9.6064,221.0076],[-4.4107,9.62,222.251],[-4.4171,9.6463,225.341],[-4.4202,9.6522,220.9664],[-4.4334,9.6623,220.7417],[-4.4376,9.6624,217.7849],[-4.4661,9.653,219.6544],[-4.4934,9.6515,221.7028],[-4.5001,9.6481,220.3773],[-4.5079,9.6467,225.7978],[-4.5142,9.656,222.4781],[-4.5189,9.6591,222.218],[-4.5194,9.6695,221.5355],[-4.5218,9.674,221.3615],[-4.5212,9.6809,222.3687],[-4.5233,9.6882,220.7015],[-4.5221,9.7053,225.1003],[-4.5098,9.7154,221.6101],[-4.5073,9.7199,221.3634],[-4.5054,9.7335,225.9029],[-4.5068,9.7398,221.7163],[-4.5095,9.7423,221.4266],[-4.5193,9.746,231.0075],[-4.5525,9.7455,226.2161],[-4.5593,9.7405,231.9468],[-4.5606,9.7377,229.5873],[-4.5547,9.725,228.559],[-4.547,9.7228,225.5716],[-4.5453,9.7197,226.0775],[-4.5475,9.7136,233.2736],[-4.5562,9.7003,221.7825],[-4.5648,9.6907,224.7224],[-4.571,9.6873,227.0551],[-4.5805,9.6878,231.1344],[-4.5902,9.694,233.3276]]]]}
,"properties": {"GID_2": "CIV.10.3_1","GID_0": "CIV","country": "Côted'Ivoire","GID_1": "CIV.10_1","province": "Savanes","NL_NAME_1": "NA","county": "Tchologo","VARNAME_2": "NA","NL_NAME_2": "NA","TYPE_2": "Région","ENGTYPE_2": "Region","CC_2": "NA","HASC_2": "CI.SV.TL","name": "Tchologo.county","area_km2": 17408.48,"hist_schema_id": "Elevation0-9000","hist_area_km2": {"175": 8.55,"200": 385.6,"225": 1165.24,"250": 2084.13,"275": 2340.7,"300": 2977.31,"325": 3774.55,"350": 3051.12,"375": 1191.06,"400": 327.73,"425": 58.31,"450": 16.85,"475": 10.8,"500": 6.63,"525": 4.56,"550": 2.91,"575": 1.53,"600": 0.5,"625": 0.31}}}