{"type": "Feature","bbox": [-5.0009,7.8166,-3.9034,8.9223],"geometry": {"type": "MultiPolygon","coordinates": [[[[-4.3569,7.8536,176.8498],[-4.3036,7.8563,153.3452],[-4.2648,7.9155,208.5681],[-4.1968,7.9904,211.9194],[-4.1852,8.0015,238.2623],[-4.1785,8.0056,219.315],[-4.166,8.0081,245.8454],[-4.1456,8.0073,248.1572],[-4.1365,8.0028,229.6348],[-4.0987,8.0075,244.3529],[-4.0849,8.0122,241.5092],[-4.0779,8.0129,238.8097],[-4.0557,8.026,196.6437],[-4.0449,8.0274,191.3941],[-4.0135,8.0513,177.5234],[-4.0117,8.067,175.769],[-4.005,8.0714,165.3209],[-4.0005,8.0774,165.1006],[-3.9977,8.0897,165.2264],[-3.9992,8.0944,165.1163],[-3.9976,8.1003,165.1373],[-3.9926,8.1054,167.2084],[-3.9867,8.1088,183.9147],[-3.9645,8.1098,171.9745],[-3.9512,8.1057,174.7465],[-3.9351,8.1039,165.5042],[-3.9296,8.1054,164.9735],[-3.9271,8.1138,167.0249],[-3.9284,8.1209,167.0825],[-3.9375,8.1236,169.7087],[-3.9458,8.1238,167.6859],[-3.9464,8.129,166.7369],[-3.952,8.1345,175.0489],[-3.9572,8.1367,176.1932],[-3.9578,8.1421,167.1726],[-3.9725,8.1551,172.6698],[-3.9755,8.1608,175.5148],[-3.9757,8.1661,170.0713],[-4.0076,8.1755,170.0915],[-4.0188,8.1733,183.1619],[-4.0249,8.1784,174.7748],[-4.0288,8.1851,206.4695],[-4.0294,8.1921,174.2133],[-4.0212,8.2065,180.599],[-4.0077,8.2194,177.3498],[-4.0023,8.2282,179.9255],[-4.0024,8.2334,181.3637],[-4.0113,8.2465,170.5298],[-4.0305,8.2607,179.5011],[-4.0463,8.2793,174.2734],[-4.0558,8.2879,177.1359],[-4.0551,8.2942,183.4736],[-4.047,8.3072,172.6542],[-4.0332,8.3086,174.5661],[-4.0163,8.3054,177.6677],[-4.0079,8.3082,181.5374],[-4.0,8.3047,176.0307],[-3.9861,8.3021,182.999],[-3.9706,8.2969,173.5979],[-3.9669,8.2972,179.2322],[-3.9612,8.3071,179.0234],[-3.9595,8.3249,176.2669],[-3.9527,8.3388,177.581],[-3.9517,8.346,176.3957],[-3.9739,8.3524,183.0497],[-3.9764,8.3581,182.5358],[-3.9814,8.3631,181.783],[-3.9823,8.3669,173.0126],[-3.9789,8.3726,176.1535],[-3.9736,8.3746,178.5197],[-3.9584,8.3762,177.1168],[-3.9542,8.3795,178.382],[-3.9484,8.3947,184.3721],[-3.9505,8.3987,178.5565],[-3.9732,8.4022,181.8617],[-3.9863,8.4005,187.5689],[-3.99,8.4057,179.0513],[-3.9927,8.4193,175.6562],[-3.9965,8.4243,187.7145],[-3.9956,8.4315,188.1017],[-3.993,8.4347,180.0269],[-3.9808,8.4342,180.2852],[-3.9761,8.4308,176.8996],[-3.9706,8.4314,177.7698],[-3.9561,8.4354,176.5826],[-3.9379,8.4479,181.6433],[-3.9363,8.4539,188.9425],[-3.9358,8.4709,187.3947],[-3.9274,8.486,183.8689],[-3.9265,8.4957,180.489],[-3.9502,8.5076,186.6702],[-3.9572,8.5097,187.9464],[-3.9663,8.5083,182.5461],[-3.9746,8.5112,190.377],[-3.979,8.5166,179.9637],[-3.9806,8.5243,181.977],[-3.9771,8.5396,188.4481],[-3.9721,8.5453,181.6926],[-3.9655,8.5489,183.394],[-3.9526,8.549,179.6921],[-3.9428,8.552,184.9937],[-3.9359,8.5578,187.873],[-3.9322,8.5632,195.6295],[-3.9257,8.5661,192.8692],[-3.9203,8.5715,195.2581],[-3.9034,8.5784,185.4131],[-3.905,8.5842,187.7309],[-3.9109,8.5905,184.7318],[-3.9186,8.6109,184.9375],[-3.9295,8.6213,183.1237],[-3.9289,8.6278,196.3691],[-3.9316,8.6342,193.2028],[-3.931,8.6394,201.0955],[-3.9425,8.6352,192.0385],[-3.9521,8.6258,214.1242],[-3.962,8.6266,189.2215],[-3.9713,8.6231,188.4983],[-3.977,8.6277,187.2633],[-3.9822,8.6281,187.818],[-3.9846,8.632,196.8254],[-3.9842,8.6378,187.8431],[-3.991,8.6421,196.9633],[-4.0008,8.638,196.8617],[-4.0219,8.6489,199.4133],[-4.0342,8.6521,224.0536],[-4.0467,8.6418,247.717],[-4.0505,8.6415,220.8885],[-4.0564,8.6478,192.9448],[-4.063,8.6461,197.2072],[-4.0717,8.6573,196.799],[-4.0783,8.6591,197.455],[-4.0747,8.6517,201.0933],[-4.0767,8.6451,224.7868],[-4.0807,8.6484,196.7887],[-4.0903,8.6496,196.8793],[-4.0936,8.6431,211.1126],[-4.1061,8.6479,205.0654],[-4.1077,8.6454,210.3624],[-4.1128,8.6426,221.5401],[-4.1234,8.6418,221.4001],[-4.1294,8.6433,287.4396],[-4.138,8.6505,204.3882],[-4.1552,8.6602,203.4306],[-4.1608,8.6572,200.8296],[-4.1628,8.6516,215.7551],[-4.1672,8.6462,216.838],[-4.172,8.6485,204.0544],[-4.1729,8.6539,217.1025],[-4.1716,8.6601,204.6119],[-4.1946,8.675,240.2479],[-4.1953,8.6712,215.0128],[-4.2021,8.668,204.9825],[-4.2008,8.6646,206.5856],[-4.2068,8.6547,221.45],[-4.2155,8.6498,210.5026],[-4.2228,8.6515,207.641],[-4.232,8.663,209.111],[-4.2456,8.6717,207.5105],[-4.2499,8.6788,210.4998],[-4.2568,8.685,213.7889],[-4.2628,8.6867,222.0592],[-4.2644,8.7045,210.0877],[-4.2686,8.704,216.4051],[-4.273,8.706,218.8771],[-4.2772,8.7117,219.6347],[-4.2782,8.7169,220.0245],[-4.2726,8.7194,211.3562],[-4.2802,8.7264,221.7787],[-4.2818,8.7313,219.6475],[-4.28,8.7396,213.8016],[-4.2816,8.7424,217.115],[-4.2856,8.741,217.8629],[-4.2904,8.7366,217.9011],[-4.2982,8.7418,222.1539],[-4.3033,8.737,229.8378],[-4.3159,8.7317,229.3815],[-4.3244,8.7338,223.6973],[-4.3324,8.7313,228.058],[-4.3394,8.7213,229.2322],[-4.3476,8.7197,225.7092],[-4.3532,8.7263,234.0961],[-4.3798,8.7848,230.5172],[-4.3776,8.7946,225.0642],[-4.3835,8.8046,235.6891],[-4.3785,8.8185,238.6753],[-4.3875,8.8311,242.6747],[-4.4077,8.8657,242.0471],[-4.4183,8.8544,240.3344],[-4.4262,8.8566,250.6512],[-4.4315,8.8609,246.795],[-4.4339,8.869,254.3492],[-4.4554,8.8799,260.76],[-4.4611,8.886,259.7],[-4.4658,8.8847,275.1937],[-4.471,8.8862,265.7193],[-4.4779,8.8814,267.3737],[-4.4922,8.8768,289.1864],[-4.4977,8.8812,276.9117],[-4.4991,8.8926,272.1016],[-4.5128,8.9115,282.8711],[-4.5355,8.9064,297.6597],[-4.5425,8.9106,299.6368],[-4.5483,8.9115,305.4622],[-4.5552,8.9199,303.975],[-4.5608,8.9219,305.4578],[-4.5691,8.9143,314.155],[-4.9545,8.9223,261.9095],[-4.9523,8.9141,260.379],[-4.9529,8.9082,260.4222],[-4.9594,8.9003,263.866],[-4.96,8.8951,262.7189],[-4.9654,8.8884,261.986],[-4.9623,8.8851,258.4694],[-4.9677,8.8732,260.8434],[-4.9756,8.8636,261.664],[-4.9802,8.8612,258.6393],[-4.9801,8.8577,259.299],[-4.9773,8.8536,258.0403],[-4.9783,8.85,259.814],[-4.9759,8.8473,260.5685],[-4.9855,8.8378,264.578],[-4.9878,8.8335,267.1159],[-4.9835,8.8291,259.7916],[-4.9923,8.8257,254.5465],[-4.9935,8.8211,261.1924],[-4.9866,8.8177,257.8971],[-4.9886,8.811,257.8275],[-4.9962,8.8056,257.8481],[-4.9964,8.8004,256.5401],[-4.992,8.7959,254.8309],[-4.9912,8.7863,254.9664],[-4.9859,8.7822,254.0111],[-4.9781,8.7844,258.9121],[-4.968,8.782,258.7609],[-4.9539,8.7718,253.0492],[-4.9503,8.7677,250.6215],[-4.9518,8.7645,252.5667],[-4.9452,8.7613,254.6562],[-4.9539,8.7521,253.426],[-4.9626,8.7582,258.9163],[-4.9665,8.756,264.2391],[-4.968,8.7516,263.5661],[-4.9654,8.7499,253.39],[-4.9687,8.7446,260.4079],[-4.9617,8.738,253.0437],[-4.9719,8.723,256.5176],[-4.9695,8.7188,248.8647],[-4.9612,8.7163,255.1315],[-4.9544,8.7174,250.322],[-4.9509,8.7161,251.4866],[-4.9497,8.711,251.3148],[-4.9544,8.7108,254.843],[-4.9584,8.7057,265.5887],[-4.9585,8.7015,254.7614],[-4.9552,8.6978,256.27],[-4.9504,8.698,248.2968],[-4.9445,8.6943,250.0627],[-4.9561,8.6942,254.9681],[-4.964,8.6893,245.0091],[-4.9689,8.6907,251.2435],[-4.9703,8.6853,247.3243],[-4.9725,8.6829,243.6091],[-4.9786,8.681,255.3696],[-4.9791,8.6743,247.7498],[-4.9753,8.6714,245.9951],[-4.9757999999999996,8.6664,250.6001],[-4.972,8.6619,254.3106],[-4.962,8.6575,244.5437],[-4.9661,8.6474,248.1869],[-4.9706,8.6451,241.7611],[-4.9754,8.646,247.2534],[-4.9823,8.6428,243.6369],[-4.9844,8.64,243.2724],[-4.997,8.6487,242.8381],[-4.9998,8.6482,247.6504],[-5.0009,8.6447,242.7862],[-4.9888,8.6325,240.2804],[-4.9748,8.6291,239.7485],[-4.9694,8.6211,244.5063],[-4.9733,8.6166,238.6389],[-4.9749,8.6113,237.7663],[-4.9708,8.6005,251.4438],[-4.9674,8.5984,243.5349],[-4.9732,8.5935,243.2162],[-4.9746,8.5895,252.5056],[-4.9689,8.5883,241.1572],[-4.9652,8.5796,236.1526],[-4.9655,8.5756,235.0157],[-4.9616,8.5679,235.6375],[-4.9572,8.5672,232.6227],[-4.9527,8.5687,239.9649],[-4.95,8.5733,237.1878],[-4.9504,8.5789,235.2229],[-4.9469,8.5815,229.0967],[-4.941,8.5835,236.5412],[-4.9391,8.5808,240.2345],[-4.9404,8.5717,232.5499],[-4.9435,8.5691,235.0074],[-4.9432,8.5652,245.5865],[-4.9389,8.5632,231.2809],[-4.9407,8.557,232.5663],[-4.9397,8.546,226.2906],[-4.944,8.5488,232.6581],[-4.9474,8.5479,227.1828],[-4.9511,8.5429,231.097],[-4.9482,8.5393,232.3848],[-4.9489,8.5312,229.5022],[-4.9457,8.5286,227.4699],[-4.938,8.5269,229.4671],[-4.9319,8.5282,229.2702],[-4.9231,8.524,227.5315],[-4.9263,8.5187,230.6337],[-4.919,8.5064,226.2933],[-4.9149,8.5024,226.1546],[-4.9179,8.497,225.0022],[-4.9149,8.4905,226.5831],[-4.9155,8.4864,223.9169],[-4.9055,8.4833,224.6599],[-4.9084,8.4738,223.4877],[-4.9112,8.4736,223.0595],[-4.9141,8.4659,222.9288],[-4.9206,8.4615,224.0705],[-4.9253,8.4618,223.3973],[-4.9266,8.4578,220.947],[-4.924,8.4554,221.8739],[-4.9243,8.4525,218.7777],[-4.9307,8.4547,226.1552],[-4.936,8.4505,222.5633],[-4.9369,8.4325,218.171],[-4.9296,8.4304,216.4164],[-4.921,8.42,216.6017],[-4.9182,8.4198,220.8004],[-4.918,8.4234,219.2462],[-4.9157,8.4263,219.7077],[-4.9051,8.4245,215.1309],[-4.8993,8.4181,213.7832],[-4.8954,8.4077,209.7502],[-4.8913,8.4037,213.6955],[-4.8885,8.3974,216.7664],[-4.8817,8.3903,211.2343],[-4.878,8.3893,213.3042],[-4.8841,8.3855,213.5327],[-4.8858,8.3744,211.675],[-4.9007,8.37,211.4279],[-4.9043,8.3669,211.0057],[-4.8967,8.358,212.5893],[-4.898,8.3548,208.5648],[-4.9013,8.3532,212.5679],[-4.9144,8.3575,230.5808],[-4.915,8.3541,225.6745],[-4.9069,8.3457,208.0394],[-4.9077,8.331,207.2916],[-4.899,8.3228,207.2121],[-4.8933,8.3132,206.5602],[-4.8939,8.3062,204.5481],[-4.8927,8.3029,219.7839],[-4.8899,8.301,216.9333],[-4.8817,8.3027,210.8374],[-4.8872,8.2951,206.3828],[-4.8943,8.2958,204.4223],[-4.897,8.2937,206.7101],[-4.8981,8.2898,205.237],[-4.8969,8.2854,209.3609],[-4.8936,8.2836,207.6776],[-4.8822,8.2823,205.5005],[-4.8805,8.272,209.1736],[-4.8777,8.2705,203.3609],[-4.8693,8.2737,201.9264],[-4.8656,8.2727,201.752],[-4.864,8.2671,203.1675],[-4.8599,8.2645,200.373],[-4.8505,8.2635,201.2923],[-4.8507,8.2547,202.2816],[-4.8612,8.2498,202.6833],[-4.8618,8.2463,200.3325],[-4.8511,8.2416,200.8135],[-4.8505,8.2376,199.6968],[-4.8541,8.2306,195.8212],[-4.8539,8.2264,205.4556],[-4.8479,8.2214,198.1339],[-4.8488,8.2186,199.8079],[-4.8516,8.2169,198.7501],[-4.8518,8.2125,202.507],[-4.8426,8.2096,197.8802],[-4.8406,8.207,198.3668],[-4.8503,8.2024,197.5067],[-4.8495,8.1975,199.5097],[-4.8429,8.194,195.734],[-4.8417,8.1908,200.4689],[-4.846,8.189,197.114],[-4.8464,8.1838,199.8053],[-4.8401,8.1787,191.6877],[-4.8377,8.1743,193.9455],[-4.8427,8.1675,193.5168],[-4.836,8.1508,198.4444],[-4.836,8.1397,203.3665],[-4.833,8.1291,189.2741],[-4.83,8.1247,190.5325],[-4.8181,8.117,189.205],[-4.8185,8.1052,197.1648],[-4.813,8.0937,191.1845],[-4.7966,8.0857,205.4425],[-4.7922,8.0879,196.6552],[-4.7892,8.087,187.6825],[-4.7878,8.0842,187.4957],[-4.7887,8.0799,192.878],[-4.7853,8.072,192.0167],[-4.7792,8.069,189.4352],[-4.7706,8.0686,187.5171],[-4.7692,8.0648,194.6841],[-4.7744,8.0638,185.8986],[-4.7771,8.0603,193.2172],[-4.7768,8.0563,193.823],[-4.7631,8.0491,184.4419],[-4.761,8.0451,182.5864],[-4.7619,8.0381,185.632],[-4.7544,8.0339,193.5973],[-4.7536,8.0304,185.1808],[-4.7587,8.0271,189.8282],[-4.7452,8.0252,201.3319],[-4.7391,8.0287,187.9409],[-4.7352,8.0261,179.038],[-4.7336,8.0214,182.2312],[-4.7183,8.0245,352.8646],[-4.7078,8.0221,388.2975],[-4.7022,8.0231,370.8401],[-4.6934,8.0195,285.3848],[-4.6914,8.0209,258.6916],[-4.6842,8.0209,235.8786],[-4.6782,8.0178,260.9246],[-4.6743,8.0136,274.9743],[-4.6644,8.0119,330.777],[-4.6575,8.0121,299.7579],[-4.6489,8.0209,305.7357],[-4.6389,8.0228,319.1253],[-4.6269,8.0308,299.119],[-4.6239,8.031,297.1768],[-4.6215,8.0291,305.0451],[-4.6196,8.0257,317.5528],[-4.6188,8.0176,357.5252],[-4.6364,7.999,305.7216],[-4.6356,7.9922,300.9191],[-4.6301,7.9814,328.0356],[-4.6214,7.9704,294.2419],[-4.5928,7.9477,243.1949],[-4.6008,7.9149,270.0605],[-4.6125,7.8805,226.1274],[-4.6097,7.8747,219.5407],[-4.6021,7.8689,197.1724],[-4.5978,7.8632,206.2049],[-4.5852,7.8545,194.6811],[-4.5731,7.8526,189.0347],[-4.5688,7.8499,181.9846],[-4.5678,7.8473,183.9574],[-4.5708,7.8447,183.8447],[-4.5736,7.8369,183.6507],[-4.5715,7.8283,179.5434],[-4.5702,7.831,176.8037],[-4.5574,7.8343,185.1311],[-4.5495,7.8276,200.1722],[-4.5425,7.8277,219.7758],[-4.5363,7.8306,237.5484],[-4.5308,7.8307,249.9361],[-4.5246,7.8249,259.7625],[-4.5183,7.8226,245.0538],[-4.5102,7.8236,224.9363],[-4.5046,7.8205,216.2442],[-4.4982,7.8224,239.5669],[-4.4823,7.8166,213.6017],[-4.4461,7.8177,197.416],[-4.3569,7.8536,176.8498]]]]}
,"properties": {"GID_3": "CIV.11.2.1_1","GID_0": "CIV","country": "Côted'Ivoire","GID_1": "CIV.11_1","province": "ValléeduBandama","NL_NAME_1": "NA","GID_2": "CIV.11.2_1","county": "Hambol","NL_NAME_2": "NA","city": "Dabakala","VARNAME_3": "NA","NL_NAME_3": "NA","TYPE_3": "Département","ENGTYPE_3": "Department","CC_3": "NA","HASC_3": "NA","name": "Dabakala.city","area_km2": 9796.52,"hist_schema_id": "Elevation0-9000","hist_area_km2": {"150": 30.577,"175": 369.734,"200": 933.72,"225": 1509.173,"250": 1826.643,"275": 1476.322,"300": 964.774,"325": 853.285,"350": 811.04,"375": 614.776,"400": 275.513,"425": 78.91,"450": 23.87,"475": 10.806,"500": 7.219,"525": 4.282,"550": 2.771,"575": 1.553,"600": 1.091,"625": 0.357,"650": 0.105}}}