{"type":"Feature","properties":{"GID_3":"CIV.7.3.2_1","GID_0":"CIV","country":"Côted'Ivoire","GID_1":"CIV.7_1","province":"Lagunes","NL_NAME_1":"NA","GID_2":"CIV.7.3_1","county":"LaMé","NL_NAME_2":"NA","city":"Akoupe","VARNAME_3":"NA","NL_NAME_3":"NA","TYPE_3":"Département","ENGTYPE_3":"Department","CC_3":"NA","HASC_3":"NA","name":"Akoupe.city"},
"geometry":{"type": "MultiPolygon","coordinates": [[[[-4.1126,6.4583,86.6139],[-4.1145,6.4508,95.4082],[-4.1388,6.4364,76.8397],[-4.1403,6.4293,81.1601],[-4.1471,6.4247,81.8402],[-4.1565,6.4015,75.2905],[-4.1577,6.394,79.58],[-4.1633,6.3852,82.6331],[-4.1613,6.3735,74.3026],[-4.1638,6.369,72.6681],[-4.1633,6.3664,73.5005],[-4.1591,6.3605,71.9546],[-4.1601,6.3565,81.1011],[-4.1551,6.3515,78.3571],[-4.1527,6.3422,71.2493],[-4.1571,6.3332,69.9486],[-4.1541,6.3153,86.4979],[-4.1584,6.2956,71.268],[-4.1542,6.274,87.8879],[-4.1449,6.27,63.4181],[-4.1446,6.2659,64.3428],[-4.1493,6.2612,62.4375],[-4.1454,6.255,62.0485],[-4.139,6.2579,61.9841],[-4.1286,6.2582,67.4226],[-4.1201,6.2646,69.3978],[-4.1147,6.2662,86.5954],[-4.113,6.2722,68.7748],[-4.1003,6.2785,76.4556],[-4.0888,6.2688,72.7855],[-4.0844,6.2628,77.4525],[-4.0813,6.2551,83.9566],[-4.0752,6.2489,82.3084],[-4.0695,6.235,94.5673],[-4.061,6.2262,92.9434],[-4.0468,6.216,125.4354],[-4.0183,6.1842,134.3889],[-3.9961,6.201,121.4644],[-3.8809,6.2474,117.183],[-3.8351,6.3043,133.0878],[-3.7585,6.3525,156.8192],[-3.7297,6.3832,153.9115],[-3.6905,6.4049,124.2896],[-3.6785,6.4087,120.709],[-3.676,6.4132,122.5146],[-3.6698,6.4169,117.8716],[-3.6608,6.4256,122.869],[-3.6508,6.4304,112.8534],[-3.6484,6.4296,109.0148],[-3.6447,6.4442,126.1475],[-3.6436,6.4405,114.843],[-3.6438,6.4519,103.4392],[-3.6472,6.4579,108.1551],[-3.6472,6.4629,119.6934],[-3.6354,6.49,108.2935],[-3.6402,6.5102,116.3788],[-3.6461,6.5216,108.3309],[-3.6466,6.5352,112.3766],[-3.6505,6.5434,111.7359],[-3.6588,6.5504,116.4035],[-3.6607,6.5548,115.4225],[-3.6574,6.5689,117.3153],[-3.6603,6.5762,110.9297],[-3.6649,6.5812,115.8802],[-3.6828,6.5893,117.1658],[-3.6853,6.594,116.8814],[-3.6846,6.6029,118.1383],[-3.6894,6.6095,115.8766],[-3.678,6.6221,117.0157],[-3.6769,6.6353,110.3735],[-3.6807,6.6449,110.2398],[-3.6826,6.6466,114.8898],[-3.7,6.6495,115.547],[-3.7111,6.6431,115.6977],[-3.7195,6.632,115.0258],[-3.7286,6.6301,116.6556],[-3.7405,6.6372,119.1686],[-3.7579,6.6378,120.2796],[-3.7624,6.6345,127.0876],[-3.7699,6.6221,115.0217],[-3.7949,6.5889,130.3012],[-3.8067,6.5855,133.333],[-3.8144,6.5852,144.8824],[-3.8334,6.5763,142.5631],[-3.8498,6.5728,146.7042],[-3.8651,6.5656,146.4194],[-3.893,6.5573,137.1358],[-3.9144,6.5441,156.7881],[-3.9343,6.5402,138.1789],[-3.9574,6.5468,133.3539],[-3.9757,6.5624,115.2054],[-3.9847,6.5606,123.7906],[-4.0145,6.5607,111.2199],[-4.0281,6.5555,104.7209],[-4.0429,6.5596,95.6044],[-4.0509,6.5587,95.0383],[-4.0576,6.5551,93.5137],[-4.0784,6.5248,89.3444],[-4.0914,6.5116,89.0046],[-4.1055,6.5047,87.3039],[-4.1064,6.5021,107.9047],[-4.1043,6.4942,94.8809],[-4.1071,6.4854,87.7462],[-4.1054,6.4777,82.8554],[-4.108,6.4648,84.1882],[-4.1126,6.4583,86.6139]]]]}}