{"type":"Feature","properties":{"GID_3":"CIV.2.2.4_1","GID_0":"CIV","country":"Côted'Ivoire","GID_1":"CIV.2_1","province":"Bas-Sassandra","NL_NAME_1":"NA","GID_2":"CIV.2.2_1","county":"Nawa","NL_NAME_2":"NA","city":"Oupoyo","VARNAME_3":"NA","NL_NAME_3":"NA","TYPE_3":"Département","ENGTYPE_3":"Department","CC_3":"NA","HASC_3":"NA","name":"Oupoyo.city"},
"geometry":{"type": "MultiPolygon","coordinates": [[[[-6.458,5.5632,89.1938],[-6.4599,5.5799,85.1926],[-6.47,5.6156,90.7772],[-6.4845,5.6192,82.4626],[-6.4973,5.6379,108.185],[-6.5446,5.6639,86.4677],[-6.5612,5.6788,90.6012],[-6.5722,5.703,101.9585],[-6.5887,5.6895,100.9636],[-6.6405,5.6806,128.6538],[-6.6476,5.6466,112.5077],[-6.6476,5.6324,114.0774],[-6.7208,5.5895,163.5701],[-6.6869,5.5574,124.4336],[-6.7136,5.5521,153.5189],[-6.7868,5.5556,177.2192],[-6.8582,5.5521,171.8786],[-6.8796,5.5556,170.7543],[-6.8867,5.5592,171.377],[-6.9117,5.5878,164.5267],[-6.9385,5.602,180.8805],[-6.9885,5.5949,144.3713],[-7.0345,5.5677,150.6424],[-7.0002,5.4995,177.1441],[-6.8289,5.4978,168.8789],[-6.7964,5.4649,157.2335],[-6.7897,5.4609,161.2633],[-6.7869,5.4609,153.3452],[-6.7819,5.457,161.5229],[-6.7631,5.4537,149.8697],[-6.7533,5.4493,145.4643],[-6.7491,5.4452,140.1771],[-6.746,5.4382,151.3529],[-6.7421,5.4367,138.1789],[-6.7321,5.4223,148.3007],[-6.6922,5.4432,176.4734],[-6.6316,5.4664,121.2622],[-6.5744,5.4718,126.8956],[-6.5405,5.536,91.907],[-6.5031,5.5538,66.5131],[-6.458,5.5632,89.1938]]]]}}