{"type": "Feature","bbox": [-4.703,6.6822,-4.0335,7.2617],"geometry": {"type": "MultiPolygon","coordinates": [[[[-4.2167,7.1447,169.0357],[-4.2344,7.1442,171.2067],[-4.2379,7.1426,173.8599],[-4.2434,7.1446,168.4883],[-4.3208,7.1964,176.673],[-4.3302,7.2009,188.5159],[-4.3358,7.2012,192.8192],[-4.3443,7.2046,198.989],[-4.3483,7.2074,165.2639],[-4.344,7.213,184.0015],[-4.3449,7.2144,195.5724],[-4.3682,7.2297,156.5747],[-4.3737,7.2413,151.6987],[-4.3763,7.2428,150.9847],[-4.4331,7.2561,132.2364],[-4.4691,7.2617,113.3554],[-4.4744,7.2615,114.3906],[-4.4828,7.2558,111.5142],[-4.4878,7.2548,111.2505],[-4.4964,7.2585,110.2826],[-4.5016,7.2575,119.5543],[-4.5148,7.2469,112.4915],[-4.4812,7.1572,117.4776],[-4.4943,7.1152,104.3955],[-4.5278,7.0809,103.2672],[-4.6023,7.03,150.7217],[-4.6022,7.0277,141.5381],[-4.6131,7.0238,152.5146],[-4.6276,7.0213,179.8],[-4.6679,7.0288,138.4691],[-4.6823,7.0282,132.8031],[-4.6861,7.0183,144.5046],[-4.6868,7.0094,142.8236],[-4.6776,6.9897,162.8748],[-4.6754,6.9819,173.0374],[-4.6744,6.9682,142.1843],[-4.6799,6.9646,152.511],[-4.6953,6.9592,129.9435],[-4.7007,6.955,131.2771],[-4.703,6.9496,122.2493],[-4.7025,6.9383,126.4373],[-4.6988,6.9193,130.8885],[-4.6967,6.9163,132.1532],[-4.6785,6.9157,150.9783],[-4.6611,6.9121,157.4622],[-4.6534,6.9068,164.2811],[-4.6443,6.8797,162.9456],[-4.6202,6.8678,171.7148],[-4.5805,6.8705,160.6225],[-4.5776,6.8693,147.7598],[-4.5306,6.8265,132.885],[-4.5402,6.7637,94.6887],[-4.5479,6.7503,87.2674],[-4.548,6.7459,85.1957],[-4.5433,6.7352,86.1363],[-4.5428,6.7225,84.1706],[-4.5382,6.715,81.4955],[-4.5385,6.7106,85.2782],[-4.5436,6.7064,91.5833],[-4.5342,6.6933,91.9349],[-4.5265,6.6918,79.9619],[-4.5235,6.6955,82.754],[-4.5212,6.7026,82.1824],[-4.5151,6.7106,82.699],[-4.512,6.7077,83.4484],[-4.5039,6.6881,87.8028],[-4.4976,6.683,93.1748],[-4.4926,6.6822,94.1826],[-4.4866,6.6894,88.8511],[-4.4845,6.6981,89.461],[-4.4853,6.7073,85.3217],[-4.4889,6.7148,84.8885],[-4.4878,6.7165,85.0986],[-4.4847,6.7153,84.9847],[-4.482,6.7074,84.1878],[-4.475,6.7069,82.7756],[-4.4701,6.7091,86.0334],[-4.4682,6.7283,84.9118],[-4.4616,6.7361,86.0744],[-4.4573,6.7334,88.0806],[-4.4519,6.7258,85.4168],[-4.4457,6.7231,88.2966],[-4.4392,6.7159,94.8444],[-4.4311,6.7146,110.8908],[-4.4296,6.7167,85.4685],[-4.4297,6.7233,83.4536],[-4.4378,6.7354,86.3505],[-4.4369,6.7386,86.345],[-4.4332,6.7377,86.9743],[-4.4242,6.7413,92.1893],[-4.4234,6.7456,87.5517],[-4.433,6.754,88.6492],[-4.4521,6.754,93.2147],[-4.4559,6.7549,91.1303],[-4.4648,6.7609,87.5617],[-4.4703,6.7711,87.9895],[-4.4681,6.7774,88.8268],[-4.4658,6.772,89.6808],[-4.4597,6.768,91.1665],[-4.4529,6.7672,90.3396],[-4.4488,6.7721,94.0839],[-4.4347,6.7659,112.8284],[-4.4304,6.766,97.2429],[-4.426,6.7733,89.6777],[-4.4292,6.7831,97.0607],[-4.4266,6.7873,91.1548],[-4.4226,6.7892,88.5929],[-4.4204,6.7945,89.2748],[-4.4236,6.7979,90.9888],[-4.4239,6.8016,86.2111],[-4.4144,6.7986,89.5527],[-4.4093,6.7942,92.8548],[-4.4073,6.7946,93.5245],[-4.4035,6.8029,87.9031],[-4.401,6.8022,87.7565],[-4.3936,6.7995,90.1949],[-4.3876,6.7897,90.3249],[-4.3764,6.7852,103.3042],[-4.3731,6.7884,91.6103],[-4.3687,6.7975,94.2065],[-4.3643,6.7998,96.2203],[-4.3555,6.7981,93.0658],[-4.3544,6.7957,91.8514],[-4.3478,6.7925,93.9655],[-4.3417,6.7946,94.2699],[-4.3335,6.8076,92.7095],[-4.3239,6.8189,99.1078],[-4.3244,6.822,100.9313],[-4.3341,6.8297,90.433],[-4.0335,6.9985,227.027],[-4.0573,7.0268,252.1912],[-4.0629,7.0484,280.9689],[-4.0708,7.0534,250.0956],[-4.0886,7.0608,225.8446],[-4.2167,7.1447,169.0357]]]]}
,"properties": {"GID_3": "CIV.6.4.1_1","GID_0": "CIV","country": "Côted'Ivoire","GID_1": "CIV.6_1","province": "Lacs","NL_NAME_1": "NA","GID_2": "CIV.6.4_1","county": "N'zi","NL_NAME_2": "NA","city": "Bocanda","VARNAME_3": "NA","NL_NAME_3": "NA","TYPE_3": "Département","ENGTYPE_3": "Department","CC_3": "NA","HASC_3": "NA","name": "Bocanda.city","area_km2": 2199.7,"hist_schema_id": "Elevation0-9000","hist_area_km2": {"75": 28.594,"100": 416.329,"125": 628.971,"150": 606.823,"175": 361.628,"200": 97.612,"225": 28.977,"250": 14.31,"275": 7.892,"300": 3.998,"325": 2.315,"350": 1.536,"375": 0.526,"400": 0.147,"425": 0.042}}}