{"type":"Feature","properties":{"GID_3":"CIV.4.2.3_1","GID_0":"CIV","country":"Côted'Ivoire","GID_1":"CIV.4_1","province":"Denguélé","NL_NAME_1":"NA","GID_2":"CIV.4.2_1","county":"Kabadougou","NL_NAME_2":"NA","city":"Odienné","VARNAME_3":"NA","NL_NAME_3":"NA","TYPE_3":"Département","ENGTYPE_3":"Department","CC_3":"NA","HASC_3":"NA","name":"Odienné.city"},
"geometry":{"type": "MultiPolygon","coordinates": [[[[-7.0554,9.1769,382.3354],[-7.0559,9.1931,395.0199],[-7.0709,9.1957,410.2747],[-7.0922,9.1918,383.3883],[-7.0986,9.1929,383.8921],[-7.1381,9.2121,367.9653],[-7.1557,9.2111,349.6494],[-7.161,9.2248,362.0042],[-7.1686,9.2271,355.5738],[-7.2163,9.227,348.0994],[-7.2242,9.2224,358.4577],[-7.2283,9.2218,352.6651],[-7.2461,9.228,368.6069],[-7.2482,9.2318,371.3764],[-7.2546,9.2348,375.3417],[-7.2586,9.2336,375.8392],[-7.265,9.2343,379.95],[-7.2867,9.2397,380.1806],[-7.3019,9.2374,357.1489],[-7.3071,9.238,348.3583],[-7.3157,9.2546,361.4837],[-7.3235,9.2591,366.4024],[-7.3346,9.2557,364.5946],[-7.3385,9.2522,366.4382],[-7.341,9.2524,374.5956],[-7.3443,9.2564,370.6427],[-7.3463,9.2658,379.6604],[-7.3585,9.2807,377.99],[-7.3609,9.2959,393.7089],[-7.3644,9.3045,388.6681],[-7.363,9.3171,392.4551],[-7.3693,9.3311,390.7913],[-7.3688,9.3408,412.4595],[-7.3714,9.3552,401.5198],[-7.3775,9.3641,426.9005],[-7.3762,9.3674,432.6452],[-7.37,9.3719,422.7543],[-7.3628,9.3722,432.2485],[-7.3576,9.3693,437.6376],[-7.3428,9.3804,440.5806],[-7.337,9.3799,434.2921],[-7.3328,9.388,419.2527],[-7.3199,9.3864,396.3235],[-7.3123,9.3922,405.5916],[-7.2995,9.4075,425.4796],[-7.2742,9.4077,438.0304],[-7.2632,9.4105,470.714],[-7.2645,9.4293,512.0333],[-7.2635,9.434,506.1522],[-7.2856,9.4705,453.3097],[-7.2904,9.4824,454.3369],[-7.298,9.4921,437.7432],[-7.2993,9.4982,442.9293],[-7.2978,9.4988,445.3025],[-7.2954,9.5067,448.9226],[-7.2918,9.526,483.8961],[-7.2874,9.5674,453.9766],[-7.2628,9.6138,611.343],[-7.2609,9.62,569.6683],[-7.264,9.626,470.3489],[-7.2809,9.6404,449.5779],[-7.2858,9.641,436.6843],[-7.3034,9.6609,425.2556],[-7.3246,9.6775,405.3045],[-7.3292,9.6869,407.0527],[-7.3341,9.6913,404.5591],[-7.3423,9.6942,401.4547],[-7.3478,9.692,394.0779],[-7.3564,9.7131,390.0047],[-7.4016,9.7051,424.338],[-7.4229,9.7044,410.3134],[-7.4643,9.7115,421.14],[-7.4906,9.723,418.2999],[-7.5247,9.7327,413.5521],[-7.5282,9.7371,414.1464],[-7.5446,9.7447,399.1429],[-7.5526,9.7434,403.1946],[-7.5632,9.7449,394.2765],[-7.5729,9.7473,387.3933],[-7.583,9.753,382.1368],[-7.5898,9.7422,381.6718],[-7.5965,9.744,378.1924],[-7.5954,9.7585,389.6102],[-7.603,9.7621,386.02],[-7.6178,9.7839,402.184],[-7.6215,9.7984,403.6874],[-7.6202,9.8083,401.5558],[-7.6294,9.8542,381.6629],[-7.6428,9.8626,381.1484],[-7.6483,9.8627,389.2177],[-7.6511,9.8653,390.7092],[-7.6541,9.8831,393.1071],[-7.6678,9.8974,414.7523],[-7.6764,9.9114,427.5948],[-7.6756,9.9308,403.5721],[-7.6787,9.9381,385.7546],[-7.7036,9.9385,394.1776],[-7.7117,9.9307,404.9618],[-7.7271,9.9257,400.076],[-7.7357,9.9178,404.4279],[-7.7382,9.9106,413.0753],[-7.7812,9.9074,436.0629],[-7.7993,9.9104,430.9716],[-7.8093,9.9089,407.6036],[-7.8177,9.9015,423.0576],[-7.8277,9.896,438.9132],[-7.8391,9.8937,440.8044],[-7.9679,9.8807,441.4035],[-8.006,9.8777,446.2314],[-8.0358,9.8781,432.3693],[-8.0441,9.8724,423.5281],[-8.0512,9.8765,419.1533],[-8.0616,9.8747,409.6461],[-8.0725,9.8683,406.5461],[-8.0799,9.86,406.0029],[-8.1087,9.852,414.0468],[-8.1087,9.8456,409.0315],[-8.113,9.8388,400.5374],[-8.1068,9.833,396.3274],[-8.1015,9.8326,395.308],[-8.1051,9.8223,395.718],[-8.1045,9.8134,395.4648],[-8.1062,9.8079,391.4942],[-8.1161,9.8117,394.1223],[-8.1187,9.8069,390.4207],[-8.1181,9.8039,390.13],[-8.1093,9.7978,395.5009],[-8.1096,9.7953,396.3233],[-8.1205,9.791,410.6067],[-8.1207,9.7791,415.6393],[-8.1135,9.7647,402.4301],[-8.1153,9.7629,402.0285],[-8.1279,9.7615,414.6578],[-8.1298,9.7583,411.0027],[-8.1236,9.7531,399.515],[-8.1295,9.7415,422.7607],[-8.1242,9.7354,405.4539],[-8.1271,9.7295,416.6802],[-8.1234,9.7097,403.0427],[-8.1043,9.6997,402.7725],[-8.1036,9.6936,403.1821],[-8.1014,9.6903,416.8651],[-8.0929,9.6879,401.3688],[-8.0933,9.6845,410.1875],[-8.0913,9.6824,409.8647],[-8.0752,9.6772,409.0063],[-8.0678,9.6676,407.7584],[-8.0536,9.6636,413.1243],[-8.0477,9.6567,410.8279],[-8.0408,9.6528,409.4249],[-8.0378,9.6461,406.7176],[-8.0144,9.6261,415.7445],[-8.0097,9.6246,416.4183],[-8.0069,9.6187,414.4565],[-8.0009,9.6155,413.4456],[-8.0985,9.4467,439.0181],[-8.0836,9.4296,444.9381],[-8.0811,9.4243,443.5764],[-8.0735,9.4199,424.9377],[-8.0603,9.4018,451.5899],[-8.047,9.4002,437.6095],[-8.0113,9.4016,448.4702],[-7.9993,9.398,450.5392],[-7.9876,9.3969,473.358],[-7.9832,9.3944,480.9817],[-7.9681,9.396,469.9982],[-7.9425,9.406,468.8441],[-7.9157,9.4195,444.4268],[-7.8917,9.4169,444.045],[-7.887,9.4242,456.373],[-7.8831,9.4356,457.1314],[-7.8722,9.4362,454.3308],[-7.8653,9.4333,433.2128],[-7.8579,9.433,427.9721],[-7.85,9.4377,421.7971],[-7.8489,9.4289,421.3474],[-7.8503,9.4255,420.5213],[-7.8554,9.4265,422.1092],[-7.8555,9.4173,422.2592],[-7.8577,9.4127,428.3326],[-7.8561,9.4099,423.8858],[-7.8626,9.3925,427.963],[-7.8665,9.3754,425.2202],[-7.8756,9.3665,427.7081],[-7.8828,9.3505,433.8317],[-7.8875,9.346,431.9106],[-7.8885,9.3423,434.0733],[-7.8864,9.3365,430.5118],[-7.8865,9.3124,447.9267],[-7.8848,9.3041,452.0143],[-7.8874,9.2906,439.8508],[-7.8914,9.2805,441.8431],[-7.8953,9.2776,448.9814],[-7.9008,9.2636,437.6334],[-7.9065,9.2573,456.3064],[-7.9155,9.2356,456.0571],[-7.9257,9.2173,454.4544],[-7.926,9.2129,443.0654],[-7.9199,9.1869,470.9273],[-7.9149,9.179,470.5542],[-7.9078,9.1729,458.9527],[-7.8819,9.1577,462.5944],[-7.8702,9.1675,474.5411],[-7.853,9.1778,463.3786],[-7.84,9.1786,490.717],[-7.8331,9.1748,484.09],[-7.8321,9.1688,480.196],[-7.8392,9.1531,486.6954],[-7.8378,9.1505,485.365],[-7.8272,9.149,488.3634],[-7.8121,9.1405,470.2414],[-7.812,9.1292,476.0021],[-7.8081,9.125,465.6547],[-7.8014,9.1226,461.6039],[-7.788,9.1061,443.9877],[-7.7776,9.1023,450.1472],[-7.7705,9.0971,441.7209],[-7.7615,9.0965,437.399],[-7.7552,9.0889,460.7152],[-7.7416,9.0838,427.9995],[-7.7365,9.0781,454.6725],[-7.7373,9.0752,459.7082],[-7.7396,9.0742,464.9973],[-7.7056,9.0636,433.7262],[-7.6915,9.0529,433.3206],[-7.6846,9.0416,415.0625],[-7.6851,9.029,428.1732],[-7.6819,9.0125,419.4498],[-7.6787,9.0059,421.9043],[-7.6784,8.9978,413.4644],[-7.6808,8.9827,416.7179],[-7.6777,8.9672,412.6162],[-7.6753,8.9633,415.1786],[-7.6527,8.9564,410.095],[-7.6451,8.9615,412.0161],[-7.6415,8.9619,418.8891],[-7.6378,8.9517,416.4586],[-7.6209,8.9483,414.2628],[-7.6179,8.9455,419.1237],[-7.6017,8.9407,402.7498],[-7.5838,8.9261,407.969],[-7.573,8.9265,393.9298],[-7.5695,8.911,387.6221],[-7.5604,8.9056,395.0096],[-7.5603,8.903,392.817],[-7.5654,8.8976,394.2524],[-7.545,8.8781,388.6516],[-7.5471,8.872,385.236],[-7.5463,8.8697,389.6692],[-7.5495,8.8664,396.5151],[-7.5478,8.8594,391.6904],[-7.5405,8.8522,377.9428],[-7.5388,8.8454,393.619],[-7.5267,8.8411,380.178],[-7.5141,8.834,374.9887],[-7.5103,8.8352,384.937],[-7.4996,8.828,383.3331],[-7.4923,8.8193,383.526],[-7.4772,8.8078,373.2631],[-7.4634,8.7882,380.3035],[-7.456,8.7816,373.7714],[-7.4531,8.7769,379.2209],[-7.4353,8.7643,378.0533],[-7.4329,8.7644,380.7089],[-7.4261,8.7562,373.1822],[-7.4185,8.7602,378.9327],[-7.4132999999999996,8.76,369.188],[-7.4057,8.7559,366.4001],[-7.4119,8.7503,361.9574],[-7.4122,8.7463,360.4919],[-7.4102,8.7419,363.5403],[-7.4058,8.7378,363.142],[-7.3976,8.7412,363.1167],[-7.3952,8.7391,359.3751],[-7.3937,8.7314,361.7836],[-7.3908,8.7311,363.2644],[-7.3908,8.7268,370.2387],[-7.3833,8.7203,354.8373],[-7.3835,8.7171,354.4181],[-7.3792,8.7145,354.9877],[-7.3768,8.7094,353.3986],[-7.3794,8.7072,352.6408],[-7.3774,8.6921,344.7048],[-7.3737,8.6828,348.2962],[-7.365,8.6792,344.7627],[-7.3531,8.6829,335.9198],[-7.3516,8.6792,339.4743],[-7.3414,8.6744,344.0461],[-7.3299,8.6791,348.1331],[-7.3163,8.6754,328.1713],[-7.3092,8.6778,341.2997],[-7.2901,8.6689,328.3861],[-7.2836,8.6678,319.5862],[-7.2748,8.6608,334.3734],[-7.2645,8.6483,317.0768],[-7.2592,8.6469,315.8758],[-7.2524,8.6392,321.9556],[-7.2512,8.6341,318.2896],[-7.2477,8.6296,314.401],[-7.2403,8.624,315.6248],[-7.2372,8.6146,320.1326],[-7.2332,8.6097,323.6145],[-7.2324,8.6063,319.692],[-7.2356,8.6016,325.9628],[-7.2364,8.5921,312.7573],[-7.2302,8.5825,321.8777],[-7.2289,8.5773,313.8089],[-7.2189,8.5657,320.6023],[-7.2196,8.5602,296.344],[-7.2251,8.5522,306.8262],[-7.2247,8.5491,296.8029],[-7.2157,8.5453,308.7831],[-7.2139,8.5414,303.9624],[-7.2134,8.5286,306.3009],[-7.2077,8.5195,303.7767],[-7.2024,8.5143,293.1964],[-7.1828,8.5086,286.2668],[-7.1791,8.51,286.1544],[-7.1852,8.5205,289.3452],[-7.1775,8.5265,302.4099],[-7.1783,8.5309,303.106],[-7.1862,8.5362,298.8087],[-7.1801,8.5432,303.1403],[-7.1882,8.5506,290.3475],[-7.1981,8.5687,289.9016],[-7.2008,8.5765,296.6942],[-7.1934,8.5912,302.1958],[-7.1941,8.5958,291.1998],[-7.1981,8.5994,297.1389],[-7.1965,8.6044,314.2172],[-7.1981,8.618,310.8092],[-7.2027,8.6266,295.9012],[-7.2062,8.6291,296.7303],[-7.2092,8.6288,301.0602],[-7.2124,8.6262,296.434],[-7.2129,8.6293,300.4739],[-7.2029,8.6462,298.1062],[-7.2034,8.653,311.0592],[-7.2102,8.6577,299.5111],[-7.2027,8.6746,315.2821],[-7.2033,8.6783,305.8985],[-7.208,8.6841,300.088],[-7.2071,8.6877,300.6385],[-7.2012,8.6941,310.4725],[-7.1942,8.7113,312.2571],[-7.1997,8.7198,302.9744],[-7.1993,8.7332,305.5227],[-7.1927,8.7345,315.6548],[-7.1922,8.7375,303.0831],[-7.1883,8.7382,300.6214],[-7.1879,8.7409,302.6458],[-7.1977,8.7551,301.0806],[-7.1955,8.7628,305.4102],[-7.1911,8.7691,300.7921],[-7.1869,8.7709,305.1999],[-7.1797,8.7791,311.8845],[-7.1825,8.7819,308.6556],[-7.1896,8.7827,304.5926],[-7.1974,8.7898,305.535],[-7.1968,8.7945,306.0309],[-7.1881,8.8022,312.858],[-7.1888,8.8052,315.0756],[-7.1919,8.8063,307.6511],[-7.1977,8.8191,305.2323],[-7.2048,8.8227,304.5609],[-7.2039,8.8246,305.6321],[-7.1963,8.8274,311.9249],[-7.1918,8.832,316.3448],[-7.19,8.8372,314.8473],[-7.1909,8.8417,313.7898],[-7.1941,8.8434,315.7997],[-7.2038,8.8424,307.726],[-7.2055,8.8547,312.4062],[-7.2035,8.8635,315.2603],[-7.2053,8.8667,315.8931],[-7.21,8.8669,306.9239],[-7.2163,8.8704,308.8852],[-7.2179,8.8745,311.2695],[-7.2171,8.8781,309.6696],[-7.2138,8.8733,312.9392],[-7.21,8.8736,315.9177],[-7.2079,8.8766,325.0497],[-7.208,8.8852,320.3318],[-7.2119,8.8882,316.5015],[-7.2124,8.8935,310.6514],[-7.207,8.9136,318.5521],[-7.2085,8.918,333.2943],[-7.2196,8.9227,313.0218],[-7.2229,8.9292,324.8525],[-7.2227,8.9415,326.8955],[-7.2209,8.9474,323.7748],[-7.2171,8.9498,330.2109],[-7.2042,8.9497,339.8024],[-7.1765,8.9461,357.489],[-7.1732,8.9491,366.524],[-7.1667,8.9881,340.3404],[-7.1511,8.9972,329.2197],[-7.1469,8.995,343.5266],[-7.1422,8.9956,342.585],[-7.1448,8.9994,332.7103],[-7.1417,9.008,347.9633],[-7.1264,9.0253,338.4182],[-7.1145,9.0434,344.6735],[-7.1061,9.0492,353.9468],[-7.0965,9.0664,347.2562],[-7.0891,9.0743,348.1921],[-7.0827,9.0896,346.7207],[-7.0753,9.1276,362.5452],[-7.0641,9.141,364.4051],[-7.0608,9.1623,377.5992],[-7.0593,9.1678,384.8331],[-7.0556,9.1722,382.4983],[-7.0554,9.1769,382.3354]]]]}}