{"type": "Feature","bbox": [-5.4578,5.0962,-4.69,5.8117],"geometry": {"type": "MultiPolygon","coordinates": [[[[-5.4532,5.0962,0.5584],[-5.2057,5.1232,6.3026],[-4.8324,5.1474,0.0],[-4.791,5.1515,0.0],[-4.7907,5.1609,2.7599],[-4.8064,5.1767,0.0],[-4.8107,5.2456,57.6971],[-4.7375,5.4983,18.6003],[-4.69,5.5898,55.906],[-4.8572,5.5504,19.9766],[-4.8517,5.6146,1.8491],[-4.8379,5.6099,3.3599],[-4.83,5.6132,2.1695],[-4.8216,5.6319,12.8272],[-4.7928,5.6722,5.3314],[-4.8056,5.6872,10.3041],[-4.8167,5.6938,13.6737],[-4.8289,5.7216,15.7254],[-4.8897,5.7499,46.5513],[-4.9364,5.8117,79.3534],[-4.9992,5.6751,54.4203],[-4.9983,5.6197,44.3871],[-5.0016,5.615,50.5874],[-5.0238,5.5643,19.4861],[-5.0159,5.5585,23.0542],[-5.0122,5.5444,25.5717],[-5.0092,5.5389,33.8911],[-5.0101,5.5316,24.8468],[-5.0126,5.5291,20.6936],[-5.0107,5.5261,22.795],[-5.006,5.5035,29.4059],[-5.0101,5.4941,16.8576],[-5.0175,5.4862,15.207],[-5.0207,5.4796,15.8435],[-5.0223,5.46,15.0961],[-5.0267,5.4549,12.795],[-5.0286,5.4453,15.8906],[-5.0313,5.4412,16.7187],[-5.0311,5.4373,12.9749],[-5.0373,5.4302,13.2025],[-5.0448,5.4173,14.4487],[-5.0442,5.4101,9.6444],[-5.0468,5.4044,19.1082],[-5.0465,5.3973,14.7935],[-5.0554,5.3863,12.4576],[-5.0538,5.3805,13.5305],[-5.0548,5.3766,14.0824],[-5.0592,5.3632,11.1741],[-5.0629,5.3596,13.6615],[-5.0621,5.3499,11.2689],[-5.0592,5.3416,8.4588],[-5.0603,5.3397,12.4604],[-5.0579,5.3376,8.9223],[-5.0578,5.3323,14.1279],[-5.061,5.3277,12.7731],[-5.0663,5.3247,7.3643],[-5.0689,5.3196,6.4871],[-5.0696,5.1953,0.0],[-5.1097,5.1715,0.0],[-5.2113,5.2058,0.0],[-5.217,5.2041,6.1735],[-5.243,5.2125,0.0],[-5.2465,5.207,0.7344],[-5.3355,5.1474,0.0],[-5.4578,5.2175,27.5873],[-5.455,5.1719,54.8115],[-5.4532,5.0962,0.5584]]]]}
,"properties": {"GID_3": "CIV.7.2.2_1","GID_0": "CIV","country": "Côted'Ivoire","GID_1": "CIV.7_1","province": "Lagunes","NL_NAME_1": "NA","GID_2": "CIV.7.2_1","county": "GrandsPonts","NL_NAME_2": "NA","city": "Grand-Lahou","VARNAME_3": "NA","NL_NAME_3": "NA","TYPE_3": "Département","ENGTYPE_3": "Department","CC_3": "NA","HASC_3": "NA","name": "Grand-Lahou.city","area_km2": 2179.799,"hist_schema_id": "Elevation0-9000","hist_area_km2": {"0": 694.248,"25": 978.757,"50": 406.818,"75": 95.44,"100": 4.452,"125": 0.084}}}