{"type":"Feature","properties":{"GID_3":"CIV.3.1.2_1","GID_0":"CIV","country":"Côted'Ivoire","GID_1":"CIV.3_1","province":"Comoé","NL_NAME_1":"NA","GID_2":"CIV.3.1_1","county":"Indénié-Djuablin","NL_NAME_2":"NA","city":"Agnibilékrou","VARNAME_3":"NA","NL_NAME_3":"NA","TYPE_3":"Département","ENGTYPE_3":"Department","CC_3":"NA","HASC_3":"NA","name":"Agnibilékrou.city"},
"geometry":{"type": "MultiPolygon","coordinates": [[[[-3.469,7.3484,150.3676],[-3.472,7.3495,151.0689],[-3.476,7.3548,147.2433],[-3.479,7.3543,147.3458],[-3.4786,7.3458,148.8116],[-3.4876,7.3477,149.3055],[-3.4963,7.3533,148.1499],[-3.5023,7.352,148.629],[-3.5178,7.3523,150.3548],[-3.5303,7.3426,149.4077],[-3.5348,7.3433,142.2309],[-3.5392,7.3408,148.2783],[-3.5567,7.3183,140.1824],[-3.5595,7.3131,149.1219],[-3.5588,7.3072,152.4788],[-3.5548,7.3009,173.611],[-3.5489,7.2985,168.0092],[-3.5417,7.2922,159.2852],[-3.537,7.2898,166.2337],[-3.5304,7.2906,138.9693],[-3.5284,7.2894,139.2269],[-3.5416,7.2796,145.675],[-3.5588,7.2801,151.4547],[-3.5755,7.284,150.7881],[-3.5863,7.2826,141.3047],[-3.5927,7.2781,152.2891],[-3.5942,7.2761,156.0888],[-3.5942,7.2644,142.6431],[-3.5924,7.2529,150.191],[-3.5802,7.2391,143.3894],[-3.5771,7.2329,142.5018],[-3.5768,7.2271,143.1351],[-3.5827,7.2126,149.1785],[-3.5851,7.2,141.3494],[-3.5909,7.1907,142.5481],[-3.6039,7.182,136.6438],[-3.6091,7.1852,136.8087],[-3.6108,7.1915,145.8621],[-3.6152,7.1964,138.3896],[-3.6212,7.1973,140.2803],[-3.6345,7.2031,139.1506],[-3.6408,7.204,147.3244],[-3.6441,7.2014,161.3522],[-3.6508,7.1786,141.9885],[-3.6482,7.1613,144.0479],[-3.6424,7.1464,136.6432],[-3.6424,7.1319,139.1133],[-3.6388,7.1268,137.2932],[-3.6275,7.1231,143.4399],[-3.6068,7.1067,136.9726],[-3.5978,7.1037,181.7502],[-3.5825,7.1022,141.1998],[-3.5769,7.1079,138.9811],[-3.5702,7.1085,147.3916],[-3.5672,7.1063,140.9703],[-3.5672,7.1046,140.5596],[-3.5616,7.1081,136.1068],[-3.5579,7.1071,139.5497],[-3.5456,7.0987,136.2458],[-3.5449,7.0925,138.6068],[-3.5418,7.0864,164.7112],[-3.5151,7.0501,169.2027],[-3.5091,7.048,177.3938],[-3.4974,7.0476,191.4798],[-3.4828,7.0425,211.6337],[-3.4729,7.0326,220.6228],[-3.4461,7.0154,262.7779],[-3.4358,7.0156,305.0715],[-3.4143,7.0287,236.6884],[-3.4045,7.0396,206.7161],[-3.4015,7.0407,215.3208],[-3.3938,7.0395,261.7982],[-3.3825,7.0346,217.2976],[-3.375,7.0233,230.4568],[-3.3577,7.0063,251.058],[-3.3344,6.9876,280.4667],[-3.3544,6.8387,188.7863],[-3.3453,6.8185,185.0721],[-3.3052,6.8004,204.4921],[-3.2782,6.7985,179.3247],[-3.2673,6.8066,179.079],[-3.2612,6.8086,180.0616],[-3.2475,6.8005,171.3287],[-3.2418,6.7823,163.665],[-3.2355,6.7755,161.2122],[-3.2321,6.7749,162.2675],[-3.2329,6.788,164.8423],[-3.2316,6.7917,166.9247],[-3.233,6.7945,167.3386],[-3.2306,6.8001,168.6442],[-3.231,6.8064,173.3958],[-3.2297,6.8094,174.0999],[-3.2317,6.8219,175.4084],[-3.2258,6.8249,181.8951],[-3.1554,6.9404,224.3386],[-3.1435,6.9567,237.5448],[-3.1426,6.9627,243.5459],[-3.1339,6.9749,222.7928],[-3.1166,7.0059,209.1878],[-3.1111,7.0124,209.9981],[-3.1078,7.0141,209.9285],[-3.1072,7.019,218.9195],[-3.0829,7.0544,227.0976],[-3.0752,7.0626,246.0659],[-3.1134,7.1069,212.672],[-3.1283,7.1288,243.2246],[-3.1357,7.1363,250.2512],[-3.138,7.1414,263.9858],[-3.1807,7.1734,231.5212],[-3.1914,7.1739,247.3868],[-3.2174,7.1887,211.9024],[-3.2181,7.217,225.2913],[-3.2209,7.2217,228.1854],[-3.2313,7.2288,221.9502],[-3.236,7.2339,206.8617],[-3.2405,7.2432,195.1102],[-3.2449,7.3185,186.3926],[-3.2465,7.3221,175.8762],[-3.2514,7.3259,170.6629],[-3.263,7.3272,180.5292],[-3.2724,7.3316,164.9826],[-3.279,7.3319,166.7351],[-3.2988,7.3298,162.9679],[-3.3076,7.3272,159.2348],[-3.3094,7.3252,153.5744],[-3.3079,7.3221,155.5545],[-3.2992,7.3155,161.6801],[-3.2955,7.3096,161.3189],[-3.2917,7.2976,157.8866],[-3.2925,7.29,161.8605],[-3.2985,7.2742,164.2807],[-3.3871,7.2403,212.9149],[-3.3916,7.2398,188.0582],[-3.3986,7.2466,186.4666],[-3.4123,7.2701,175.6587],[-3.4209,7.2948,177.927],[-3.4207,7.3021,164.039],[-3.425,7.3188,162.7748],[-3.428,7.3259,144.7363],[-3.436,7.3353,148.2839],[-3.436,7.34,150.9867],[-3.4422,7.3421,151.708],[-3.4478,7.3393,149.9724],[-3.4501,7.3492,149.3218],[-3.4527,7.3537,149.5982],[-3.4568,7.3517,149.1657],[-3.4555,7.3446,146.9862],[-3.4584,7.3424,148.6355],[-3.4599,7.3428,148.6355],[-3.4613,7.3495,147.6037],[-3.4642,7.3527,153.5482],[-3.4664,7.352,148.9345],[-3.469,7.3484,150.3676]]]]}}