{"type": "Feature","bbox": [-8.2488,7.9835,-7.7072,8.5066],"geometry": {"type": "MultiPolygon","coordinates": [[[[-7.8475,7.9866,433.2509],[-7.8458,7.9835,432.978],[-7.8432,7.9863,435.7719],[-7.8383,7.9878,451.9193],[-7.8279,7.9878,445.3026],[-7.8199,8.008,447.3556],[-7.8151,8.0123,450.6355],[-7.8119,8.0223,446.9727],[-7.7978,8.0486,453.9577],[-7.769,8.0607,464.9883],[-7.7606,8.0671,473.212],[-7.7585,8.0701,472.4052],[-7.7577,8.0787,488.5069],[-7.7508,8.092,485.9165],[-7.7394,8.1066,489.5717],[-7.7113,8.1309,487.8224],[-7.7095,8.1379,494.689],[-7.7154,8.1437,538.5774],[-7.716,8.1476,497.4886],[-7.7125,8.1527,501.533],[-7.711,8.1607,504.8292],[-7.7072,8.1669,503.6591],[-7.7073,8.1709,513.2111],[-7.7137,8.175,534.5431],[-7.7453,8.2121,546.8909],[-7.7732,8.2608,538.2313],[-7.7608,8.3567,472.7585],[-7.7525,8.3723,448.1194],[-7.7456,8.3737,464.8423],[-7.7517,8.3789,455.5371],[-7.7642,8.4112,457.3879],[-7.7804,8.4436,469.1604],[-7.7884,8.4637,480.0271],[-7.7937,8.4684,478.5673],[-7.7992,8.4703,478.7432],[-7.8037,8.477,481.9869],[-7.8083,8.4801,469.1136],[-7.8228,8.4823,472.513],[-7.8273,8.4902,460.1864],[-7.8317,8.4868,472.7154],[-7.835,8.4809,478.1486],[-7.8377,8.4685,467.4333],[-7.831,8.436,463.4235],[-7.8329,8.4328,463.1707],[-7.8476,8.4218,469.8168],[-7.8524,8.42,475.1308],[-7.8764,8.4215,479.7833],[-7.8866,8.417,505.5062],[-7.8875,8.4214,479.1245],[-7.8841,8.4326,483.1204],[-7.8847,8.4349,485.9325],[-7.8926,8.4327,481.4514],[-7.909,8.4357,478.3265],[-7.9097,8.4476,475.9985],[-7.9111,8.449,478.4178],[-7.9213,8.4473,487.5233],[-7.923,8.4515,488.9294],[-7.9194,8.4627,477.0302],[-7.9171,8.4636,481.0367],[-7.9133,8.4571,488.9188],[-7.9114,8.458,485.4222],[-7.9118,8.4647,482.0191],[-7.9186,8.4762,482.2893],[-7.9234,8.4798,494.1322],[-7.9132,8.4833,478.0291],[-7.9154,8.4863,475.3225],[-7.9292,8.4913,482.6894],[-7.9381,8.5011,486.5455],[-7.9427,8.5007,480.0392],[-7.9502,8.4937,512.2543],[-7.9573,8.4947,478.9895],[-7.9631,8.4934,503.7575],[-7.9676,8.4989,496.4536],[-7.9709,8.4987,482.792],[-7.9781,8.4933,481.9886],[-7.9805,8.4862,496.9715],[-7.9851,8.4838,493.6246],[-7.998,8.4894,504.5748],[-8.0028,8.4897,483.5878],[-8.0098,8.4875,500.8822],[-8.0226,8.495,505.3002],[-8.0311,8.4958,490.0066],[-8.0378,8.4936,497.6624],[-8.045,8.4953,511.2339],[-8.0651,8.5066,493.427],[-8.0769,8.4993,494.8235],[-8.0818,8.4979,518.4692],[-8.0954,8.5058,498.3856],[-8.0984,8.504,519.5565],[-8.1036,8.4919,511.1],[-8.1197,8.4806,509.1581],[-8.1209,8.4887,497.4767],[-8.1253,8.4894,497.3527],[-8.1295,8.4872,512.9479],[-8.1341,8.4879,520.1208],[-8.1391,8.4942,501.4247],[-8.1432,8.4952,505.3414],[-8.147,8.4904,501.3948],[-8.1509,8.4895,501.8622],[-8.1533,8.484,502.5026],[-8.157,8.4862,511.2855],[-8.1564,8.4937,505.3044],[-8.1578,8.4963,502.921],[-8.1621,8.4968,502.278],[-8.1696,8.4923,505.442],[-8.1753,8.4992,504.2272],[-8.1782,8.5004,508.7505],[-8.1838,8.4996,520.2687],[-8.1969,8.5027,536.847],[-8.1983,8.5016,527.9719],[-8.1968,8.4954,527.89],[-8.2059,8.4817,528.6838],[-8.2151,8.4727,523.8843],[-8.2234,8.4681,546.4633],[-8.2205,8.4596,544.1565],[-8.2226,8.4582,536.4795],[-8.2304,8.459,548.9495],[-8.2334,8.4604,543.1534],[-8.2338,8.4657,532.5894],[-8.2354,8.4657,531.457],[-8.2408,8.4608,547.2247],[-8.2424,8.4569,558.8703],[-8.2416,8.4504,535.9872],[-8.2456,8.4426,540.0318],[-8.2397,8.4292,551.7484],[-8.2368,8.3951,579.6951],[-8.2258,8.3607,580.6439],[-8.2257,8.3549,542.0392],[-8.2288,8.3453,571.298],[-8.238,8.3278,546.0142],[-8.2376,8.3202,559.8113],[-8.2307,8.3003,539.8717],[-8.2317,8.2891,544.2238],[-8.2302,8.2804,534.2289],[-8.2329,8.2733,523.6545],[-8.2464,8.2603,521.8842],[-8.2488,8.2537,520.6021],[-8.2481,8.236,534.233],[-8.244,8.2286,517.7709],[-8.2303,8.226,542.8434],[-8.2251,8.2334,517.0811],[-8.2191,8.234,530.6571],[-8.2074,8.2274,526.7138],[-8.1894,8.2065,508.1849],[-8.1796,8.1998,523.532],[-8.1667,8.1964,495.0596],[-8.1264,8.1962,498.6294],[-8.1037,8.184,507.7026],[-8.1017,8.1775,510.1458],[-8.0937,8.1731,508.679],[-8.0891,8.1671,521.0443],[-8.0689,8.1615,488.3987],[-8.0645,8.1644,503.8489],[-8.0514,8.1804,496.8872],[-8.0433,8.2021,512.4658],[-8.0396,8.2055,512.9439],[-8.0348,8.2045,488.8799],[-8.0237,8.1876,490.1923],[-8.0179,8.1864,504.2656],[-8.0142,8.1914,491.6864],[-8.0042,8.1986,500.2718],[-7.9984,8.1985,497.1953],[-7.9936,8.1927,520.5489],[-7.9933,8.1836,487.5846],[-7.9959,8.1762,495.7274],[-8.009,8.1638,493.146],[-8.01,8.1574,481.827],[-8.0076,8.1422,498.0763],[-8.0093,8.1337,465.6767],[-8.0154,8.1246,476.6092],[-8.0143,8.1195,498.7582],[-8.0102,8.1148,475.6721],[-8.0145,8.1023,468.6751],[-8.0106,8.094,492.8462],[-7.9932,8.0868,483.9917],[-7.9871,8.0817,478.6],[-7.9811,8.0793,473.9117],[-7.9696,8.062,461.2454],[-7.9633,8.0472,469.6026],[-7.9466,8.0424,448.4188],[-7.9504,8.0305,469.6339],[-7.9463,8.0252,447.0104],[-7.9465,8.023,447.3309],[-7.9394,8.0171,443.2256],[-7.9346,8.0199,441.8944],[-7.9284,8.0132,438.3179],[-7.9249,8.012,442.2018],[-7.9154,8.0131,440.6612],[-7.9144,8.0109,443.4539],[-7.9106,8.0106,443.6687],[-7.9083,8.007,441.0883],[-7.897,8.0081,441.0906],[-7.8885,8.0117,435.9],[-7.8859,8.0227,438.3837],[-7.8835,8.0208,446.9176],[-7.8673,8.02,440.3182],[-7.8592,8.0173,441.018],[-7.8577,8.0146,448.6353],[-7.8585,8.0011,434.8675],[-7.85,7.9979,435.8639],[-7.8495,7.9961,440.4875],[-7.8531,7.9898,434.7998],[-7.8475,7.9866,433.2509]]]]}
,"properties": {"GID_3": "CIV.12.1.2_1","GID_0": "CIV","country": "Côted'Ivoire","GID_1": "CIV.12_1","province": "Woroba","NL_NAME_1": "NA","GID_2": "CIV.12.1_1","county": "Bafing","NL_NAME_2": "NA","city": "Ouaninou","VARNAME_3": "NA","NL_NAME_3": "NA","TYPE_3": "Département","ENGTYPE_3": "Department","CC_3": "NA","HASC_3": "NA","name": "Ouaninou.city","area_km2": 2178.53,"hist_schema_id": "Elevation0-9000","hist_area_km2": {"425": 3.653,"450": 65.221,"475": 267.664,"500": 461.342,"525": 561.882,"550": 441.259,"575": 203.043,"600": 70.069,"625": 36.966,"650": 22.386,"675": 14.329,"700": 9.42,"725": 5.979,"750": 5.119,"775": 3.378,"800": 2.434,"825": 1.993,"850": 1.406,"875": 0.462,"900": 0.336,"925": 0.126,"950": 0.063}}}