{"type": "Feature","id": "3461","bbox": [-5.67616,6.23564,-4.63209,7.54926],"geometry": {"type": "Polygon","coordinates": [[[-4.74123,7.51326,188.9445],[-4.76671,7.51605,188.8325],[-4.77239,7.51977,178.2799],[-4.79074,7.53802,175.2405],[-4.80365,7.54592,195.3258],[-4.81197,7.54871,183.4073],[-4.81967,7.54926,191.4798],[-4.87879,7.54561,219.1761],[-4.8943,7.54166,262.1879],[-4.90597,7.53577,245.4146],[-4.92334,7.51435,217.45],[-4.93822,7.48673,212.9793],[-4.94618,7.47921,247.1172],[-4.95853,7.47169,259.7982],[-5.01491,7.45073,268.1319],[-5.02886,7.44234,282.9025],[-5.03537,7.4373,297.6566],[-5.041,7.43179,277.3974],[-5.04571,7.42606,283.4362],[-5.04969,7.41986,285.3976],[-5.05594,7.40712,267.4229],[-5.05816,7.40084,284.3719],[-5.06436,7.3934,277.7884],[-5.07475,7.38492,261.0051],[-5.18689,7.33092,194.6729],[-5.20503,7.31054,186.1701],[-5.21572,7.28702,185.8857],[-5.2213,7.28036,182.6205],[-5.22719,7.2785,190.4879],[-5.23453,7.27873,200.8228],[-5.24259,7.27785,212.0882],[-5.25479,7.27235,194.4902],[-5.26254,7.2646,199.1242],[-5.28099,7.24124,209.1947],[-5.28859,7.23628,201.3114],[-5.29561,7.23449,206.1236],[-5.31442,7.23752,195.4652],[-5.32104,7.23736,203.0993],[-5.35251,7.22891,217.0258],[-5.36181,7.2276,244.8541],[-5.36941,7.22791,226.6771],[-5.37571,7.23008,235.2399],[-5.38181,7.23333,232.5887],[-5.3877,7.23775,246.9158],[-5.40522,7.25692,209.1993],[-5.42543,7.28609,194.1573],[-5.43028,7.29167,226.6299],[-5.43648,7.29671,206.164],[-5.44542,7.30043,227.1016],[-5.45287,7.30074,207.971],[-5.45989,7.2995,216.9036],[-5.50144,7.28222,181.5],[-5.61647,7.25367,213.2741],[-5.6328,7.25336,209.4717],[-5.66216,7.257,181.5],[-5.66489,7.24809,181.5],[-5.66293,7.2431,181.5],[-5.66557,7.23876,181.5],[-5.66944,7.23573,181.5],[-5.67502,7.23271,181.5],[-5.67616,7.22853,181.5],[-5.67471,7.22364,181.5],[-5.6683,7.21176,181.5],[-5.66448,7.20749,181.5],[-5.65973,7.20501,181.5],[-5.65466,7.20416,181.5],[-5.64887,7.20439,181.5],[-5.64236,7.20377,181.5],[-5.63482,7.20114,181.5],[-5.61766,7.18724,181.5],[-5.60578,7.17941,181.5],[-5.60433,7.17344,181.5],[-5.60397,7.16716,181.5],[-5.60087,7.15667,181.5],[-5.59575,7.15101,181.5],[-5.58722,7.14496,181.5],[-5.58107,7.14225,181.5],[-5.57477,7.14101,181.5],[-5.56945,7.14093,181.5],[-5.56413,7.14233,181.5],[-5.55958,7.1445,181.5],[-5.55539,7.14714,181.5],[-5.55229,7.14962,181.5],[-5.54702,7.15163,181.5],[-5.53767,7.15318,206.7686],[-5.53121,7.15248,183.6231],[-5.52428,7.1507,181.5],[-5.49726,7.14031,181.5],[-5.49395,7.13533,181.5],[-5.49281,7.12936,181.5],[-5.50046,7.10065,181.5],[-5.50599,7.08755,181.5],[-5.50718,7.08143,181.5],[-5.50661,7.07381,181.5],[-5.50351,7.06303,181.5],[-5.4986,7.05567,181.5],[-5.4941,7.05078,181.5],[-5.48981,7.0475,213.9429],[-5.48558,7.04502,226.3799],[-5.48072,7.04293,223.9564],[-5.46108,7.03719,181.5],[-5.45871,7.03316,181.5],[-5.45922,7.02898,181.5],[-5.46232,7.02515,218.6059],[-5.4664,7.02205,277.7798],[-5.47855,7.01608,201.9218],[-5.48878,7.01229,170.8552],[-5.49581,7.00061,161.0139],[-5.49896,6.99286,158.093],[-5.50769,6.96448,164.7281],[-5.5094,6.94828,159.3185],[-5.51462,6.93133,156.8759],[-5.5355,6.91485,159.6098],[-5.53736,6.89645,156.4841],[-5.52878,6.8779,153.7298],[-5.50149,6.84656,177.5737],[-5.49571,6.82475,155.0883],[-5.48604,6.81312,148.7685],[-5.4371,6.76672,144.826],[-5.43488,6.75814,148.539],[-5.42408,6.7346,145.1708],[-5.4138,6.7121,143.9015],[-5.40992,6.69148,144.7058],[-5.41333,6.64127,146.2636],[-5.4134,6.6401,143.4133],[-5.4138,6.63329,144.1313],[-5.40941,6.61399,145.9648],[-5.39809,6.60714,152.7097],[-5.34362,6.6081,142.2444],[-5.32083,6.60208,147.9917],[-5.30853,6.58916,139.3538],[-5.31763,6.56748,154.8972],[-5.31401,6.55175,145.9659],[-5.32404,6.53746,152.6962],[-5.33685,6.51898,161.923],[-5.32073,6.51286,146.9424],[-5.30817,6.51139,145.9242],[-5.30564,6.50728,138.6745],[-5.31081,6.49237,140.6257],[-5.31272,6.47955,140.4997],[-5.31535,6.47477,149.7699],[-5.32073,6.4688,151.0386],[-5.3244,6.461,133.5],[-5.32026,6.45542,142.3174],[-5.31391,6.45049,139.3778],[-5.31081,6.44459,145.8717],[-5.31215,6.4177,150.3342],[-5.31091,6.39858,135.6794],[-5.30347,6.38271,142.7916],[-5.28657,6.36576,136.0223],[-5.26998,6.36072,129.0217],[-5.23495,6.37279,130.6372],[-5.21531,6.36677,130.9641],[-5.19789,6.37863,156.7834],[-5.1933,6.38075,158.0278],[-5.1872,6.38075,155.9506],[-5.17872,6.377,152.5076],[-5.02498,6.25187,125.0923],[-5.00685,6.24156,99.1423],[-4.97331,6.23626,85.0361],[-4.94649,6.23564,98.0052],[-4.93698,6.23696,96.733],[-4.8758,6.25512,58.5276],[-4.86742,6.25574,53.2303],[-4.85316,6.2545,58.5904],[-4.83776,6.25101,63.1023],[-4.83301,6.24923,55.5269],[-4.82422,6.24691,52.146],[-4.81885,6.24605,44.9256],[-4.80934,6.24272,58.2466],[-4.77792,6.24109,53.3332],[-4.74914,6.24303,62.7587],[-4.72593,6.25326,53.5309],[-4.70154,6.28205,57.5093],[-4.69503,6.28414,65.3951],[-4.6942,6.28817,59.9686],[-4.69699,6.29615,73.654],[-4.69973,6.30184,60.7441],[-4.70382,6.30533,64.4299],[-4.70888,6.30571,64.4605],[-4.71922,6.30416,84.2264],[-4.72335,6.30533,67.8503],[-4.72459,6.30858,62.1488],[-4.71544,6.32822,58.8282],[-4.71188,6.33132,71.4897],[-4.70774,6.33605,61.1405],[-4.70475,6.34395,63.9207],[-4.70206,6.35902,91.2871],[-4.69906,6.36669,64.6099],[-4.69803,6.37351,70.8037],[-4.69963,6.37878,63.0964],[-4.70986,6.38834,67.821],[-4.71053,6.39168,68.8719],[-4.70547,6.39455,67.1734],[-4.70196,6.39726,65.705],[-4.70165,6.40067,58.3503],[-4.70537,6.4023,60.4003],[-4.71653,6.40284,61.7589],[-4.72108,6.40509,73.9073],[-4.72273,6.40992,66.808],[-4.72211,6.41922,63.4053],[-4.72294,6.42527,64.8483],[-4.728,6.42938,65.7304],[-4.73337,6.43085,69.233],[-4.73741,6.43366,89.5045],[-4.73823,6.43777,82.9112],[-4.73503,6.44297,60.5396],[-4.73151,6.4439,65.2295],[-4.72852,6.44769,61.9139],[-4.72898,6.4556,74.5791],[-4.7343,6.47175,73.3413],[-4.73968,6.47888,65.9829],[-4.74578,6.48299,63.1305],[-4.76118,6.48694,72.5214],[-4.76619,6.48617,90.3464],[-4.77575,6.48229,79.3852],[-4.78081,6.48074,78.9406],[-4.78629,6.48043,65.7059],[-4.79079,6.48314,81.3609],[-4.79384,6.4888,80.9353],[-4.79311,6.5027,70.8714],[-4.79136,6.51394,71.826],[-4.78691,6.52924,70.6024],[-4.78557,6.5442,84.8372],[-4.78391,6.54849,66.7743],[-4.77807,6.55081,69.9678],[-4.76247,6.54823,67.2061],[-4.75818,6.55019,68.4977],[-4.75596,6.55407,76.7241],[-4.75787,6.56167,75.591],[-4.76061,6.56655,70.6684],[-4.76273,6.57167,69.2751],[-4.76355,6.58107,69.4513],[-4.76593,6.58471,72.9285],[-4.76934,6.58766,73.8449],[-4.76851,6.59138,66.9158],[-4.76614,6.59479,69.5767],[-4.7402,6.60115,67.1872],[-4.80903,6.62621,77.0131],[-4.81337,6.62644,75.2083],[-4.81812,6.62536,75.2462],[-4.82309,6.62505,73.1821],[-4.83704,6.62799,79.7215],[-4.8419,6.62753,79.4238],[-4.84711,6.62652,86.3518],[-4.85182,6.62443,102.3938],[-4.85616,6.62179,111.113],[-4.86375,6.61559,98.2642],[-4.86794,6.61319,93.2301],[-4.87316,6.61187,99.1884],[-4.88541,6.61117,94.3517],[-4.89088,6.61032,99.0033],[-4.89445,6.60768,99.0723],[-4.89548,6.60378,97.774],[-4.89533,6.59913,100.7434],[-4.89647,6.59464,97.133],[-4.89998,6.59216,99.542],[-4.90504,6.59177,112.8164],[-4.91042,6.59262,114.9093],[-4.91631,6.5951,111.619],[-4.92148,6.59999,99.7231],[-4.92711,6.60784,100.4544],[-4.92706,6.61745,109.1129],[-4.92494,6.62032,105.0959],[-4.92184,6.62257,116.0339],[-4.92086,6.62637,110.5714],[-4.92137,6.63143,102.0904],[-4.92308,6.63616,102.9866],[-4.92602,6.63965,102.9458],[-4.93212,6.64112,105.7606],[-4.93863,6.6443,110.9242],[-4.95135,6.65856,116.0198],[-4.95403,6.66533,105.5603],[-4.95321,6.6775,106.908],[-4.94742,6.68939,107.8501],[-4.94463,6.70101,112.1638],[-4.94194,6.70543,112.2019],[-4.94122,6.71008,116.1202],[-4.9437,6.71592,118.7356],[-4.95383,6.72282,113.9165],[-4.96163,6.72995,114.5024],[-4.96716,6.73375,116.9989],[-4.9716,6.74819,113.1678],[-4.95915,6.7886,134.5112],[-4.95527,6.81204,124.2607],[-4.95517,6.81638,136.8437],[-4.95403,6.82142,120.5],[-4.9314,6.83292,157.1448],[-4.92334,6.82894,144.6185],[-4.91879,6.82796,163.61],[-4.91114,6.82796,162.4528],[-4.81967,6.8693,121.3084],[-4.81089,6.87426,121.2945],[-4.80717,6.87782,128.3873],[-4.8036,6.88242,122.8024],[-4.80107,6.88963,127.7656],[-4.80148,6.897,125.6432],[-4.80763,6.91136,128.6071],[-4.80872,6.91811,135.1569],[-4.8082,6.925,148.7474],[-4.80159,6.9402,135.2299],[-4.80004,6.94751,142.2405],[-4.79942,6.95325,155.6771],[-4.80841,6.97707,172.7848],[-4.8175,6.99919,195.0949],[-4.81787,7.00058,200.6172],[-4.81823,7.00515,198.2835],[-4.8174,7.01035,193.6588],[-4.81482,7.01523,195.4891],[-4.80143,7.0275,176.3193],[-4.77058,7.07613,150.8599],[-4.76789,7.08585,149.956],[-4.75952,7.10453,160.9303],[-4.70836,7.26917,224.109],[-4.70893,7.28067,226.6579],[-4.73162,7.40611,208.5694],[-4.73048,7.41665,222.2712],[-4.72583,7.42683,218.7075],[-4.7094,7.43637,214.9722],[-4.69658,7.44234,213.7921],[-4.67064,7.44911,194.4986],[-4.63209,7.44895,209.3927],[-4.63462,7.46407,209.7319],[-4.63695,7.47027,211.2754],[-4.66103,7.51621,167.0966],[-4.74123,7.51326,188.9445]]]}
,"properties": {"ISO3166-1-Alpha-3": "CIV","country": "Ivory Coast","fill": "#F0F","name": "Lacs","area_km2": 8842.475,"hist_schema_id": "Elevation0-9000","hist_area_km2": {"50": 50.052,"75": 282.957,"100": 409.411,"125": 615.564,"150": 1094.58,"175": 2210.083,"200": 2155.087,"225": 1301.034,"250": 465.984,"275": 122.603,"300": 44.551,"325": 22.024,"350": 19.224,"375": 15.013,"400": 10.992,"425": 7.602,"450": 5.265,"475": 4.065,"500": 2.781,"525": 2.676,"550": 0.927}}}