{"type": "Feature","bbox": [-5.6688,6.1815,-3.5021,8.0513],"geometry": {"type": "MultiPolygon","coordinates": [[[[-4.0281,6.5555,104.7209],[-4.0145,6.5607,111.2199],[-3.9847,6.5606,123.7906],[-3.9757,6.5624,115.2054],[-3.9574,6.5468,133.3539],[-3.9343,6.5402,138.1789],[-3.9144,6.5441,156.7881],[-3.893,6.5573,137.1358],[-3.8651,6.5656,146.4194],[-3.8498,6.5728,146.7042],[-3.8334,6.5763,142.5631],[-3.8144,6.5852,144.8824],[-3.8067,6.5855,133.333],[-3.7949,6.5889,130.3012],[-3.7699,6.6221,115.0217],[-3.774,6.6403,119.1669],[-3.7725,6.6476,120.7679],[-3.78,6.6546,128.7278],[-3.789,6.6708,122.3865],[-3.7917,6.6711,118.7212],[-3.7968,6.6756,126.053],[-3.7946,6.6791,123.278],[-3.7826,6.687,125.3058],[-3.7768,6.6967,124.7018],[-3.7716,6.6973,125.273],[-3.7645,6.7024,125.4931],[-3.7647,6.7038,119.5284],[-3.773,6.7176,120.0085],[-3.7743,6.7259,129.0939],[-3.7887,6.736,125.8505],[-3.7884,6.7451,125.2224],[-3.7925,6.7542,132.0606],[-3.7991,6.7607,124.718],[-3.7936,6.7659,133.2244],[-3.7769,6.7727,125.4611],[-3.762,6.7735,127.707],[-3.7585,6.7775,124.1024],[-3.7587,6.7862,129.0771],[-3.7622,6.7982,125.5461],[-3.7616,6.8029,122.4551],[-3.7475,6.8152,137.26],[-3.7465,6.8212,125.615],[-3.754,6.8344,152.1443],[-3.7671,6.8439,126.8453],[-3.7787,6.8574,126.0404],[-3.7788,6.8625,124.6243],[-3.7628,6.8842,125.3653],[-3.7431,6.9052,132.746],[-3.7345,6.9115,132.3717],[-3.7326,6.9272,130.5128],[-3.7416,6.9439,134.8836],[-3.7381,6.9559,135.1379],[-3.7425,6.9608,136.2823],[-3.7474,6.9614,145.6762],[-3.7548,6.9594,150.8345],[-3.7625,6.9519,132.1733],[-3.7707,6.9337,125.7244],[-3.7751,6.9305,133.5464],[-3.7766,6.9315,133.5464],[-3.7792,6.9357,131.0533],[-3.7833,6.938,129.6733],[-3.7863,6.9442,139.9172],[-3.7842,6.9483,127.4717],[-3.7856,6.9534,136.5528],[-3.7833,6.9659,131.1652],[-3.7712,6.9851,126.8641],[-3.7577,7.0012,131.0084],[-3.7324,7.0093,133.4299],[-3.7218,7.007,134.4083],[-3.7181,7.0047,132.338],[-3.7164,7.0059,133.4122],[-3.7173,7.0134,131.162],[-3.7162,7.0183,130.5737],[-3.7034,7.0301,131.1685],[-3.6875,7.0387,131.2174],[-3.6789,7.0481,137.7909],[-3.6681,7.0533,139.2741],[-3.6635,7.0538,139.91],[-3.6399,7.0461,133.3013],[-3.6367,7.048,132.612],[-3.6243,7.0651,140.0212],[-3.6221,7.0705,133.9284],[-3.6286,7.0773,141.4073],[-3.6299,7.0829,134.2247],[-3.6257,7.092,157.937],[-3.61,7.0846,136.4504],[-3.5938,7.0798,135.3936],[-3.5827,7.0649,137.9652],[-3.5804,7.0668,139.8787],[-3.5825,7.0784,142.0087],[-3.5819,7.0852,137.871],[-3.579,7.0919,137.56],[-3.5672,7.1063,140.9703],[-3.5702,7.1085,147.3916],[-3.5769,7.1079,138.9811],[-3.5825,7.1022,141.1998],[-3.5978,7.1037,181.7502],[-3.6068,7.1067,136.9726],[-3.6275,7.1231,143.4399],[-3.6348,7.1247,137.2396],[-3.6408,7.1286,137.853],[-3.6424,7.1319,139.1133],[-3.6424,7.1464,136.6432],[-3.6496,7.1666,149.8606],[-3.6508,7.1786,141.9885],[-3.649,7.1881,139.3804],[-3.6459,7.1988,151.7312],[-3.6408,7.204,147.3244],[-3.6152,7.1964,138.3896],[-3.6108,7.1915,145.8621],[-3.6091,7.1852,136.8087],[-3.6039,7.182,136.6438],[-3.5909,7.1907,142.5481],[-3.5851,7.2,141.3494],[-3.5827,7.2126,149.1785],[-3.5786,7.2206,142.503],[-3.5767,7.2293,141.6991],[-3.5802,7.2391,143.3894],[-3.5924,7.2529,150.191],[-3.5942,7.2761,156.0888],[-3.5863,7.2826,141.3047],[-3.5798,7.2839,156.0695],[-3.555,7.2796,155.4493],[-3.5416,7.2796,145.675],[-3.5284,7.2894,139.2269],[-3.5304,7.2906,138.9693],[-3.537,7.2898,166.2337],[-3.5489,7.2985,168.0092],[-3.5548,7.3009,173.611],[-3.5588,7.3072,152.4788],[-3.5595,7.3131,149.1219],[-3.548,7.3309,147.0238],[-3.5392,7.3408,148.2783],[-3.5348,7.3433,142.2309],[-3.5303,7.3426,149.4077],[-3.5178,7.3523,150.3548],[-3.5232,7.3692,145.2833],[-3.5141,7.3886,142.1549],[-3.5049,7.3953,141.2532],[-3.5021,7.4263,144.9277],[-3.5034,7.4321,145.3837],[-3.5096,7.4446,147.3748],[-3.5262,7.4591,147.5359],[-3.5317,7.4678,146.8128],[-3.5333,7.4789,143.7543],[-3.5399,7.4925,142.9485],[-3.5586,7.496,149.0721],[-3.5749,7.5013,160.139],[-3.5837,7.5095,148.781],[-3.5895,7.5109,147.4804],[-3.5923,7.5164,149.6155],[-3.6014,7.5199,160.5205],[-3.6033,7.5231,151.4659],[-3.603,7.5278,155.0368],[-3.5993,7.5345,151.721],[-3.5919,7.5371,158.349],[-3.5852,7.5416,161.1444],[-3.5748,7.5542,160.4759],[-3.5791,7.577,146.2982],[-3.5824,7.5824,155.4947],[-3.5966,7.5922,150.7848],[-3.6088,7.594,145.865],[-3.6167,7.5919,147.9078],[-3.6356,7.5773,146.9208],[-3.6422,7.5752,162.6823],[-3.6519,7.577,163.8984],[-3.658,7.5825,154.7732],[-3.6611,7.5883,153.4717],[-3.6667,7.6058,147.2307],[-3.6831,7.6252,154.0294],[-3.6837,7.6285,152.0544],[-3.681,7.6399,148.5424],[-3.6979,7.6479,147.7943],[-3.7079,7.6481,158.499],[-3.7315,7.6654,159.7571],[-3.7346,7.6772,155.1227],[-3.7351,7.6888,152.165],[-3.7308,7.7061,150.6003],[-3.7324,7.7139,157.2772],[-3.7285,7.7216,149.3141],[-3.7325,7.736,149.8286],[-3.7369,7.7401,152.7152],[-3.7424,7.7338,176.5411],[-3.7549,7.7319,163.1681],[-3.7615,7.7374,155.3644],[-3.7816,7.7349,155.8693],[-3.788,7.7382,154.2312],[-3.8037,7.7418,156.6035],[-3.8209,7.7375,157.4446],[-3.8296,7.7418,155.3425],[-3.8326,7.7468,154.5714],[-3.8333,7.7548,154.4993],[-3.8282,7.7596,155.244],[-3.8269,7.7627,156.2871],[-3.8289,7.765,157.0551],[-3.8449,7.7721,155.6656],[-3.8551,7.7696,160.0777],[-3.874,7.7695,158.2293],[-3.8776,7.7749,158.0498],[-3.877,7.7764,159.1906],[-3.8693,7.7831,152.8198],[-3.8623,7.7985,155.4009],[-3.859,7.8023,153.8184],[-3.8608,7.8069,154.8033],[-3.8741,7.8152,164.1268],[-3.8776,7.82,157.2409],[-3.8784,7.824,166.3811],[-3.8759,7.8332,167.272],[-3.8677,7.8416,158.4364],[-3.8634,7.8486,155.0411],[-3.865,7.8603,157.9034],[-3.8704,7.8652,158.3961],[-3.8805,7.8795,157.7434],[-3.8949,7.8848,161.1367],[-3.9035,7.8851,162.5957],[-3.9113,7.8829,160.2914],[-3.921,7.8851,159.3484],[-3.9357,7.8936,161.2403],[-3.9497,7.8937,162.3469],[-3.9838,7.9,161.9012],[-3.9868,7.9024,164.8373],[-3.9899,7.9025,168.6494],[-3.9939,7.9072,159.5925],[-3.9933,7.9119,166.2351],[-3.9898,7.916,164.7933],[-3.9741,7.9165,165.4379],[-3.9703,7.9191,163.1308],[-3.9584,7.9218,168.2981],[-3.9462,7.9276,162.6048],[-3.944,7.9296,163.5254],[-3.9406,7.9417,171.1415],[-3.931,7.9482,158.2701],[-3.9243,7.9553,162.9454],[-3.9203,7.9623,161.2236],[-3.9202,7.9654,160.9551],[-3.9242,7.975,166.897],[-3.9284,7.9779,167.1904],[-3.9614,7.9689,166.0782],[-3.9734,7.971,163.596],[-3.9809,7.9691,164.8358],[-3.9943,7.9562,173.7064],[-4.0002,7.953,168.4622],[-4.0052,7.9542,167.2155],[-4.0089,7.9572,162.8712],[-4.0164,7.9816,167.2573],[-4.0143,7.9907,177.8851],[-4.0082,7.9978,166.0704],[-4.0003,8.0011,166.0782],[-3.9898,8.0119,167.2043],[-3.9868,8.0135,170.4851],[-3.9752,8.0138,172.7897],[-3.9688,8.0123,192.9563],[-3.9646,8.0153,191.5889],[-3.9634,8.0182,191.2375],[-3.9654,8.0294,173.6353],[-3.9684,8.032,171.7082],[-3.9813,8.0322,168.9312],[-3.9963,8.0422,168.4524],[-4.0008,8.0434,177.953],[-4.0015,8.0408,166.941],[-4.0037,8.0416,172.0795],[-4.0109,8.0463,173.0054],[-4.0135,8.0513,177.5234],[-4.0449,8.0274,191.3941],[-4.0557,8.026,196.6437],[-4.0779,8.0129,238.8097],[-4.0849,8.0122,241.5092],[-4.0987,8.0075,244.3529],[-4.1365,8.0028,229.6348],[-4.1456,8.0073,248.1572],[-4.1719,8.0076,237.1642],[-4.1852,8.0015,238.2623],[-4.2648,7.9155,208.5681],[-4.3036,7.8563,153.3452],[-4.3569,7.8536,176.8498],[-4.4461,7.8177,197.416],[-4.4823,7.8166,213.6017],[-4.4982,7.8224,239.5669],[-4.5046,7.8205,216.2442],[-4.5102,7.8236,224.9363],[-4.5183,7.8226,245.0538],[-4.5246,7.8249,259.7625],[-4.5308,7.8307,249.9361],[-4.5339,7.8307,246.6082],[-4.5392,7.8186,240.253],[-4.5495,7.8029,231.2321],[-4.5496,7.7996,222.711],[-4.5426,7.7863,217.2273],[-4.5428,7.7796,212.5793],[-4.5252,7.7554,185.8751],[-4.5231,7.7448,186.3628],[-4.5184,7.7369,180.7172],[-4.5193,7.7306,180.1233],[-4.5158,7.7081,174.4281],[-4.5125,7.6983,170.344],[-4.5104,7.6784,167.0917],[-4.5033,7.6694,177.2461],[-4.4972,7.6441,163.2517],[-4.4992,7.6399,160.3896],[-4.4984,7.6233,155.8439],[-4.5051,7.6152,151.7876],[-4.5095,7.6152,149.6089],[-4.5164,7.6121,148.0081],[-4.5216,7.6069,140.6225],[-4.5313,7.605,140.3317],[-4.538,7.6087,142.5518],[-4.5439,7.6185,145.0947],[-4.5581,7.6213,142.349],[-4.562,7.6193,150.4349],[-4.5704,7.6221,146.5175],[-4.5758,7.6219,144.0533],[-4.5835,7.6137,147.2656],[-4.5971,7.6045,150.195],[-4.5998,7.5948,151.4496],[-4.6025,7.5907,150.8691],[-4.6025,7.5855,153.8911],[-4.6084,7.5819,151.2095],[-4.6105,7.5755,151.6958],[-4.626,7.5707,152.6864],[-4.6286,7.5677,152.6328],[-4.6325,7.5674,155.2234],[-4.6364,7.5649,155.7281],[-4.6447,7.5665,156.0212],[-4.651,7.5654,156.195],[-4.6597,7.5548,156.1356],[-4.6557,7.5465,157.6562],[-4.6593,7.5399,158.0488],[-4.6815,7.521,159.8779],[-4.6874,7.5187,172.3775],[-4.7063,7.5227,169.5667],[-4.7112,7.5264,172.163],[-4.7242,7.5313,168.0498],[-4.7293,7.5274,172.5302],[-4.7361,7.5289,170.5793],[-4.7398,7.5321,167.9771],[-4.7427,7.5467,175.823],[-4.7457,7.5523,174.4363],[-4.7495,7.5562,193.0961],[-4.7553,7.5584,196.3069],[-4.7751,7.5834,278.576],[-4.7892,7.5661,182.7616],[-4.7942,7.5688,183.1061],[-4.8069,7.5709,187.7957],[-4.8165,7.5745,209.192],[-4.8204,7.5739,218.0477],[-4.8264,7.5696,211.661],[-4.8315,7.5602,186.6687],[-4.8366,7.5605,190.1521],[-4.8386,7.5585,197.6153],[-4.8433,7.5577,206.7845],[-4.8603,7.558,208.5261],[-4.8659,7.5602,208.0786],[-4.8766,7.571,206.2793],[-4.8797,7.5727,206.6389],[-4.8858,7.5728,211.639],[-4.8907,7.5669,234.4903],[-4.9006,7.5471,251.1998],[-4.9124,7.535,245.6125],[-4.9215,7.5228,222.7513],[-4.9294,7.5163,211.1907],[-4.9268,7.5085,208.417],[-4.9275,7.5033,206.379],[-4.9316,7.4983,211.9173],[-4.9296,7.487,205.4164],[-4.935,7.4857,212.0981],[-4.9453,7.4895,218.0601],[-4.9534,7.4861,221.3581],[-4.9575,7.4888,235.791],[-4.9598,7.4929,246.303],[-4.9689,7.4941,237.6764],[-4.9733,7.4911,248.6547],[-4.9915,7.4685,235.8696],[-5.0013,7.4786,259.4728],[-5.0121,7.4695,264.7402],[-5.0145,7.4649,262.4766],[-5.0341,7.4489,276.0081],[-5.043,7.4388,286.1562],[-5.0436,7.436,292.6939],[-5.0382,7.43,284.2587],[-5.0263,7.4308,284.0745],[-5.0199,7.4288,284.1986],[-5.0101,7.4244,271.39],[-5.0076,7.421,265.3734],[-5.0087,7.419,264.1838],[-5.0126,7.4168,256.6985],[-5.0327,7.418,282.3648],[-5.0384,7.4147,298.2332],[-5.0569,7.4137,270.6019],[-5.06,7.4083,270.8011],[-5.0546,7.3895,312.7739],[-5.0565,7.3849,297.2569],[-5.0626,7.3791,288.007],[-5.0974,7.3605,262.8823],[-5.1052,7.3573,259.4053],[-5.1383,7.3552,228.1149],[-5.1462,7.3516,217.9017],[-5.1496,7.3528,208.5939],[-5.157,7.3482,208.6482],[-5.1698,7.3487,204.668],[-5.174,7.346,203.7349],[-5.1796,7.3376,196.9038],[-5.1865,7.3352,197.9753],[-5.1909,7.3307,192.5801],[-5.1974,7.3196,187.6596],[-5.2021,7.3155,189.6184],[-5.2013,7.3109,186.4104],[-5.2041,7.2987,187.1147],[-5.2077,7.2949,181.3082],[-5.2212,7.2964,195.5414],[-5.2249,7.2945,192.2427],[-5.2299,7.2886,193.0454],[-5.2472,7.2955,201.3212],[-5.2529,7.2955,201.842],[-5.2557,7.2894,211.9861],[-5.2733,7.2714,200.8716],[-5.296,7.2334,199.906],[-5.3018,7.2352,191.8361],[-5.3092,7.2428,199.164],[-5.3166,7.2419,198.7191],[-5.3259,7.2468,210.3171],[-5.3406,7.2476,230.0558],[-5.3562,7.2422,216.3322],[-5.3905,7.2439,226.6533],[-5.3973,7.2496,208.163],[-5.3976,7.2569,213.0352],[-5.4005,7.2667,217.8262],[-5.4046,7.2724,214.2395],[-5.4044,7.2757,215.9129],[-5.4094,7.2851,203.5051],[-5.4187,7.2864,205.2875],[-5.4335,7.2846,188.5858],[-5.4346,7.2933,219.3771],[-5.4325,7.3027,248.0431],[-5.4348,7.3065,234.1868],[-5.4384,7.3079,209.5236],[-5.4443,7.3061,202.7979],[-5.4511,7.3078,201.2569],[-5.4626,7.3039,189.0458],[-5.4749,7.3061,183.1979],[-5.4813,7.3106,181.5],[-5.4838,7.3049,181.5],[-5.4942,7.3026,181.5],[-5.4964,7.3006,181.5],[-5.501,7.2877,181.5],[-5.5,7.2848,181.5],[-5.5046,7.2792,181.5],[-5.5157,7.2847,182.7204],[-5.519,7.2881,185.1545],[-5.5218,7.2948,187.4551],[-5.5657,7.2871,207.1473],[-5.5896,7.2785,220.185],[-5.6048,7.2758,206.9313],[-5.6075,7.2702,202.8785],[-5.6104,7.2692,197.9873],[-5.629,7.2716,186.3609],[-5.6349,7.2686,182.4948],[-5.6413,7.2588,182.5466],[-5.6444,7.2588,181.5],[-5.6482,7.2375,181.5],[-5.6502,7.2344,181.5],[-5.6534,7.2337,181.5],[-5.6635,7.2384,181.5],[-5.6688,7.235,181.5],[-5.6688,7.2257,181.5],[-5.666,7.2201,181.5],[-5.6489,7.2048,181.5],[-5.636,7.2023,181.5],[-5.6199,7.1945,181.5],[-5.6066,7.192,181.5],[-5.5981,7.187,181.5],[-5.5959,7.1783,181.5],[-5.5962,7.1733,181.5],[-5.6073,7.1597,181.5],[-5.5849,7.1435,181.5],[-5.5504,7.1437,181.9478],[-5.5382,7.1578,181.5],[-5.5216,7.1593,181.5],[-5.4802,7.1399,181.5],[-5.479,7.1365,181.5],[-5.4848,7.1266,181.5],[-5.4885,7.1134,181.5],[-5.4921,7.1106,181.5],[-5.4935,7.1059,181.5],[-5.4904,7.0741,181.5],[-5.4872,7.0569,181.5],[-5.4843,7.0532,181.5],[-5.4675,7.0458,181.5],[-5.4646,7.0485,181.5],[-5.4596,7.0493,181.5],[-5.4526,7.0474,181.5],[-5.4199,7.0463,181.5],[-5.4071,7.0492,181.5],[-5.3945,7.0541,183.0656],[-5.3701,7.0686,200.2091],[-5.3646,7.0683,208.5332],[-5.3299,7.076,246.3619],[-5.2978,7.0962,203.0177],[-5.2909,7.0944,201.913],[-5.2813,7.0968,191.4399],[-5.2414,7.0813,215.8904],[-5.2225,7.0818,183.8291],[-5.2095,7.0781,175.8426],[-5.204,7.0781,172.9643],[-5.1944,7.0816,166.6007],[-5.1865,7.0803,163.2121],[-5.182,7.0778,161.0911],[-5.1861,7.0624,162.1523],[-5.1914,7.0575,160.366],[-5.1911,7.053,163.425],[-5.1797,7.0515,161.2316],[-5.1722,7.0456,159.1334],[-5.1674,7.0485,164.4908],[-5.1608,7.049,157.5667],[-5.161,7.0401,156.5136],[-5.157,7.0379,155.7708],[-5.1549,7.0307,154.036],[-5.1519,7.0287,159.9412],[-5.1452,7.0306,152.8116],[-5.1402,7.0257,159.0118],[-5.1332,7.0271,155.0187],[-5.1292,7.0256,151.9827],[-5.1337,7.0216,154.1181],[-5.1331,7.0182,155.4224],[-5.1221,6.9973,150.9943],[-5.1171,6.9951,149.3864],[-5.115,6.9916,149.3578],[-5.1068,6.9929,150.6059],[-5.0968,6.9797,155.0297],[-5.0931,6.9811,151.2622],[-5.0892,6.9778,154.511],[-5.0855,6.9769,149.6932],[-5.0664,6.9766,145.2562],[-5.0624,6.9745,143.2321],[-5.0481,6.9541,141.872],[-5.048,6.95,143.4998],[-5.0452,6.9438,146.8108],[-5.0409,6.9417,144.2943],[-5.041,6.9287,149.0947],[-5.0373,6.9241,138.82],[-5.0373,6.9195,142.4127],[-5.0352,6.9161,140.8925],[-5.0347,6.911,141.245],[-5.0366,6.9058,152.479],[-5.0332,6.9037,140.5299],[-5.0233,6.9017,140.2796],[-5.0121,6.8931,139.6204],[-4.9953,6.8889,135.8699],[-4.9964,6.8721,143.0315],[-4.9928,6.8597,130.1154],[-4.9877,6.8514,138.2855],[-4.9884,6.8449,133.5003],[-4.9854,6.8378,139.7163],[-4.9775,6.8361,124.0628],[-4.9714,6.8269,125.6131],[-4.9592,6.8211,122.117],[-4.9538,6.8225,120.5],[-4.952,6.8124,123.1752],[-4.9525,6.8007,118.6918],[-4.9552,6.7946,123.6566],[-4.9516,6.7915,128.8365],[-4.9526,6.7851,118.5731],[-4.9603,6.7701,122.0004],[-4.9611,6.7655,117.6092],[-4.9756,6.7607,132.3544],[-5.0049,6.7591,162.005],[-5.026,6.7721,185.4581],[-5.039,6.7965,212.864],[-5.0424,6.8213,206.7553],[-5.0531,6.8179,179.7237],[-5.0897,6.7963,187.7202],[-5.1077,6.7635,195.6501],[-5.1208,6.7531,185.5897],[-5.2167,6.6603,194.5165],[-5.2158,6.6574,189.1479],[-5.261,6.6481,170.6068],[-5.2639,6.6457,167.3967],[-5.2716,6.627,162.6284],[-5.2859,6.6093,156.1934],[-5.2874,6.5984,154.6788],[-5.2854,6.5884,155.593],[-5.2869,6.5792,159.1198],[-5.2834,6.574,154.2753],[-5.2847,6.5697,175.9576],[-5.2943,6.5563,148.5629],[-5.3048,6.5542,152.6199],[-5.3026,6.5497,143.8204],[-5.3027,6.5447,142.0821],[-5.3058,6.5382,150.4693],[-5.3112,6.5346,146.0917],[-5.3247,6.5297,140.7883],[-5.3275,6.5246,142.2122],[-5.3257,6.518,142.6415],[-5.3204,6.5148,145.8365],[-5.3129,6.5134,142.7143],[-5.3002,6.5062,154.2007],[-5.298,6.4995,155.827],[-5.3048,6.4736,143.2578],[-5.3135,6.4671,146.2072],[-5.3187,6.4606,143.5984],[-5.3106,6.444,145.8717],[-5.3092,6.4322,143.6674],[-5.3141,6.4263,149.7566],[-5.3154,6.4212,139.9868],[-5.3146,6.4091,158.5899],[-5.3083,6.3954,135.6968],[-5.3083,6.3882,135.0148],[-5.301,6.3775,136.2086],[-5.2951,6.3757,135.4885],[-5.2907,6.3705,135.3055],[-5.2865,6.3694,137.1196],[-5.2835,6.365,136.5459],[-5.28,6.3632,132.7082],[-5.2635,6.369,132.4247],[-5.2523,6.3787,131.7218],[-5.218,6.3841,127.4799],[-5.2096,6.3809,132.3474],[-5.1988,6.382,144.2644],[-5.149,6.339,163.1816],[-5.095,6.289,122.1952],[-5.0504,6.3027,151.5864],[-4.9292,6.3042,73.5442],[-4.9236,6.2592,61.0581],[-4.8299,6.2346,49.2355],[-4.8245,6.2338,48.9617],[-4.8175,6.236,52.6353],[-4.8144,6.2407,52.8668],[-4.8192,6.2458,44.9256],[-4.819,6.2512,55.5439],[-4.8155,6.2516,54.1759],[-4.8081,6.2415,63.6883],[-4.8011,6.2401,75.4808],[-4.7925,6.2412,55.8618],[-4.7857,6.2381,66.1036],[-4.7446,6.246,65.1682],[-4.7379,6.2522,52.1604],[-4.7294,6.2514,55.9077],[-4.7217,6.2589,60.0438],[-4.7112,6.2641,63.3123],[-4.7016,6.2746,60.5946],[-4.7022,6.2825,52.9809],[-4.6907,6.2816,60.1192],[-4.684,6.2833,52.1942],[-4.5773,6.2613,111.688],[-4.5691,6.2609,116.1411],[-4.566,6.2628,105.4318],[-4.5503,6.2608,124.7688],[-4.5045,6.2428,144.9525],[-4.494,6.2419,159.6155],[-4.4845,6.2449,144.0818],[-4.4785,6.2503,157.4496],[-4.4592,6.2463,128.3851],[-4.4332,6.2457,131.3775],[-4.4228,6.2679,129.2046],[-4.3965,6.2503,111.0275],[-4.3909,6.2354,110.1453],[-4.3839,6.229,103.1876],[-4.3621,6.2198,96.7057],[-4.3547,6.2182,99.6154],[-4.342,6.2027,93.8097],[-4.3325,6.203,92.328],[-4.295,6.1937,91.7551],[-4.2872,6.1964,92.2688],[-4.2823,6.2004,88.966],[-4.2676,6.1954,75.4403],[-4.26,6.1912,78.5204],[-4.2541,6.1914,71.1875],[-4.245,6.1838,67.1943],[-4.2375,6.1815,76.313],[-4.2325,6.1878,62.7204],[-4.2324,6.1914,75.9813],[-4.218,6.2003,97.8127],[-4.2061,6.1972,107.4346],[-4.1836,6.1969,74.3332],[-4.1675,6.1915,59.2385],[-4.1586,6.1952,53.8073],[-4.1583,6.2027,55.0483],[-4.1536,6.209,54.9105],[-4.1542,6.2194,55.2061],[-4.1531,6.2219,55.3086],[-4.1454,6.2306,60.4471],[-4.1419,6.2322,61.1719],[-4.15,6.2384,64.712],[-4.1521,6.2425,62.2814],[-4.1475,6.2514,64.8694],[-4.1416,6.2561,63.5996],[-4.1454,6.255,62.0485],[-4.1493,6.2612,62.4375],[-4.1439,6.2676,64.1976],[-4.1449,6.27,63.4181],[-4.1542,6.274,87.8879],[-4.1584,6.2956,71.268],[-4.1541,6.3153,86.4979],[-4.1571,6.3332,69.9486],[-4.1527,6.3422,71.2493],[-4.1551,6.3515,78.3571],[-4.1601,6.3565,81.1011],[-4.1591,6.3605,71.9546],[-4.1633,6.3664,73.5005],[-4.1638,6.369,72.6681],[-4.1613,6.3735,74.3026],[-4.1633,6.3852,82.6331],[-4.1577,6.394,79.58],[-4.1565,6.4015,75.2905],[-4.1471,6.4247,81.8402],[-4.1403,6.4293,81.1601],[-4.1388,6.4364,76.8397],[-4.1145,6.4508,95.4082],[-4.1126,6.4583,86.6139],[-4.108,6.4648,84.1882],[-4.1054,6.4777,82.8554],[-4.1071,6.4854,87.7462],[-4.1043,6.4942,94.8809],[-4.1064,6.5021,107.9047],[-4.1055,6.5047,87.3039],[-4.0914,6.5116,89.0046],[-4.0784,6.5248,89.3444],[-4.0576,6.5551,93.5137],[-4.0509,6.5587,95.0383],[-4.0429,6.5596,95.6044],[-4.0281,6.5555,104.7209]]]]}
,"properties": {"GID_1": "CIV.6_1","GID_0": "CIV","country": "Côted'Ivoire","province": "Lacs","VARNAME_1": "NA","NL_NAME_1": "NA","TYPE_1": "District","ENGTYPE_1": "District","CC_1": "NA","HASC_1": "CI.LA","ISO_1": "CI-LC","name": "Lacs.province","area_km2": 26278.51,"hist_schema_id": "Elevation0-9000","hist_area_km2": {"50": 80.93,"75": 852.62,"100": 2220.19,"125": 3839.05,"150": 4646.34,"175": 4998.02,"200": 4464.83,"225": 3079.49,"250": 1458.97,"275": 430.52,"300": 87.16,"325": 36.34,"350": 24.3,"375": 17.41,"400": 12.17,"425": 9.41,"450": 7.18,"475": 5.22,"500": 3.48,"525": 3.1,"550": 1.24,"575": 0.23,"600": 0.21}}}