{"type":"Feature","properties":{"featurecla":"Lake","scalerank":8,"name":"null413","name_abb":null,"name_alt":null,"note":"_untitled_18","delta":null,"dam_name":null,"year":-99,"admin":null,"min_zoom":6.0,"min_label":7.0},
"geometry":{"type": "Polygon","coordinates": [[[-5.09558621083599,6.3189341310804821,136.3868],[-5.10471149877705,6.3115750279021654,129.8367],[-5.0919066592468312,6.2942075444014156,127.5361],[-5.0964693032173614,6.2924413596386159,123.0502],[-5.1004432189336626,6.2889089901130433,126.917],[-5.10559459115845,6.2868484412231282,132.5217],[-5.0945559363910036,6.2733076913750656,120.8754],[-5.0917594771832739,6.2571176643828039,120.5],[-5.0974995776623189,6.2435769145347706,120.5],[-5.112364966082481,6.2391614526277976,120.5],[-5.119576887197212,6.246226191678943,120.5],[-5.123992349104185,6.2588838491456036,125.2941],[-5.1294380854561146,6.26683168057815,131.5235],[-5.1395936478421618,6.2588838491456036,121.4481],[-5.1597575905506687,6.2794893380448116,119.0],[-5.2012629324762543,6.3666211196758127,126.3119],[-5.2059727585103417,6.3692703968199851,124.3467],[-5.214803682324316,6.3689760326928422,129.6818],[-5.2102410383537574,6.3648549349130121,128.8519],[-5.204500937874684,6.3586732882432386,132.269],[-5.2011157504126686,6.3557296469719233,132.4965],[-5.208916399781657,6.3371847069626313,156.5729],[-5.1999382939041539,6.3257045060044854,143.153],[-5.19007709564525,6.3156961256820239,126.9604],[-5.1949341037429244,6.3003891910711616,148.4756],[-5.133264819108831,6.2288587081781657,120.5],[-5.0951446646452894,6.20001102371927,104.8968],[-5.0782187273352122,6.2147292300758474,99.1385],[-5.0707124420933383,6.2974455497998463,156.3187],[-5.0793961838437269,6.3145186691734807,145.4523],[-5.09558621083599,6.3189341310804821,136.3868]]]}}