{"type":"Feature","properties":{"featurecla":"Lake Centerline","scalerank":7,"rivernum":417,"dissolve":"417Lake Centerline","name":"Bandama1","name_alt":null,"note":null,"min_zoom":6.0,"strokeweig":0.3,"name_en":"Bandama","min_label":7.0},
"geometry":{"type": "LineString","coordinates": [[-5.0796386718749886,6.21356842655662,100.2945],[-5.0801757812499773,6.2142276062441084,103.0953],[-5.0937988281249886,6.21796295780662,120.5],[-5.09912109375,6.22138092655662,120.5],[-5.1099609374999773,6.2266787781191084,120.5],[-5.1226562499999773,6.23346588749412,120.5],[-5.1670410156249886,6.2776065124941169,132.5459],[-5.1753906249999773,6.29059479374412,137.1601],[-5.1884765625,6.3165225281191084,124.8105],[-5.193115234375,6.3247256531191169,128.4538],[-5.1980957031249773,6.34088776249412,133.6519],[-5.1993164062499773,6.35700104374412,132.3383],[-5.2146972656249773,6.36884186405662,129.6818]]}}