{"type":"Feature","properties":{"featurecla":"Lake Centerline","scalerank":7,"rivernum":417,"dissolve":"417Lake Centerline","name":"Bandama","name_alt":null,"note":null,"min_zoom":6.0,"strokeweig":0.25,"name_en":"Bandama","min_label":7.0},
"geometry":{"type": "LineString","coordinates": [[-5.486083984375,7.01325104374412,163.8658],[-5.4786865234374886,7.01605866093162,201.9218],[-5.4666015624999886,7.0219912781191169,277.7798],[-5.4625,7.02509186405662,218.6059],[-5.4593261718749773,7.02887604374412,181.5],[-5.4589355468749829,7.0330752624941084,181.5],[-5.4612304687499886,7.0371279968691169,181.5],[-5.48095703125,7.0428408874941084,228.4657],[-5.4857666015624886,7.04498932499412,226.3799],[-5.4900390624999886,7.04743073124412,213.9429],[-5.4942382812499773,7.05072662968162,181.5],[-5.498779296875,7.05560944218162,181.5],[-5.503662109375,7.0630069031191169,181.5],[-5.5067626953124886,7.0737490906191169,181.5],[-5.50732421875,7.08136627811912,181.5],[-5.5061523437499886,7.08746979374412,181.5],[-5.5006591796874886,7.1006045593691169,181.5],[-5.4929687499999886,7.12933991093162,181.5],[-5.494140625,7.1352725281191169,181.5],[-5.4974121093749773,7.14020416874412,181.5],[-5.5245117187499773,7.1506533874941169,181.5],[-5.5313476562499773,7.15241119999412,183.6231],[-5.537841796875,7.15314362186912,206.7686],[-5.5472167968749773,7.15155670780662,181.5],[-5.552490234375,7.1495303406191084,181.5],[-5.5556152343749829,7.1470889343691084,181.5],[-5.5597412109374886,7.1444033874941084,181.5],[-5.5642578124999886,7.14227936405662,181.5],[-5.5696289062499886,7.1408877624941169,181.5],[-5.574951171875,7.14093659061912,181.5],[-5.581298828125,7.14215729374412,181.5],[-5.58740234375,7.1448916687441084,181.5],[-5.595947265625,7.15094635624412,181.5],[-5.60107421875,7.1566104187441084,181.5],[-5.6041015624999773,7.16705963749412,181.5],[-5.6044921875,7.1733584656191169,181.5],[-5.60595703125,7.17938873905662,181.5],[-5.6178466796874886,7.18720123905662,181.5],[-5.635009765625,7.2010440124941084,181.5],[-5.642578125,7.2037295593691084,181.5],[-5.6490234374999773,7.2043643249941169,181.5],[-5.6548339843749886,7.2041201843691169,181.5],[-5.659912109375,7.2049502624941084,181.5],[-5.6646484374999773,7.20746491093162,181.5],[-5.6685058593749886,7.21173737186912,181.5],[-5.6749023437499773,7.22357819218162,181.5],[-5.6763183593749886,7.22846100468162,181.5],[-5.6752197265624886,7.2326846374941169,181.5],[-5.6696044921874886,7.23566315311912,181.5],[-5.665771484375,7.23871491093162,181.5],[-5.6630859375,7.2430361999941084,181.5],[-5.6650390625,7.24799225468162,181.5],[-5.662353515625,7.25690338749412,181.5],[-5.6591796875,7.2630557312441084,181.5],[-5.66064453125,7.2691592468691084,181.5],[-5.6673339843749773,7.2808779968691084,181.5],[-5.6724121093749886,7.28717682499412,181.5],[-5.67822265625,7.2911319031191084,181.5],[-5.693115234375,7.29657623905662,181.5],[-5.6970703124999886,7.29938385624412,181.5],[-5.7005371093749773,7.30267975468162,181.5],[-5.703857421875,7.3064151062441169,181.5],[-5.7112304687499886,7.31293366093162,181.5],[-5.7134765624999773,7.31708405155662,181.5],[-5.7142089843749773,7.32147858280662,181.5],[-5.7107910156249773,7.32660553593162,181.5],[-5.7027343749999773,7.33356354374412,184.44],[-5.6998046874999773,7.3377627624941084,181.5],[-5.6990722656249773,7.3435244812441169,181.5],[-5.7007812499999773,7.34992096561912,185.3679],[-5.70849609375,7.3582705749941084,202.5313],[-5.71826171875,7.3613467468691169,198.5676],[-5.7219726562499886,7.36359284061912,191.617],[-5.7278808593749773,7.37140534061912,194.6638],[-5.7299072265624886,7.39154694218162,181.5],[-5.7222656249999773,7.4555850281191169,181.5],[-5.7358886718749886,7.4722842468691084,181.5],[-5.73828125,7.47601959843162,181.5],[-5.7423583984374886,7.4947451843691084,181.5],[-5.7278320312499886,7.5081729187441084,184.3457],[-5.7183593749999773,7.5098819031191084,181.5],[-5.70751953125,7.51666901249412,181.5],[-5.6905273437499773,7.5344424499941169,181.5],[-5.6805175781249773,7.5532412781191169,187.0598],[-5.6692871093749773,7.5769229187441169,201.14],[-5.6627685546874886,7.60516998905662,182.3096],[-5.666015625,7.63580963749412,188.336],[-5.6611328125,7.68976471561912,220.4931],[-5.660888671875,7.72089264530662,193.495],[-5.6545898437499886,7.74701569218162,209.485],[-5.6514648437499773,7.7715029968691169,206.0503],[-5.6594726562499886,7.79608795780662,188.8552],[-5.6548339843749886,7.81696198124412,186.5404],[-5.6268066406249773,7.8402041687441084,193.5977],[-5.6118652343749886,7.86395905155662,193.6155],[-5.6153320312499773,7.88275787968162,194.6194],[-5.6100585937499829,7.90643952030662,194.83],[-5.6022216796874886,7.9301944031191169,190.4597],[-5.5918457031249886,7.95160553593162,194.9984],[-5.5777343749999773,7.9693545593691084,208.7932],[-5.5699218749999773,7.9914736999941169,210.1293],[-5.564697265625,8.0184268249941084,208.5272],[-5.5513671874999773,8.03888580936912,197.6033],[-5.536865234375,8.04950592655662,217.4887],[-5.5303222656249886,8.06342194218162,196.1168],[-5.5237792968749773,8.08222077030662,199.2013],[-5.5135253906249773,8.09100983280662,225.2333],[-5.4959472656249773,8.09369537968162,215.3108],[-5.4798339843749773,8.0970401062441084,218.2303],[-5.474853515625,8.09552643436912,212.819],[-5.474853515625,8.09552643436912,212.819],[-5.474853515625,8.09552643436912,212.819]]}}