{"type":"Feature","properties":{"GID_3":"CIV.9.1.2_1","GID_0":"CIV","country":"Côted'Ivoire","GID_1":"CIV.9_1","province":"Sassandra-Marahoué","NL_NAME_1":"NA","GID_2":"CIV.9.1_1","county":"Haut-Sassandra","NL_NAME_2":"NA","city":"Issia","VARNAME_3":"NA","NL_NAME_3":"NA","TYPE_3":"Département","ENGTYPE_3":"Department","CC_3":"NA","HASC_3":"NA","name":"Issia.city"},
"geometry":{"type": "MultiPolygon","coordinates": [[[[-6.9785,6.4226,189.5],[-6.8154,6.2491,219.4172],[-6.6806,6.2479,175.9624],[-6.59,6.3209,173.6839],[-6.5082,6.2628,223.317],[-6.4808,6.272,213.5943],[-6.4718,6.2793,199.7811],[-6.4359,6.2951,191.9222],[-6.4237,6.2975,194.2375],[-6.3737,6.2992,219.1934],[-6.3369,6.3095,223.8439],[-6.325,6.3279,253.5082],[-6.3116,6.3408,255.2306],[-6.2068,6.3337,201.8106],[-6.1918,6.329,198.6272],[-6.183,6.3334,196.6397],[-6.173,6.3409,195.9846],[-6.1676,6.3405,210.8259],[-6.1409,6.3254,189.8576],[-6.1311,6.3257,191.4894],[-6.1145,6.323,191.2968],[-6.1116,6.3388,187.9511],[-6.1046,6.3524,189.9624],[-6.1054,6.3649,191.7546],[-6.1036,6.3695,189.0876],[-6.0955,6.3765,191.7731],[-6.0899,6.3897,189.7328],[-6.087,6.4143,199.3114],[-6.0789,6.4244,195.7826],[-6.0716,6.4409,204.0915],[-6.0578,6.4511,200.4841],[-6.056,6.4626,198.102],[-6.051,6.4699,199.9788],[-6.0486,6.4878,197.7502],[-6.0481,6.5087,199.0415],[-6.0409,6.5305,201.4382],[-6.108,6.5742,240.5728],[-6.1077,6.6152,255.3057],[-6.1357,6.6342,265.1743],[-6.1381,6.6199,256.0786],[-6.2278,6.5772,247.241],[-6.2455,6.5672,264.0065],[-6.3078,6.6286,211.6958],[-6.3727,6.6788,199.8432],[-6.3814,6.6872,202.7541],[-6.4327,6.6883,239.4022],[-6.4431,6.6861,222.5701],[-6.4796,6.6837,219.1492],[-6.5249,6.6727,238.0444],[-6.6212,6.666,207.0381],[-6.6275,6.649,198.0476],[-6.6339,6.6416,192.1908],[-6.6418,6.6242,197.6587],[-6.6479,6.6206,194.258],[-6.8623,6.6401,251.7728],[-6.8743,6.6396,237.9969],[-6.9869,6.6259,189.5],[-6.988,6.6185,189.5],[-6.9956,6.6079,191.0092],[-7.0027,6.6039,189.5],[-7.0202,6.5878,189.5],[-7.0201,6.5794,189.5],[-7.0159,6.5719,189.5],[-6.9875,6.5569,189.5],[-6.9801,6.5495,189.5],[-6.9739,6.5323,189.5],[-6.9639,6.5237,197.3593],[-6.9611,6.5057,190.5311],[-6.9525,6.488,189.5],[-6.9536,6.4842,189.5],[-6.9635,6.4712,189.5],[-6.9789,6.461,189.5],[-6.9844,6.4587,189.5],[-6.9949,6.4606,189.5],[-6.9973,6.4631,189.5],[-7.0009,6.4632,189.5],[-7.0046,6.4611,189.5],[-7.0059,6.4501,189.5],[-7.0036,6.4456,189.5],[-6.9876,6.4452,189.5],[-6.9785,6.4226,189.5]]]]}}