{"type": "Feature","bbox": [-5.734,7.2334,-4.4972,8.166],"geometry": {"type": "MultiPolygon","coordinates": [[[[-4.94,7.4877,215.5139],[-4.935,7.4857,212.0981],[-4.9296,7.487,205.4164],[-4.9316,7.4983,211.9173],[-4.9275,7.5033,206.379],[-4.9268,7.5085,208.417],[-4.9294,7.5163,211.1907],[-4.9215,7.5228,222.7513],[-4.9124,7.535,245.6125],[-4.9006,7.5471,251.1998],[-4.8907,7.5669,234.4903],[-4.8858,7.5728,211.639],[-4.8797,7.5727,206.6389],[-4.8766,7.571,206.2793],[-4.8659,7.5602,208.0786],[-4.8603,7.558,208.5261],[-4.8433,7.5577,206.7845],[-4.8386,7.5585,197.6153],[-4.8366,7.5605,190.1521],[-4.8315,7.5602,186.6687],[-4.8264,7.5696,211.661],[-4.8204,7.5739,218.0477],[-4.8165,7.5745,209.192],[-4.8069,7.5709,187.7957],[-4.7942,7.5688,183.1061],[-4.7892,7.5661,182.7616],[-4.7751,7.5834,278.576],[-4.7553,7.5584,196.3069],[-4.7495,7.5562,193.0961],[-4.7457,7.5523,174.4363],[-4.7427,7.5467,175.823],[-4.7398,7.5321,167.9771],[-4.7361,7.5289,170.5793],[-4.7293,7.5274,172.5302],[-4.7242,7.5313,168.0498],[-4.7112,7.5264,172.163],[-4.7063,7.5227,169.5667],[-4.6874,7.5187,172.3775],[-4.6791,7.5226,160.7133],[-4.6593,7.5399,158.0488],[-4.6557,7.5465,157.6562],[-4.6597,7.5548,156.1356],[-4.651,7.5654,156.195],[-4.6447,7.5665,156.0212],[-4.6364,7.5649,155.7281],[-4.6325,7.5674,155.2234],[-4.6286,7.5677,152.6328],[-4.626,7.5707,152.6864],[-4.6105,7.5755,151.6958],[-4.6084,7.5819,151.2095],[-4.6025,7.5855,153.8911],[-4.6025,7.5907,150.8691],[-4.5998,7.5948,151.4496],[-4.5971,7.6045,150.195],[-4.5835,7.6137,147.2656],[-4.5758,7.6219,144.0533],[-4.5704,7.6221,146.5175],[-4.562,7.6193,150.4349],[-4.5581,7.6213,142.349],[-4.5439,7.6185,145.0947],[-4.538,7.6087,142.5518],[-4.5313,7.605,140.3317],[-4.5216,7.6069,140.6225],[-4.5164,7.6121,148.0081],[-4.5095,7.6152,149.6089],[-4.5051,7.6152,151.7876],[-4.5002,7.62,153.5887],[-4.4984,7.6233,155.8439],[-4.4979,7.6329,161.4395],[-4.4992,7.6399,160.3896],[-4.4972,7.6441,163.2517],[-4.5033,7.6694,177.2461],[-4.5104,7.6784,167.0917],[-4.5125,7.6983,170.344],[-4.5158,7.7081,174.4281],[-4.5193,7.7306,180.1233],[-4.5184,7.7369,180.7172],[-4.5231,7.7448,186.3628],[-4.5252,7.7554,185.8751],[-4.5428,7.7796,212.5793],[-4.5426,7.7863,217.2273],[-4.5496,7.7996,222.711],[-4.5495,7.8029,231.2321],[-4.5392,7.8186,240.253],[-4.5339,7.8307,246.6082],[-4.5425,7.8277,219.7758],[-4.5495,7.8276,200.1722],[-4.5574,7.8343,185.1311],[-4.5702,7.831,176.8037],[-4.5715,7.8283,179.5434],[-4.5736,7.8369,183.6507],[-4.5708,7.8447,183.8447],[-4.5678,7.8473,183.9574],[-4.5688,7.8499,181.9846],[-4.5731,7.8526,189.0347],[-4.5852,7.8545,194.6811],[-4.5978,7.8632,206.2049],[-4.6021,7.8689,197.1724],[-4.6097,7.8747,219.5407],[-4.6125,7.8805,226.1274],[-4.6008,7.9149,270.0605],[-4.5928,7.9477,243.1949],[-4.6214,7.9704,294.2419],[-4.6301,7.9814,328.0356],[-4.6356,7.9922,300.9191],[-4.6364,7.999,305.7216],[-4.6188,8.0176,357.5252],[-4.6196,8.0257,317.5528],[-4.6215,8.0291,305.0451],[-4.6239,8.031,297.1768],[-4.6269,8.0308,299.119],[-4.6389,8.0228,319.1253],[-4.6489,8.0209,305.7357],[-4.6575,8.0121,299.7579],[-4.6644,8.0119,330.777],[-4.6743,8.0136,274.9743],[-4.6782,8.0178,260.9246],[-4.6842,8.0209,235.8786],[-4.6914,8.0209,258.6916],[-4.6934,8.0195,285.3848],[-4.7022,8.0231,370.8401],[-4.7078,8.0221,388.2975],[-4.7183,8.0245,352.8646],[-4.7336,8.0214,182.2312],[-4.7352,8.0261,179.038],[-4.7391,8.0287,187.9409],[-4.7452,8.0252,201.3319],[-4.7587,8.0271,189.8282],[-4.767,8.0168,273.1235],[-4.7804,8.0167,267.7694],[-4.9294,7.9708,249.6246],[-4.9391,7.977,252.1094],[-4.9528,7.9891,262.5193],[-4.97,7.9915,268.3509],[-4.9769,7.9939,277.3748],[-4.9817,7.9979,279.7611],[-4.9885,7.9952,270.0558],[-4.9942,7.9968,259.8685],[-4.9972,7.9936,258.6335],[-4.9982,7.9856,251.295],[-5.0004,7.9838,245.4845],[-5.0023,7.984,245.8809],[-5.0057,7.9883,249.202],[-5.0162,7.9858,258.1355],[-5.025,7.9873,263.8702],[-5.036,7.9828,263.3387],[-5.0462,7.9734,259.4426],[-5.0657,7.9651,266.5286],[-5.0826,7.9662,274.6789],[-5.0886,7.9704,280.8018],[-5.1004,7.9697,285.6006],[-5.1221,7.9642,311.5827],[-5.1381,7.963,325.2057],[-5.1491,7.9551,333.2482],[-5.2064,8.0133,310.2213],[-5.2128,8.0104,297.1547],[-5.2192,8.0103,291.3208],[-5.2277,8.0149,290.0867],[-5.2373,8.017,284.2092],[-5.2393,8.0196,268.7948],[-5.2369,8.0424,281.6722],[-5.2377,8.046,288.1083],[-5.2419,8.051,299.4472],[-5.2436,8.0623,303.6039],[-5.2464,8.0638,289.9643],[-5.2494,8.063,290.4416],[-5.2543,8.0562,288.6395],[-5.2626,8.0588,282.2129],[-5.2756,8.0594,277.6202],[-5.2823,8.0627,282.857],[-5.2866,8.0719,268.8874],[-5.3038,8.0896,255.1157],[-5.3321,8.1301,257.7618],[-5.3367,8.134,249.827],[-5.3391,8.1403,265.9456],[-5.3481,8.1534,227.3161],[-5.3554,8.1587,214.7038],[-5.3578,8.1623,209.0124],[-5.3634,8.1613,208.1109],[-5.3704,8.166,209.884],[-5.3805,8.1615,206.4622],[-5.3885,8.1645,210.1974],[-5.397,8.1633,206.3583],[-5.3992,8.1649,204.475],[-5.4049,8.1627,210.9198],[-5.4076,8.1534,209.2803],[-5.3979,8.1404,208.1288],[-5.4005,8.1206,209.6627],[-5.3972,8.1172,212.1444],[-5.3963,8.1134,206.8161],[-5.3974,8.1086,207.795],[-5.4021,8.1047,216.3463],[-5.4051,8.1046,214.192],[-5.4142,8.1122,205.9939],[-5.4188,8.1129,208.4281],[-5.4228,8.1084,204.1161],[-5.4218,8.1003,205.3107],[-5.4234,8.0998,209.7046],[-5.4326,8.102,205.4601],[-5.4344,8.1086,202.8922],[-5.4416,8.1083,203.2818],[-5.4442,8.1099,203.3248],[-5.4526,8.1108,204.2841],[-5.4601,8.1081,198.0648],[-5.4637,8.1005,202.8978],[-5.4701,8.103,201.6317],[-5.4759,8.1029,199.9597],[-5.4783,8.1117,198.0801],[-5.4809,8.1155,196.2518],[-5.4854,8.1175,196.9349],[-5.4894,8.1149,196.3083],[-5.4951,8.1064,203.9386],[-5.4993,8.105,198.6547],[-5.5094,8.1067,198.7385],[-5.5162,8.1199,197.2262],[-5.5294,8.1143,197.1573],[-5.5298,8.1074,199.5199],[-5.5227,8.1004,198.3343],[-5.5217,8.0962,195.7842],[-5.5237,8.0866,195.4891],[-5.5213,8.0757,196.5633],[-5.5324,8.0754,196.1122],[-5.53,8.062,199.1191],[-5.5313,8.0598,196.7647],[-5.5451,8.0549,195.9791],[-5.5473,8.0509,196.8452],[-5.5465,8.0453,198.922],[-5.5487,8.0359,198.026],[-5.5509,8.0342,196.7622],[-5.5638,8.0361,194.6332],[-5.5633,8.0324,202.0818],[-5.5566,8.0257,198.1787],[-5.5638,8.0246,199.1129],[-5.5707,8.0194,197.4823],[-5.5718,8.0117,193.1906],[-5.5692,7.9991,199.6828],[-5.578,7.9887,194.7391],[-5.5804,7.9797,190.25],[-5.5833,7.9753,193.5079],[-5.5929,7.9653,189.5517],[-5.5942,7.9598,191.2094],[-5.5931,7.9541,189.4159],[-5.5959,7.9477,191.9941],[-5.5955,7.9423,190.3006],[-5.6035,7.9348,193.3902],[-5.6042,7.9317,189.1326],[-5.6017,7.9189,187.2987],[-5.604,7.9158,188.6839],[-5.6173,7.9071,189.7126],[-5.6283,7.8876,186.0928],[-5.6209,7.8756,189.7853],[-5.6192,7.8599,193.4387],[-5.613,7.8559,187.1353],[-5.6117,7.85,186.1856],[-5.6245,7.8331,191.554],[-5.6308,7.8312,187.4974],[-5.6348,7.8313,185.535],[-5.6517,7.8409,186.5435],[-5.655,7.8401,187.7702],[-5.6606,7.8417,185.7247],[-5.6623,7.831,185.6593],[-5.6557,7.827,186.7107],[-5.6521,7.8189,184.7586],[-5.6554,7.8057,191.4588],[-5.6654,7.7976,185.2475],[-5.6642,7.7693,183.3999],[-5.6634,7.7624,185.5781],[-5.6594,7.7548,183.3825],[-5.6595,7.7499,183.9767],[-5.661,7.7475,183.5811],[-5.6726,7.7423,183.631],[-5.6767,7.7177,184.9412],[-5.6855,7.7118,186.4595],[-5.6873,7.7053,185.8884],[-5.6864,7.7023,185.7342],[-5.6733,7.695,197.6364],[-5.6729,7.6934,202.8849],[-5.6781,7.6853,199.9035],[-5.689,7.6826,183.9139],[-5.6949,7.6785,185.3271],[-5.6952,7.6689,185.4272],[-5.6829,7.6627,183.6329],[-5.6705,7.662,182.5673],[-5.6671,7.6605,187.9713],[-5.6639,7.6562,198.3591],[-5.6675,7.6505,199.9975],[-5.6874,7.6422,181.5],[-5.6883,7.6399,184.9145],[-5.6626,7.6237,183.1086],[-5.6372,7.6195,181.5],[-5.6337,7.6161,183.733],[-5.6322,7.6099,189.4154],[-5.659,7.6022,181.5],[-5.6964,7.5857,182.08],[-5.6971,7.5786,181.5],[-5.6841,7.5654,181.816],[-5.6639,7.556,181.5],[-5.6624,7.552,181.8418],[-5.6639,7.5473,191.8739],[-5.6818,7.5425,181.5],[-5.6923,7.5376,181.5],[-5.7024,7.529,181.5],[-5.7054,7.5283,181.5],[-5.7112,7.5238,181.5],[-5.7118,7.5108,181.5],[-5.7174,7.506,181.5],[-5.7303,7.5019,181.5],[-5.734,7.4968,181.5],[-5.7335,7.4858,189.2963],[-5.7268,7.4716,181.5],[-5.7107,7.461,184.6572],[-5.7107,7.4433,195.2584],[-5.718,7.4308,181.5],[-5.7204,7.4169,181.5],[-5.7261,7.4104,181.5],[-5.7269,7.4066,181.5],[-5.7227,7.3808,181.5],[-5.7145,7.3687,181.5],[-5.7082,7.3656,181.5],[-5.6949,7.3669,181.5],[-5.6874,7.3617,181.5],[-5.6832,7.3546,181.5],[-5.6865,7.3453,186.2599],[-5.6905,7.3414,181.5],[-5.7137,7.3283,181.5],[-5.7149,7.3233,181.5],[-5.6958,7.3066,181.5],[-5.6795,7.2981,181.5],[-5.6723,7.2972,181.5],[-5.6682,7.295,181.5],[-5.6471,7.2758,191.8933],[-5.6468,7.25,181.5],[-5.6444,7.2588,181.5],[-5.6413,7.2588,182.5466],[-5.6349,7.2686,182.4948],[-5.6319,7.2704,188.5573],[-5.629,7.2716,186.3609],[-5.6104,7.2692,197.9873],[-5.6075,7.2702,202.8785],[-5.6048,7.2758,206.9313],[-5.5896,7.2785,220.185],[-5.5621,7.2879,208.7961],[-5.5218,7.2948,187.4551],[-5.519,7.2881,185.1545],[-5.5157,7.2847,182.7204],[-5.5046,7.2792,181.5],[-5.5,7.2848,181.5],[-5.501,7.2877,181.5],[-5.4964,7.3006,181.5],[-5.4942,7.3026,181.5],[-5.4838,7.3049,181.5],[-5.4813,7.3106,181.5],[-5.4749,7.3061,183.1979],[-5.4626,7.3039,189.0458],[-5.4511,7.3078,201.2569],[-5.4443,7.3061,202.7979],[-5.4384,7.3079,209.5236],[-5.4348,7.3065,234.1868],[-5.4325,7.3027,248.0431],[-5.4346,7.2933,219.3771],[-5.4335,7.2846,188.5858],[-5.4187,7.2864,205.2875],[-5.4094,7.2851,203.5051],[-5.4044,7.2757,215.9129],[-5.4046,7.2724,214.2395],[-5.4005,7.2667,217.8262],[-5.3976,7.2569,213.0352],[-5.3973,7.2496,208.163],[-5.3905,7.2439,226.6533],[-5.3562,7.2422,216.3322],[-5.3406,7.2476,230.0558],[-5.3259,7.2468,210.3171],[-5.3166,7.2419,198.7191],[-5.3092,7.2428,199.164],[-5.3018,7.2352,191.8361],[-5.296,7.2334,199.906],[-5.2733,7.2714,200.8716],[-5.2557,7.2894,211.9861],[-5.2529,7.2955,201.842],[-5.2472,7.2955,201.3212],[-5.2299,7.2886,193.0454],[-5.2249,7.2945,192.2427],[-5.2212,7.2964,195.5414],[-5.2077,7.2949,181.3082],[-5.2041,7.2987,187.1147],[-5.2013,7.3109,186.4104],[-5.2021,7.3155,189.6184],[-5.1974,7.3196,187.6596],[-5.1909,7.3307,192.5801],[-5.1865,7.3352,197.9753],[-5.1796,7.3376,196.9038],[-5.174,7.346,203.7349],[-5.1698,7.3487,204.668],[-5.157,7.3482,208.6482],[-5.1496,7.3528,208.5939],[-5.1462,7.3516,217.9017],[-5.1383,7.3552,228.1149],[-5.1052,7.3573,259.4053],[-5.0974,7.3605,262.8823],[-5.0626,7.3791,288.007],[-5.0565,7.3849,297.2569],[-5.0546,7.3895,312.7739],[-5.06,7.4083,270.8011],[-5.0569,7.4137,270.6019],[-5.0384,7.4147,298.2332],[-5.0327,7.418,282.3648],[-5.0126,7.4168,256.6985],[-5.0087,7.419,264.1838],[-5.0076,7.421,265.3734],[-5.0101,7.4244,271.39],[-5.0263,7.4308,284.0745],[-5.0382,7.43,284.2587],[-5.0436,7.436,292.6939],[-5.043,7.4388,286.1562],[-5.0341,7.4489,276.0081],[-5.0145,7.4649,262.4766],[-5.0121,7.4695,264.7402],[-5.0013,7.4786,259.4728],[-4.9915,7.4685,235.8696],[-4.9733,7.4911,248.6547],[-4.9689,7.4941,237.6764],[-4.9598,7.4929,246.303],[-4.9575,7.4888,235.791],[-4.9534,7.4861,221.3581],[-4.9453,7.4895,218.0601],[-4.94,7.4877,215.5139]]]]}
,"properties": {"GID_2": "CIV.11.1_1","GID_0": "CIV","country": "Côted'Ivoire","GID_1": "CIV.11_1","province": "ValléeduBandama","NL_NAME_1": "NA","county": "Gbeke","VARNAME_2": "NA","NL_NAME_2": "NA","TYPE_2": "Région","ENGTYPE_2": "Region","CC_2": "NA","HASC_2": "CI.VB.GE","name": "Gbeke.county","area_km2": 8511.669,"hist_schema_id": "Elevation0-9000","hist_area_km2": {"150": 72.914,"175": 428.902,"200": 1088.436,"225": 1972.946,"250": 1915.982,"275": 1521.26,"300": 879.549,"325": 377.392,"350": 171.031,"375": 72.207,"400": 9.768,"425": 1.029,"450": 0.252}}}