{"type": "Feature","bbox": [-8.5993,5.638,-7.0833,6.9673],"geometry": {"type": "MultiPolygon","coordinates": [[[[-7.0834,5.9914,192.1784],[-7.0865,6.0586,214.5152],[-7.1268,6.2697,189.5],[-7.1677,6.3274,195.0679],[-7.1925,6.4025,204.6697],[-7.2461,6.4619,206.1632],[-7.26,6.4687,224.4993],[-7.3103,6.5363,228.6373],[-7.3262,6.5483,219.4995],[-7.4082,6.6023,236.0495],[-7.4956,6.6446,259.0202],[-7.5024,6.6453,230.4236],[-7.5427,6.6678,216.1127],[-7.5487,6.6858,210.2981],[-7.5477,6.6895,208.748],[-7.5536,6.6929,209.6523],[-7.5659,6.6946,217.1162],[-7.5676,6.7024,221.5802],[-7.5625,6.707,217.2601],[-7.57,6.7276,211.5658],[-7.5773,6.7261,212.873],[-7.5793,6.7287,207.0583],[-7.5806,6.7359,210.7887],[-7.585,6.7373,216.5644],[-7.5871,6.7401,211.7031],[-7.589,6.7536,218.832],[-7.5862,6.7569,222.5707],[-7.5808,6.772,214.2334],[-7.5772,6.7745,214.0336],[-7.571,6.7929,216.7204],[-7.5797,6.7961,213.3456],[-7.587,6.7874,224.3192],[-7.5897,6.7891,223.6252],[-7.5948,6.8035,215.2797],[-7.5982,6.8027,219.4819],[-7.6035,6.7979,220.8637],[-7.606,6.802,221.2327],[-7.6075,6.8098,217.9231],[-7.6066,6.8193,219.1336],[-7.6111,6.8286,219.7657],[-7.6199,6.8287,223.3889],[-7.6269,6.8361,219.1863],[-7.6336,6.8348,229.0519],[-7.6385,6.8391,223.383],[-7.637,6.8436,219.9278],[-7.6297,6.847,223.2466],[-7.8411,6.8491,309.7476],[-7.8873,6.9298,297.2663],[-7.8987,6.931,299.3514],[-7.905,6.9349,298.5059],[-7.9102,6.9411,288.2039],[-7.9329,6.9505,315.5125],[-7.9402,6.9382,296.9035],[-7.953,6.9452,281.0401],[-7.9774,6.9531,274.372],[-8.0016,6.9673,269.1497],[-8.0029,6.9651,269.8849],[-8.0115,6.9663,273.2991],[-8.0153,6.959,273.7198],[-8.018,6.9629,270.7131],[-8.0228,6.9592,268.2306],[-8.0263,6.9542,267.3067],[-8.0251,6.9497,275.0246],[-8.0339,6.941,273.4406],[-8.0356,6.9424,272.4969],[-8.0422,6.9386,266.1143],[-8.0408,6.9334,272.1871],[-8.0509,6.9327,272.9403],[-8.0529,6.9296,271.5186],[-8.0513,6.9246,269.073],[-8.0726,6.9202,270.3191],[-8.0776,6.9223,271.1203],[-8.0796,6.9213,268.9002],[-8.0804,6.912,272.2565],[-8.0864,6.9008,265.3627],[-8.1069,6.8964,276.2479],[-8.1093,6.891,321.7221],[-8.1084,6.8868,271.3542],[-8.0952,6.88,263.0218],[-8.1024,6.8774,267.5323],[-8.1032,6.8624,266.3879],[-8.1074,6.8552,269.919],[-8.1154,6.855,298.6955],[-8.1141,6.8444,276.7972],[-8.1163,6.8383,268.1332],[-8.1149,6.8343,271.7439],[-8.1109,6.8324,297.304],[-8.1075,6.834,282.4965],[-8.104,6.8448,270.2411],[-8.1005,6.8411,273.2186],[-8.1005,6.835,263.8307],[-8.1066,6.8302,287.7018],[-8.1041,6.8248,275.7776],[-8.0974,6.8254,262.7147],[-8.0956,6.8228,264.4727],[-8.0959,6.8171,280.7335],[-8.0935,6.8145,262.3475],[-8.0982,6.8113,263.5123],[-8.0986,6.8079,263.7331],[-8.1063,6.8083,263.1617],[-8.1108,6.7976,266.8586],[-8.1179,6.8029,267.1041],[-8.1216,6.8015,266.3258],[-8.1214,6.7943,265.4944],[-8.1271,6.7908,276.0785],[-8.1299,6.7858,272.8954],[-8.1353,6.7891,266.1697],[-8.1365,6.7885,260.5499],[-8.1506,6.7753,267.6516],[-8.148,6.7688,266.8234],[-8.1555,6.7709,263.3047],[-8.1592,6.7702,268.1826],[-8.1642,6.7642,269.5461],[-8.1613,6.7618,269.4026],[-8.1597,6.7552,262.5741],[-8.1632,6.7486,286.4121],[-8.1619,6.7375,269.3965],[-8.1579,6.7334,264.9742],[-8.1591,6.7303,271.7663],[-8.164,6.7286,269.2654],[-8.1658,6.723,273.7974],[-8.1721,6.7222,271.0172],[-8.1752,6.7147,265.6564],[-8.1893,6.7105,267.5012],[-8.1924,6.7132,274.9816],[-8.1917,6.7152,277.1484],[-8.1851,6.7192,269.2164],[-8.1905,6.7314,275.4557],[-8.2067,6.7339,261.8665],[-8.2099,6.7324,255.5494],[-8.2095,6.721,260.8567],[-8.2109,6.7194,258.1276],[-8.2171,6.7197,259.9088],[-8.2184,6.7166,257.7884],[-8.2167,6.7106,258.2339],[-8.2177,6.7085,263.8337],[-8.2279,6.7065,263.7856],[-8.2306,6.6995,259.736],[-8.2307,6.6975,255.854],[-8.2198,6.6932,267.7719],[-8.2194,6.6809,272.5905],[-8.2208,6.6793,267.3085],[-8.2356,6.6776,256.4025],[-8.2334,6.6717,254.8423],[-8.2341,6.6698,259.4437],[-8.2357,6.6696,259.4437],[-8.2364,6.6745,256.006],[-8.2407,6.6772,256.9157],[-8.2473,6.6774,259.6216],[-8.2511,6.6752,257.5322],[-8.2464,6.669,260.3352],[-8.2404,6.6655,254.1956],[-8.2366,6.6569,257.6283],[-8.2499,6.6515,268.4417],[-8.2506,6.6455,265.5863],[-8.2468,6.6435,296.6169],[-8.242,6.6325,254.3362],[-8.2451,6.6254,259.3819],[-8.2518,6.629,255.236],[-8.2558,6.6275,255.8398],[-8.2623,6.632,253.0682],[-8.2662,6.6279,264.7774],[-8.2691,6.6195,278.4695],[-8.2789,6.6157,256.9332],[-8.2823,6.6028,254.5802],[-8.2866,6.6089,262.2904],[-8.3024,6.6073,279.611],[-8.3074,6.5952,252.6283],[-8.3187,6.5869,256.8018],[-8.4293,6.6595,248.0267],[-8.4326,6.6543,229.1487],[-8.4353,6.6548,227.997],[-8.4399,6.6596,242.368],[-8.4431,6.6594,238.4908],[-8.4475,6.6549,225.5493],[-8.4487,6.6493,229.3596],[-8.4476,6.6406,226.1825],[-8.449,6.636,230.0547],[-8.4529,6.6333,235.1628],[-8.4607,6.6347,227.8862],[-8.4626,6.6336,244.0325],[-8.4647,6.6274,230.5254],[-8.4704,6.6334,226.0038],[-8.4729,6.6329,230.3878],[-8.4762,6.6254,224.1695],[-8.4824,6.6247,223.2217],[-8.4847,6.6217,223.2504],[-8.4852,6.6197,221.6707],[-8.4822,6.6127,235.7712],[-8.488,6.608,238.7036],[-8.4898,6.6073,237.9875],[-8.4919,6.6089,229.3315],[-8.4916,6.6142,227.803],[-8.4939,6.616,223.0089],[-8.4999,6.6149,225.4575],[-8.5038,6.6119,228.716],[-8.5057,6.6069,223.4269],[-8.5041,6.5977,222.0019],[-8.5062,6.5913,235.8785],[-8.5088,6.5895,230.1125],[-8.5133,6.5938,224.9265],[-8.5212,6.5916,227.4616],[-8.5228,6.5943,225.0915],[-8.5211,6.601,226.7348],[-8.5287,6.6082,223.34],[-8.5328,6.6045,227.1122],[-8.5333,6.6015,223.056],[-8.5304,6.5921,223.017],[-8.5311,6.5767,226.3945],[-8.5263,6.5709,229.9381],[-8.537,6.557,224.7746],[-8.5397,6.5561,223.279],[-8.5466,6.5623,228.7833],[-8.5562,6.564,228.8332],[-8.5606,6.5615,226.9329],[-8.5637,6.5532,231.0064],[-8.563,6.5509,232.7046],[-8.5554,6.5488,245.8585],[-8.5543,6.546,226.5469],[-8.5626,6.5369,229.9856],[-8.5687,6.5188,239.4846],[-8.5783,6.5188,227.6265],[-8.5872,6.5264,220.7972],[-8.5919,6.5242,226.2907],[-8.5993,6.5056,223.3832],[-8.5924,6.4984,226.868],[-8.5851,6.4959,241.0987],[-8.5812,6.4952,243.4671],[-8.5706,6.4988,243.8334],[-8.5653,6.496,238.8405],[-8.5479,6.4952,241.9876],[-8.5405,6.4922,235.5868],[-8.528,6.4786,249.9964],[-8.5156,6.4588,249.8381],[-8.5042,6.4454,259.1551],[-8.4903,6.4324,296.0672],[-8.4834,6.4296,272.665],[-8.4811,6.4322,294.4281],[-8.4735,6.4307,285.4384],[-8.4696,6.4344,278.1282],[-8.4678,6.4491,288.708],[-8.4588,6.4619,271.3643],[-8.4565,6.4712,263.7785],[-8.4577,6.4868,272.9073],[-8.4555,6.4887,285.2934],[-8.4517,6.4887,294.9563],[-8.436,6.4803,283.6472],[-8.4271,6.4704,270.4125],[-8.4141,6.4598,251.263],[-8.3936,6.4475,265.7167],[-8.386,6.4449,251.3872],[-8.386,6.4417,246.8605],[-8.3899,6.436,252.7414],[-8.4059,6.431,246.3439],[-8.4082,6.427,257.062],[-8.4074,6.4221,254.5187],[-8.3991,6.4232,256.2481],[-8.3934,6.4067,247.1],[-8.3926,6.3945,258.6696],[-8.3828,6.3804,255.2896],[-8.386,6.3747,261.8654],[-8.3929,6.3745,253.2495],[-8.3982,6.3702,252.1043],[-8.4051,6.37,251.3152],[-8.412,6.3668,246.7182],[-8.3969,6.355,242.354],[-8.3924,6.3467,275.0228],[-8.3859,6.3462,276.6633],[-8.3804,6.3565,252.4591],[-8.3732,6.3558,263.0245],[-8.3718,6.3629,262.1949],[-8.3693,6.3647,263.3604],[-8.3617,6.3564,260.3683],[-8.3585,6.3562,289.2773],[-8.355,6.3619,249.7517],[-8.3525,6.3628,252.5299],[-8.3456,6.3611,271.1955],[-8.3426,6.3692,259.5212],[-8.3394,6.3728,245.5088],[-8.3236,6.3629,253.3567],[-8.3165,6.3555,269.5302],[-8.3121,6.3545,251.6423],[-8.3082,6.358,234.3098],[-8.303,6.3446,280.3182],[-8.3007,6.3423,272.7235],[-8.2984,6.3437,269.4626],[-8.2967,6.3482,287.0154],[-8.2804,6.3468,241.4408],[-8.2752,6.3385,251.2576],[-8.2694,6.3387,241.5457],[-8.2669,6.3357,237.3111],[-8.2672,6.3318,240.4482],[-8.2757,6.3275,241.5153],[-8.2796,6.3233,252.9885],[-8.2762,6.3199,245.1466],[-8.2597,6.3182,240.0008],[-8.2521,6.3202,240.364],[-8.2464,6.3179,240.5029],[-8.2411,6.3185,235.9107],[-8.2168,6.3037,232.0461],[-8.2122,6.3032,232.9361],[-8.2062,6.3089,240.3365],[-8.2019,6.3002,272.9705],[-8.1987,6.3004,263.5101],[-8.1952,6.3045,237.867],[-8.1881,6.2999,229.5516],[-8.1828,6.2925,224.4439],[-8.1746,6.286,222.5435],[-8.1717,6.2756,243.7406],[-8.1671,6.2749,245.2383],[-8.1586,6.2781,223.9634],[-8.1422,6.2782,234.2558],[-8.1335,6.2809,221.3887],[-8.1236,6.2793,219.4937],[-8.1186,6.2804,245.8409],[-8.1082,6.2891,220.6441],[-8.1004,6.2883,240.2547],[-8.0967,6.2906,238.8732],[-8.0909,6.3012,224.8246],[-8.0801,6.2967,224.9574],[-8.0734,6.2958,232.3786],[-8.0654,6.3008,212.8649],[-8.0506,6.3023,233.0911],[-8.0403,6.3089,217.3208],[-8.0053,6.3151,220.1759],[-8.0,6.3121,196.7822],[-7.9921,6.3006,210.3161],[-7.9912,6.2919,218.0929],[-7.9878,6.2895,208.0032],[-7.9836,6.2953,213.0934],[-7.9795,6.2936,199.1595],[-7.9751,6.2883,216.937],[-7.9712,6.2922,212.9591],[-7.9682,6.2929,196.1628],[-7.9653,6.2811,208.5556],[-7.9591,6.2795,204.6634],[-7.9552,6.2815,224.4778],[-7.9494,6.2902,213.0896],[-7.945,6.2925,203.7339],[-7.9406,6.2893,197.5964],[-7.9324,6.2768,219.8602],[-7.9267,6.2752,197.4194],[-7.9216,6.2885,201.0836],[-7.9175,6.2866,198.2911],[-7.9154,6.2831,212.7619],[-7.9134,6.2707,200.4093],[-7.9095,6.2705,210.3929],[-7.9065,6.2792,201.18],[-7.9016,6.2799,203.4658],[-7.8899,6.2524,213.1139],[-7.8811,6.2485,189.0605],[-7.8764,6.2406,214.0348],[-7.8629,6.2325,203.3253],[-7.8541,6.2295,185.3169],[-7.8206,6.1937,210.2409],[-7.819,6.1902,210.939],[-7.8238,6.1879,221.0083],[-7.8367,6.1882,204.015],[-7.8406,6.1846,189.6117],[-7.834,6.1758,220.5175],[-7.8352,6.1666,190.01],[-7.8316,6.1599,211.6156],[-7.8337,6.1565,204.0561],[-7.8443,6.1492,215.6628],[-7.8464,6.1435,210.5916],[-7.8483,6.0941,206.2036],[-7.8472,6.0904,186.2115],[-7.8426,6.0881,199.7206],[-7.8419,6.0851,196.4428],[-7.8443,6.0768,208.8817],[-7.8434,6.072,217.186],[-7.8341,6.0765,209.0936],[-7.8315,6.0903,210.0398],[-7.8283,6.0926,198.4393],[-7.8239,6.093,182.5737],[-7.8182,6.0909,176.9874],[-7.8075,6.0826,203.5998],[-7.806,6.0915,191.0707],[-7.8021,6.0922,185.0407],[-7.7966,6.0878,198.9472],[-7.7868,6.0749,190.7325],[-7.7931,6.0574,211.3458],[-7.7904,6.0512,180.7158],[-7.7781,6.0445,182.8509],[-7.7726,6.0394,176.3373],[-7.7685,6.0316,193.4754],[-7.771,6.0261,194.7914],[-7.7814,6.0208,199.2405],[-7.7844,6.016,193.0792],[-7.7797,6.0063,183.2231],[-7.7896,5.9951,184.2928],[-7.791,5.9915,179.2902],[-7.7881,5.9836,177.8915],[-7.7661,5.9748,175.7619],[-7.7636,5.9709,171.8961],[-7.7584,5.9534,179.4523],[-7.7394,5.9378,184.7373],[-7.7257,5.9336,188.6314],[-7.7186,5.9283,180.9245],[-7.7136,5.9193,178.0732],[-7.693,5.9049,168.7879],[-7.6843,5.9007,166.0833],[-7.6799,5.9009,185.255],[-7.6769,5.9034,178.6101],[-7.676,5.9069,182.8674],[-7.6821,5.9232,193.8971],[-7.6807,5.9283,182.1977],[-7.6737,5.9351,179.4061],[-7.6695,5.9473,180.7289],[-7.6632999999999996,5.9507,170.082],[-7.6606,5.9502,170.0681],[-7.6577,5.9332,183.203],[-7.6603,5.9197,185.8384],[-7.6596,5.9157,183.2283],[-7.6553,5.915,176.6707],[-7.6491,5.9173,174.6249],[-7.6449,5.9157,179.423],[-7.6376,5.9085,179.3937],[-7.6137,5.9074,181.1818],[-7.6115,5.8973,170.7785],[-7.609,5.8968,174.0271],[-7.6046,5.8991,175.6781],[-7.6024,5.8906,169.6849],[-7.5996,5.8883,171.7485],[-7.5962,5.8908,176.1856],[-7.592,5.9011,181.4102],[-7.5839,5.9008,177.7111],[-7.5752,5.8973,188.1013],[-7.5526,5.8735,203.8176],[-7.5533,5.8693,166.9027],[-7.5687,5.8734,177.3895],[-7.5719,5.8688,165.1977],[-7.5699,5.8646,169.9497],[-7.5578,5.8613,169.0124],[-7.5544,5.8496,174.0997],[-7.5487,5.8429,175.1173],[-7.5458,5.8351,162.8426],[-7.5398,5.8348,172.9052],[-7.5381,5.8495,167.0477],[-7.5298,5.8494,172.3375],[-7.5192,5.859,157.348],[-7.5125,5.856,158.7295],[-7.5107,5.8502,160.1595],[-7.5121,5.8461,164.47],[-7.5195,5.8413,166.2556],[-7.5179,5.8388,155.2542],[-7.5062,5.8385,155.7935],[-7.5026,5.8366,171.7628],[-7.4905,5.817,172.3614],[-7.4839,5.8117,173.6418],[-7.4756,5.8105,164.3205],[-7.4737,5.8229,179.2626],[-7.4691,5.8327,173.9338],[-7.4715,5.8399,163.8525],[-7.4683,5.8472,168.0076],[-7.4687,5.8539,158.1292],[-7.4668,5.8596,163.8011],[-7.4634,5.8612,150.8032],[-7.4512,5.857,185.9838],[-7.4457,5.8613,151.6911],[-7.4395,5.8551,165.4746],[-7.4364,5.8465,151.1547],[-7.4297,5.8433,162.4349],[-7.4224,5.8435,154.9173],[-7.4226,5.8375,148.9149],[-7.4298,5.832,149.6562],[-7.4308,5.8169,146.7729],[-7.4392,5.8004,161.1737],[-7.4392,5.7962,148.1485],[-7.429,5.7812,146.7215],[-7.4274,5.7752,149.4765],[-7.4293,5.7688,150.8893],[-7.4413,5.7537,145.1941],[-7.4361,5.7445,141.4651],[-7.4337,5.7293,141.1844],[-7.4289,5.7189,141.2561],[-7.4286,5.6975,142.9139],[-7.4263,5.6945,127.3582],[-7.4172,5.6908,130.7138],[-7.4159,5.6758,125.6887],[-7.4118,5.6712,119.0],[-7.4093,5.6595,123.7892],[-7.4043,5.6477,122.9071],[-7.3973,5.638,143.8116],[-7.0843,5.6665,188.2877],[-7.0833,5.6985,185.9932],[-7.0871,5.7042,188.6772],[-7.0875,5.82,229.8485],[-7.0863,5.9785,194.4282],[-7.0834,5.9914,192.1784]]]]}
,"properties": {"GID_2": "CIV.8.1_1","GID_0": "CIV","country": "Côted'Ivoire","GID_1": "CIV.8_1","province": "Montagnes","NL_NAME_1": "NA","county": "Cavally","VARNAME_2": "NA","NL_NAME_2": "NA","TYPE_2": "Région","ENGTYPE_2": "Region","CC_2": "NA","HASC_2": "CI.MN.CV","name": "Cavally.county","area_km2": 11318.095,"hist_schema_id": "Elevation0-9000","hist_area_km2": {"125": 46.733,"150": 158.531,"175": 661.365,"200": 1984.997,"225": 2855.766,"250": 2765.254,"275": 1790.53,"300": 833.823,"325": 131.318,"350": 35.233,"375": 17.796,"400": 10.888,"425": 6.697,"450": 4.254,"475": 3.117,"500": 2.695,"525": 1.811,"550": 1.727,"575": 1.558,"600": 1.095,"625": 1.011,"650": 0.884,"675": 0.463,"700": 0.274,"725": 0.105,"750": 0.105}}}