{"type": "Feature","bbox": [-8.2488,7.6363,-5.3372,9.2157],"geometry": {"type": "MultiPolygon","coordinates": [[[[-6.1683,7.661,207.5945],[-6.1337,7.6542,204.4967],[-6.1123,7.6434,207.8435],[-6.1082,7.6374,205.8595],[-6.0931,7.6363,222.7639],[-6.079,7.6418,224.0533],[-6.0797,7.6455,229.2806],[-6.0766,7.6513,230.1494],[-6.0786,7.6551,230.119],[-6.0779,7.6572,226.7289],[-6.0701,7.6664,231.1791],[-6.0701,7.6703,230.8166],[-6.0667,7.6749,230.4347],[-6.0613,7.6771,231.6621],[-6.0608,7.6833,233.1793],[-6.0583,7.6849,233.1889],[-6.0586,7.6911,227.9789],[-6.0662,7.6958,233.1376],[-6.0596,7.7152,239.7554],[-6.0525,7.7144,238.3395],[-6.0518,7.711,238.9861],[-6.0439,7.732,235.6945],[-6.0363,7.7444,236.6489],[-6.0386,7.7534,236.275],[-6.0347,7.7582,240.5122],[-6.0084,7.7572,257.7025],[-6.0033,7.7557,272.98],[-5.998,7.7514,292.0378],[-5.9779,7.7439,254.6009],[-5.8776,7.7619,312.0319],[-5.8415,7.7779,286.7469],[-5.8279,7.7664,275.2302],[-5.8267,7.7564,248.4565],[-5.7897,7.7549,225.6768],[-5.7662,7.7466,209.7711],[-5.7456,7.7471,215.4483],[-5.7137,7.7391,203.9511],[-5.699,7.737,205.2626],[-5.6823,7.7261,187.7239],[-5.6767,7.7177,184.9412],[-5.6726,7.7423,183.631],[-5.661,7.7475,183.5811],[-5.6595,7.7499,183.9767],[-5.6594,7.7548,183.3825],[-5.6634,7.7624,185.5781],[-5.6642,7.7693,183.3999],[-5.6654,7.7976,185.2475],[-5.6554,7.8057,191.4588],[-5.6521,7.8189,184.7586],[-5.6557,7.827,186.7107],[-5.6623,7.831,185.6593],[-5.6606,7.8417,185.7247],[-5.655,7.8401,187.7702],[-5.6517,7.8409,186.5435],[-5.6348,7.8313,185.535],[-5.6308,7.8312,187.4974],[-5.6245,7.8331,191.554],[-5.6117,7.85,186.1856],[-5.613,7.8559,187.1353],[-5.6192,7.8599,193.4387],[-5.6209,7.8756,189.7853],[-5.6283,7.8876,186.0928],[-5.6173,7.9071,189.7126],[-5.604,7.9158,188.6839],[-5.6017,7.9189,187.2987],[-5.6042,7.9317,189.1326],[-5.6035,7.9348,193.3902],[-5.5955,7.9423,190.3006],[-5.5959,7.9477,191.9941],[-5.5931,7.9541,189.4159],[-5.5942,7.9598,191.2094],[-5.5929,7.9653,189.5517],[-5.5833,7.9753,193.5079],[-5.5804,7.9797,190.25],[-5.578,7.9887,194.7391],[-5.5692,7.9991,199.6828],[-5.5718,8.0117,193.1906],[-5.5707,8.0194,197.4823],[-5.5638,8.0246,199.1129],[-5.5566,8.0257,198.1787],[-5.5633,8.0324,202.0818],[-5.5638,8.0361,194.6332],[-5.5509,8.0342,196.7622],[-5.5487,8.0359,198.026],[-5.5465,8.0453,198.922],[-5.5473,8.0509,196.8452],[-5.5451,8.0549,195.9791],[-5.5313,8.0598,196.7647],[-5.53,8.062,199.1191],[-5.5324,8.0754,196.1122],[-5.5213,8.0757,196.5633],[-5.5237,8.0866,195.4891],[-5.5217,8.0962,195.7842],[-5.5227,8.1004,198.3343],[-5.5298,8.1074,199.5199],[-5.5294,8.1143,197.1573],[-5.5162,8.1199,197.2262],[-5.5094,8.1067,198.7385],[-5.4993,8.105,198.6547],[-5.4951,8.1064,203.9386],[-5.4894,8.1149,196.3083],[-5.4854,8.1175,196.9349],[-5.4809,8.1155,196.2518],[-5.4783,8.1117,198.0801],[-5.4759,8.1029,199.9597],[-5.4701,8.103,201.6317],[-5.4637,8.1005,202.8978],[-5.4601,8.1081,198.0648],[-5.4526,8.1108,204.2841],[-5.4442,8.1099,203.3248],[-5.4416,8.1083,203.2818],[-5.4344,8.1086,202.8922],[-5.4326,8.102,205.4601],[-5.4234,8.0998,209.7046],[-5.4218,8.1003,205.3107],[-5.4228,8.1084,204.1161],[-5.4188,8.1129,208.4281],[-5.4142,8.1122,205.9939],[-5.4051,8.1046,214.192],[-5.4021,8.1047,216.3463],[-5.3974,8.1086,207.795],[-5.3963,8.1134,206.8161],[-5.3972,8.1172,212.1444],[-5.4005,8.1206,209.6627],[-5.3979,8.1404,208.1288],[-5.4076,8.1534,209.2803],[-5.4049,8.1627,210.9198],[-5.3992,8.1649,204.475],[-5.397,8.1633,206.3583],[-5.3885,8.1645,210.1974],[-5.3805,8.1615,206.4622],[-5.3704,8.166,209.884],[-5.3615,8.1612,208.1109],[-5.3578,8.1623,209.0124],[-5.3494,8.1745,214.1507],[-5.3507,8.18,209.5694],[-5.3548,8.1843,212.6884],[-5.3569,8.1927,216.9122],[-5.3549,8.2029,223.0881],[-5.3472,8.2127,221.7966],[-5.3466,8.2175,220.3803],[-5.349,8.2202,221.318],[-5.3534,8.2213,222.7877],[-5.358,8.2274,222.8002],[-5.3666,8.2329,224.9786],[-5.37,8.2416,223.2782],[-5.3731,8.2448,223.8307],[-5.3719,8.2588,224.7567],[-5.3683,8.259,225.5376],[-5.3556,8.2499,216.4792],[-5.3485,8.2472,225.5447],[-5.3372,8.2484,219.6919],[-5.3385,8.2515,228.5228],[-5.3494,8.2618,225.3808],[-5.3617,8.2682,224.6034],[-5.3711,8.2717,229.3404],[-5.3868,8.2723,239.4672],[-5.3919,8.2763,236.7429],[-5.3921,8.3016,222.8368],[-5.4128,8.3087,232.4644],[-5.4197,8.313,231.837],[-5.4369,8.3358,224.763],[-5.4501,8.3414,230.8743],[-5.4619,8.3505,226.721],[-5.4643,8.3482,229.7998],[-5.4732,8.3512,232.4784],[-5.4818,8.3585,242.0566],[-5.492,8.3551,250.2643],[-5.503,8.3658,246.2427],[-5.5032,8.3767,251.1609],[-5.5067,8.3798,251.3244],[-5.509,8.3778,263.9901],[-5.5198,8.3746,252.9633],[-5.5312,8.3774,250.0142],[-5.5367,8.3749,264.885],[-5.5549,8.3825,251.7283],[-5.5657,8.3925,251.6102],[-5.5682,8.3973,248.0],[-5.581,8.412,251.8576],[-5.6007,8.419,255.2737],[-5.6102,8.4251,253.4197],[-5.6166,8.4264,263.8338],[-5.6309,8.4366,265.0709],[-5.6333,8.4397,260.4861],[-5.6306,8.4505,256.1235],[-5.6272,8.4521,255.2891],[-5.6102,8.4525,257.3436],[-5.6056,8.4599,250.6493],[-5.6019,8.4592,252.1766],[-5.5951,8.4613,266.4777],[-5.5908,8.4651,266.3823],[-5.5692,8.4588,256.5572],[-5.5598,8.4479,253.0878],[-5.5537,8.4459,256.7647],[-5.5416,8.4464,256.2315],[-5.5358,8.4482,257.08],[-5.5301,8.4565,255.7289],[-5.5225,8.461,252.7992],[-5.5322,8.4642,286.0848],[-5.5509,8.4774,256.935],[-5.5746,8.4843,263.2002],[-5.611,8.5076,255.5746],[-5.6181,8.5168,259.445],[-5.6194,8.5268,262.2368],[-5.618,8.5301,255.8362],[-5.6119,8.5321,259.636],[-5.6119,8.537,269.2143],[-5.6519,8.5368,284.1519],[-5.7129,8.5415,333.5706],[-5.8069,8.5918,373.7842],[-5.8254,8.6039,342.6702],[-5.8508,8.6171,349.1657],[-5.8584,8.6196,369.6542],[-5.8809,8.6337,346.8262],[-5.9047,8.6456,337.7533],[-5.9082,8.6466,343.5562],[-5.9145,8.6399,339.178],[-5.9199,8.6442,339.1888],[-5.9602,8.6537,346.4122],[-5.9935,8.675,393.7711],[-5.9987,8.6849,398.3462],[-5.9996,8.6951,383.8437],[-6.0232,8.7329,379.162],[-6.0643,8.806,341.886],[-6.0671,8.8042,335.9807],[-6.0696,8.8064,335.8936],[-6.0702,8.8118,336.7637],[-6.0731,8.8165,343.7789],[-6.0783,8.8167,345.9668],[-6.0802,8.8143,346.5525],[-6.0849,8.8144,345.1915],[-6.0953,8.8175,342.6363],[-6.1068,8.8413,342.829],[-6.1225,8.8602,345.8819],[-6.1275,8.8627,339.2476],[-6.1263,8.8701,340.7562],[-6.1276,8.8743,342.3147],[-6.1368,8.8889,345.5059],[-6.1453,8.8945,346.1672],[-6.15,8.9093,348.5076],[-6.1591,8.9162,348.3404],[-6.1618,8.9205,353.1653],[-6.1751,8.9295,346.952],[-6.1931,8.9508,347.5235],[-6.2078,8.9557,353.794],[-6.2139,8.9614,349.0002],[-6.2111,8.9808,364.1593],[-6.2132,8.9844,360.5619],[-6.2419,8.9979,361.8454],[-6.2685,9.0842,378.2014],[-6.19,9.1527,376.0769],[-6.2589,9.204,364.2219],[-6.2643,9.2032,365.4757],[-6.2699,9.2047,366.572],[-6.2833,9.1992,364.869],[-6.2964,9.2056,369.1656],[-6.3013,9.2035,369.747],[-6.3091,9.2042,371.8564],[-6.3193,9.2143,369.4159],[-6.334,9.2157,373.2971],[-6.3386,9.2137,373.6981],[-6.344,9.2138,370.9254],[-6.3478,9.2105,372.217],[-6.3494,9.205,371.5144],[-6.3479,9.195,382.1758],[-6.3501,9.1899,382.1639],[-6.3495,9.184,389.5377],[-6.345,9.1747,398.8203],[-6.3791,9.1269,378.7106],[-6.4352,9.1052,381.2526],[-6.4415,9.1013,369.6913],[-6.4505,9.0875,359.2199],[-6.469,9.0715,359.4537],[-6.4716,9.0608,346.0619],[-6.4649,9.0523,340.2604],[-6.4648,9.0502,340.0393],[-6.4693,9.0493,348.6596],[-6.473,9.0543,348.6399],[-6.4828,9.0595,363.2655],[-6.4862,9.0647,358.1662],[-6.4889,9.0861,384.5452],[-6.4912,9.0932,370.2586],[-6.503,9.1006,372.7842],[-6.5161,9.1237,374.8984],[-6.5217,9.129,377.1384],[-6.5236,9.1348,390.0475],[-6.5236,9.1475,394.2637],[-6.5268,9.1534,388.3151],[-6.5799,9.1499,397.7502],[-6.5469,9.0836,396.9373],[-6.6007,9.0879,383.1912],[-6.6024,9.0915,381.1604],[-6.6073,9.0952,383.1974],[-6.6127,9.0962,376.0872],[-6.617,9.0964,378.7307],[-6.6304,9.0915,369.3932],[-6.6416,9.0968,368.8165],[-6.6522,9.1053,362.8212],[-6.6614,9.0987,356.439],[-6.6679,9.0881,352.5541],[-6.6786,9.0886,355.6261],[-6.6932,9.0869,347.4252],[-6.697,9.085,349.4908],[-6.724,9.1096,366.097],[-6.7678,9.1013,402.1954],[-6.7816,9.0965,423.1714],[-6.8329,9.072,598.1808],[-6.8416,9.0652,604.0079],[-6.848,9.0647,386.7771],[-6.8613,9.068,420.9294],[-6.8873,9.0492,406.6601],[-6.897,9.0524,390.4694],[-6.9011,9.052,382.9323],[-6.9037,9.0468,384.4724],[-6.9049,9.0381,390.2731],[-6.9075,9.0337,392.9644],[-6.9107,9.0141,379.7144],[-6.908,9.008,378.8347],[-6.9102,9.0004,379.834],[-6.9109,8.984,378.5277],[-6.9085,8.9739,378.0235],[-6.9058,8.9344,376.9254],[-6.9146,8.9375,389.885],[-6.9204,8.9418,386.1968],[-6.9266,8.9525,391.5539],[-6.9451,8.9702,397.7095],[-6.9547,8.9645,401.3619],[-6.9671,8.9617,405.8719],[-6.9724,8.9631,405.6958],[-6.9756,8.9667,419.1484],[-6.9866,8.9702,424.4679],[-6.9932,8.9705,421.0206],[-7.0202,8.9653,402.6727],[-7.0264,8.9708,388.2165],[-7.0379,8.9744,384.2553],[-7.0472,8.9873,363.2383],[-7.0509,9.0034,363.0297],[-7.0556,9.0122,358.6051],[-7.0672,9.0284,355.5766],[-7.1021,9.047,343.8696],[-7.1111,9.0469,346.4609],[-7.119,9.0376,344.7849],[-7.1264,9.0253,338.4182],[-7.1417,9.008,347.9633],[-7.1448,8.9994,332.7103],[-7.1422,8.9956,342.585],[-7.1469,8.995,343.5266],[-7.1511,8.9972,329.2197],[-7.1667,8.9881,340.3404],[-7.1732,8.9491,366.524],[-7.1765,8.9461,357.489],[-7.2042,8.9497,339.8024],[-7.2171,8.9498,330.2109],[-7.2209,8.9474,323.7748],[-7.2236,8.9363,317.1245],[-7.2229,8.9292,324.8525],[-7.2196,8.9227,313.0218],[-7.2085,8.918,333.2943],[-7.207,8.9136,318.5521],[-7.2124,8.8935,310.6514],[-7.2119,8.8882,316.5015],[-7.208,8.8852,320.3318],[-7.2079,8.8766,325.0497],[-7.21,8.8736,315.9177],[-7.2138,8.8733,312.9392],[-7.2171,8.8781,309.6696],[-7.2179,8.8745,311.2695],[-7.2163,8.8704,308.8852],[-7.21,8.8669,306.9239],[-7.2053,8.8667,315.8931],[-7.2035,8.8635,315.2603],[-7.2055,8.8547,312.4062],[-7.2038,8.8424,307.726],[-7.1941,8.8434,315.7997],[-7.1909,8.8417,313.7898],[-7.19,8.8372,314.8473],[-7.1918,8.832,316.3448],[-7.1963,8.8274,311.9249],[-7.2039,8.8246,305.6321],[-7.2048,8.8227,304.5609],[-7.1977,8.8191,305.2323],[-7.1919,8.8063,307.6511],[-7.1888,8.8052,315.0756],[-7.1881,8.8022,312.858],[-7.1968,8.7945,306.0309],[-7.1974,8.7898,305.535],[-7.1896,8.7827,304.5926],[-7.1825,8.7819,308.6556],[-7.1797,8.7791,311.8845],[-7.1869,8.7709,305.1999],[-7.1911,8.7691,300.7921],[-7.1955,8.7628,305.4102],[-7.1977,8.7551,301.0806],[-7.1879,8.7409,302.6458],[-7.1883,8.7382,300.6214],[-7.1922,8.7375,303.0831],[-7.1927,8.7345,315.6548],[-7.1993,8.7332,305.5227],[-7.1997,8.7198,302.9744],[-7.1942,8.7113,312.2571],[-7.2012,8.6941,310.4725],[-7.2071,8.6877,300.6385],[-7.208,8.6841,300.088],[-7.2033,8.6783,305.8985],[-7.2027,8.6746,315.2821],[-7.2102,8.6577,299.5111],[-7.2034,8.653,311.0592],[-7.2029,8.6462,298.1062],[-7.2129,8.6293,300.4739],[-7.2124,8.6262,296.434],[-7.2092,8.6288,301.0602],[-7.2062,8.6291,296.7303],[-7.2027,8.6266,295.9012],[-7.1981,8.618,310.8092],[-7.1965,8.6044,314.2172],[-7.1981,8.5994,297.1389],[-7.1941,8.5958,291.1998],[-7.1934,8.5912,302.1958],[-7.2008,8.5765,296.6942],[-7.1981,8.5687,289.9016],[-7.1882,8.5506,290.3475],[-7.1801,8.5432,303.1403],[-7.1862,8.5362,298.8087],[-7.1783,8.5309,303.106],[-7.1775,8.5265,302.4099],[-7.1852,8.5205,289.3452],[-7.1791,8.51,286.1544],[-7.1828,8.5086,286.2668],[-7.2024,8.5143,293.1964],[-7.2077,8.5195,303.7767],[-7.2134,8.5286,306.3009],[-7.2139,8.5414,303.9624],[-7.2157,8.5453,308.7831],[-7.2247,8.5491,296.8029],[-7.2251,8.5522,306.8262],[-7.2196,8.5602,296.344],[-7.2189,8.5657,320.6023],[-7.2289,8.5773,313.8089],[-7.2302,8.5825,321.8777],[-7.2364,8.5921,312.7573],[-7.2356,8.6016,325.9628],[-7.2324,8.6063,319.692],[-7.2332,8.6097,323.6145],[-7.2372,8.6146,320.1326],[-7.2403,8.624,315.6248],[-7.2477,8.6296,314.401],[-7.2512,8.6341,318.2896],[-7.2524,8.6392,321.9556],[-7.2592,8.6469,315.8758],[-7.2645,8.6483,317.0768],[-7.2748,8.6608,334.3734],[-7.2836,8.6678,319.5862],[-7.2901,8.6689,328.3861],[-7.3092,8.6778,341.2997],[-7.3163,8.6754,328.1713],[-7.3299,8.6791,348.1331],[-7.3414,8.6744,344.0461],[-7.3516,8.6792,339.4743],[-7.3531,8.6829,335.9198],[-7.365,8.6792,344.7627],[-7.3737,8.6828,348.2962],[-7.3774,8.6921,344.7048],[-7.3794,8.7072,352.6408],[-7.3768,8.7094,353.3986],[-7.3792,8.7145,354.9877],[-7.3835,8.7171,354.4181],[-7.3833,8.7203,354.8373],[-7.3908,8.7268,370.2387],[-7.3908,8.7311,363.2644],[-7.3937,8.7314,361.7836],[-7.3952,8.7391,359.3751],[-7.3976,8.7412,363.1167],[-7.4058,8.7378,363.142],[-7.4102,8.7419,363.5403],[-7.4122,8.7463,360.4919],[-7.4119,8.7503,361.9574],[-7.4057,8.7559,366.4001],[-7.4132999999999996,8.76,369.188],[-7.4185,8.7602,378.9327],[-7.4261,8.7562,373.1822],[-7.4329,8.7644,380.7089],[-7.4353,8.7643,378.0533],[-7.4531,8.7769,379.2209],[-7.456,8.7816,373.7714],[-7.4634,8.7882,380.3035],[-7.4772,8.8078,373.2631],[-7.4923,8.8193,383.526],[-7.4996,8.828,383.3331],[-7.5103,8.8352,384.937],[-7.5141,8.834,374.9887],[-7.5267,8.8411,380.178],[-7.5388,8.8454,393.619],[-7.5405,8.8522,377.9428],[-7.5478,8.8594,391.6904],[-7.5495,8.8664,396.5151],[-7.5463,8.8697,389.6692],[-7.5471,8.872,385.236],[-7.545,8.8781,388.6516],[-7.5654,8.8976,394.2524],[-7.5603,8.903,392.817],[-7.5604,8.9056,395.0096],[-7.5695,8.911,387.6221],[-7.573,8.9265,393.9298],[-7.5838,8.9261,407.969],[-7.6017,8.9407,402.7498],[-7.6179,8.9455,419.1237],[-7.6209,8.9483,414.2628],[-7.6378,8.9517,416.4586],[-7.6415,8.9619,418.8891],[-7.6451,8.9615,412.0161],[-7.6527,8.9564,410.095],[-7.6753,8.9633,415.1786],[-7.6777,8.9672,412.6162],[-7.6808,8.9827,416.7179],[-7.6784,8.9978,413.4644],[-7.6787,9.0059,421.9043],[-7.6819,9.0125,419.4498],[-7.6851,9.029,428.1732],[-7.6846,9.0416,415.0625],[-7.6915,9.0529,433.3206],[-7.7056,9.0636,433.7262],[-7.7396,9.0742,464.9973],[-7.7542,9.0679,450.2941],[-7.7649,9.0662,472.2885],[-7.79,9.0727,458.4136],[-7.8015,9.0772,474.0488],[-7.8038,9.0795,488.818],[-7.813,9.0822,475.6426],[-7.8409,9.0708,510.6505],[-7.8538,9.0593,516.2823],[-7.8651,9.0403,571.5583],[-7.896,9.0281,474.0007],[-7.9183,9.004,542.0787],[-7.9208,8.9886,635.1095],[-7.9171,8.967,636.1469],[-7.9304,8.9424,667.4455],[-7.9459,8.9012,613.6809],[-7.9548,8.8694,559.8411],[-7.9626,8.8217,555.6688],[-7.9613,8.8104,534.5981],[-7.947,8.7866,515.1188],[-7.9404,8.7794,526.6419],[-7.9258,8.7693,518.5144],[-7.9159,8.7655,514.6296],[-7.9011,8.7653,528.4586],[-7.8744,8.7753,523.9395],[-7.8612,8.7777,486.2079],[-7.8455,8.7768,427.6457],[-7.8239,8.7659,443.8912],[-7.8124,8.766,419.435],[-7.7904,8.7733,433.1841],[-7.7816,8.7718,422.9799],[-7.7727,8.7671,418.5581],[-7.7679,8.762,440.9771],[-7.7636,8.7544,411.528],[-7.7621,8.7445,443.4247],[-7.7526,8.7255,440.1596],[-7.7507,8.7168,434.1361],[-7.7361,8.6826,493.3819],[-7.7268,8.6673,512.4979],[-7.7239,8.6597,525.2017],[-7.7128,8.626,528.5493],[-7.7115,8.6175,536.1259],[-7.7017,8.5957,933.2012],[-7.6993,8.5817,514.0774],[-7.697,8.5803,503.9713],[-7.6876,8.5448,504.4888],[-7.6844,8.542,503.1847],[-7.6781,8.5281,506.6172],[-7.666,8.516,494.8641],[-7.6611,8.5059,472.0123],[-7.6602,8.4854,464.4994],[-7.6663,8.4793,469.4895],[-7.6717,8.4702,435.1103],[-7.6757,8.4594,443.1132],[-7.68,8.4549,444.7724],[-7.6814,8.4485,429.7586],[-7.6801,8.4407,432.5056],[-7.6731,8.4282,427.6104],[-7.666,8.409,431.3545],[-7.6546,8.4006,426.0707],[-7.6514,8.3964,421.5902],[-7.6497,8.3879,421.9169],[-7.6411,8.3774,414.5769],[-7.6517,8.3745,418.7429],[-7.6628,8.3754,422.9305],[-7.6769,8.3742,431.0919],[-7.6834,8.372,438.2172],[-7.6896,8.373,438.1734],[-7.6954,8.371,453.6668],[-7.717,8.3748,458.5256],[-7.7451,8.3733,464.8423],[-7.7517,8.3789,455.5371],[-7.7642,8.4112,457.3879],[-7.7804,8.4436,469.1604],[-7.7884,8.4637,480.0271],[-7.7937,8.4684,478.5673],[-7.7992,8.4703,478.7432],[-7.8037,8.477,481.9869],[-7.8083,8.4801,469.1136],[-7.8228,8.4823,472.513],[-7.8273,8.4902,460.1864],[-7.8317,8.4868,472.7154],[-7.835,8.4809,478.1486],[-7.8377,8.4685,467.4333],[-7.831,8.436,463.4235],[-7.8329,8.4328,463.1707],[-7.8476,8.4218,469.8168],[-7.8524,8.42,475.1308],[-7.8764,8.4215,479.7833],[-7.8866,8.417,505.5062],[-7.8875,8.4214,479.1245],[-7.8841,8.4326,483.1204],[-7.8847,8.4349,485.9325],[-7.8926,8.4327,481.4514],[-7.909,8.4357,478.3265],[-7.9097,8.4476,475.9985],[-7.9111,8.449,478.4178],[-7.9213,8.4473,487.5233],[-7.923,8.4515,488.9294],[-7.9194,8.4627,477.0302],[-7.9171,8.4636,481.0367],[-7.9133,8.4571,488.9188],[-7.9114,8.458,485.4222],[-7.9118,8.4647,482.0191],[-7.9186,8.4762,482.2893],[-7.9234,8.4798,494.1322],[-7.9132,8.4833,478.0291],[-7.9154,8.4863,475.3225],[-7.9292,8.4913,482.6894],[-7.9381,8.5011,486.5455],[-7.9427,8.5007,480.0392],[-7.9502,8.4937,512.2543],[-7.9573,8.4947,478.9895],[-7.9631,8.4934,503.7575],[-7.9676,8.4989,496.4536],[-7.9709,8.4987,482.792],[-7.9781,8.4933,481.9886],[-7.9805,8.4862,496.9715],[-7.9851,8.4838,493.6246],[-7.998,8.4894,504.5748],[-8.0028,8.4897,483.5878],[-8.0098,8.4875,500.8822],[-8.0226,8.495,505.3002],[-8.0311,8.4958,490.0066],[-8.0378,8.4936,497.6624],[-8.045,8.4953,511.2339],[-8.0651,8.5066,493.427],[-8.0769,8.4993,494.8235],[-8.0818,8.4979,518.4692],[-8.0954,8.5058,498.3856],[-8.0984,8.504,519.5565],[-8.1036,8.4919,511.1],[-8.1197,8.4806,509.1581],[-8.1209,8.4887,497.4767],[-8.1253,8.4894,497.3527],[-8.1295,8.4872,512.9479],[-8.1341,8.4879,520.1208],[-8.1391,8.4942,501.4247],[-8.1432,8.4952,505.3414],[-8.147,8.4904,501.3948],[-8.1509,8.4895,501.8622],[-8.1533,8.484,502.5026],[-8.157,8.4862,511.2855],[-8.1564,8.4937,505.3044],[-8.1578,8.4963,502.921],[-8.1621,8.4968,502.278],[-8.1696,8.4923,505.442],[-8.1753,8.4992,504.2272],[-8.1782,8.5004,508.7505],[-8.1838,8.4996,520.2687],[-8.1969,8.5027,536.847],[-8.1983,8.5016,527.9719],[-8.1968,8.4954,527.89],[-8.2059,8.4817,528.6838],[-8.2151,8.4727,523.8843],[-8.2234,8.4681,546.4633],[-8.2205,8.4596,544.1565],[-8.2226,8.4582,536.4795],[-8.2304,8.459,548.9495],[-8.2334,8.4604,543.1534],[-8.2338,8.4657,532.5894],[-8.2354,8.4657,531.457],[-8.2408,8.4608,547.2247],[-8.2424,8.4569,558.8703],[-8.2416,8.4504,535.9872],[-8.2456,8.4426,540.0318],[-8.2397,8.4292,551.7484],[-8.2368,8.3951,579.6951],[-8.2258,8.3607,580.6439],[-8.2257,8.3549,542.0392],[-8.2288,8.3453,571.298],[-8.238,8.3278,546.0142],[-8.2376,8.3202,559.8113],[-8.2307,8.3003,539.8717],[-8.2317,8.2891,544.2238],[-8.2302,8.2804,534.2289],[-8.2329,8.2733,523.6545],[-8.2464,8.2603,521.8842],[-8.2488,8.2537,520.6021],[-8.2481,8.236,534.233],[-8.244,8.2286,517.7709],[-8.2303,8.226,542.8434],[-8.2251,8.2334,517.0811],[-8.2191,8.234,530.6571],[-8.2074,8.2274,526.7138],[-8.1894,8.2065,508.1849],[-8.1796,8.1998,523.532],[-8.1667,8.1964,495.0596],[-8.1264,8.1962,498.6294],[-8.1037,8.184,507.7026],[-8.1017,8.1775,510.1458],[-8.0937,8.1731,508.679],[-8.0891,8.1671,521.0443],[-8.0689,8.1615,488.3987],[-8.0645,8.1644,503.8489],[-8.0514,8.1804,496.8872],[-8.0433,8.2021,512.4658],[-8.0396,8.2055,512.9439],[-8.0348,8.2045,488.8799],[-8.0237,8.1876,490.1923],[-8.0179,8.1864,504.2656],[-8.0142,8.1914,491.6864],[-8.0042,8.1986,500.2718],[-7.9984,8.1985,497.1953],[-7.9936,8.1927,520.5489],[-7.9933,8.1836,487.5846],[-7.9959,8.1762,495.7274],[-8.009,8.1638,493.146],[-8.01,8.1574,481.827],[-8.0076,8.1422,498.0763],[-8.0093,8.1337,465.6767],[-8.0154,8.1246,476.6092],[-8.0143,8.1195,498.7582],[-8.0102,8.1148,475.6721],[-8.0145,8.1023,468.6751],[-8.0106,8.094,492.8462],[-7.9932,8.0868,483.9917],[-7.9871,8.0817,478.6],[-7.9811,8.0793,473.9117],[-7.9696,8.062,461.2454],[-7.9633,8.0472,469.6026],[-7.9466,8.0424,448.4188],[-7.9504,8.0305,469.6339],[-7.9463,8.0252,447.0104],[-7.9465,8.023,447.3309],[-7.9394,8.0171,443.2256],[-7.9346,8.0199,441.8944],[-7.9284,8.0132,438.3179],[-7.9249,8.012,442.2018],[-7.9154,8.0131,440.6612],[-7.9144,8.0109,443.4539],[-7.9106,8.0106,443.6687],[-7.9083,8.007,441.0883],[-7.897,8.0081,441.0906],[-7.8885,8.0117,435.9],[-7.8859,8.0227,438.3837],[-7.8835,8.0208,446.9176],[-7.8673,8.02,440.3182],[-7.8592,8.0173,441.018],[-7.8577,8.0146,448.6353],[-7.8585,8.0011,434.8675],[-7.85,7.9979,435.8639],[-7.8495,7.9961,440.4875],[-7.8531,7.9898,434.7998],[-7.8475,7.9866,433.2509],[-7.844,7.9799,434.5636],[-7.8484,7.9725,441.3754],[-7.8451,7.956,431.3809],[-7.8466,7.9548,441.545],[-7.8431,7.9555,431.3809],[-7.839,7.9591,436.4199],[-7.8328,7.9552,439.8347],[-7.8281,7.954,434.7698],[-7.8243,7.9552,440.5304],[-7.8216,7.9538,434.3664],[-7.8177,7.9435,445.3377],[-7.815,7.941,437.1055],[-7.8007,7.9392,436.6703],[-7.7992,7.9367,437.012],[-7.8012,7.9337,439.9783],[-7.8025,7.9245,434.0906],[-7.8034,7.9166,434.4406],[-7.8021,7.9141,442.1978],[-7.7954,7.9168,429.8711],[-7.7878,7.9134,437.9119],[-7.7851,7.9088,430.9258],[-7.7852,7.9044,432.3416],[-7.773,7.8905,429.7467],[-7.7644,7.8873,435.0657],[-7.7615,7.8885,439.6459],[-7.7587,7.8956,436.6042],[-7.7544,7.8953,434.7329],[-7.7322,7.8829,437.2689],[-7.7227,7.8874,435.9821],[-7.7207,7.8865,432.4197],[-7.7176,7.882,432.6274],[-7.7202,7.8788,433.2776],[-7.7198,7.8751,434.9165],[-7.714,7.8647,436.2901],[-7.7116,7.8633,439.7159],[-7.7039,7.8641,439.0411],[-7.7016,7.8541,423.9529],[-7.6924,7.8467,415.9632],[-7.6804,7.8542,406.0399],[-7.67,7.8442,404.5312],[-7.6619,7.8415,416.114],[-7.6474,7.8414,418.5167],[-7.6419,7.8486,405.3353],[-7.6305,7.8499,412.8765],[-7.6285,7.8525,428.3073],[-7.6292,7.859,411.1149],[-7.626,7.8706,414.3093],[-7.6094,7.8703,404.0642],[-7.6058,7.8649,387.5535],[-7.5966,7.8595,393.3552],[-7.5874,7.8595,386.7126],[-7.5808,7.8669,386.2458],[-7.5734,7.8672,391.5925],[-7.5728,7.8701,384.0768],[-7.568,7.8609,381.1116],[-7.5644,7.8617,395.0276],[-7.5599,7.8671,381.4413],[-7.5545,7.8656,388.9003],[-7.55,7.8707,389.4286],[-7.5493,7.8743,385.8392],[-7.5452,7.8779,388.9004],[-7.5432,7.8837,379.6811],[-7.5337,7.8806,377.3784],[-7.53,7.8829,377.7793],[-7.5211,7.8809,383.6713],[-7.5186,7.8835,377.7116],[-7.5206,7.8951,378.6862],[-7.5186,7.8964,380.9507],[-7.5146,7.8961,381.5072],[-7.5129,7.8983,389.4288],[-7.5109,7.9081,372.8798],[-7.5209,7.9172,369.3049],[-7.5113,7.9233,362.9686],[-7.5067,7.922,374.9805],[-7.5045,7.9229,366.9197],[-7.5012,7.9267,364.8961],[-7.5024,7.9322,393.6604],[-7.5091,7.9377,382.7163],[-7.5134,7.9381,383.0642],[-7.5184,7.9421,394.4088],[-7.5132,7.9582,408.4265],[-7.5106,7.9769,405.1399],[-7.5135,7.982,425.3742],[-7.5135,7.9896,427.8935],[-7.5083,8.0013,455.3964],[-7.506,8.0149,436.1974],[-7.5088,8.0198,437.3997],[-7.5083,8.0228,430.7099],[-7.5049,8.0258,461.3611],[-7.5029,8.044,448.0822],[-7.5077,8.0472,440.0856],[-7.509,8.0519,450.8355],[-7.516,8.0579,446.585],[-7.4846,8.1289,408.8256],[-7.4798,8.1315,410.8965],[-7.4691,8.1465,414.4183],[-7.463,8.1491,405.7066],[-7.4541,8.1559,399.5836],[-7.4482,8.157,392.8212],[-7.4328,8.1558,384.2545],[-7.4284,8.1382,403.8521],[-7.4226,8.1295,428.3867],[-7.4097,8.1298,435.159],[-7.3976,8.1241,410.4998],[-7.3855,8.1138,398.7009],[-7.3536,8.0961,382.3684],[-7.3423,8.0871,367.4606],[-7.3393,8.086,368.4581],[-7.333,8.0868,364.7483],[-7.3245,8.08,360.4661],[-7.3189,8.0729,358.2014],[-7.3156,8.0716,357.4117],[-7.3117,8.0724,359.3318],[-7.3092,8.0688,353.3508],[-7.3053,8.0675,351.416],[-7.2931,8.0658,346.6384],[-7.2922,8.0622,349.0569],[-7.2877,8.0572,344.3325],[-7.2845,8.0483,337.5683],[-7.2726,8.0401,329.264],[-7.2695,8.0364,333.2846],[-7.2657,8.0262,326.7035],[-7.2578,8.018,324.4607],[-7.2552,8.0105,321.9279],[-7.2527,7.9908,312.7225],[-7.249,7.9914,311.6331],[-7.2458,7.9805,309.9671],[-7.243,7.9784,307.0692],[-7.2386,7.9789,306.4335],[-7.2349,7.9774,301.9232],[-7.2283,7.9717,297.3488],[-7.2262,7.9728,299.4001],[-7.2238,7.9681,299.6248],[-7.2181,7.963,294.4089],[-7.2148,7.9544,292.3702],[-7.2148,7.9443,284.819],[-7.2111,7.9329,286.7331],[-7.2125,7.9225,285.1088],[-7.21,7.915,279.899],[-7.2077,7.9145,280.1878],[-7.2075,7.911,280.5937],[-7.2017,7.9102,282.5517],[-7.2004,7.9064,276.7046],[-7.2031,7.8878,270.1151],[-7.206,7.8834,268.3656],[-7.202,7.8767,270.8222],[-7.1985,7.8765,269.9636],[-7.188,7.8689,263.8382],[-7.1807,7.8608,265.1161],[-7.1731,7.8634,263.6],[-7.1623,7.8645,275.4377],[-7.1588,7.8676,260.937],[-7.1501,7.87,268.369],[-7.1471,7.873,256.5267],[-7.139,7.875,254.135],[-7.1299,7.8732,260.0819],[-7.126,7.8657,258.4398],[-7.1202,7.8644,260.1797],[-7.1135,7.8585,249.7007],[-7.1108,7.8596,258.2261],[-7.1095,7.8644,252.4322],[-7.0956,7.8611,249.3756],[-7.088,7.8623,250.1097],[-7.0776,7.8577,256.3595],[-7.0742,7.8525,250.7924],[-7.0739,7.8191,249.0891],[-7.0782,7.8123,247.969],[-7.0787,7.8068,245.6362],[-7.0763,7.7966,248.059],[-7.0779,7.7901,245.761],[-7.0771,7.7638,242.6009],[-7.0727,7.7308,244.1232],[-7.0756,7.7232,243.8054],[-7.0723,7.7192,244.1485],[-7.0774,7.6886,234.6292],[-7.0697,7.6873,241.7364],[-7.05,7.6938,285.8951],[-7.0136,7.7993,310.7653],[-7.0021,7.7914,306.7065],[-6.983,7.8008,297.1052],[-6.9633,7.8064,301.103],[-6.9537,7.8017,292.7956],[-6.9441,7.8006,286.2707],[-6.9362,7.7954,277.6076],[-6.9244,7.7929,293.0822],[-6.8994,7.7919,280.3987],[-6.8743,7.7933,274.8144],[-6.8681,7.7892,284.7751],[-6.8599,7.7881,283.1317],[-6.8502,7.7976,293.8174],[-6.8326,7.7918,298.2537],[-6.8219,7.7907,320.5724],[-6.8111,7.7921,338.6992],[-6.795,7.7886,505.7348],[-6.7884,7.7827,359.3592],[-6.7729,7.7859,303.2175],[-6.7559,7.7829,288.1441],[-6.7465,7.7791,315.2705],[-6.7122,7.7711,285.001],[-6.6961,7.781,297.2488],[-6.687,7.7894,315.9659],[-6.6831,7.7961,318.0148],[-6.677,7.7977,318.895],[-6.6612,7.7962,331.7394],[-6.6446,7.7975,344.1277],[-6.6231,7.7892,325.3598],[-6.6207,7.7859,318.8276],[-6.617,7.7892,321.8625],[-6.6005,7.7917,344.747],[-6.5857,7.7894,339.4144],[-6.5787,7.7857,333.0057],[-6.5543,7.7849,302.1107],[-6.5468,7.7771,312.3069],[-6.5333,7.7731,298.0719],[-6.5297,7.7655,302.7593],[-6.5289,7.7574,292.5636],[-6.5255,7.7536,297.3756],[-6.5258,7.7488,291.1673],[-6.4903,7.7397,314.5229],[-6.4667,7.736,301.1874],[-6.4194,7.7712,321.2504],[-6.4117,7.7724,316.9583],[-6.4086,7.7785,317.5859],[-6.4026,7.7815,313.7332],[-6.3895,7.782,293.7907],[-6.3714,7.7789,297.5429],[-6.36,7.7761,297.7126],[-6.3552,7.7725,297.8795],[-6.3469,7.7826,300.5311],[-6.3347,7.7874,281.9685],[-6.3282,7.7933,277.3636],[-6.3172,7.7932,272.5485],[-6.3032,7.7895,267.1772],[-6.2961,7.7935,260.4827],[-6.2866,7.7905,265.2341],[-6.2732,7.7766,249.3071],[-6.2493,7.7726,236.4551],[-6.2355,7.7738,237.3308],[-6.2382,7.7625,223.9982],[-6.2376,7.7566,237.7023],[-6.21,7.7264,230.0865],[-6.2168,7.6925,214.3426],[-6.214,7.6871,217.6463],[-6.2093,7.6852,216.3663],[-6.2029,7.685,212.1435],[-6.1814,7.6739,209.734],[-6.1734,7.6645,208.6946],[-6.1683,7.661,207.5945]]]]}
,"properties": {"GID_1": "CIV.12_1","GID_0": "CIV","country": "Côted'Ivoire","province": "Woroba","VARNAME_1": "NA","NL_NAME_1": "NA","TYPE_1": "District","ENGTYPE_1": "District","CC_1": "NA","HASC_1": "CI.WB","ISO_1": "CI-WR","name": "Woroba.province","area_km2": 31649.03,"hist_schema_id": "Elevation0-9000","hist_area_km2": {"175": 12.1,"200": 182.2,"225": 359.09,"250": 899.29,"275": 2402.04,"300": 4321.32,"325": 5261.88,"350": 4662.98,"375": 3621.49,"400": 2686.23,"425": 1737.41,"450": 1169.51,"475": 1149.64,"500": 1004.0,"525": 841.82,"550": 601.35,"575": 300.74,"600": 142.37,"625": 90.24,"650": 56.65,"675": 41.97,"700": 29.6,"725": 20.61,"750": 15.83,"775": 11.7,"800": 8.43,"825": 6.27,"850": 4.59,"875": 2.75,"900": 1.99,"925": 1.26,"950": 1.22,"975": 0.36}}}