{"type":"Feature","properties":{"ISO3166-1-Alpha-3":"CIV","country":"Ivory Coast","fill":"#F0F","id":"3451","name":"Agnéby"},
"geometry":{"type": "Polygon","coordinates": [[[-3.61132,6.35584,112.2615],[-3.62187,6.40423,110.6431],[-3.62843,6.40834,115.232],[-3.64817,6.4279,108.8571],[-3.6523,6.43434,137.5259],[-3.65344,6.43731,121.1614],[-3.65602,6.44149,125.5316],[-3.65861,6.44723,122.1227],[-3.65975,6.45483,113.3581],[-3.65752,6.45831,112.0199],[-3.65261,6.46291,125.3216],[-3.64765,6.4686,103.5],[-3.64548,6.47532,114.9605],[-3.65143,6.52058,116.3257],[-3.65602,6.53025,110.4927],[-3.66078,6.53712,119.8993],[-3.66357,6.55368,106.0],[-3.66595,6.56128,113.801],[-3.67008,6.56547,142.6371],[-3.68259,6.57513,124.9732],[-3.68641,6.58177,116.6379],[-3.68579,6.59446,116.8814],[-3.67804,6.62347,117.0157],[-3.68021,6.63639,112.7488],[-3.69044,6.64469,117.9812],[-3.69995,6.63941,117.6747],[-3.71437,6.62272,119.6896],[-3.71948,6.62226,131.3237],[-3.7417,6.62272,118.0971],[-3.75607,6.62016,151.8276],[-3.76899,6.6159,119.3847],[-3.77488,6.62714,122.0839],[-4.0344,6.50154,126.3505],[-4.08866,6.48345,106.6173],[-4.09765,6.47694,100.211],[-4.10323,6.47082,84.6055],[-4.10442,6.46563,87.6275],[-4.10711,6.45839,83.5064],[-4.1114,6.45049,83.9346],[-4.13672,6.42302,98.766],[-4.14225,6.41488,91.9641],[-4.15057,6.39571,91.1079],[-4.15543,6.37313,78.6861],[-4.15615,6.36049,73.4222],[-4.15584,6.35413,82.3426],[-4.15305,6.33675,79.5857],[-4.15305,6.3307,78.737799999999993],[-4.15434,6.31936,79.1418],[-4.15419,6.30819,76.1671],[-4.15532,6.29781,64.4382],[-4.15057,6.27639,73.5031],[-4.14643,6.26685,69.2585],[-4.14499,6.26132,62.2575],[-4.14478,6.24846,78.3726],[-4.14659,6.23425,59.4136],[-4.22653,6.19019,71.6029],[-4.24824,6.18539,67.4398],[-4.25309,6.1881,68.4614],[-4.27459,6.19267,90.1311],[-4.30777,6.20422,126.1429],[-4.34125,6.21213,111.9882],[-4.34761,6.2151,116.5689],[-4.35169,6.21797,104.4213],[-4.35919,6.22456,105.5182],[-4.38378,6.24086,118.1281],[-4.3973699999999996,6.24784,108.8521],[-4.4011,6.25117,115.3306],[-4.40425,6.25473,111.9156],[-4.40828,6.26442,119.1648],[-4.41112,6.26972,138.8271],[-4.41505,6.27437,127.0823],[-4.42218,6.27949,148.4031],[-4.42776,6.27887,124.8323],[-4.4321,6.27608,144.9202],[-4.463,6.22401,145.51],[-4.65912,5.85812,106.8234],[-4.46166,5.7311,98.508],[-4.43727,5.67976,88.3657],[-4.44171,5.66446,86.1463],[-4.4321,5.65283,70.7198],[-4.41639,5.6418,72.274],[-4.36931,5.6155,65.7123],[-4.33981,5.60255,45.1478],[-4.30751,5.60116,46.1519],[-3.93125,5.62162,20.7765],[-3.92061,5.6318,35.5632],[-3.9188,5.63886,25.7141],[-3.91813,5.64544,31.6062],[-3.92464,5.75787,25.4715],[-3.90423,5.7875,66.4407],[-3.88929,5.79427,60.6038],[-3.88123,5.79613,35.8104],[-3.86965,5.80078,39.8854],[-3.85715,5.8114,34.6633],[-3.81514,5.85525,60.9596],[-3.74181,5.90243,54.8881],[-3.73282,5.90569,65.4951],[-3.72491,5.90708,79.3892],[-3.71845,5.90615,75.0401],[-3.46766,5.83755,155.4972],[-3.46679,5.85773,160.9523],[-3.46265,5.87538,103.5808],[-3.4303,5.93734,98.6261],[-3.42782,5.94835,89.5836],[-3.42699,5.96139,116.3579],[-3.42353,5.97124,92.8314],[-3.41521,5.97496,83.0],[-3.40488,5.97697,93.3041],[-3.39563,5.98186,124.014],[-3.38462,6.0017,100.5686],[-3.38607,6.02183,108.7317],[-3.39656,6.03834,95.8857],[-3.41273,6.04736,92.0302],[-3.41066,6.05209,121.1204],[-3.40736,6.06322,91.1462],[-3.40529,6.06782,97.4266],[-3.4211,6.06369,106.9349],[-3.42699,6.061,121.1446],[-3.4242,6.0804,91.3592],[-3.41196,6.09139,97.2521],[-3.39857,6.09999,99.7594],[-3.39222,6.11221,125.6383],[-3.39563,6.1628,125.0665],[-3.40359,6.17086,105.1695],[-3.42028,6.20531,124.9657],[-3.4332,6.21182,149.7632],[-3.44415,6.20582,103.2373],[-3.44916,6.18942,102.9181],[-3.46048,6.19073,102.264],[-3.45893,6.19445,96.9078],[-3.46441,6.20577,108.3484],[-3.47133,6.21642,103.7318],[-3.4765,6.21954,105.9146],[-3.48136,6.22701,103.0528],[-3.48353,6.23523,134.9252],[-3.47784,6.23915,98.2182],[-3.45821,6.24089,105.7896],[-3.45676,6.24631,113.6773],[-3.46348,6.25579,107.7935],[-3.47795,6.29644,97.1942],[-3.50074,6.32977,105.4542],[-3.54244,6.3763,103.3347],[-3.55536,6.35346,153.9667],[-3.57138,6.353,126.7599],[-3.59014,6.3591,114.4989],[-3.61132,6.35584,112.2615]]]}}