{"type":"Feature","properties":{"featurecla":"River","scalerank":7,"rivernum":381,"dissolve":"381River","name":"Komoé3","name_alt":null,"note":null,"min_zoom":6.0,"strokeweig":0.25,"name_en":"Komoé","min_label":7.0},
"geometry":{"type": "LineString","coordinates": [[-3.9473144531249891,8.6374697937441169,185.6558],[-3.937255859375,8.62897369999412,213.2325],[-3.92724609375,8.6086611999941169,194.9667],[-3.9211914062499891,8.5865420593691084,195.4075],[-3.923095703125,8.57257721561912,194.1723],[-3.950927734375,8.55170319218162,179.5941],[-3.9583496093749768,8.53839752811912,189.1019],[-3.9756347656249891,8.53302643436912,178.3533],[-3.9814453125,8.5276065124941169,182.4281],[-3.97890625,8.50971100468162,207.2349],[-3.9422363281249768,8.48932526249412,192.8557],[-3.9329589843749768,8.46954987186912,175.9187],[-3.9438964843749891,8.43817780155662,181.6919],[-3.9647705078124891,8.4312686218691084,175.9918],[-3.9784423828124891,8.42865631718162,188.8742],[-3.9814453125,8.43195221561912,178.6364],[-3.988037109375,8.41889069218162,183.4294],[-3.9859374999999768,8.41095612186912,186.3572],[-3.9798339843749768,8.40485260624412,178.9093],[-3.974609375,8.3972354187441169,193.2533],[-3.9722656249999768,8.39606354374412,200.7667],[-3.9682128906249829,8.3963565124941084,200.7655],[-3.9639160156249891,8.39557526249412,191.8089],[-3.9609863281249891,8.3909854187441084,186.21],[-3.960693359375,8.3835635437441169,182.9756],[-3.9631835937499891,8.37933991093162,180.4212],[-3.96630859375,8.37641022343162,178.9686],[-3.9677734375,8.37299225468162,174.1341],[-3.9705078124999891,8.3640322937441169,188.2251],[-3.9747802734374891,8.3613467468691169,174.9354],[-3.9747070312499768,8.35785553593162,182.5358],[-3.96435546875,8.34662506718162,191.8046],[-3.9593261718749768,8.33893463749412,182.8549],[-3.95751953125,8.32929108280662,174.2225],[-3.9600585937499768,8.31879303593162,175.2089],[-3.9677734375,8.3084658874941084,185.5254],[-3.982421875,8.3057803406191084,179.2357],[-4.0320800781249773,8.30621979374412,172.7981],[-4.0429199218749829,8.30475494999412,171.0263],[-4.0419189453124886,8.2950381531191084,186.5733],[-4.0376464843749886,8.28095123905662,178.7013],[-4.0366699218749886,8.27094147343162,169.8128],[-4.031494140625,8.26410553593162,172.437],[-4.0079101562499773,8.2500186218691169,176.4919],[-4.001953125,8.24017975468162,173.2495],[-4.0044921874999773,8.22833893436912,177.3577],[-4.01953125,8.2076358093691084,179.42],[-4.0230468749999773,8.19550202030662,175.7641],[-4.0201171874999773,8.18366119999412,176.1465],[-4.0126953125,8.1806826843691169,179.3977],[-4.002685546875,8.17987702030662,170.2856],[-3.9919921874999891,8.1746768249941084,174.8742],[-3.9537841796874891,8.12775299686912,175.6125],[-3.9404785156249891,8.11603424686912,183.0707],[-3.9429687499999768,8.11090729374412,190.6591],[-3.9507812499999768,8.09992096561912,169.6463],[-3.9547607421874891,8.09552643436912,185.0245],[-3.977294921875,8.1028018249941169,173.9733],[-3.9944824218749768,8.08966705936912,168.2011],[-4.0054687499999773,8.06513092655662,173.4007],[-4.0161621093749886,7.98322174686912,166.5098],[-4.0101074218749773,7.96674225468162,167.1605],[-3.99560546875,7.96710846561912,164.8593],[-3.9784423828124891,7.97199127811912,162.3405],[-3.96435546875,7.9692569031191169,167.2137],[-3.9545410156249829,7.9688662781191084,167.0905],[-3.944091796875,7.9764346374941084,160.5912],[-3.9344238281249768,7.97772858280662,167.9785],[-3.9268066406249891,7.9583682312441084,168.5228],[-3.92919921875,7.9492373718691169,159.3634],[-3.9371093749999768,7.93952057499412,159.9123],[-3.9547607421874891,7.92487213749412,164.3016],[-3.968505859375,7.9185733093691084,162.3936],[-3.9775390625,7.91620514530662,161.3038],[-3.9767578124999829,7.91290924686912,173.9477],[-3.9609863281249891,7.90375397343162,165.1181],[-3.9462890625,7.89862702030662,157.7465],[-3.9166992187499829,7.8916201843691169,163.2613],[-3.9062988281249891,7.8833194031191169,166.6807],[-3.8931640624999768,7.89435455936912,168.7462],[-3.880126953125,7.8850283874941169,165.8234],[-3.8697265624999768,7.8662295593691169,156.3212],[-3.86474609375,7.84918854374412,161.7744],[-3.8671386718749829,7.8436221374941084,156.197],[-3.87255859375,7.8376651062441169,159.5837],[-3.876708984375,7.83148834843162,165.382],[-3.8752929687499891,7.82526276249412,154.5923],[-3.868408203125,7.81659577030662,158.7984],[-3.8660156249999891,7.8122744812441169,154.363],[-3.85986328125,7.79266998905662,159.7235],[-3.861572265625,7.78558991093162,153.801],[-3.8721679687499768,7.7808779968691084,157.737],[-3.8721679687499768,7.7740420593691084,152.7847],[-3.8499023437499891,7.7737002624941169,154.7813],[-3.8341796874999829,7.7702822937441169,154.1897],[-3.8236816406249829,7.7601260437441084,162.9524],[-3.8169433593749891,7.73993561405662,153.6942],[-3.8060058593749768,7.7448916687441169,151.8008],[-3.7964843749999768,7.74457428593162,152.1041],[-3.7884277343749768,7.7402529968691169,151.3621],[-3.7822265625,7.73309967655662,157.3766],[-3.7624023437499829,7.73517487186912,149.0828],[-3.740234375,7.73273346561912,174.1679],[-3.727294921875,7.72199127811912,153.6474],[-3.7350585937499829,7.69891998905662,152.5596],[-3.72607421875,7.6660342468691169,153.3649],[-3.7148925781249891,7.65485260624412,149.0078],[-3.6900390624999768,7.6505069031191084,156.4497],[-3.6782714843749891,7.64398834843162,159.4895],[-3.6744140624999768,7.6297549499941084,156.2891],[-3.67333984375,7.61542389530662,148.9196],[-3.6698242187499939,7.60895416874412,148.1677],[-3.6580566406249768,7.6050967468691084,162.9474],[-3.6520263671874891,7.5964541687441169,159.2244],[-3.6470214843749891,7.58722565311912,157.9515],[-3.63818359375,7.58161041874412,150.8507],[-3.5984863281249768,7.59174225468162,149.9509],[-3.5789062499999891,7.5870303406191084,153.9533],[-3.570556640625,7.55744049686912,162.3317],[-3.5759765624999891,7.5454287781191169,147.2676],[-3.595703125,7.5263858093691169,151.1825],[-3.5940917968749768,7.51679108280662,150.4208],[-3.5861328124999829,7.51093170780662,148.3047],[-3.57421875,7.50556061405662,150.9259],[-3.5613769531249768,7.50153229374412,145.1678],[-3.550048828125,7.49970123905662,143.2155],[-3.550048828125,7.49970123905662,143.2155],[-3.550048828125,7.49970123905662,143.2155],[-3.550048828125,7.49970123905662,143.2155],[-3.550048828125,7.49970123905662,143.2155],[-3.5415527343749891,7.49555084843162,153.3996],[-3.5372802734374891,7.48944733280662,144.683],[-3.5340332031249768,7.48163483280662,143.25],[-3.5120605468749768,7.4494815124941169,145.2633],[-3.5090820312499891,7.44879791874412,149.9216],[-3.5029296875,7.4078311218691084,145.9635],[-3.505859375,7.39203522343162,140.2075],[-3.5221435546874891,7.38361237186912,145.2637],[-3.5204589843749829,7.3607119812441084,144.0978],[-3.5447753906249768,7.32306549686912,148.3302],[-3.5425781249999768,7.30109284061912,151.2514],[-3.5354980468749768,7.30390045780662,151.2775],[-3.5283203125,7.30792877811912,154.9733],[-3.5274414062499768,7.30451080936912,153.276],[-3.527587890625,7.3021182312441084,156.3545],[-3.5264648437499768,7.3008975281191084,155.7777],[-3.5221435546874891,7.30109284061912,143.4651],[-3.5284667968749939,7.28583405155662,157.132],[-3.5361328125,7.28082916874412,148.5706],[-3.55625,7.27997467655662,155.4493],[-3.58251953125,7.27472565311912,141.9081],[-3.5835937499999768,7.2686709656191084,150.1451],[-3.5828124999999891,7.23944733280662,147.2088],[-3.580810546875,7.22858307499412,143.571],[-3.5801269531249891,7.21808502811912,149.3583],[-3.5835937499999768,7.20551178593162,149.425],[-3.5892822265624891,7.19269440311912,140.9774],[-3.5933105468749891,7.18659088749412,139.7496],[-3.5994628906249768,7.18292877811912,137.8884],[-3.6114990234374891,7.17755768436912,161.54],[-3.6146972656249829,7.19440338749412,135.7076],[-3.6250976562499768,7.19769928593162,135.8903],[-3.6373046874999768,7.1909365906191169,160.9527],[-3.6456054687499768,7.17755768436912,146.0379],[-3.6454589843749829,7.1653018249941169,133.7581],[-3.63623046875,7.13287994999412,139.1295],[-3.6320068359374891,7.1229190124941084,139.3032],[-3.623291015625,7.11261627811912,142.9498],[-3.6124023437499768,7.1075381531191084,141.8097],[-3.5835937499999768,7.10248444218162,139.9698],[-3.5830566406249891,7.10553619999412,132.8133],[-3.5759765624999891,7.10993073124412,135.6666],[-3.5677246093749768,7.11151764530662,132.0109],[-3.563720703125,7.1062197937441169,132.9417],[-3.5646240234374891,7.09906647343162,136.6272],[-3.5673828125,7.0940127624941169,139.2386],[-3.5716308593749768,7.09052155155662,139.4413],[-3.577392578125,7.08820221561912,130.9031],[-3.5701171874999891,7.0717959656191169,135.4344],[-3.583251953125,7.07074616093162,142.5437],[-3.6189453124999891,7.08197662968162,141.3554],[-3.6215332031249829,7.06037018436912,139.6079],[-3.634521484375,7.05109284061912,137.1317],[-3.6661132812499768,7.04718659061912,137.7589],[-3.684375,7.0395694031191169,130.3732],[-3.69482421875,7.02887604374412,131.9696],[-3.7029785156249768,7.0171084656191169,133.9672],[-3.7145263671874891,7.00629303593162,127.7579],[-3.7517578124999891,7.00006744999412,128.6725],[-3.775390625,6.97894928593162,131.5466],[-3.7779296874999768,6.9539736999941084,145.5917],[-3.771484375,6.93720123905662,133.9408],[-3.7618164062499768,6.9362979187441169,141.792],[-3.7554687499999768,6.95905182499412,150.8345],[-3.741455078125,6.9488467468691084,126.5029],[-3.73193359375,6.9300479187441084,128.6384],[-3.7298339843749768,6.91193268436912,137.5821],[-3.7383789062499768,6.90387604374412,133.0797],[-3.7481445312499768,6.89777252811912,127.7114],[-3.7616455078124891,6.8831729187441084,130.9946],[-3.7727539062499891,6.8652529968691169,138.0137],[-3.775390625,6.84918854374412,127.1912],[-3.766845703125,6.8437686218691169,126.8453],[-3.750244140625,6.82953522343162,139.437],[-3.7403320312499768,6.8149600281191169,138.2253],[-3.7517578124999891,6.80829498905662,126.2424],[-3.754150390625,6.8010440124941169,131.8111],[-3.7964843749999768,6.75983307499412,125.8572],[-3.7706054687499768,6.70575592655662,123.5251],[-3.7722656249999891,6.6841983093691084,151.1037],[-3.8033203124999768,6.67108795780662,146.5443],[-3.7890625,6.6597842468691084,125.7827],[-3.782470703125,6.64691803593162,129.1395],[-3.7777587890624891,6.63226959843162,122.1862],[-3.7691406249999768,6.6158389343691084,119.3847],[-3.7562011718749768,6.6201358093691169,151.8276],[-3.7418945312499829,6.6226748718691084,118.0971],[-3.7197265625,6.6221865906191084,131.3237],[-3.7145263671874891,6.6226748718691084,119.6896],[-3.7001953125,6.63934967655662,117.6747],[-3.6905761718749939,6.6446475281191084,118.5669],[-3.680419921875,6.63629791874412,116.5778],[-3.67822265625,6.6234072937441084,111.6613],[-3.68603515625,6.5943545593691084,116.8814],[-3.6866210937499768,6.58173248905662,116.2039],[-3.6828124999999829,6.5750674499941084,124.9732],[-3.6702636718749768,6.5654483093691169,142.6371],[-3.6661132812499768,6.56122467655662,113.801],[-3.6637451171874891,6.5535830749941084,106.0],[-3.6609374999999891,6.53705475468162,126.1003],[-3.65625,6.53021881718162,110.4927],[-3.651611328125,6.5205264343691169,124.0198],[-3.6456054687499768,6.47528717655662,114.9605],[-3.6479003906249829,6.46857330936912,103.5],[-3.6527587890624891,6.46283600468162,125.3216],[-3.65771484375,6.4582705749941169,107.7916],[-3.659912109375,6.45477936405662,113.3581],[-3.6587402343749891,6.44721100468162,122.1227],[-3.65625,6.4414248718691169,125.5316],[-3.6536132812499891,6.43720123905662,120.3967],[-3.6524414062499768,6.43427155155662,137.5259],[-3.6482910156249768,6.4278506531191084,108.8571],[-3.6286132812499829,6.40827057499412,115.232],[-3.6220703125,6.4041690124941084,110.6431],[-3.6114990234374891,6.35578034061912,112.2615],[-3.59033203125,6.35907623905662,114.4989],[-3.5715820312499891,6.35297272343162,126.7599],[-3.5555175781249768,6.3533877624941084,153.9667],[-3.5425781249999768,6.3762393249941169,103.3347],[-3.5009033203124891,6.32965729374412,105.4542],[-3.478125,6.2964053406191169,97.1942],[-3.463623046875,6.25568268436912,107.7935],[-3.4569824218749829,6.24628327030662,113.6773],[-3.4583007812499891,6.2408389343691084,105.7896],[-3.47802734375,6.23908112186912,98.2182],[-3.4836914062499891,6.23517487186912,134.9252],[-3.4814941406249891,6.2269229187441084,103.0528],[-3.4766601562499768,6.2195010437441169,103.181],[-3.4714843749999891,6.2163272156191169,103.7318],[-3.464599609375,6.2056826843691084,108.3484],[-3.4590820312499768,6.19440338749412,96.9078],[-3.460693359375,6.1906924499941169,102.264],[-3.4494140624999829,6.1893252624941084,102.9181],[-3.4443359375,6.20575592655662,103.2373],[-3.433349609375,6.21173737186912,146.0594],[-3.4204589843749891,6.20526764530662,124.9657],[-3.40380859375,6.17084381718162,105.1695],[-3.3958007812499891,6.1627139343691084,125.0665],[-3.3923828124999891,6.11212799686912,125.6383],[-3.3987304687499891,6.09992096561912,99.7594],[-3.4121582031249891,6.0913272156191169,97.2521],[-3.4244140624999768,6.0803408874941169,91.3592],[-3.4270996093749768,6.06098053593162,121.1446],[-3.4212402343749768,6.0635928406191084,106.9349],[-3.4054443359374891,6.0677432312441084,97.4266],[-3.4075683593749768,6.06317780155662,91.1462],[-3.410888671875,6.0520205749941169,104.511],[-3.4128906249999891,6.04730866093162,100.782],[-3.396728515625,6.03827545780662,95.8857],[-3.38623046875,6.0217471374941169,108.7317],[-3.3848144531249891,6.00165436405662,100.5686],[-3.3958007812499891,5.9818057312441084,124.014],[-3.4050781249999891,5.9769229187441084,93.3041],[-3.4153808593749768,5.97492096561912,83.0],[-3.4237792968749829,5.9712100281191169,92.8314],[-3.4270996093749768,5.9612979187441084,116.3579],[-3.427978515625,5.94830963749412,89.5836],[-3.4304687499999891,5.9372744812441169,98.6261],[-3.4628417968749829,5.87531159061912,103.5808],[-3.4669677734374891,5.8576846374941169,160.9523],[-3.4681152343749768,5.83100006718162,152.1684],[-3.4654296874999768,5.80683014530662,125.3776],[-3.4580566406249891,5.79608795780662,52.7132],[-3.4470703124999891,5.7898135437441169,126.7172],[-3.433349609375,5.7791690124941084,55.5062]]}}