{"type":"Feature","properties":{"GID_3":"CIV.2.3.2_1","GID_0":"CIV","country":"Côted'Ivoire","GID_1":"CIV.2_1","province":"Bas-Sassandra","NL_NAME_1":"NA","GID_2":"CIV.2.3_1","county":"San-Pédro","NL_NAME_2":"NA","city":"Tabou","VARNAME_3":"NA","NL_NAME_3":"NA","TYPE_3":"Département","ENGTYPE_3":"Department","CC_3":"NA","HASC_3":"NA","name":"Tabou.city"},
"geometry":{"type": "MultiPolygon","coordinates": [[[[-7.2682,4.7022,87.3342],[-7.2651,4.7073,85.7588],[-7.257,4.7094,116.6885],[-7.2509,4.7139,121.0835],[-7.2192,4.7109,85.8447],[-7.2192,4.715,89.2812],[-7.2102,4.7257,89.1036],[-7.2107,4.7405,81.3833],[-7.122,4.7413,29.1415],[-7.1345,4.7676,32.7246],[-7.137,4.7802,34.1123],[-7.1546,4.7971,94.337],[-7.1575,4.8046,88.9803],[-7.1623,4.8076,81.7419],[-7.1628,4.8159,87.8165],[-7.1596,4.8241,88.2702],[-7.1613,4.8308,92.9526],[-7.1594,4.8367,108.1875],[-7.1601,4.841,105.9579],[-7.158,4.846,115.0624],[-7.1601,4.8542,104.4264],[-7.152,4.8627,101.8825],[-7.1517,4.8737,111.4461],[-7.1491,4.8782,112.7657],[-7.1422,4.8827,108.8642],[-7.1316,4.9,112.8858],[-7.1193,4.9058,119.9872],[-7.1149,4.9028,124.824],[-7.1068,4.903,125.7771],[-7.1041,4.9051,143.4211],[-7.0955,4.9234,160.7461],[-7.0896,4.9246,158.7243],[-7.086,4.9283,204.4995],[-7.0844,4.9332,174.4984],[-7.0845,5.0258,157.7876],[-7.0878,5.0286,159.1533],[-7.0889,5.0326,159.4303],[-7.0862,5.0452,172.0861],[-7.0916,5.047,160.7805],[-7.095,5.0504,167.7132],[-7.0734,5.3506,183.2649],[-7.0002,5.4995,177.1441],[-7.0843,5.6665,188.2877],[-7.3973,5.638,143.8116],[-7.3952,5.6326,117.8104],[-7.3788,5.6239,127.6463],[-7.3752,5.6144,109.4094],[-7.3785,5.6004,115.3462],[-7.3778,5.5942,113.961],[-7.3715,5.5825,115.823],[-7.374,5.5783,116.2237],[-7.3814,5.5779,108.6984],[-7.3919,5.5798,109.8609],[-7.3942,5.5773,112.675],[-7.3956,5.573,115.9222],[-7.3928,5.5543,113.9627],[-7.3967,5.5447,135.3307],[-7.392,5.5382,132.2542],[-7.3801,5.5292,104.8627],[-7.3785,5.5246,109.5463],[-7.3804,5.5204,108.9161],[-7.3836,5.5182,109.5888],[-7.3997,5.5215,107.947],[-7.4029,5.519,115.5811],[-7.4008,5.5157,121.6083],[-7.3919,5.5111,105.2477],[-7.3894,5.5067,108.1098],[-7.3915,5.5037,114.9655],[-7.3968,5.5035,107.8837],[-7.4,5.501,108.733],[-7.4026,5.4884,110.7741],[-7.4047,5.4863,124.5568],[-7.4162,5.4837,107.7662],[-7.4211,5.4786,104.1187],[-7.4232,5.4706,104.5253],[-7.4218,5.4632,102.2317],[-7.4164,5.4538,103.5406],[-7.4135,5.4398,101.903],[-7.4159,5.4294,104.2862],[-7.4187,5.4248,119.2016],[-7.4242,5.4251,107.5215],[-7.4335,5.4288,107.2325],[-7.4404,5.4376,105.9013],[-7.4438,5.4351,106.7016],[-7.4462,5.428,98.9818],[-7.4448,5.4209,104.5399],[-7.4341,5.4091,100.7598],[-7.4289,5.3998,94.6832],[-7.4247,5.3835,112.6361],[-7.4187,5.3747,113.2809],[-7.4032,5.3672,98.2343],[-7.3984,5.3592,117.06],[-7.3945,5.3582,121.281],[-7.392,5.3598,130.6613],[-7.3878,5.3681,117.2456],[-7.3864,5.3782,103.0037],[-7.3813,5.383,109.507],[-7.3767,5.3836,94.8056],[-7.3746,5.3795,93.6487],[-7.3793,5.3666,91.6041],[-7.3787,5.3588,89.83],[-7.3803,5.351,93.4197],[-7.3774,5.3381,91.1283],[-7.3729,5.3337,111.2415],[-7.3658,5.3325,92.0748],[-7.3651,5.3277,96.2851],[-7.3799,5.3069,103.5044],[-7.3827,5.306,97.5639],[-7.3861,5.3101,98.1127],[-7.39,5.3076,99.5391],[-7.3897,5.2881,102.2533],[-7.3929,5.283,93.128],[-7.4006,5.2783,102.2748],[-7.4031,5.2688,98.7669],[-7.4075,5.2617,94.0338],[-7.4154,5.2544,94.42],[-7.4214,5.2554,87.1396],[-7.4223,5.2582,84.6722],[-7.4185,5.2662,107.1477],[-7.4251,5.2779,94.8712],[-7.4226,5.2814,114.2371],[-7.418,5.2816,124.0537],[-7.4136,5.2839,117.1916],[-7.4108,5.2928,105.983],[-7.4132999999999996,5.297,100.9544],[-7.4172,5.2977,83.7367],[-7.4239,5.2954,99.6104],[-7.4352,5.2847,93.6737],[-7.4444,5.2838,87.9248],[-7.4494,5.2813,87.5357],[-7.4561,5.2713,93.4271],[-7.4673,5.2812,78.0455],[-7.4718,5.2657,83.9295],[-7.4626,5.2609,92.3116],[-7.4592,5.2533,83.2928],[-7.4598,5.2448,89.1849],[-7.464,5.2343,84.0277],[-7.4704,5.2309,78.9467],[-7.475,5.224,90.9792],[-7.4742,5.2162,82.0955],[-7.4674,5.2053,85.3213],[-7.4664,5.1965,84.4447],[-7.4721,5.1881,70.5642],[-7.4684,5.1805,75.341],[-7.4688,5.164,57.9755],[-7.4709,5.1504,56.7577],[-7.4769,5.1419,53.3275],[-7.4819,5.1247,71.6369],[-7.5004,5.0966,55.7066],[-7.5055,5.0934,60.4585],[-7.511,5.0959,56.2971],[-7.5153,5.1049,45.5653],[-7.5182,5.1063,50.5678],[-7.5261,5.1027,51.6285],[-7.5533,5.0762,41.1209],[-7.5559,5.0679,58.2452],[-7.5541,5.0631,27.0],[-7.5484,5.0585,38.5581],[-7.5484,5.0495,31.8018],[-7.5428,5.0396,29.9355],[-7.5499,5.0293,31.3155],[-7.5523,5.0205,31.0886],[-7.5514,5.0171,28.4961],[-7.5421,5.0051,23.0],[-7.54,4.9989,41.4568],[-7.5426,4.9911,42.6705],[-7.5465,4.9853,28.7574],[-7.5569,4.9753,35.9809],[-7.5551,4.9704,31.2382],[-7.5453,4.9674,26.1178],[-7.535,4.9556,29.7997],[-7.5339,4.9526,38.4988],[-7.5367,4.9457,21.0],[-7.5365,4.9416,33.3508],[-7.5329,4.9347,20.5],[-7.5265,4.9305,24.7611],[-7.5244,4.927,49.4246],[-7.5242,4.9224,30.967],[-7.5265,4.919,23.4678],[-7.5394,4.917,23.0253],[-7.5463,4.9221,27.3542],[-7.5518,4.923,25.8319],[-7.5601,4.9171,27.741],[-7.5633,4.9066,42.9674],[-7.5707,4.9066,25.6807],[-7.5778,4.911,19.908],[-7.5842,4.9101,25.4799],[-7.5918,4.9056,35.2844],[-7.5969,4.8953,22.7794],[-7.5962,4.8916,20.0534],[-7.5871,4.8828,32.8148],[-7.5888,4.8752,17.0],[-7.5872,4.8676,17.9142],[-7.5893,4.8663,13.9003],[-7.5852,4.8607,10.0],[-7.5885,4.8495,16.7559],[-7.5867,4.8419,15.9674],[-7.5796,4.8308,32.3701],[-7.5838,4.8264,21.3416],[-7.59,4.8233,9.6301],[-7.5926,4.8194,14.4067],[-7.5898,4.8171,43.1025],[-7.591,4.8053,26.7748],[-7.5819,4.7942,18.6115],[-7.5616,4.7888,29.1159],[-7.5584,4.7858,13.0943],[-7.5589,4.7794,18.6647],[-7.5628,4.769,23.8013],[-7.555,4.7357,19.4691],[-7.5581,4.7191,29.5446],[-7.5525,4.6993,20.9244],[-7.5544,4.6908,33.4218],[-7.5631,4.6904,11.7555],[-7.5654,4.6854,13.6373],[-7.5629,4.6796,17.1392],[-7.555,4.6692,11.8194],[-7.5566,4.666,20.2843],[-7.5646,4.6651,16.1391],[-7.5685,4.6619,23.4546],[-7.5711,4.6557,15.475],[-7.5691,4.652,4.5],[-7.5645,4.6492,7.3228],[-7.5572,4.6485,22.2148],[-7.5549,4.6462,27.498],[-7.552,4.6368,27.5518],[-7.5509,4.62,11.1892],[-7.5464,4.6091,10.1996],[-7.5527,4.5933,12.2],[-7.5559,4.5903,14.7654],[-7.5642,4.5897,11.5811],[-7.5667,4.5879,15.9953],[-7.5684,4.5835,26.238],[-7.5659,4.5773,6.8035],[-7.5554,4.5666,8.2796],[-7.5534,4.5602,10.0466],[-7.5566,4.5519,10.3057],[-7.5528,4.542,6.7925],[-7.559,4.537,8.336],[-7.5609,4.5324,4.8674],[-7.5586,4.5264,7.222],[-7.5547,4.5242,11.3888],[-7.55,4.5102,20.8844],[-7.5519,4.4878,11.7049],[-7.5574,4.4801,6.6463],[-7.5609,4.4667,7.8027],[-7.5601,4.4539,15.8546],[-7.5556,4.4456,1.5],[-7.5404,4.4346,1.0],[-7.5386,4.4288,13.199],[-7.54,4.4249,10.8643],[-7.5548,4.4061,21.2788],[-7.5578,4.3988,27.1182],[-7.5574,4.3935,5.2041],[-7.5531,4.3863,8.0323],[-7.5241,4.368,5.8765],[-7.5214,4.3638,3.5493],[-7.5226,4.3624,1.6105],[-7.481,4.3621,5.5658],[-7.4546,4.3676,0.5738],[-7.4529,4.3715,1.2496],[-7.4046,4.3835,0.0],[-7.396,4.3888,4.6594],[-7.3963,4.3921,12.2142],[-7.394,4.394,6.0355],[-7.3751,4.4012,0.0],[-7.3699,4.4049,3.7133],[-7.3568,4.4088,0.0],[-7.3535,4.4168,8.4407],[-7.3507,4.419,3.0141],[-7.3193,4.4307,1.188],[-7.3193,4.4335,1.8874],[-7.3132,4.4374,0.0],[-7.3107,4.4457,9.8621],[-7.3007,4.4535,1.5249],[-7.2804,4.4596,3.5187],[-7.2507,4.4657,4.23],[-7.2476,4.4679,1.4537],[-7.2485,4.4729,7.1617],[-7.2421,4.4788,0.0],[-7.2418,4.4801,0.0],[-7.2449,4.4796,3.2322],[-7.2454,4.4821,3.3847],[-7.241,4.4887,1.6666],[-7.2198,4.5012,12.0022],[-7.2188,4.53,16.373],[-7.2198,4.5328,11.2852],[-7.2157,4.5371,12.7084],[-7.2181,4.5381,16.8963],[-7.2168,4.5417,21.9283],[-7.2231,4.5493,8.5054],[-7.2335,4.5728,18.7072],[-7.2437,4.588,18.5974],[-7.2459,4.5965,14.3623],[-7.2463,4.6097,19.4327],[-7.2516,4.6176,33.3211],[-7.2568,4.6298,27.5151],[-7.2646,4.6378,26.5202],[-7.2697,4.6479,27.0702],[-7.2725,4.6489,29.0986],[-7.2766,4.6551,34.505],[-7.2778,4.6617,34.9928],[-7.2765,4.6818,82.6958],[-7.2682,4.7022,87.3342]]]]}}