{"type":"Feature","properties":{"GID_3":"CIV.6.2.3_1","GID_0":"CIV","country":"Côted'Ivoire","GID_1":"CIV.6_1","province":"Lacs","NL_NAME_1":"NA","GID_2":"CIV.6.2_1","county":"Iffou","NL_NAME_2":"NA","city":"Prikro","VARNAME_3":"NA","NL_NAME_3":"NA","TYPE_3":"Département","ENGTYPE_3":"Department","CC_3":"NA","HASC_3":"NA","name":"Prikro.city"},
"geometry":{"type": "MultiPolygon","coordinates": [[[[-3.5895,7.5109,147.4804],[-3.5923,7.5164,149.6155],[-3.6014,7.5199,160.5205],[-3.6033,7.5231,151.4659],[-3.603,7.5278,155.0368],[-3.5993,7.5345,151.721],[-3.5919,7.5371,158.349],[-3.5852,7.5416,161.1444],[-3.5748,7.5542,160.4759],[-3.5806,7.58,151.3764],[-3.5966,7.5922,150.7848],[-3.6088,7.594,145.865],[-3.6167,7.5919,147.9078],[-3.6356,7.5773,146.9208],[-3.6422,7.5752,162.6823],[-3.6484,7.5757,146.3168],[-3.6562,7.5803,151.1475],[-3.6611,7.5883,153.4717],[-3.6667,7.6058,147.2307],[-3.6831,7.6252,154.0294],[-3.6837,7.6285,152.0544],[-3.681,7.6399,148.5424],[-3.6979,7.6479,147.7943],[-3.7079,7.6481,158.499],[-3.7315,7.6654,159.7571],[-3.7346,7.6772,155.1227],[-3.7351,7.6888,152.165],[-3.7308,7.7061,150.6003],[-3.7324,7.7139,157.2772],[-3.7285,7.7216,149.3141],[-3.7325,7.736,149.8286],[-3.7369,7.7401,152.7152],[-3.7424,7.7338,176.5411],[-3.7549,7.7319,163.1681],[-3.7615,7.7374,155.3644],[-3.7816,7.7349,155.8693],[-3.788,7.7382,154.2312],[-3.8037,7.7418,156.6035],[-3.8209,7.7375,157.4446],[-3.8296,7.7418,155.3425],[-3.8326,7.7468,154.5714],[-3.8333,7.7548,154.4993],[-3.8282,7.7596,155.244],[-3.8269,7.7627,156.2871],[-3.8289,7.765,157.0551],[-3.8449,7.7721,155.6656],[-3.8551,7.7696,160.0777],[-3.874,7.7695,158.2293],[-3.8776,7.7749,158.0498],[-3.877,7.7764,159.1906],[-3.8693,7.7831,152.8198],[-3.8623,7.7985,155.4009],[-3.859,7.8023,153.8184],[-3.8608,7.8069,154.8033],[-3.8741,7.8152,164.1268],[-3.8776,7.82,157.2409],[-3.8784,7.824,166.3811],[-3.8759,7.8332,167.272],[-3.8677,7.8416,158.4364],[-3.8634,7.8486,155.0411],[-3.865,7.8603,157.9034],[-3.8704,7.8652,158.3961],[-3.8805,7.8795,157.7434],[-3.8949,7.8848,161.1367],[-3.9035,7.8851,162.5957],[-3.9113,7.8829,160.2914],[-3.921,7.8851,159.3484],[-3.9357,7.8936,161.2403],[-3.9497,7.8937,162.3469],[-3.9838,7.9,161.9012],[-3.9868,7.9024,164.8373],[-3.9899,7.9025,168.6494],[-3.9939,7.9072,159.5925],[-3.9933,7.9119,166.2351],[-3.9898,7.916,164.7933],[-3.9741,7.9165,165.4379],[-3.9703,7.9191,163.1308],[-3.9584,7.9218,168.2981],[-3.9462,7.9276,162.6048],[-3.944,7.9296,163.5254],[-3.9406,7.9417,171.1415],[-3.931,7.9482,158.2701],[-3.9243,7.9553,162.9454],[-3.9203,7.9623,161.2236],[-3.9202,7.9654,160.9551],[-3.9242,7.975,166.897],[-3.9284,7.9779,167.1904],[-3.9614,7.9689,166.0782],[-3.9734,7.971,163.596],[-3.9809,7.9691,164.8358],[-3.9943,7.9562,173.7064],[-4.0002,7.953,168.4622],[-4.0052,7.9542,167.2155],[-4.0089,7.9572,162.8712],[-4.0164,7.9816,167.2573],[-4.0143,7.9907,177.8851],[-4.0082,7.9978,166.0704],[-4.0003,8.0011,166.0782],[-3.9868,8.0135,170.4851],[-3.9752,8.0138,172.7897],[-3.9688,8.0123,192.9563],[-3.9646,8.0153,191.5889],[-3.9634,8.0182,191.2375],[-3.9641,8.0248,186.7957],[-3.9654,8.0294,173.6353],[-3.9684,8.032,171.7082],[-3.9813,8.0322,168.9312],[-3.9963,8.0422,168.4524],[-4.0008,8.0434,177.953],[-4.0015,8.0408,166.941],[-4.0037,8.0416,172.0795],[-4.0109,8.0463,173.0054],[-4.0135,8.0513,177.5234],[-4.0449,8.0274,191.3941],[-4.0557,8.026,196.6437],[-4.0779,8.0129,238.8097],[-4.0849,8.0122,241.5092],[-4.0913,8.0092,245.7151],[-4.1365,8.0028,229.6348],[-4.1456,8.0073,248.1572],[-4.166,8.0081,245.8454],[-4.1785,8.0056,219.315],[-4.1852,8.0015,238.2623],[-4.1968,7.9904,211.9194],[-4.2571,7.9234,173.2351],[-4.1432,7.6943,182.9527],[-4.1164,7.5369,174.2602],[-4.1101,7.5328,186.6521],[-4.1052,7.5259,184.906],[-4.0301,7.4989,226.5803],[-4.0051,7.4699,229.8895],[-4.0003,7.457,225.1372],[-3.9939,7.4587,247.1124],[-3.9899,7.4579,267.1667],[-3.9758,7.4401,211.8858],[-3.9717,7.4396,210.8322],[-3.9642,7.4352,199.4626],[-3.9543,7.4206,217.8418],[-3.9547,7.4262,198.0886],[-3.9514,7.434,203.6247],[-3.9435,7.4465,203.3765],[-3.9353,7.4538,227.5654],[-3.9096,7.4581,220.0048],[-3.9044,7.4561,255.1877],[-3.8812,7.4562,277.88],[-3.8757,7.4523,265.4488],[-3.8676,7.4268,271.9107],[-3.8622,7.4211,262.5913],[-3.8507,7.4163,244.7497],[-3.8386,7.4149,263.4694],[-3.8235,7.3986,243.5172],[-3.8118,7.3912,219.8996],[-3.7986,7.4,215.0732],[-3.7618,7.4155,200.7359],[-3.7467,7.4154,198.3221],[-3.7339,7.4218,199.2131],[-3.7297,7.4223,196.8625],[-3.7197,7.429,194.5849],[-3.7145,7.4368,192.256],[-3.7137,7.4431,202.8784],[-3.7031,7.46,191.6538],[-3.6994,7.4708,174.5102],[-3.6913,7.486,172.8838],[-3.6863,7.4926,172.76],[-3.6718,7.5039,180.4633],[-3.6558,7.5068,167.8756],[-3.632,7.4995,164.3681],[-3.6187,7.4994,159.789],[-3.6071,7.5033,153.8195],[-3.5966,7.5004,152.0548],[-3.592,7.5047,153.0214],[-3.5895,7.5109,147.4804]]]]}}