{"type": "Feature","bbox": [-6.9002,6.5672,-5.9294,7.2604],"geometry": {"type": "MultiPolygon","coordinates": [[[[-6.5249,6.6727,238.0444],[-6.4796,6.6837,219.1492],[-6.4431,6.6861,222.5701],[-6.4327,6.6883,239.4022],[-6.3814,6.6872,202.7541],[-6.3727,6.6788,199.8432],[-6.3078,6.6286,211.6958],[-6.2455,6.5672,264.0065],[-6.2278,6.5772,247.241],[-6.1381,6.6199,256.0786],[-6.1357,6.6342,265.1743],[-6.157,6.6782,261.4852],[-6.1492,6.7063,281.8546],[-6.1706,6.7422,248.3253],[-6.1746,6.817,240.0449],[-6.206,6.8933,234.1675],[-6.1962,6.9953,280.5935],[-6.1972,7.0033,276.5345],[-6.1963,7.0165,262.5124],[-5.9986,7.165,207.6389],[-5.9294,7.174,173.2739],[-5.9387,7.1758,173.6442],[-5.9768,7.1908,178.1563],[-5.988,7.1923,180.1416],[-5.9952,7.1978,175.6049],[-6.0061,7.2023,178.3296],[-6.0158,7.204,179.5902],[-6.1831,7.2604,230.5109],[-6.2526,7.2224,261.4011],[-6.2899,7.1902,295.4428],[-6.3019,7.1692,288.3796],[-6.3387,7.1968,279.4136],[-6.3435,7.2153,252.1798],[-6.3539,7.2309,270.1396],[-6.3693,7.2286,275.6627],[-6.4241,7.2293,252.4],[-6.435,7.228,261.3351],[-6.4408,7.2239,258.1682],[-6.441,7.1099,244.8245],[-6.4973,7.1083,229.8427],[-6.7381,7.0622,244.0995],[-6.9002,7.0623,251.1335],[-6.8854,7.0434,249.3517],[-6.876,7.0363,251.5516],[-6.8699,7.025,242.3245],[-6.8555,7.0062,235.6488],[-6.8472,7.0055,232.6449],[-6.8402,6.9969,233.7879],[-6.8345,6.9942,231.25],[-6.8313,6.9903,232.0223],[-6.8167,6.9814,232.048],[-6.7946,6.9721,226.8838],[-6.7908,6.9653,227.3924],[-6.7875,6.9634,228.1286],[-6.7776,6.9641,221.6772],[-6.7727,6.9616,220.1428],[-6.7595,6.9487,223.611],[-6.7205,6.9401,234.4534],[-6.7155,6.9354,231.295],[-6.6888,6.9298,208.8497],[-6.6744,6.9154,212.5859],[-6.6659,6.9113,202.6451],[-6.6649,6.9054,203.1186],[-6.6555,6.8973,203.313],[-6.6555,6.8898,201.923],[-6.6512,6.8789,203.0012],[-6.6564,6.8736,201.2949],[-6.6559,6.8679,205.755],[-6.6501,6.8588,200.7485],[-6.6603,6.8674,206.378],[-6.6732,6.86,203.8295],[-6.6709,6.8517,202.9893],[-6.6642,6.8477,199.1866],[-6.6639,6.8427,198.2681],[-6.67,6.8377,200.0269],[-6.6794,6.8336,198.2802],[-6.6801,6.8308,202.2503],[-6.6779,6.827,199.2099],[-6.6838,6.8179,199.2892],[-6.6953,6.8229,198.2885],[-6.7048,6.8225,201.8604],[-6.7131,6.8054,202.6399],[-6.7121,6.7998,208.0362],[-6.6993,6.8037,195.1947],[-6.6838,6.786,199.205],[-6.6991,6.7867,205.422],[-6.7032,6.7823,215.1675],[-6.7011,6.7771,220.7455],[-6.6885,6.7711,195.959],[-6.6968,6.7591,197.6161],[-6.7009,6.7596,194.4496],[-6.7176,6.7671,196.0545],[-6.7201,6.7706,203.9771],[-6.7246,6.7678,193.7155],[-6.7277,6.7605,192.1272],[-6.7327,6.7611,197.4727],[-6.7371,6.7538,197.9699],[-6.7395,6.745,201.398],[-6.7251,6.7434,197.7806],[-6.7211,6.7417,191.5761],[-6.7186,6.737,203.4575],[-6.713,6.7364,193.6928],[-6.7073,6.7382,191.1472],[-6.7109,6.7323,193.0621],[-6.708,6.7293,193.6509],[-6.7105,6.7266,191.2453],[-6.7107,6.7225,197.2331],[-6.7145,6.7244,190.6624],[-6.7306,6.7222,198.2917],[-6.7319,6.716,198.6966],[-6.7308,6.7111,192.0361],[-6.7247,6.7095,193.2903],[-6.722,6.7039,190.5117],[-6.7224,6.6962,187.7702],[-6.7147,6.6883,198.6404],[-6.7223,6.6847,189.1926],[-6.7302,6.6882,189.4825],[-6.7387,6.6894,195.4661],[-6.7405,6.6836,212.2842],[-6.7364,6.6804,213.0721],[-6.7288,6.6794,187.1168],[-6.7164,6.6714,190.8392],[-6.7185,6.6634,191.6068],[-6.7115,6.6481,192.2895],[-6.7048,6.6477,192.0241],[-6.7001,6.6507,190.8302],[-6.6952,6.6488,190.4854],[-6.6999,6.6453,193.7337],[-6.6998,6.6412,191.4633],[-6.7122,6.6363,203.5905],[-6.7145,6.63,198.2898],[-6.7125,6.627,187.8901],[-6.6479,6.6206,194.258],[-6.6418,6.6242,197.6587],[-6.6339,6.6416,192.1908],[-6.6275,6.649,198.0476],[-6.6212,6.666,207.0381],[-6.5249,6.6727,238.0444]]]]}
,"properties": {"GID_3": "CIV.9.1.1_1","GID_0": "CIV","country": "Côted'Ivoire","GID_1": "CIV.9_1","province": "Sassandra-Marahoué","NL_NAME_1": "NA","GID_2": "CIV.9.1_1","county": "Haut-Sassandra","NL_NAME_2": "NA","city": "Daloa","VARNAME_3": "NA","NL_NAME_3": "NA","TYPE_3": "Département","ENGTYPE_3": "Department","CC_3": "NA","HASC_3": "NA","name": "Daloa.city","area_km2": 3776.388,"hist_schema_id": "Elevation0-9000","hist_area_km2": {"175": 20.91,"200": 360.218,"225": 1168.958,"250": 1519.851,"275": 650.651,"300": 55.042,"325": 0.421,"350": 0.21,"375": 0.105}}}