{"type": "Feature","bbox": [-7.9145,6.1767,-7.1925,6.8491],"geometry": {"type": "MultiPolygon","coordinates": [[[[-7.9145,6.2774,211.7694],[-7.9134,6.2707,200.4093],[-7.9095,6.2705,210.3929],[-7.9065,6.2792,201.18],[-7.9016,6.2799,203.4658],[-7.8899,6.2524,213.1139],[-7.8811,6.2485,189.0605],[-7.8764,6.2406,214.0348],[-7.8629,6.2325,203.3253],[-7.8541,6.2295,185.3169],[-7.8194,6.191,212.3593],[-7.8166,6.1898,211.4528],[-7.8146,6.1859,212.226],[-7.8088,6.1867,209.659],[-7.806,6.1821,205.0139],[-7.806,6.178,197.1512],[-7.7992,6.1767,212.3668],[-7.7988,6.1811,222.504],[-7.7904,6.1853,214.9342],[-7.7846,6.1833,193.4292],[-7.7828,6.186,197.1114],[-7.7738,6.1875,203.4475],[-7.7725,6.1821,194.747],[-7.7679,6.1817,203.3371],[-7.7622,6.185,202.874],[-7.7613,6.1818,200.868],[-7.757,6.1835,212.4447],[-7.7499,6.1818,202.379],[-7.749,6.1861,206.8038],[-7.7436,6.1918,210.0243],[-7.7269,6.1931,217.4061],[-7.7249,6.1911,213.0845],[-7.7143,6.1887,220.2858],[-7.7049,6.1915,214.4671],[-7.7004,6.1971,225.3414],[-7.6932,6.2024,226.3085],[-7.66,6.2033,235.5248],[-7.6547,6.2007,232.6596],[-7.6464,6.2057,240.5635],[-7.4897,6.2208,230.0525],[-7.4128,6.2199,205.6366],[-7.4063,6.2349,202.6134],[-7.4009,6.2389,201.575],[-7.3877,6.2582,207.7736],[-7.3767,6.268,223.5964],[-7.375,6.2742,213.987],[-7.3724,6.313,219.2591],[-7.3688,6.3196,218.4055],[-7.3672,6.3266,212.5852],[-7.3593,6.3372,221.0086],[-7.298,6.3843,198.9651],[-7.291,6.3857,189.5],[-7.2869,6.3894,189.5],[-7.2683,6.3956,189.5],[-7.2607,6.3926,189.5],[-7.2561,6.3971,189.5],[-7.234,6.3923,189.5],[-7.2236,6.3928,189.5],[-7.216,6.3911,189.5],[-7.2083,6.3926,189.5],[-7.2014,6.3984,201.7144],[-7.1925,6.4025,204.6697],[-7.2461,6.4619,206.1632],[-7.26,6.4687,224.4993],[-7.3103,6.5363,228.6373],[-7.3262,6.5483,219.4995],[-7.4082,6.6023,236.0495],[-7.4956,6.6446,259.0202],[-7.5024,6.6453,230.4236],[-7.5427,6.6678,216.1127],[-7.5487,6.6858,210.2981],[-7.5477,6.6895,208.748],[-7.5536,6.6929,209.6523],[-7.5659,6.6946,217.1162],[-7.5676,6.7024,221.5802],[-7.5625,6.707,217.2601],[-7.57,6.7276,211.5658],[-7.5773,6.7261,212.873],[-7.5793,6.7287,207.0583],[-7.5806,6.7359,210.7887],[-7.585,6.7373,216.5644],[-7.5871,6.7401,211.7031],[-7.589,6.7536,218.832],[-7.5862,6.7569,222.5707],[-7.5808,6.772,214.2334],[-7.5772,6.7745,214.0336],[-7.571,6.7929,216.7204],[-7.5797,6.7961,213.3456],[-7.587,6.7874,224.3192],[-7.5897,6.7891,223.6252],[-7.5948,6.8035,215.2797],[-7.5982,6.8027,219.4819],[-7.6035,6.7979,220.8637],[-7.606,6.802,221.2327],[-7.6075,6.8098,217.9231],[-7.6066,6.8193,219.1336],[-7.6111,6.8286,219.7657],[-7.6199,6.8287,223.3889],[-7.6269,6.8361,219.1863],[-7.6336,6.8348,229.0519],[-7.6385,6.8391,223.383],[-7.637,6.8436,219.9278],[-7.6297,6.847,223.2466],[-7.8411,6.8491,309.7476],[-7.8064,6.789,250.5097],[-7.7945,6.5659,241.9039],[-7.8135,6.4254,211.7808],[-7.8289,6.4124,209.1778],[-7.8297,6.4067,213.4075],[-7.8343,6.4074,208.2124],[-7.8386,6.4015,214.5959],[-7.8448,6.3837,214.5045],[-7.8524,6.3793,203.517],[-7.8589,6.3726,205.6891],[-7.8631,6.371,204.7636],[-7.8639,6.3662,205.319],[-7.8708,6.3601,201.4434],[-7.8715,6.35,212.5106],[-7.8819,6.3445,203.4874],[-7.8841,6.3384,210.9329],[-7.8945,6.3305,208.7589],[-7.8977,6.3232,203.5324],[-7.8985,6.3061,207.6497],[-7.8954,6.3015,199.2572],[-7.8891,6.2982,201.007],[-7.8914,6.2928,207.3165],[-7.8958,6.2887,200.5753],[-7.9075,6.2845,193.3497],[-7.9145,6.2774,211.7694]]]]}
,"properties": {"GID_3": "CIV.8.1.2_1","GID_0": "CIV","country": "Côted'Ivoire","GID_1": "CIV.8_1","province": "Montagnes","NL_NAME_1": "NA","GID_2": "CIV.8.1_1","county": "Cavally","NL_NAME_2": "NA","city": "Guiglo","VARNAME_3": "NA","NL_NAME_3": "NA","TYPE_3": "Département","ENGTYPE_3": "Department","CC_3": "NA","HASC_3": "NA","name": "Guiglo.city","area_km2": 3279.507,"hist_schema_id": "Elevation0-9000","hist_area_km2": {"175": 0.864,"200": 365.489,"225": 1298.96,"250": 1264.082,"275": 295.859,"300": 22.851,"325": 9.583,"350": 5.75,"375": 3.771,"400": 3.096,"425": 1.853,"450": 1.285,"475": 0.863,"500": 1.032,"525": 0.758,"550": 0.716,"575": 0.695,"600": 0.526,"625": 0.4,"650": 0.4,"675": 0.211,"700": 0.211,"725": 0.105,"750": 0.084,"800": 0.042}}}