{"type": "Feature","bbox": [-7.2778,4.5012,-6.3018,5.4995],"geometry": {"type": "MultiPolygon","coordinates": [[[[-6.6693,4.7293,0.0],[-6.6715,4.7288,0.7648],[-6.6707,4.7251,0.0],[-6.6688,4.7265,7.914],[-6.6693,4.7293,0.0]]],
[[[-7.257,4.7094,116.6885],[-7.2651,4.7073,85.7588],[-7.2753,4.6857,79.9308],[-7.2778,4.6617,34.9928],[-7.2766,4.6551,34.505],[-7.2725,4.6489,29.0986],[-7.2697,4.6479,27.0702],[-7.2646,4.6378,26.5202],[-7.2568,4.6298,27.5151],[-7.2516,4.6176,33.3211],[-7.2463,4.6097,19.4327],[-7.2459,4.5965,14.3623],[-7.2437,4.588,18.5974],[-7.2335,4.5728,18.7072],[-7.2231,4.5493,8.5054],[-7.2168,4.5417,21.9283],[-7.2181,4.5381,16.8963],[-7.2157,4.5371,12.7084],[-7.2198,4.5328,11.2852],[-7.2193,4.5012,0.0],[-7.1985,4.5101,0.0],[-7.1949,4.5104,0.0],[-7.1951,4.5143,25.9309],[-7.1868,4.5182,0.0],[-7.184,4.5215,0.7386],[-7.1615,4.5251,0.0],[-7.1599,4.5274,7.838],[-7.1546,4.5257,4.0436],[-7.1199,4.5315,2.8831],[-7.0571,4.5388,8.0673],[-7.0546,4.5393,1.9305],[-7.0557,4.5418,16.8876],[-7.0537,4.5435,4.2927],[-7.0304,4.549,3.665],[-7.0307,4.5551,6.8229],[-7.0254,4.559,0.0],[-7.024,4.5668,0.0],[-7.0204,4.5701,3.311],[-7.0146,4.5718,0.0],[-7.0132,4.5774,6.9824],[-7.0015,4.5813,3.4302],[-6.9993,4.5874,1.3009],[-6.9971,4.589,3.8799],[-6.9851,4.5924,3.7892],[-6.9812,4.5951,0.0],[-6.9826,4.5985,0.0],[-6.9818,4.6013,1.2564],[-6.9665,4.6107,7.1098],[-6.9612,4.6171,3.4183],[-6.9618,4.6185,3.4183],[-6.9571,4.6226,9.8128],[-6.9449,4.6285,0.0],[-6.9385,4.6299,0.0],[-6.9315,4.6343,4.1818],[-6.9268,4.6351,0.0],[-6.9218,4.6407,6.94],[-6.9187,4.6412,0.0],[-6.9165,4.6446,2.3152],[-6.9193,4.646,4.8086],[-6.9215,4.6537,5.4549],[-6.9185,4.6593,0.0],[-6.9135,4.664,7.7837],[-6.8971,4.6685,1.0915],[-6.8799,4.6701,0.0],[-6.8515,4.6762,7.8505],[-6.8318,4.6776,0.0],[-6.8029,4.6832,0.0],[-6.7407,4.6904,0.0],[-6.7218,4.6907,2.839],[-6.7185,4.6915,0.0],[-6.7174,4.6935,0.0],[-6.7107,4.6926,0.0],[-6.7037,4.6968,1.6962],[-6.7024,4.6993,0.0],[-6.7029,4.7063,0.0],[-6.6974,4.7101,3.0271],[-6.6854,4.714,4.6312],[-6.6649,4.7174,0.0],[-6.6668,4.7204,1.9064],[-6.6757,4.7237,4.6498],[-6.6824,4.7313,0.0],[-6.6893,4.7335,5.3753],[-6.6879,4.7357,0.3919],[-6.6854,4.7335,1.7693],[-6.6857,4.7365,0.488],[-6.6874,4.7379,0.5819],[-6.6896,4.7374,0.5929],[-6.6912,4.7401,0.634],[-6.6951,4.7399,10.7761],[-6.6965,4.7415,2.0316],[-6.696,4.7446,0.5126],[-6.6937,4.7404,2.7814],[-6.6901,4.7415,1.6274],[-6.6857,4.7374,1.5916],[-6.681,4.7354,0.0],[-6.6765,4.739,2.8865],[-6.6693,4.7307,1.2893],[-6.666,4.7346,1.5043],[-6.6646,4.7324,1.327],[-6.6654,4.729,2.4046],[-6.6635,4.7279,3.0038],[-6.661,4.7182,0.0],[-6.6399,4.7221,0.9861],[-6.6357,4.726,4.1511],[-6.6293,4.7257,0.9342],[-6.6293,4.7287,1.3037],[-6.626,4.7299,0.0],[-6.6268,4.7313,0.7434],[-6.6238,4.7335,0.9353],[-6.6126,4.7357,0.0],[-6.6174,4.7382,1.9175],[-6.6207,4.7449,3.1264],[-6.6193,4.7512,8.1476],[-6.6174,4.7512,0.0],[-6.6193,4.749,0.0],[-6.6182,4.7446,0.7349],[-6.6087,4.7465,1.3049],[-6.6129,4.7421,2.0406],[-6.6129,4.7404,0.0],[-6.6099,4.741,0.0],[-6.6082,4.7418,0.0],[-6.6085,4.744,5.9626],[-6.6015,4.7465,0.0],[-6.6012,4.749,24.3086],[-6.599,4.7504,0.0],[-6.5993,4.7563,3.9134],[-6.5896,4.759,3.7641],[-6.5885,4.7632,9.4553],[-6.584,4.7654,0.0],[-6.5593,4.7699,0.0],[-6.5568,4.7726,0.0],[-6.501,4.7807,1.9613],[-6.4574,4.7899,0.0],[-6.4435,4.7954,0.0],[-6.4418,4.7987,12.6331],[-6.4449,4.7996,1.5571],[-6.4454,4.8029,0.0],[-6.4379,4.8107,3.0773],[-6.4096,4.8163,0.0],[-6.3971,4.8207,4.7953],[-6.3968,4.8235,17.2493],[-6.3937,4.8249,0.9096],[-6.3718,4.8268,0.0],[-6.3671,4.8296,3.2492],[-6.3629,4.829,0.0],[-6.361,4.8304,0.0],[-6.3496,4.8315,0.0],[-6.3349,4.8404,8.2152],[-6.3268,4.8415,1.4846],[-6.3249,4.8435,37.9965],[-6.3201,4.844,4.7078],[-6.3182,4.8465,0.9379],[-6.3043,4.8485,0.0],[-6.302,4.8501,2.5632],[-6.3018,4.8714,28.1055],[-6.3109,4.8748,27.8207],[-6.3138,4.8899,60.2955],[-6.318,4.8977,48.983],[-6.3319,4.9031,54.6086],[-6.3428,4.9038,52.5816],[-6.3453,4.907,61.6751],[-6.35,4.9087,54.7653],[-6.3579,4.9054,40.8923],[-6.3673,4.8986,35.4517],[-6.3764,4.9012,35.8189],[-6.3824,4.9039,33.1514],[-6.3864,4.9137,32.5709],[-6.4042,4.9248,37.6005],[-6.4072,4.9315,27.3291],[-6.4054,4.9336,35.129],[-6.3989,4.9329,49.3254],[-6.3918,4.9362,53.1703],[-6.3851,4.9348,36.0665],[-6.3829,4.9422,44.9797],[-6.3712,4.947,45.9597],[-6.3675,4.9501,37.1954],[-6.3555,4.9541,36.7641],[-6.3507,4.9604,40.097],[-6.3446,4.9644,47.556],[-6.3394,4.9718,44.2817],[-6.3385,4.976,43.3701],[-6.3415,4.989,53.1269],[-6.3412,4.9996,63.2498],[-6.3384,5.0057,56.4221],[-6.3314,5.0114,49.2688],[-6.329,5.0162,55.5779],[-6.3301,5.022,54.0926],[-6.3222,5.0281,54.2655],[-6.3219,5.0419,64.3388],[-6.3187,5.051,68.1748],[-6.3248,5.0528,71.5579],[-6.3435,5.07,74.8856],[-6.3499,5.0859,74.6586],[-6.3419,5.1229,86.7576],[-6.3517,5.1409,83.3956],[-6.3303,5.1684,95.0222],[-6.3468,5.19,94.5874],[-6.3553,5.2077,82.3703],[-6.3952,5.2409,88.0485],[-6.3981,5.2681,108.4751],[-6.4998,5.3331,94.3762],[-6.6554,5.3295,83.72],[-6.6689,5.3361,86.3597],[-6.672,5.3343,95.3215],[-6.6742,5.3356,94.1758],[-6.6759,5.3411,99.4561],[-6.6819,5.3454,114.1762],[-6.6911,5.3436,119.3725],[-6.6992,5.3454,114.6639],[-6.7011,5.35,113.4986],[-6.7114,5.3566,133.3847],[-6.7148,5.3608,124.0594],[-6.7194,5.3615,125.5155],[-6.7292,5.3766,136.5428],[-6.7312,5.3859,130.1219],[-6.73,5.4001,131.2913],[-6.7332,5.4033,133.9024],[-6.7305,5.4193,133.8202],[-6.7421,5.4367,138.1789],[-6.746,5.4382,151.3529],[-6.7491,5.4452,140.1771],[-6.758,5.4516,157.4383],[-6.7819,5.457,161.5229],[-6.7869,5.4609,153.3452],[-6.7897,5.4609,161.2633],[-6.7964,5.4649,157.2335],[-6.8289,5.4978,168.8789],[-7.0002,5.4995,177.1441],[-7.0734,5.3506,183.2649],[-7.095,5.0504,167.7132],[-7.0916,5.047,160.7805],[-7.0862,5.0452,172.0861],[-7.0889,5.0326,159.4303],[-7.0878,5.0286,159.1533],[-7.0845,5.0258,157.7876],[-7.0844,4.9332,174.4984],[-7.086,4.9283,204.4995],[-7.0896,4.9246,158.7243],[-7.0955,4.9234,160.7461],[-7.1041,4.9051,143.4211],[-7.1068,4.903,125.7771],[-7.1149,4.9028,124.824],[-7.1193,4.9058,119.9872],[-7.1316,4.9,112.8858],[-7.1422,4.8827,108.8642],[-7.1491,4.8782,112.7657],[-7.1517,4.8737,111.4461],[-7.152,4.8627,101.8825],[-7.1601,4.8542,104.4264],[-7.158,4.846,115.0624],[-7.1601,4.841,105.9579],[-7.1594,4.8367,108.1875],[-7.1613,4.8308,92.9526],[-7.1596,4.8241,88.2702],[-7.1628,4.8159,87.8165],[-7.1623,4.8076,81.7419],[-7.1575,4.8046,88.9803],[-7.1546,4.7971,94.337],[-7.137,4.7802,34.1123],[-7.1345,4.7676,32.7246],[-7.122,4.7413,29.1415],[-7.2107,4.7405,81.3833],[-7.2102,4.7257,89.1036],[-7.2192,4.715,89.2812],[-7.2192,4.7109,85.8447],[-7.2509,4.7139,121.0835],[-7.257,4.7094,116.6885]]]]}
,"properties": {"GID_3": "CIV.2.3.1_1","GID_0": "CIV","country": "Côted'Ivoire","GID_1": "CIV.2_1","province": "Bas-Sassandra","NL_NAME_1": "NA","GID_2": "CIV.2.3_1","county": "San-Pédro","NL_NAME_2": "NA","city": "San-Pedro","VARNAME_3": "NA","NL_NAME_3": "NA","TYPE_3": "Département","ENGTYPE_3": "Department","CC_3": "NA","HASC_3": "NA","name": "San-Pedro.city","area_km2": 6787.4,"hist_schema_id": "Elevation0-9000","hist_area_km2": {"0": 334.066,"25": 1546.361,"50": 1410.647,"75": 920.684,"100": 561.754,"125": 383.43,"150": 368.643,"175": 456.975,"200": 425.594,"225": 280.479,"250": 68.698,"275": 16.237,"300": 7.179,"325": 4.033,"350": 1.879,"375": 0.612,"400": 0.106}}}