{"type": "Feature","bbox": [-3.8546,5.0841,-2.7206,7.3546],"geometry": {"type": "MultiPolygon","coordinates": [[[[-2.7249,5.3421,13.7115],[-2.7206,5.3459,15.9559],[-2.7242,5.3575,105.4417],[-2.7242,5.3878,46.6487],[-2.7478,5.4379,70.9673],[-2.7683,5.5544,83.6313],[-2.7614,5.5993,59.198],[-2.7641,5.6004,62.0465],[-2.764,5.6023,61.0364],[-2.7657,5.6033,62.8785],[-2.7699,5.6022,60.3418],[-2.7714,5.6042,61.279],[-2.7748,5.6032,65.284],[-2.7772,5.6064,65.9077],[-2.7789,5.6058,65.9077],[-2.7753,5.6151,62.0125],[-2.7767,5.6162,64.6235],[-2.7797,5.6136,63.9537],[-2.785,5.6142,63.0622],[-2.7846,5.619,62.6305],[-2.7874,5.6205,72.3348],[-2.7863,5.6248,66.6784],[-2.7903,5.6234,63.8413],[-2.7892,5.6264,68.6918],[-2.7927,5.6279,72.1407],[-2.7933,5.6232,67.0155],[-2.802,5.6216,69.1487],[-2.8041,5.6172,67.5431],[-2.8048,5.6195,67.2061],[-2.8071,5.6183,69.5324],[-2.8051,5.6213,69.3487],[-2.808,5.6246,68.36],[-2.8105,5.6249,73.6215],[-2.8087,5.6273,67.8819],[-2.8138,5.6288,71.1923],[-2.8155,5.6263,71.2918],[-2.8222,5.6264,71.2404],[-2.8234,5.6298,77.3113],[-2.8284,5.632,78.1381],[-2.8285,5.6345,71.7491],[-2.8322,5.6341,76.4698],[-2.8353,5.6364,75.7447],[-2.8365,5.6398,77.4863],[-2.8394,5.6394,78.1221],[-2.8439,5.6434,78.1626],[-2.8459,5.6427,78.5484],[-2.8487,5.6486,89.3361],[-2.8511,5.6477,84.251],[-2.8562,5.6493,87.8684],[-2.8576,5.6522,84.1788],[-2.8563,5.6553,83.8174],[-2.8584,5.6571,91.7267],[-2.8602,5.6533,90.1253],[-2.865,5.6516,84.6182],[-2.8686,5.6451,84.8296],[-2.8714,5.6455,82.8591],[-2.8728,5.6431,85.8586],[-2.8762,5.6434,86.4206],[-2.876,5.6417,85.4587],[-2.8785,5.6395,86.2355],[-2.8821,5.6401,88.2803],[-2.884,5.6388,88.9556],[-2.8839,5.636,87.1512],[-2.886,5.6347,87.741],[-2.8874,5.6358,87.6005],[-2.8999,5.6292,92.642],[-2.9031,5.6313,97.4927],[-2.9054,5.629,94.5241],[-2.9074,5.6302,97.7287],[-2.9085,5.6286,91.7112],[-2.9207,5.628,98.897],[-2.9244,5.6212,108.579],[-2.9345,5.6198,99.9132],[-2.9393,5.6281,119.0124],[-2.9418,5.6288,117.8087],[-2.9431,5.6331,125.0],[-2.9476,5.6366,131.2952],[-2.9509,5.6354,112.5034],[-2.9544,5.6373,119.6969],[-2.9596,5.6367,115.7317],[-2.9635,5.6405,122.3087],[-2.9667,5.6406,117.9048],[-2.961,5.6697,127.1743],[-2.9533,5.6738,135.341],[-2.9527,5.716,230.6194],[-3.0261,5.7097,178.1963],[-3.0205,5.8571,143.0987],[-3.074,5.9853,144.241],[-3.1023,6.1519,121.0753],[-3.1077,6.1651,120.7726],[-3.1548,6.2522,137.4705],[-3.1743,6.2516,134.3792],[-3.1739,6.2597,137.232],[-3.1717,6.2643,137.3317],[-3.1709,6.2959,146.5703],[-3.1746,6.3101,143.2425],[-3.1809,6.3159,165.5698],[-3.1858,6.326,165.8344],[-3.1865,6.3429,175.6361],[-3.1902,6.3487,159.6755],[-3.1935,6.3604,176.4587],[-3.2366,6.5387,169.9925],[-3.2341,6.5965,181.0784],[-3.2436,6.6008,149.3936],[-3.2549,6.6095,163.29],[-3.2553,6.6156,150.7036],[-3.2621,6.6176,139.2998],[-3.2601,6.6215,140.2573],[-3.2598,6.6303,139.0083],[-3.2571,6.6331,138.8273],[-3.2567,6.6439,138.3384],[-3.2548,6.645,139.7339],[-3.2529,6.6502,140.9304],[-3.2504,6.6513,141.0617],[-3.2478,6.6597,142.1583],[-3.2437,6.6655,145.2673],[-3.2353,6.6677,144.9205],[-3.2367,6.6764,142.6477],[-3.2311,6.6807,147.7346],[-3.2309,6.6839,147.5616],[-3.2327,6.6863,145.0337],[-3.2295,6.6874,146.2486],[-3.2278,6.6913,148.1213],[-3.2314,6.6947,149.5777],[-3.2299,6.6997,152.3037],[-3.2322,6.7006,149.0762],[-3.2294,6.7034,152.0231],[-3.2223,6.7052,151.994],[-3.2207,6.7099,149.1466],[-3.2166,6.7143,153.2014],[-3.2162,6.722,151.072],[-3.214,6.7219,153.136],[-3.209,6.7316,152.9839],[-3.2089,6.7344,152.8967],[-3.214,6.7395,151.7212],[-3.2144,6.7442,154.1594],[-3.2178,6.7488,157.9608],[-3.2119,6.7553,156.1857],[-3.2157,6.7608,158.7363],[-3.2185,6.761,157.5148],[-3.2183,6.7625,159.2454],[-3.2272,6.7678,157.4376],[-3.229,6.7742,164.0892],[-3.2313,6.7767,163.7024],[-3.2328,6.7871,164.8423],[-3.2316,6.7917,166.9247],[-3.233,6.7945,167.3386],[-3.2306,6.8001,168.6442],[-3.231,6.8064,173.3958],[-3.2297,6.8094,174.0999],[-3.2317,6.8219,175.4084],[-3.2258,6.8249,181.8951],[-3.1554,6.9404,224.3386],[-3.1435,6.9567,237.5448],[-3.1426,6.9627,243.5459],[-3.1339,6.9749,222.7928],[-3.1166,7.0059,209.1878],[-3.1111,7.0124,209.9981],[-3.1078,7.0141,209.9285],[-3.1072,7.019,218.9195],[-3.0829,7.0544,227.0976],[-3.0752,7.0626,246.0659],[-3.1134,7.1069,212.672],[-3.1283,7.1288,243.2246],[-3.1357,7.1363,250.2512],[-3.138,7.1414,263.9858],[-3.1807,7.1734,231.5212],[-3.1914,7.1739,247.3868],[-3.2174,7.1887,211.9024],[-3.2181,7.217,225.2913],[-3.2209,7.2217,228.1854],[-3.2313,7.2288,221.9502],[-3.236,7.2339,206.8617],[-3.2405,7.2432,195.1102],[-3.2449,7.3185,186.3926],[-3.2465,7.3221,175.8762],[-3.2514,7.3259,170.6629],[-3.263,7.3272,180.5292],[-3.2724,7.3316,164.9826],[-3.279,7.3319,166.7351],[-3.2988,7.3298,162.9679],[-3.3076,7.3272,159.2348],[-3.3094,7.3252,153.5744],[-3.3079,7.3221,155.5545],[-3.2992,7.3155,161.6801],[-3.2955,7.3096,161.3189],[-3.2917,7.2976,157.8866],[-3.2925,7.29,161.8605],[-3.2985,7.2742,164.2807],[-3.3871,7.2403,212.9149],[-3.3916,7.2398,188.0582],[-3.3986,7.2466,186.4666],[-3.4123,7.2701,175.6587],[-3.4209,7.2948,177.927],[-3.4207,7.3021,164.039],[-3.425,7.3188,162.7748],[-3.428,7.3259,144.7363],[-3.436,7.3353,148.2839],[-3.4364,7.3405,150.1208],[-3.4422,7.3421,151.708],[-3.4478,7.3393,149.9724],[-3.4501,7.3492,149.3218],[-3.4527,7.3537,149.5982],[-3.4568,7.3517,149.1657],[-3.4555,7.3446,146.9862],[-3.4584,7.3424,148.6355],[-3.4602,7.3434,148.0268],[-3.4616,7.35,147.6037],[-3.4648,7.3529,149.5452],[-3.469,7.3484,150.3676],[-3.4724,7.3499,151.0689],[-3.4754,7.3546,147.2433],[-3.479,7.3543,147.3458],[-3.4786,7.3458,148.8116],[-3.4876,7.3477,149.3055],[-3.4963,7.3533,148.1499],[-3.5023,7.352,148.629],[-3.5178,7.3523,150.3548],[-3.5303,7.3426,149.4077],[-3.5348,7.3433,142.2309],[-3.5392,7.3408,148.2783],[-3.548,7.3309,147.0238],[-3.5595,7.3131,149.1219],[-3.5588,7.3072,152.4788],[-3.5548,7.3009,173.611],[-3.5489,7.2985,168.0092],[-3.537,7.2898,166.2337],[-3.5304,7.2906,138.9693],[-3.5284,7.2894,139.2269],[-3.5416,7.2796,145.675],[-3.555,7.2796,155.4493],[-3.5798,7.2839,156.0695],[-3.5863,7.2826,141.3047],[-3.5942,7.2761,156.0888],[-3.5924,7.2529,150.191],[-3.5802,7.2391,143.3894],[-3.5767,7.2293,141.6991],[-3.5786,7.2206,142.503],[-3.5827,7.2126,149.1785],[-3.5851,7.2,141.3494],[-3.5909,7.1907,142.5481],[-3.6039,7.182,136.6438],[-3.6091,7.1852,136.8087],[-3.6108,7.1915,145.8621],[-3.6152,7.1964,138.3896],[-3.6408,7.204,147.3244],[-3.6459,7.1988,151.7312],[-3.649,7.1881,139.3804],[-3.6508,7.1786,141.9885],[-3.6496,7.1666,149.8606],[-3.6424,7.1464,136.6432],[-3.6424,7.1319,139.1133],[-3.6408,7.1286,137.853],[-3.6348,7.1247,137.2396],[-3.6275,7.1231,143.4399],[-3.6068,7.1067,136.9726],[-3.5978,7.1037,181.7502],[-3.5825,7.1022,141.1998],[-3.5769,7.1079,138.9811],[-3.5702,7.1085,147.3916],[-3.5672,7.1063,140.9703],[-3.579,7.0919,137.56],[-3.5819,7.0852,137.871],[-3.5825,7.0784,142.0087],[-3.5804,7.0668,139.8787],[-3.5827,7.0649,137.9652],[-3.5938,7.0798,135.3936],[-3.61,7.0846,136.4504],[-3.6257,7.092,157.937],[-3.6299,7.0829,134.2247],[-3.6286,7.0773,141.4073],[-3.6221,7.0705,133.9284],[-3.6243,7.0651,140.0212],[-3.6367,7.048,132.612],[-3.6399,7.0461,133.3013],[-3.6635,7.0538,139.91],[-3.6681,7.0533,139.2741],[-3.6789,7.0481,137.7909],[-3.6875,7.0387,131.2174],[-3.7034,7.0301,131.1685],[-3.7162,7.0183,130.5737],[-3.7173,7.0134,131.162],[-3.7164,7.0059,133.4122],[-3.7181,7.0047,132.338],[-3.7218,7.007,134.4083],[-3.7324,7.0093,133.4299],[-3.7577,7.0012,131.0084],[-3.7635,6.9955,136.8387],[-3.7822,6.9689,136.6416],[-3.7856,6.9534,136.5528],[-3.7842,6.9483,127.4717],[-3.7863,6.9442,139.9172],[-3.7833,6.938,129.6733],[-3.7792,6.9357,131.0533],[-3.7766,6.9315,133.5464],[-3.7751,6.9305,133.5464],[-3.7707,6.9337,125.7244],[-3.7659,6.9465,129.2208],[-3.7548,6.9594,150.8345],[-3.7474,6.9614,145.6762],[-3.7425,6.9608,136.2823],[-3.7381,6.9559,135.1379],[-3.7416,6.9439,134.8836],[-3.7326,6.9272,130.5128],[-3.7326,6.9239,134.676],[-3.7345,6.9115,132.3717],[-3.7431,6.9052,132.746],[-3.7628,6.8842,125.3653],[-3.7788,6.8625,124.6243],[-3.7787,6.8574,126.0404],[-3.7726,6.8498,129.7262],[-3.752,6.8317,153.1198],[-3.75,6.8254,122.1988],[-3.7465,6.8212,125.615],[-3.7467,6.8177,121.5],[-3.7475,6.8152,137.26],[-3.7616,6.8029,122.4551],[-3.7617,6.7942,126.1319],[-3.7583,6.7803,127.7932],[-3.7585,6.7775,124.1024],[-3.762,6.7735,127.707],[-3.7769,6.7727,125.4611],[-3.7959,6.7649,127.5302],[-3.7991,6.7607,124.718],[-3.7925,6.7542,132.0606],[-3.7884,6.7451,125.2224],[-3.7887,6.736,125.8505],[-3.7743,6.7259,129.0939],[-3.773,6.7176,120.0085],[-3.7645,6.7024,125.4931],[-3.7716,6.6973,125.273],[-3.7768,6.6967,124.7018],[-3.7826,6.687,125.3058],[-3.7946,6.6791,123.278],[-3.7968,6.6756,126.053],[-3.7917,6.6711,118.7212],[-3.789,6.6708,122.3865],[-3.78,6.6546,128.7278],[-3.7725,6.6476,120.7679],[-3.774,6.6403,119.1669],[-3.7699,6.6221,115.0217],[-3.7624,6.6345,127.0876],[-3.7579,6.6378,120.2796],[-3.7405,6.6372,119.1686],[-3.7286,6.6301,116.6556],[-3.7195,6.632,115.0258],[-3.7111,6.6431,115.6977],[-3.7,6.6495,115.547],[-3.6826,6.6466,114.8898],[-3.6807,6.6449,110.2398],[-3.6769,6.6353,110.3735],[-3.678,6.6221,117.0157],[-3.6894,6.6095,115.8766],[-3.6846,6.6029,118.1383],[-3.6853,6.594,116.8814],[-3.6828,6.5893,117.1658],[-3.6649,6.5812,115.8802],[-3.6603,6.5762,110.9297],[-3.6574,6.5689,117.3153],[-3.6607,6.5548,115.4225],[-3.6588,6.5504,116.4035],[-3.6505,6.5434,111.7359],[-3.6466,6.5352,112.3766],[-3.6461,6.5216,108.3309],[-3.6402,6.5102,116.3788],[-3.6354,6.49,108.2935],[-3.6472,6.4629,119.6934],[-3.6472,6.4579,108.1551],[-3.6438,6.4519,103.4392],[-3.6436,6.4405,114.843],[-3.6364,6.443,109.7619],[-3.6185,6.4325,125.5153],[-3.6139,6.4265,109.7553],[-3.6108,6.3987,102.5834],[-3.6082,6.3943,104.1242],[-3.598,6.3863,102.0],[-3.591,6.3744,114.8865],[-3.5891,6.3757,114.0211],[-3.5861,6.3844,122.2767],[-3.5782,6.3864,114.2749],[-3.5736,6.3856,136.0408],[-3.5483,6.3661,104.7404],[-3.5435,6.3719,107.4832],[-3.5483,6.382,105.6109],[-3.5381,6.3875,106.9161],[-3.5313,6.3848,110.8064],[-3.511,6.3649,115.3826],[-3.513,6.3612,108.755],[-3.511,6.3463,101.83],[-3.5021,6.3496,115.0607],[-3.4954,6.3455,105.1276],[-3.5032,6.3227,105.002],[-3.4941,6.3162,107.1775],[-3.4928,6.3123,105.4901],[-3.4734,6.2953,127.1139],[-3.4706,6.2893,142.8035],[-3.4695,6.2709,102.7246],[-3.4647,6.2549,98.3279],[-3.4442,6.2431,110.4506],[-3.4423,6.2394,118.0092],[-3.4426,6.2352,105.1684],[-3.445,6.2312,107.7664],[-3.4489,6.2292,118.159],[-3.4723,6.2386,98.2814],[-3.4754,6.2376,102.2801],[-3.4821,6.2283,104.7977],[-3.4817,6.2171,102.498],[-3.4797,6.2128,95.9712],[-3.4627,6.2047,103.9586],[-3.4569,6.194,134.1998],[-3.4576,6.1749,102.0811],[-3.4436,6.1738,95.1618],[-3.454,6.1834,104.5863],[-3.455,6.1896,131.6072],[-3.4526,6.195,119.9035],[-3.4265,6.1967,97.7871],[-3.4234,6.1944,98.3252],[-3.4176,6.1836,93.1227],[-3.4112,6.1629,96.5903],[-3.3954,6.1453,102.8199],[-3.3959,6.1292,107.8187],[-3.3989,6.1275,103.7528],[-3.4073,6.1301,110.803],[-3.4103,6.1283,114.526],[-3.4114,6.1242,105.9966],[-3.4076,6.1121,98.3514],[-3.3937,6.1007,99.5159],[-3.3952,6.0887,119.9087],[-3.398,6.0863,120.4764],[-3.4088,6.0869,106.0331],[-3.4193,6.0835,105.7031],[-3.4227,6.0773,108.3676],[-3.4242,6.0693,100.7153],[-3.4228,6.0667,91.7159],[-3.4176,6.0695,103.0691],[-3.4109,6.0695,97.962],[-3.4043,6.0654,107.1549],[-3.4048,6.0591,95.1984],[-3.4121,6.0493,98.5898],[-3.4038,6.0444,97.6222],[-3.4008,6.0373,95.8909],[-3.3983,6.0351,96.1295],[-3.3958,6.0253,94.5727],[-3.3888,6.0176,95.7831],[-3.3892,6.012,124.9669],[-3.3907,6.0089,114.1924],[-3.4006,6.0048,92.8699],[-3.3987,5.9958,93.786],[-3.4022,5.9795,101.8326],[-3.4093,5.9718,98.4563],[-3.4298,5.9714,98.4479],[-3.4363,5.9638,94.951],[-3.4298,5.9524,93.0154],[-3.4293,5.9479,90.7518],[-3.4315,5.938,90.6678],[-3.4405,5.9299,88.8672],[-3.4447,5.9165,125.1222],[-3.4541,5.9003,100.8594],[-3.4571,5.8846,94.8277],[-3.459,5.8827,101.875],[-3.4519,5.8642,73.3377],[-3.4494,5.8633,73.4105],[-3.4413,5.8537,70.6034],[-3.4403,5.8441,109.1454],[-3.4495,5.8495,114.4334],[-3.4469,5.842,50.9559],[-3.451,5.8391,61.5709],[-3.4488,5.8298,83.2316],[-3.4596,5.7946,74.7466],[-3.4554,5.7867,87.7124],[-3.4544,5.781,44.3367],[-3.4434,5.7794,44.3879],[-3.4371,5.7803,58.196],[-3.4332,5.7786,36.7525],[-3.4278,5.7681,77.6255],[-3.4425,5.7637,37.2911],[-3.4563,5.7535,37.5926],[-3.4669,5.7427,45.9946],[-3.4846,5.7322,40.5569],[-3.4858,5.7304,18.8135],[-3.4847,5.7205,51.4371],[-3.4862,5.7165,43.1895],[-3.5096,5.6866,20.233],[-3.5218,5.682,55.5953],[-3.5269,5.6844,23.96],[-3.5347,5.6726,24.8974],[-3.5454,5.6621,22.9871],[-3.5557,5.6461,57.7136],[-3.5813,5.6321,21.2756],[-3.5865,5.6199,42.0094],[-3.5815,5.6034,10.5085],[-3.5804,5.5953,17.5568],[-3.5814,5.5923,25.9897],[-3.5895,5.5859,20.7758],[-3.5965,5.5768,14.5921],[-3.6081,5.5722,18.8475],[-3.6108,5.5668,15.9239],[-3.6097,5.5608,21.8742],[-3.6141,5.5542,21.3821],[-3.6187,5.5401,21.112],[-3.6277,5.5309,23.4047],[-3.6343,5.5268,20.1426],[-3.6424,5.5122,33.6158],[-3.6523,5.5081,11.3274],[-3.6558,5.5052,7.8911],[-3.6523,5.4985,11.8308],[-3.6526,5.4952,16.7763],[-3.6583,5.4842,21.9393],[-3.6527,5.4691,22.3511],[-3.662,5.4252,14.1132],[-3.6599,5.4179,13.3715],[-3.6442,5.4001,20.9418],[-3.6395,5.3586,7.9991],[-3.6411,5.3465,21.5847],[-3.6404,5.3397,19.7412],[-3.6325,5.3231,16.4574],[-3.6316,5.3158,22.5506],[-3.6298,5.3136,23.8226],[-3.6225,5.3114,16.6861],[-3.618,5.3066,7.2823],[-3.6177,5.3038,13.1044],[-3.623,5.2974,12.678],[-3.6214,5.2843,11.135],[-3.6194,5.2784,12.2149],[-3.6138,5.2706,16.495],[-3.6138,5.267,7.7226],[-3.6205,5.2618,20.3188],[-3.6243,5.2565,11.3643],[-3.6317,5.253,7.4281],[-3.6351,5.2537,6.7915],[-3.6453,5.2616,5.4747],[-3.6551,5.2639,6.3618],[-3.6554,5.2589,2.9265],[-3.6624,5.2571,1.5592],[-3.6667,5.2495,6.4276],[-3.6691,5.2395,2.6018],[-3.6728,5.234,0.5],[-3.6817,5.2312,2.0585],[-3.6899,5.2314,2.2507],[-3.6991,5.2357,3.8907],[-3.7093,5.2298,0.479],[-3.7149,5.2206,2.478],[-3.7172,5.2205,3.3252],[-3.719,5.2217,1.2327],[-3.7186,5.2298,0.0],[-3.7214,5.2418,3.8282],[-3.731,5.251,0.0],[-3.7304,5.273,0.0],[-3.7206,5.291,0.0],[-3.7194,5.297,0.0],[-3.7208,5.2987,0.0],[-3.7879,5.2728,0.0],[-3.8107,5.2864,0.0],[-3.8213,5.2719,5.9239],[-3.8221,5.2669,9.732],[-3.818,5.2618,7.6418],[-3.8172,5.2541,9.7637],[-3.8196,5.2507,11.2947],[-3.844,5.2541,5.6146],[-3.8546,5.2271,8.0814],[-3.8224,5.2135,0.0],[-3.8051,5.2079,2.8666],[-3.7154,5.1896,0.0],[-3.6265,5.1779,8.7794],[-3.594,5.1729,4.961],[-3.5918,5.1713,0.0],[-3.5293,5.1676,10.3363],[-3.4762,5.1607,9.2012],[-3.3987,5.1468,0.0],[-3.3846,5.1457,9.0257],[-3.2885,5.1271,1.4315],[-3.2868,5.1271,1.0491],[-3.286,5.129,1.7629],[-3.2807,5.129,2.5401],[-3.2765,5.124,1.6009],[-3.2026,5.111,13.3505],[-3.1121,5.0921,12.8809],[-3.1107,5.0921,12.8809],[-3.1115,5.1107,10.9282],[-3.1089,5.1102,6.1014],[-3.109,5.116,5.2468],[-3.1017,5.1124,0.0],[-3.0964,5.1133,3.6352],[-3.0943,5.1154,4.0134],[-3.0851,5.1119,8.3754],[-3.0724,5.1131,1.7831],[-3.0713,5.1141,0.103],[-3.0718,5.1194,0.0],[-3.0634,5.122,6.2766],[-3.0519,5.116,0.3876],[-3.0483,5.1204,4.9495],[-3.042,5.1166,3.3824],[-3.034,5.1181,1.2204],[-3.0275,5.117,3.5259],[-3.0215,5.1194,1.2836],[-3.019,5.116,0.7252],[-3.0024,5.111,3.3343],[-2.9881,5.0955,0.6905],[-2.9762,5.0871,1.3059],[-2.9651,5.0879,1.4412],[-2.9491,5.0841,5.2599],[-2.9416,5.094,0.1996],[-2.9296,5.0967,1.5],[-2.93,5.1007,1.3364],[-2.9343,5.1026,1.9228],[-2.9328,5.1054,0.9364],[-2.9358,5.1095,0.9418],[-2.9346,5.1108,8.0359],[-2.9366,5.11,0.9418],[-2.9417,5.112,0.0],[-2.9431,5.1143,0.9203],[-2.9399,5.1205,0.8136],[-2.9399,5.1252,0.7329],[-2.9354,5.1256,2.5186],[-2.934,5.1223,6.3048],[-2.931,5.1231,7.8875],[-2.9282,5.1208,5.2011],[-2.9218,5.1223,7.6484],[-2.9104,5.1205,9.2728],[-2.9061,5.1235,7.3846],[-2.9021,5.1212,4.7983],[-2.896,5.1228,7.6306],[-2.8917,5.1195,6.3802],[-2.8906,5.1268,7.9232],[-2.884,5.1238,12.9338],[-2.8816,5.1268,6.3171],[-2.8768,5.1281,6.8112],[-2.8693,5.1228,4.5827],[-2.8634,5.1231,9.5109],[-2.8585,5.1161,2.7342],[-2.8542,5.1156,5.754],[-2.8524,5.1108,11.2395],[-2.8444,5.1073,5.7761],[-2.8381,5.1096,9.7026],[-2.8409,5.1146,12.0963],[-2.8366,5.1152,5.3346],[-2.8351,5.1207,6.316],[-2.8322,5.1214,4.2954],[-2.8273,5.1199,4.3227],[-2.8242,5.1161,12.9597],[-2.8235,5.1113,6.7693],[-2.8188,5.1095,6.5772],[-2.8176,5.1056,11.3495],[-2.8145,5.1073,7.0241],[-2.8167,5.111,7.8355],[-2.8135,5.1134,7.3946],[-2.8102,5.1063,3.8281],[-2.8083,5.1065,4.9305],[-2.8061,5.1116,3.6275],[-2.8014,5.1077,4.5856],[-2.7906,5.107,16.1204],[-2.7857,5.1176,7.0694],[-2.784,5.1096,4.8737],[-2.7804,5.1124,12.3814],[-2.7787,5.111,6.3466],[-2.7718,5.1113,5.6579],[-2.7686,5.1087,7.6185],[-2.7662,5.1095,4.2212],[-2.7658,5.1058,5.485],[-2.7637,5.1037,10.5224],[-2.7602,5.1035,6.443],[-2.7599,5.1014,4.3473],[-2.758,5.1012,5.1825],[-2.7541,5.1166,6.1036],[-2.7511,5.1149,7.4542],[-2.7473,5.1168,5.6884],[-2.7422,5.1139,5.5293],[-2.7406,5.1158,7.5677],[-2.7405,5.1248,4.1037],[-2.7352,5.1322,5.8414],[-2.7328,5.1321,4.1942],[-2.7327,5.1345,4.6232],[-2.731,5.1347,5.1027],[-2.7277,5.1314,4.3784],[-2.7277,5.137,4.9381],[-2.7248,5.1372,3.5164],[-2.7238,5.1409,4.4811],[-2.7272,5.1401,4.7509],[-2.7267,5.1446,5.3755],[-2.7301,5.1482,7.1744],[-2.731,5.1518,5.2466],[-2.733,5.1514,5.6396],[-2.734,5.1486,7.1516],[-2.7365,5.1487,6.454],[-2.7416,5.1557,5.4148],[-2.7358,5.1623,8.4989],[-2.7406,5.1611,6.0307],[-2.7456,5.1669,6.297],[-2.7412,5.1757,6.7156],[-2.7421,5.1811,9.0016],[-2.7459,5.1842,9.4822],[-2.7458,5.1873,13.3913],[-2.7495,5.1945,7.2485],[-2.7476,5.2021,9.5685],[-2.7571,5.2005,10.4626],[-2.7601,5.2069,7.1361],[-2.7603,5.212,15.8664],[-2.7634,5.2134,13.0211],[-2.7648,5.2169,30.999],[-2.7635,5.2185,10.9081],[-2.757,5.2184,17.6232],[-2.7591,5.2215,8.5896],[-2.7578,5.2256,11.0694],[-2.7588,5.2284,16.471],[-2.7609,5.2297,8.1346],[-2.7598,5.2323,7.2464],[-2.7567,5.2304,14.3742],[-2.7554,5.233,11.4571],[-2.7589,5.2353,9.85],[-2.7649,5.2348,19.0399],[-2.7658,5.2363,9.6642],[-2.7624,5.2457,12.2237],[-2.7596,5.2458,11.094],[-2.7589,5.2419,17.7016],[-2.7547,5.2422,9.7906],[-2.7549,5.245,10.0599],[-2.7608,5.2498,14.0001],[-2.7563,5.2497,9.5209],[-2.7549,5.2462,7.9659],[-2.7533,5.2488,10.7818],[-2.7546,5.2532,12.4123],[-2.7574,5.2559,9.8144],[-2.7639,5.2552,11.2586],[-2.7655,5.2599,11.2129],[-2.7687,5.2577,12.2819],[-2.7728,5.2584,10.7603],[-2.7759,5.2653,8.7335],[-2.7773,5.2631,8.1432],[-2.779,5.2637,12.7324],[-2.7793,5.266,11.8337],[-2.7776,5.2667,14.9593],[-2.7691,5.2675,8.9104],[-2.7731,5.2687,10.4362],[-2.7748,5.2738,13.0447],[-2.7815,5.2773,12.0747],[-2.7853,5.2856,11.7727],[-2.7849,5.2897,9.257],[-2.7844,5.2925,11.1903],[-2.7812,5.2947,9.5349],[-2.7721,5.2928,9.2585],[-2.7695,5.2946,8.6561],[-2.7664,5.3052,11.4808],[-2.768,5.3072,11.6167],[-2.7661,5.3172,11.7069],[-2.7707,5.3232,15.5474],[-2.7718,5.329,33.2796],[-2.7774,5.3309,10.5354],[-2.7742,5.3364,11.5248],[-2.7706,5.3354,19.8082],[-2.7761,5.3421,11.3027],[-2.7767,5.3464,12.7795],[-2.7697,5.3522,11.9277],[-2.7688,5.3566,11.663],[-2.7644,5.3561,15.2377],[-2.7579,5.3481,10.6102],[-2.7568,5.3441,41.1166],[-2.7422,5.3451,13.4164],[-2.7384,5.3472,50.8088],[-2.7313,5.3418,33.9695],[-2.7266,5.3409,12.3088],[-2.7249,5.3421,13.7115]]]]}
,"properties": {"GID_1": "CIV.3_1","GID_0": "CIV","country": "Côted'Ivoire","province": "Comoé","VARNAME_1": "NA","NL_NAME_1": "NA","TYPE_1": "District","ENGTYPE_1": "District","CC_1": "NA","HASC_1": "CI.CM","ISO_1": "NA","name": "Comoé.province","area_km2": 14645.9,"hist_schema_id": "Elevation0-9000","hist_area_km2": {"0": 1054.33,"25": 1081.42,"50": 1029.74,"75": 1283.14,"100": 1579.21,"125": 1924.79,"150": 2286.18,"175": 1841.6,"200": 1165.4,"225": 789.28,"250": 386.95,"275": 127.39,"300": 47.27,"325": 21.44,"350": 11.39,"375": 6.73,"400": 4.63,"425": 3.03,"450": 1.35,"475": 0.38,"500": 0.21}}}