{"type":"Feature","properties":{"GID_3":"CIV.4.2.4_1","GID_0":"CIV","country":"Côted'Ivoire","GID_1":"CIV.4_1","province":"Denguélé","NL_NAME_1":"NA","GID_2":"CIV.4.2_1","county":"Kabadougou","NL_NAME_2":"NA","city":"Samatiguila","VARNAME_3":"NA","NL_NAME_3":"NA","TYPE_3":"Département","ENGTYPE_3":"Department","CC_3":"NA","HASC_3":"NA","name":"Samatiguila.city"},
"geometry":{"type": "MultiPolygon","coordinates": [[[[-7.5869,9.9617,366.9251],[-7.5949,9.9658,368.4625],[-7.6153,9.9676,374.8629],[-7.6287,9.9666,377.5984],[-7.6383,9.9624,377.8595],[-7.6482,9.9522,377.6708],[-7.651,9.942,381.9037],[-7.6666,9.9402,381.7859],[-7.6778,9.9358,384.8062],[-7.6756,9.9308,403.5721],[-7.6764,9.9114,427.5948],[-7.6678,9.8974,414.7523],[-7.6541,9.8831,393.1071],[-7.6511,9.8653,390.7092],[-7.6483,9.8627,389.2177],[-7.6428,9.8626,381.1484],[-7.6294,9.8542,381.6629],[-7.6202,9.8083,401.5558],[-7.6215,9.7984,403.6874],[-7.6178,9.7839,402.184],[-7.603,9.7621,386.02],[-7.5954,9.7585,389.6102],[-7.5965,9.744,378.1924],[-7.5898,9.7422,381.6718],[-7.583,9.753,382.1368],[-7.5813,9.7619,377.4986],[-7.5747,9.7689,387.0001],[-7.5703,9.7767,383.86],[-7.5636,9.7759,392.8873],[-7.5598,9.7797,384.4666],[-7.5554,9.7891,376.459],[-7.5568,9.799,376.4689],[-7.5512,9.8075,375.2312],[-7.5527,9.8163,371.2657],[-7.5477,9.8183,373.9419],[-7.5488,9.8289,376.1589],[-7.5433,9.8356,375.0031],[-7.5532,9.8446,373.0415],[-7.5573,9.8514,372.3378],[-7.5586,9.8584,370.3911],[-7.5684,9.8575,371.2786],[-7.5715,9.8657,370.4233],[-7.5608,9.8817,372.9136],[-7.5601,9.8865,373.5822],[-7.565,9.895,368.6958],[-7.5542,9.8997,386.1073],[-7.5599,9.9084,369.6451],[-7.5673,9.9082,368.3969],[-7.5668,9.9199,368.6297],[-7.5691,9.9255,368.529],[-7.5618,9.9332,368.4359],[-7.5714,9.9357,368.2423],[-7.574,9.9394,368.6176],[-7.5691,9.9407,370.3589],[-7.5741,9.9488,366.8109],[-7.5734,9.9519,366.7124],[-7.5817,9.9556,369.1002],[-7.5869,9.9617,366.9251]]]]}}