{"type": "Feature","bbox": [-3.1192,7.3111,-2.8497,7.8758],"geometry": {"type": "MultiPolygon","coordinates": [[[[-2.9235,7.6086,236.1369],[-2.8887,7.6836,364.4055],[-2.8834,7.6985,498.789],[-2.8735,7.7187,349.0617],[-2.8693,7.7323,299.5308],[-2.8506,7.7619,342.4809],[-2.8497,7.7705,340.0963],[-2.8872,7.7774,281.4955],[-2.8884,7.7865,306.6729],[-2.8854,7.7885,287.4208],[-2.8759,7.8089,341.1516],[-2.8758,7.8209,358.1603],[-2.8775,7.8232,365.847],[-2.888,7.8287,339.4085],[-2.8963,7.8297,313.1429],[-2.9003,7.8401,330.5793],[-2.8992,7.8512,438.6328],[-2.9014,7.8614,326.5587],[-2.9027,7.8663,303.6109],[-2.9065,7.8704,306.7428],[-2.9085,7.8687,331.0245],[-2.921,7.8676,273.4755],[-2.9232,7.8679,278.6665],[-2.9304,7.8758,259.3815],[-2.9405,7.8741,255.2973],[-2.9452,7.8757,261.7838],[-2.9495,7.8682,258.2777],[-2.9594,7.866,270.3365],[-2.9625,7.8616,280.9922],[-2.9772,7.8542,251.1651],[-2.9791,7.857,254.1312],[-2.9779,7.8647,263.7544],[-2.9855,7.8748,273.581],[-3.0147,7.8399,239.1304],[-3.0752,7.7763,259.6423],[-3.0877,7.7585,226.7464],[-3.097,7.7377,244.83],[-3.095,7.7085,215.519],[-3.0897,7.6698,262.3193],[-3.1118,7.6632,245.5325],[-3.1177,7.6579,243.2898],[-3.1192,7.6542,235.271],[-3.1189,7.6474,222.5581],[-3.096,7.6438,232.8589],[-3.0938,7.6341,246.1175],[-3.0899,7.6272,236.8911],[-3.0892,7.6179,224.4777],[-3.0866,7.6115,213.3034],[-3.0854,7.5982,208.1598],[-3.0901,7.5872,216.0948],[-3.0902,7.5829,207.5168],[-3.0606,7.5878,244.175],[-3.0458,7.5871,221.0482],[-3.0422,7.5843,207.6839],[-3.0338,7.585,222.3543],[-3.0289,7.5456,195.8292],[-3.05,7.5426,195.3143],[-3.0611,7.5346,205.6903],[-3.0711,7.5318,192.5168],[-3.0844,7.5241,184.6873],[-3.0908,7.5221,185.8508],[-3.1096,7.5226,181.4721],[-3.0943,7.495,219.5073],[-3.0895,7.4914,217.024],[-3.0852,7.4802,236.5168],[-3.0839,7.4641,250.1573],[-3.0864,7.4546,237.0336],[-3.0894,7.4497,218.5672],[-3.0882,7.4407,217.686],[-3.0957,7.437,207.7893],[-3.0949,7.4326,200.6138],[-3.085,7.4232,211.8661],[-3.0828,7.4183,212.6289],[-3.079,7.4,222.6696],[-3.0785,7.3786,250.5729],[-3.0723,7.3533,273.8168],[-3.0692,7.3465,271.4427],[-3.0521,7.3227,304.4266],[-3.0508,7.3176,293.5193],[-3.0425,7.3121,317.4268],[-3.0399,7.3111,336.3338],[-3.0369,7.3125,324.1516],[-3.0318,7.3184,312.9496],[-3.0101,7.3295,322.0586],[-2.9969,7.3462,287.6986],[-2.9856,7.3357,318.4114],[-2.9699,7.3316,308.799],[-2.9484,7.43,264.7946],[-2.9473,7.4565,239.2708],[-2.9347,7.4865,243.2682],[-2.9235,7.6086,236.1369]]]]}
,"properties": {"GID_3": "CIV.14.2.5_1","GID_0": "CIV","country": "Côted'Ivoire","GID_1": "CIV.14_1","province": "Zanzan","NL_NAME_1": "NA","GID_2": "CIV.14.2_1","county": "Gontougo","NL_NAME_2": "NA","city": "Transua","VARNAME_3": "NA","NL_NAME_3": "NA","TYPE_3": "Département","ENGTYPE_3": "Department","CC_3": "NA","HASC_3": "NA","name": "Transua.city","area_km2": 1042.0914,"hist_schema_id": "Elevation0-9000","hist_area_km2": {"175": 0.7567,"200": 57.5289,"225": 241.10059999999999,"250": 363.5092,"275": 223.5905,"300": 104.5454,"325": 33.2432,"350": 8.8033,"375": 3.4035,"400": 1.912,"425": 1.1766,"450": 0.6093,"475": 0.6094,"500": 0.2942,"525": 0.3573,"550": 0.2102,"575": 0.1681,"600": 0.2732}}}