{"type": "Feature","bbox": [-5.2445,5.5212,-3.9295,6.382],"geometry": {"type": "MultiPolygon","coordinates": [[[[-3.9406,5.625,13.9446],[-3.9356,5.6363,20.0508],[-3.9295,5.6393,18.3771],[-3.9383,5.6659,23.0607],[-3.9438,5.669,21.4603],[-3.94,5.6778,24.6372],[-3.9429,5.6802,30.4511],[-3.9436,5.6849,38.4315],[-3.9361,5.6898,20.2641],[-3.9353,5.7065,20.214],[-3.9327,5.7122,21.2859],[-3.9363,5.7161,34.4608],[-3.9363,5.7182,35.8988],[-3.9395,5.7189,21.2547],[-3.951,5.7273,28.2985],[-3.9539,5.7347,29.1743],[-3.9528,5.7407,26.6285],[-3.9475,5.7438,21.2027],[-3.9483,5.7511,22.8772],[-3.9467,5.7584,22.6428],[-3.9413,5.762,25.6298],[-3.9488,5.7791,39.2335],[-3.9609,5.7908,33.8608],[-3.9668,5.7931,33.6368],[-3.9762,5.8036,33.76],[-3.9855,5.8033,36.3354],[-3.9887,5.806,49.2639],[-3.9923,5.8058,33.2074],[-3.9993,5.8093,41.2329],[-4.0102,5.8035,39.7127],[-4.015,5.8076,36.0434],[-4.0206,5.8074,42.9341],[-4.0234,5.8135,41.5981],[-4.0316,5.8179,44.9387],[-4.0377,5.8138,46.352],[-4.0599,5.8266,48.3212],[-4.0617,5.8404,51.1258],[-4.0835,5.8622,52.1636],[-4.0799,5.8768,50.9287],[-4.076,5.8822,52.2418],[-4.0696,5.903,58.8102],[-4.065,5.9044,54.7888],[-4.0641,5.9064,57.5438],[-4.0674,5.9288,65.8039],[-4.0821,5.9373,59.4252],[-4.082,5.9445,60.6927],[-4.08,5.9504,66.0247],[-4.0671,5.9715,65.2159],[-4.0619,5.9743,69.7228],[-4.0584,5.9873,74.3326],[-4.0483,5.9931,74.1601],[-4.0239,6.0163,82.6532],[-4.0022,6.0455,83.3961],[-3.984,6.0834,87.8578],[-3.974,6.0942,94.8912],[-3.9785,6.1044,97.5269],[-3.9784,6.1144,96.0162],[-3.9812,6.1189,96.7977],[-3.9821,6.125,100.0796],[-3.9782,6.1311,100.7618],[-3.9774,6.1383,99.9462],[-3.9857,6.153,118.3724],[-4.0022,6.1636,114.5594],[-4.0261,6.1942,108.0008],[-4.0468,6.216,125.4354],[-4.061,6.2262,92.9434],[-4.0695,6.235,94.5673],[-4.0752,6.2489,82.3084],[-4.0813,6.2551,83.9566],[-4.0844,6.2628,77.4525],[-4.0888,6.2688,72.7855],[-4.1003,6.2785,76.4556],[-4.113,6.2722,68.7748],[-4.1147,6.2662,86.5954],[-4.1201,6.2646,69.3978],[-4.1286,6.2582,67.4226],[-4.139,6.2579,61.9841],[-4.1461,6.253,61.6232],[-4.1499,6.2482,66.847],[-4.1521,6.2425,62.2814],[-4.1512,6.24,64.6167],[-4.1419,6.2322,61.1719],[-4.1454,6.2306,60.4471],[-4.1531,6.2219,55.3086],[-4.1542,6.2194,55.2061],[-4.1536,6.209,54.9105],[-4.1583,6.2027,55.0483],[-4.1586,6.1952,53.8073],[-4.1675,6.1915,59.2385],[-4.1836,6.1969,74.3332],[-4.2061,6.1972,107.4346],[-4.218,6.2003,97.8127],[-4.2324,6.1914,75.9813],[-4.2325,6.1878,62.7204],[-4.2375,6.1815,76.313],[-4.245,6.1838,67.1943],[-4.2541,6.1914,71.1875],[-4.26,6.1912,78.5204],[-4.2676,6.1954,75.4403],[-4.2823,6.2004,88.966],[-4.2872,6.1964,92.2688],[-4.295,6.1937,91.7551],[-4.3325,6.203,92.328],[-4.342,6.2027,93.8097],[-4.3547,6.2182,99.6154],[-4.3621,6.2198,96.7057],[-4.3839,6.229,103.1876],[-4.3909,6.2354,110.1453],[-4.3965,6.2503,111.0275],[-4.4228,6.2679,129.2046],[-4.4332,6.2457,131.3775],[-4.4592,6.2463,128.3851],[-4.4785,6.2503,157.4496],[-4.4845,6.2449,144.0818],[-4.494,6.2419,159.6155],[-4.5045,6.2428,144.9525],[-4.5503,6.2608,124.7688],[-4.566,6.2628,105.4318],[-4.5691,6.2609,116.1411],[-4.5773,6.2613,111.688],[-4.684,6.2833,52.1942],[-4.6907,6.2816,60.1192],[-4.7022,6.2825,52.9809],[-4.7016,6.2746,60.5946],[-4.7112,6.2641,63.3123],[-4.7217,6.2589,60.0438],[-4.7294,6.2514,55.9077],[-4.7379,6.2522,52.1604],[-4.7446,6.246,65.1682],[-4.7857,6.2381,66.1036],[-4.7925,6.2412,55.8618],[-4.8011,6.2401,75.4808],[-4.8081,6.2415,63.6883],[-4.8155,6.2516,54.1759],[-4.819,6.2512,55.5439],[-4.8192,6.2458,44.9256],[-4.8144,6.2407,52.8668],[-4.8175,6.236,52.6353],[-4.8245,6.2338,48.9617],[-4.9236,6.2592,61.0581],[-4.9292,6.3042,73.5442],[-5.0504,6.3027,151.5864],[-5.095,6.289,122.1952],[-5.1908,6.3758,148.3514],[-5.1988,6.382,144.2644],[-5.2096,6.3809,132.3474],[-5.2445,6.2168,165.932],[-5.1947,6.1684,187.7621],[-5.002,6.128,96.2274],[-4.9863,6.089,63.3075],[-5.0063,6.0605,74.7211],[-5.0308,6.0374,79.4159],[-5.0133,5.9818,86.6882],[-5.0155,5.9655,80.0297],[-5.0083,5.9412,83.0955],[-5.01,5.9099,107.3412],[-4.8897,5.7499,46.5513],[-4.8289,5.7216,15.7254],[-4.8167,5.6938,13.6737],[-4.8056,5.6872,10.3041],[-4.7928,5.6722,5.3314],[-4.8216,5.6319,12.8272],[-4.83,5.6132,2.1695],[-4.8379,5.6099,3.3599],[-4.8517,5.6146,1.8491],[-4.8572,5.5504,19.9766],[-4.69,5.5898,55.906],[-4.7041,5.561,54.1169],[-4.6426,5.539,78.8281],[-4.4889,5.5212,74.9134],[-4.4196,5.5224,34.0505],[-4.421,5.5229,34.0505],[-4.3674,5.5912,42.6707],[-4.3571,5.5853,43.0168],[-4.2604,5.6026,19.8115],[-4.2564,5.6071,22.4705],[-4.2532,5.6084,24.1698],[-4.2254,5.6037,20.2168],[-4.2208,5.6058,20.7496],[-4.083,5.5974,75.1138],[-3.9853,5.6053,46.0476],[-3.9774,5.6132,40.1891],[-3.9689,5.6189,41.7124],[-3.9564,5.6239,38.9831],[-3.9406,5.625,13.9446]]]]}
,"properties": {"GID_2": "CIV.7.1_1","GID_0": "CIV","country": "Côted'Ivoire","GID_1": "CIV.7_1","province": "Lagunes","NL_NAME_1": "NA","county": "Agnéby-Tiassa","VARNAME_2": "NA","NL_NAME_2": "NA","TYPE_2": "Région","ENGTYPE_2": "Region","CC_2": "NA","HASC_2": "CI.LN.AT","name": "Agnéby-Tiassa.county","area_km2": 8297.042,"hist_schema_id": "Elevation0-9000","hist_area_km2": {"0": 25.78,"25": 754.541,"50": 1876.794,"75": 2558.857,"100": 1817.676,"125": 898.873,"150": 256.793,"175": 71.684,"200": 16.167,"225": 6.008,"250": 3.562,"275": 3.331,"300": 2.677,"325": 1.855,"350": 0.991,"375": 0.801,"400": 0.316,"450": 0.148,"475": 0.126}}}