{"type": "Feature","bbox": [-6.2278,5.3332,-5.9507,5.7743],"geometry": {"type": "MultiPolygon","coordinates": [[[[-5.9745,5.5248,142.1245],[-5.9774,5.5269,141.2839],[-5.9808,5.5248,149.4303],[-5.992,5.5271,143.2596],[-5.9942,5.5346,140.7839],[-5.9996,5.543,141.3822],[-5.9988,5.5514,155.3535],[-6.0034,5.5502,143.7581],[-6.0069,5.5521,145.2562],[-6.008,5.5581,145.8636],[-6.0115,5.5625,149.7427],[-6.0145,5.5719,152.1906],[-6.0195,5.5796,144.982],[-6.0194,5.586,187.9579],[-6.0232,5.5965,147.5036],[-6.0194,5.6019,152.2421],[-6.0204,5.6052,168.1142],[-6.0282,5.6072,150.8093],[-6.0285,5.6089,158.9412],[-6.0173,5.6109,165.5656],[-6.016,5.6131,152.3966],[-6.0175,5.6171,180.2493],[-6.0159,5.6231,168.1125],[-6.0167,5.6309,157.1367],[-6.0109,5.6385,167.0957],[-6.0151,5.6455,158.1228],[-6.0218,5.6474,149.789],[-6.0259,5.656,149.847],[-6.0336,5.6576,153.7557],[-6.0352,5.6615,152.5144],[-6.0401,5.6638,156.2482],[-6.0376,5.6681,150.7593],[-6.0384,5.6738,162.6899],[-6.0461,5.6751,150.8262],[-6.0517,5.6787,150.8447],[-6.0552,5.6917,151.0007],[-6.063,5.7056,157.0655],[-6.0617,5.71,164.5025],[-6.0655,5.7122,156.7576],[-6.0692,5.7091,176.7859],[-6.074,5.7143,154.4491],[-6.0748,5.7218,152.7579],[-6.069,5.7238,156.3719],[-6.0666,5.7277,160.9308],[-6.0687,5.7318,159.0666],[-6.0676,5.7383,159.6735],[-6.0908,5.7536,157.6831],[-6.094,5.7537,155.285],[-6.0966,5.7503,162.2905],[-6.1002,5.7557,155.9808],[-6.1052,5.7578,158.3516],[-6.102,5.7636,157.4808],[-6.1021,5.7702,163.9095],[-6.1194,5.7743,165.3794],[-6.1924,5.7708,166.8587],[-6.2116,5.7635,154.4397],[-6.2174,5.7561,158.2276],[-6.2224,5.7438,154.152],[-6.2255,5.7412,148.0561],[-6.2278,5.7325,142.9436],[-6.2236,5.7203,138.2898],[-6.2185,5.713,139.9493],[-6.2189,5.7095,145.8865],[-6.2224,5.7069,137.2299],[-6.2249,5.7019,149.7719],[-6.2213,5.6897,134.555],[-6.2222,5.6873,140.3883],[-6.2203,5.6853,132.0082],[-6.2214,5.6796,129.1544],[-6.2169,5.6763,139.1351],[-6.2166,5.6732,136.4672],[-6.2097,5.6645,136.0859],[-6.2098,5.6615,132.4582],[-6.2056,5.6586,127.9812],[-6.205,5.646,143.0403],[-6.1845,5.6361,148.656],[-6.1802,5.6381,152.8123],[-6.1738,5.6378,155.5844],[-6.1684,5.635,153.8518],[-6.1628,5.6352,151.0186],[-6.1486,5.6532,155.4957],[-6.1226,5.6598,179.0615],[-6.1212,5.6587,173.6649],[-6.1257,5.6556,172.4016],[-6.1263,5.6413,166.2794],[-6.1301,5.6399,157.3663],[-6.1325,5.6359,151.4169],[-6.1384,5.6315,143.4375],[-6.1378,5.624,135.5271],[-6.1491,5.6191,129.6334],[-6.168,5.6018,121.4196],[-6.1665,5.5962,115.6178],[-6.1716,5.5829,106.1943],[-6.1706,5.5768,101.6017],[-6.1724,5.567,99.7901],[-6.1642,5.5629,89.5062],[-6.1658,5.5519,92.8031],[-6.1609,5.545,86.1245],[-6.1679,5.5229,81.5025],[-6.1616,5.5205,90.4114],[-6.1571,5.5152,97.447],[-6.1515,5.516,106.408],[-6.1392,5.508,126.2977],[-6.1353,5.5146,119.1021],[-6.1232,5.5177,138.5806],[-6.1142,5.5167,143.8672],[-6.1082,5.5239,150.9073],[-6.1058,5.5298,146.9276],[-6.0949,5.5336,151.1598],[-6.0906,5.5332,149.4961],[-6.0797,5.5282,152.9688],[-6.0623,5.4442,167.6237],[-6.0671,5.4411,144.692],[-6.0688,5.4184,121.0141],[-6.0635,5.3979,118.3956],[-6.059,5.3929,107.083],[-6.0549,5.3729,106.7625],[-6.0575,5.368,105.1456],[-6.0562,5.3648,94.8926],[-6.058,5.3593,97.534],[-6.0503,5.3504,107.2536],[-6.0499,5.3372,89.2547],[-6.0444,5.3341,86.2121],[-6.041,5.3332,86.2853],[-6.0377,5.3357,88.8895],[-6.0307,5.3466,87.3329],[-6.0312,5.3509,88.8299],[-6.0298,5.3529,87.149],[-6.0233,5.3486,94.6571],[-6.006,5.3529,87.5122],[-6.0014,5.3525,87.550299999999993],[-5.9989,5.3551,96.8951],[-5.9954,5.363,97.9116],[-5.9826,5.3785,98.1078],[-5.982,5.3818,95.1487],[-5.9868,5.3919,95.4814],[-5.9821,5.4104,110.086],[-5.9695,5.4215,122.4369],[-5.9682,5.4353,126.1019],[-5.9638,5.4361,127.2058],[-5.9617,5.4327,126.1789],[-5.959,5.4344,127.2963],[-5.9577,5.4489,132.4197],[-5.9518,5.4545,133.4108],[-5.9507,5.4602,132.6442],[-5.9621,5.4693,134.8017],[-5.9617,5.4788,137.012],[-5.9661,5.4822,143.3165],[-5.9755,5.4945,136.1197],[-5.9695,5.5116,137.5895],[-5.9737,5.5167,142.2344],[-5.9728,5.5223,140.2231],[-5.9745,5.5248,142.1245]]]]}
,"properties": {"GID_3": "CIV.2.2.2_1","GID_0": "CIV","country": "Côted'Ivoire","GID_1": "CIV.2_1","province": "Bas-Sassandra","NL_NAME_1": "NA","GID_2": "CIV.2.2_1","county": "Nawa","NL_NAME_2": "NA","city": "Guéyo","VARNAME_3": "NA","NL_NAME_3": "NA","TYPE_3": "Département","ENGTYPE_3": "Department","CC_3": "NA","HASC_3": "NA","name": "Guéyo.city","area_km2": 664.1716,"hist_schema_id": "Elevation0-9000","hist_area_km2": {"75": 1.9207,"100": 41.1808,"125": 72.707,"150": 220.6177,"175": 252.7379,"200": 56.3332,"225": 5.254,"250": 3.1441,"275": 3.0808,"300": 2.6587,"325": 2.1523,"350": 1.2239,"375": 0.6119,"400": 0.2321,"425": 0.3165}}}