{"type":"Feature","properties":{"GID_3":"CIV.3.2.1_1","GID_0":"CIV","country":"Côted'Ivoire","GID_1":"CIV.3_1","province":"Comoé","NL_NAME_1":"NA","GID_2":"CIV.3.2_1","county":"SudComoé","NL_NAME_2":"NA","city":"Aboisso","VARNAME_3":"NA","NL_NAME_3":"NA","TYPE_3":"Département","ENGTYPE_3":"Department","CC_3":"NA","HASC_3":"NA","name":"Aboisso.city"},
"geometry":{"type": "MultiPolygon","coordinates": [[[[-3.1881,5.2883,0.0],[-3.1808,5.3166,0.0],[-3.1675,5.3323,0.0],[-3.1529,5.3434,0.0],[-3.1408,5.3717,6.9802],[-3.1224,5.3992,44.779],[-3.0993,5.4132,68.3647],[-3.0831,5.4347,70.4819],[-3.0704,5.4631,93.7617],[-3.0691,5.4868,64.4224],[-3.0606,5.4994,74.8303],[-3.0473,5.5246,54.0602],[-3.0376,5.5624,68.0303],[-3.0351,5.5986,183.1009],[-3.0421,5.6166,195.9149],[-3.0433,5.6099,145.586],[-3.0498,5.5998,129.9044],[-3.0594,5.5896,115.1265],[-3.0708,5.5814,79.3928],[-3.0787,5.578,89.0185],[-3.0965,5.5764,84.5454],[-3.1339,5.5769,74.0599],[-3.1876,5.5936,142.3465],[-3.2741,5.6116,99.0431],[-3.3133,5.6221,104.2541],[-3.3584,5.6291,125.0601],[-3.3728,5.6335,113.4973],[-3.4188,5.6419,108.2127],[-3.4338,5.6467,131.1264],[-3.44,5.3398,68.2823],[-3.3289,5.337,54.2794],[-3.2585,5.3047,8.8622],[-3.1881,5.2883,0.0]]]]}}