{"type":"Feature","properties":{"GID_3":"CIV.14.2.3_1","GID_0":"CIV","country":"Côted'Ivoire","GID_1":"CIV.14_1","province":"Zanzan","NL_NAME_1":"NA","GID_2":"CIV.14.2_1","county":"Gontougo","NL_NAME_2":"NA","city":"Sandégué","VARNAME_3":"NA","NL_NAME_3":"NA","TYPE_3":"Département","ENGTYPE_3":"Department","CC_3":"NA","HASC_3":"NA","name":"Sandégué.city"},
"geometry":{"type": "MultiPolygon","coordinates": [[[[-3.8645,7.7925,156.8913],[-3.8616,7.7951,158.6033],[-3.8522,7.7952,161.2999],[-3.8488,7.7982,162.888],[-3.8468,7.8115,164.8703],[-3.8356,7.8232,173.269],[-3.8227,7.8438,181.4151],[-3.8188,7.8549,176.0893],[-3.811,7.8637,189.292],[-3.812,7.8687,186.8094],[-3.8145,7.8718,182.576],[-3.813,7.8769,187.3261],[-3.8083,7.8771,187.5307],[-3.7949,7.8838,194.5383],[-3.7914,7.8907,196.1168],[-3.7871,7.8932,202.8846],[-3.7598,7.9023,227.9543],[-3.7354,7.9163,250.543],[-3.7291,7.922,265.1008],[-3.7231,7.9364,237.3578],[-3.7198,7.9386,248.3324],[-3.6998,7.9434,216.5539],[-3.6707,7.9437,203.4961],[-3.6474,7.9469,192.3926],[-3.6447,7.9489,190.9378],[-3.6387,7.9622,190.8369],[-3.633,7.9623,190.4826],[-3.627,7.9576,185.3843],[-3.6246,7.9584,185.8163],[-3.6097,7.9493,184.1727],[-3.6052,7.943,188.6043],[-3.6006,7.9397,190.8376],[-3.603,7.9318,186.6601],[-3.6018,7.9285,183.794],[-3.5946,7.9213,183.8627],[-3.5946,7.915,179.7625],[-3.5891,7.9043,179.9272],[-3.5884,7.8955,184.5165],[-3.5833,7.892,188.5319],[-3.581,7.8881,185.139],[-3.5747,7.8871,189.1887],[-3.5645,7.8896,197.8046],[-3.5304,7.8875,189.0448],[-3.5273,7.886,182.2772],[-3.5265,7.8835,184.9277],[-3.5254,7.8778,183.2593],[-3.5269,7.8751,177.458],[-3.5256,7.8718,180.3255],[-3.5219,7.8708,179.6412],[-3.5128,7.8728,183.8385],[-3.502,7.8691,187.7606],[-3.4908,7.8698,188.8166],[-3.4838,7.8756,180.9847],[-3.4812,7.876,181.379],[-3.4801,7.8741,182.3529],[-3.4762,7.8738,183.2506],[-3.4702,7.8801,192.104],[-3.4556,7.8837,187.2807],[-3.4501,7.8893,185.3115],[-3.4469,7.8959,190.2742],[-3.4429,7.8928,193.6282],[-3.4379,7.8952,201.4044],[-3.4282,7.9029,190.2808],[-3.4247,7.9078,189.4384],[-3.418,7.9111,191.2255],[-3.4134,7.9214,193.2444],[-3.4126,7.9288,197.8318],[-3.4139,7.9365,200.5609],[-3.4054,7.9437,206.6825],[-3.4017,7.9523,215.2258],[-3.3916,7.9566,226.6966],[-3.3758,7.9562,253.646],[-3.3594,7.959,258.3721],[-3.3364,7.9493,216.7859],[-3.3327,7.9509,206.523],[-3.3311,7.9551,211.3343],[-3.3279,7.9572,215.0462],[-3.3221,7.9662,214.1323],[-3.3186,7.9784,216.7391],[-3.3099,7.9832,219.3397],[-3.3057,7.9827,221.4727],[-3.3027,7.9845,221.3787],[-3.3016,7.9908,225.1571],[-3.3043,7.9927,226.3909],[-3.305,7.9954,224.7354],[-3.3024,8.0012,222.3931],[-3.2976,8.0064,226.4846],[-3.2969,8.0152,226.8385],[-3.2837,8.0222,225.9146],[-3.2812,8.0244,230.9405],[-3.2783,8.0316,229.7496],[-3.2804,8.0332,228.6854],[-3.286,8.0328,255.4892],[-3.2984,8.0386,270.3963],[-3.3049,8.0383,255.9817],[-3.3176,8.0327,279.3476],[-3.3291,8.0198,272.0292],[-3.3328,8.0178,272.617],[-3.3589,8.0178,259.0279],[-3.3663,8.019,240.1715],[-3.3703,8.0231,225.3048],[-3.373,8.0308,234.1041],[-3.3698,8.0388,234.2543],[-3.3715,8.0455,257.7334],[-3.3852,8.0617,218.1774],[-3.3925,8.0645,240.203],[-3.4062,8.0643,252.1811],[-3.4154,8.0625,253.6677],[-3.4443,8.0466,222.6727],[-3.4545,8.0429,203.9942],[-3.4606,8.0446,230.6131],[-3.4779,8.0576,241.7494],[-3.4939,8.0651,233.2901],[-3.4975,8.0684,241.1716],[-3.5001,8.079,261.2421],[-3.5136,8.0941,289.0202],[-3.5179,8.1061,261.3752],[-3.518,8.1134,243.2828],[-3.5147,8.118,256.5674],[-3.5146,8.1208,253.7863],[-3.5015,8.1304,224.4355],[-3.5074,8.1439,234.207],[-3.5262,8.1654,234.9456],[-3.5259,8.1716,247.1705],[-3.5188,8.1929,258.2738],[-3.513,8.202,265.997],[-3.5164,8.214,264.727],[-3.5224,8.2279,240.6267],[-3.5286,8.2291,235.2837],[-3.5341,8.2285,234.6931],[-3.5427,8.2228,232.4663],[-3.5541,8.2213,222.0255],[-3.5578,8.2177,223.3232],[-3.5623,8.2088,225.7809],[-3.5763,8.2012,223.8204],[-3.5793,8.2011,227.1369],[-3.5856,8.2089,222.381],[-3.5898,8.2104,228.2111],[-3.597,8.2204,235.3666],[-3.6001,8.2287,238.6459],[-3.5999,8.2453,234.1961],[-3.5968,8.2596,251.7645],[-3.5893,8.2786,279.1216],[-3.5895,8.2922,257.7717],[-3.5952,8.3047,286.9452],[-3.6067,8.3083,272.6488],[-3.661,8.3094,293.6729],[-3.6669,8.3077,282.2147],[-3.6751,8.2801,292.7834],[-3.6801,8.2761,299.3038],[-3.7145,8.2624,251.0571],[-3.7259,8.2705,241.8761],[-3.7396,8.2706,236.6694],[-3.742,8.2734,239.7809],[-3.7619,8.2761,230.1802],[-3.7848,8.2816,223.953],[-3.7929,8.289,222.8539],[-3.7974,8.3032,210.7727],[-3.8099,8.3205,209.5162],[-3.8149,8.3243,205.0493],[-3.8275,8.3296,209.7283],[-3.8299,8.3324,208.6147],[-3.8295,8.3462,210.6588],[-3.823,8.3597,229.3601],[-3.8197,8.3722,249.0965],[-3.8212,8.3838,256.2231],[-3.8248,8.3882,253.1575],[-3.8279,8.3907,267.5923],[-3.8364,8.3932,239.5582],[-3.846,8.4007,222.1261],[-3.8513,8.4073,250.4531],[-3.8571,8.4089,242.7872],[-3.8621,8.4146,237.6407],[-3.8658,8.4165,238.7837],[-3.8786,8.4285,216.8957],[-3.8822,8.4405,204.897],[-3.8867,8.4448,212.3397],[-3.898,8.4465,195.4215],[-3.919,8.4453,181.1102],[-3.9379,8.4479,181.6433],[-3.9561,8.4354,176.5826],[-3.9761,8.4308,176.8996],[-3.9808,8.4342,180.2852],[-3.993,8.4347,180.0269],[-3.9956,8.4315,188.1017],[-3.9965,8.4243,187.7145],[-3.9927,8.4193,175.6562],[-3.99,8.4057,179.0513],[-3.9863,8.4005,187.5689],[-3.9732,8.4022,181.8617],[-3.9505,8.3987,178.5565],[-3.9484,8.3947,184.3721],[-3.9542,8.3795,178.382],[-3.9584,8.3762,177.1168],[-3.9736,8.3746,178.5197],[-3.9789,8.3726,176.1535],[-3.9823,8.3669,173.0126],[-3.9814,8.3631,181.783],[-3.9764,8.3581,182.5358],[-3.9739,8.3524,183.0497],[-3.9517,8.346,176.3957],[-3.9527,8.3388,177.581],[-3.9595,8.3249,176.2669],[-3.9612,8.3071,179.0234],[-3.9669,8.2972,179.2322],[-3.9782,8.2987,173.5659],[-3.9861,8.3021,182.999],[-4.0,8.3047,176.0307],[-4.0079,8.3082,181.5374],[-4.0163,8.3054,177.6677],[-4.0332,8.3086,174.5661],[-4.047,8.3072,172.6542],[-4.0551,8.2942,183.4736],[-4.0558,8.2879,177.1359],[-4.0463,8.2793,174.2734],[-4.0305,8.2607,179.5011],[-4.0113,8.2465,170.5298],[-4.0024,8.2334,181.3637],[-4.0023,8.2282,179.9255],[-4.0077,8.2194,177.3498],[-4.0212,8.2065,180.599],[-4.0294,8.1921,174.2133],[-4.0288,8.1851,206.4695],[-4.0249,8.1784,174.7748],[-4.0188,8.1733,183.1619],[-4.0076,8.1755,170.0915],[-3.9757,8.1661,170.0713],[-3.9755,8.1608,175.5148],[-3.9725,8.1551,172.6698],[-3.9578,8.1421,167.1726],[-3.9572,8.1367,176.1932],[-3.952,8.1345,175.0489],[-3.9464,8.129,166.7369],[-3.9458,8.1238,167.6859],[-3.9375,8.1236,169.7087],[-3.9284,8.1209,167.0825],[-3.9271,8.1138,167.0249],[-3.9296,8.1054,164.9735],[-3.9351,8.1039,165.5042],[-3.9512,8.1057,174.7465],[-3.9645,8.1098,171.9745],[-3.9867,8.1088,183.9147],[-3.9976,8.1003,165.1373],[-3.9992,8.0944,165.1163],[-3.9977,8.0897,165.2264],[-4.0005,8.0774,165.1006],[-4.005,8.0714,165.3209],[-4.0117,8.067,175.769],[-4.0135,8.0513,177.5234],[-4.0109,8.0463,173.0054],[-4.0015,8.0408,166.941],[-4.0008,8.0434,177.953],[-3.9963,8.0422,168.4524],[-3.9813,8.0322,168.9312],[-3.9684,8.032,171.7082],[-3.9654,8.0294,173.6353],[-3.9634,8.0182,191.2375],[-3.9646,8.0153,191.5889],[-3.9688,8.0123,192.9563],[-3.9752,8.0138,172.7897],[-3.9868,8.0135,170.4851],[-3.9898,8.0119,167.2043],[-4.0003,8.0011,166.0782],[-4.0082,7.9978,166.0704],[-4.0143,7.9907,177.8851],[-4.0164,7.9816,167.2573],[-4.0089,7.9572,162.8712],[-4.0052,7.9542,167.2155],[-4.0002,7.953,168.4622],[-3.9943,7.9562,173.7064],[-3.9809,7.9691,164.8358],[-3.9734,7.971,163.596],[-3.9614,7.9689,166.0782],[-3.9284,7.9779,167.1904],[-3.9242,7.975,166.897],[-3.9202,7.9654,160.9551],[-3.9203,7.9623,161.2236],[-3.9243,7.9553,162.9454],[-3.931,7.9482,158.2701],[-3.9406,7.9417,171.1415],[-3.944,7.9296,163.5254],[-3.9462,7.9276,162.6048],[-3.9584,7.9218,168.2981],[-3.9703,7.9191,163.1308],[-3.9741,7.9165,165.4379],[-3.9898,7.916,164.7933],[-3.9933,7.9119,166.2351],[-3.9939,7.9072,159.5925],[-3.9899,7.9025,168.6494],[-3.9868,7.9024,164.8373],[-3.9838,7.9,161.9012],[-3.9497,7.8937,162.3469],[-3.9357,7.8936,161.2403],[-3.921,7.8851,159.3484],[-3.9113,7.8829,160.2914],[-3.9035,7.8851,162.5957],[-3.8949,7.8848,161.1367],[-3.8805,7.8795,157.7434],[-3.8704,7.8652,158.3961],[-3.865,7.8603,157.9034],[-3.864,7.8569,156.9467],[-3.8634,7.8486,155.0411],[-3.8677,7.8416,158.4364],[-3.8759,7.8332,167.272],[-3.8784,7.824,166.3811],[-3.8741,7.8152,164.1268],[-3.8627,7.8086,154.939],[-3.8596,7.8051,155.1447],[-3.859,7.8023,153.8184],[-3.8623,7.7985,155.4009],[-3.8645,7.7925,156.8913]]]]}}