{"type": "Feature","bbox": [-4.6305,5.5853,-3.9295,6.2785],"geometry": {"type": "MultiPolygon","coordinates": [[[[-3.9371,5.6337,17.6357],[-3.9335,5.6382,22.6162],[-3.9304,5.638,19.9903],[-3.9295,5.6393,18.3771],[-3.9383,5.6659,23.0607],[-3.9438,5.669,21.4603],[-3.94,5.6778,24.6372],[-3.9429,5.6802,30.4511],[-3.9436,5.6849,38.4315],[-3.9361,5.6898,20.2641],[-3.9353,5.7065,20.214],[-3.9327,5.7122,21.2859],[-3.9363,5.7161,34.4608],[-3.9363,5.7182,35.8988],[-3.9395,5.7189,21.2547],[-3.951,5.7273,28.2985],[-3.9539,5.7347,29.1743],[-3.9528,5.7407,26.6285],[-3.9475,5.7438,21.2027],[-3.9483,5.7511,22.8772],[-3.9467,5.7584,22.6428],[-3.9413,5.762,25.6298],[-3.9488,5.7791,39.2335],[-3.9609,5.7908,33.8608],[-3.9668,5.7931,33.6368],[-3.9762,5.8036,33.76],[-3.9855,5.8033,36.3354],[-3.9887,5.806,49.2639],[-3.9923,5.8058,33.2074],[-3.9993,5.8093,41.2329],[-4.0102,5.8035,39.7127],[-4.015,5.8076,36.0434],[-4.0206,5.8074,42.9341],[-4.0234,5.8135,41.5981],[-4.0316,5.8179,44.9387],[-4.0377,5.8138,46.352],[-4.0599,5.8266,48.3212],[-4.0617,5.8404,51.1258],[-4.0835,5.8622,52.1636],[-4.0799,5.8768,50.9287],[-4.076,5.8822,52.2418],[-4.0696,5.903,58.8102],[-4.065,5.9044,54.7888],[-4.0641,5.9064,57.5438],[-4.0674,5.9288,65.8039],[-4.0821,5.9373,59.4252],[-4.082,5.9445,60.6927],[-4.08,5.9504,66.0247],[-4.0671,5.9715,65.2159],[-4.0619,5.9743,69.7228],[-4.0584,5.9873,74.3326],[-4.0483,5.9931,74.1601],[-4.0239,6.0163,82.6532],[-4.0022,6.0455,83.3961],[-3.984,6.0834,87.8578],[-3.974,6.0942,94.8912],[-3.9785,6.1044,97.5269],[-3.9784,6.1144,96.0162],[-3.9812,6.1189,96.7977],[-3.9821,6.125,100.0796],[-3.9782,6.1311,100.7618],[-3.9774,6.1383,99.9462],[-3.9857,6.153,118.3724],[-4.0022,6.1636,114.5594],[-4.0261,6.1942,108.0008],[-4.0468,6.216,125.4354],[-4.061,6.2262,92.9434],[-4.0695,6.235,94.5673],[-4.0752,6.2489,82.3084],[-4.0813,6.2551,83.9566],[-4.0844,6.2628,77.4525],[-4.0888,6.2688,72.7855],[-4.1003,6.2785,76.4556],[-4.113,6.2722,68.7748],[-4.1147,6.2662,86.5954],[-4.1201,6.2646,69.3978],[-4.1286,6.2582,67.4226],[-4.139,6.2579,61.9841],[-4.1461,6.253,61.6232],[-4.1499,6.2482,66.847],[-4.1521,6.2425,62.2814],[-4.1512,6.24,64.6167],[-4.1419,6.2322,61.1719],[-4.1454,6.2306,60.4471],[-4.1531,6.2219,55.3086],[-4.1542,6.2194,55.2061],[-4.1536,6.209,54.9105],[-4.1583,6.2027,55.0483],[-4.1586,6.1952,53.8073],[-4.1675,6.1915,59.2385],[-4.1836,6.1969,74.3332],[-4.2061,6.1972,107.4346],[-4.218,6.2003,97.8127],[-4.2324,6.1914,75.9813],[-4.2325,6.1878,62.7204],[-4.2375,6.1815,76.313],[-4.245,6.1838,67.1943],[-4.2541,6.1914,71.1875],[-4.26,6.1912,78.5204],[-4.2676,6.1954,75.4403],[-4.2823,6.2004,88.966],[-4.2872,6.1964,92.2688],[-4.295,6.1937,91.7551],[-4.3325,6.203,92.328],[-4.342,6.2027,93.8097],[-4.3547,6.2182,99.6154],[-4.3621,6.2198,96.7057],[-4.3839,6.229,103.1876],[-4.3909,6.2354,110.1453],[-4.3965,6.2503,111.0275],[-4.4228,6.2679,129.2046],[-4.5443,6.0098,97.6606],[-4.5716,5.9793,99.3556],[-4.6305,5.8911,123.1883],[-4.6276,5.856,101.8567],[-4.617,5.8122,74.3527],[-4.5529,5.7924,91.0381],[-4.4689,5.7573,72.5747],[-4.4049,5.7211,67.0557],[-4.4034,5.7085,58.6646],[-4.4569,5.6527,76.4962],[-4.4426,5.6495,85.0091],[-4.4387,5.6472,83.8077],[-4.4317,5.6465,64.8286],[-4.4246,5.6413,82.8035],[-4.4216,5.6332,76.6465],[-4.4261,5.625,64.7169],[-4.4215,5.6235,69.3816],[-4.4175,5.6127,62.146],[-4.4054,5.6091,65.4989],[-4.3994,5.5989,60.1505],[-4.3877,5.595,49.7346],[-4.3827,5.5961,55.0359],[-4.3738,5.5946,49.3179],[-4.3571,5.5853,43.0168],[-4.2604,5.6026,19.8115],[-4.2564,5.6071,22.4705],[-4.2532,5.6084,24.1698],[-4.2254,5.6037,20.2168],[-4.2208,5.6058,20.7496],[-4.083,5.5974,75.1138],[-3.9853,5.6053,46.0476],[-3.9774,5.6132,40.1891],[-3.9689,5.6189,41.7124],[-3.9564,5.6239,38.9831],[-3.9422,5.624,23.0942],[-3.9371,5.6337,17.6357]]]]}
,"properties": {"GID_3": "CIV.7.1.1_1","GID_0": "CIV","country": "Côted'Ivoire","GID_1": "CIV.7_1","province": "Lagunes","NL_NAME_1": "NA","GID_2": "CIV.7.1_1","county": "Agnéby-Tiassa","NL_NAME_2": "NA","city": "Agboville","VARNAME_3": "NA","NL_NAME_3": "NA","TYPE_3": "Département","ENGTYPE_3": "Department","CC_3": "NA","HASC_3": "NA","name": "Agboville.city","area_km2": 3913.424,"hist_schema_id": "Elevation0-9000","hist_area_km2": {"0": 1.055,"25": 387.607,"50": 901.243,"75": 1238.47,"100": 922.512,"125": 398.368,"150": 63.387,"175": 0.611,"200": 0.169}}}