{"type": "Feature","bbox": [-8.1668,9.7044,-6.5784,10.4881],"geometry": {"type": "MultiPolygon","coordinates": [[[[-7.361,9.7376,397.3021],[-7.359,9.7468,393.6019],[-7.3559,9.7486,390.679],[-7.3492,9.748,398.285],[-7.3451,9.7491,400.9498],[-7.341,9.7534,398.4942],[-7.3259,9.7573,420.1753],[-7.3011,9.7609,430.9363],[-7.2825,9.7663,418.2361],[-7.2606,9.8043,410.9606],[-7.2426,9.8553,416.1038],[-7.1883,9.8383,507.678],[-7.1715,9.8525,472.0706],[-7.1619,9.8643,460.7764],[-7.1591,9.8758,452.0078],[-7.1496,9.8845,441.844],[-7.1318,9.8946,430.7636],[-7.1165,9.8988,418.2162],[-7.111,9.8982,418.7245],[-7.1062,9.9013,408.0322],[-7.1011,9.902,399.8586],[-7.0994,9.9062,401.9974],[-7.0937,9.9072,396.4973],[-7.0777,9.898,424.6755],[-7.0665,9.8858,443.803],[-7.0608,9.888,460.0678],[-7.0481,9.8819,490.126],[-7.044,9.882,510.0147],[-7.0351,9.8857,506.6477],[-7.0157,9.8843,414.7334],[-7.0086,9.8855,410.626],[-6.9996,9.8895,404.7386],[-6.9965,9.8941,393.2554],[-6.9909,9.8957,392.7252],[-6.9818,9.9099,387.8187],[-6.9748,9.9177,384.1631],[-6.9757,9.9233,381.0275],[-6.973,9.926,378.2071],[-6.9701,9.9339,374.7203],[-6.9622,9.9412,371.8038],[-6.9657,9.9505,369.2452],[-6.9666,9.9579,369.1203],[-6.9641,9.9664,368.7873],[-6.9591,9.9693,374.3344],[-6.9571,9.9785,377.8218],[-6.9504,9.9938,358.1483],[-6.9454,9.9959,363.3192],[-6.9311,10.0195,358.1339],[-6.9246,10.0268,354.333],[-6.9237,10.0348,353.9111],[-6.928,10.0465,360.5056],[-6.9238,10.0645,358.763],[-6.9162,10.0712,362.964],[-6.91,10.0735,351.4639],[-6.8949,10.1009,353.6426],[-6.8886,10.1062,344.8489],[-6.8832,10.1073,344.4398],[-6.879,10.1105,347.9231],[-6.8718,10.125,343.0318],[-6.8637,10.1235,342.0356],[-6.8583,10.1288,346.9597],[-6.8468,10.1331,341.7497],[-6.8281,10.1343,344.4376],[-6.8281,10.1405,348.7569],[-6.8263,10.1426,352.7672],[-6.8171,10.1399,347.2456],[-6.81,10.1336,343.5273],[-6.8067,10.138,340.5616],[-6.8025,10.1405,346.0825],[-6.7894,10.1353,342.7726],[-6.7796,10.1348,344.1719],[-6.7648,10.12,393.0574],[-6.7551,10.1046,396.8221],[-6.7453,10.1002,361.8162],[-6.7116,10.1024,358.8691],[-6.706,10.1035,370.3242],[-6.6955,10.1089,367.9157],[-6.6608,10.129,377.3033],[-6.645,10.1334,372.4468],[-6.5977,10.1527,360.676],[-6.5807,10.1646,365.3371],[-6.5784,10.1682,371.3735],[-6.5785,10.1727,380.5766],[-6.5842,10.1804,366.7487],[-6.5882,10.19,372.0077],[-6.584,10.2252,348.3939],[-6.5891,10.2321,342.2203],[-6.599,10.2394,337.7054],[-6.6106,10.236,339.2756],[-6.6163,10.2381,338.0715],[-6.6265,10.2499,333.0783],[-6.6313,10.2592,339.8987],[-6.6328,10.272,339.6834],[-6.6277,10.2779,332.2157],[-6.6329,10.2887,333.8546],[-6.6324,10.3123,331.9094],[-6.6382,10.3157,329.3089],[-6.6393,10.3287,330.6379],[-6.6466,10.336,329.7797],[-6.647,10.3434,331.7169],[-6.65,10.3515,330.0367],[-6.6648,10.3819,344.356],[-6.6722,10.3651,344.5659],[-6.6781,10.3606,356.7316],[-6.6905,10.3565,374.289],[-6.6993,10.3564,366.0107],[-6.7092,10.3595,361.1367],[-6.7227,10.3745,356.3329],[-6.764,10.3915,370.9698],[-6.7647,10.3901,378.0917],[-6.7743,10.3894,380.2263],[-6.7974,10.3824,403.9001],[-6.8393,10.3755,349.2967],[-6.8544,10.3624,358.7726],[-6.8653,10.3623,362.0503],[-6.8989,10.3698,362.8191],[-6.9108,10.3693,359.7693],[-6.9341,10.3646,347.6314],[-6.9475,10.3696,373.6947],[-6.9524,10.3665,364.5204],[-6.9666,10.3486,363.0161],[-6.9777,10.3384,382.6371],[-6.9953,10.3106,389.7356],[-6.9971,10.303,379.5552],[-6.995,10.2878,362.5972],[-6.9895,10.2818,362.9403],[-6.9871,10.2728,383.9408],[-6.9784,10.2625,428.3055],[-6.971,10.2504,409.5415],[-6.9668,10.2363,420.145],[-6.966,10.211,398.7929],[-6.9696,10.2012,407.9704],[-6.9743,10.198,415.009],[-6.9757999999999996,10.1951,421.2121],[-7.0161,10.169,395.2802],[-7.0302,10.1614,392.7847],[-7.0402,10.1595,396.6465],[-7.0473,10.1619,412.4425],[-7.0635,10.1801,453.3381],[-7.0699,10.1903,425.1219],[-7.0825,10.2179,409.0609],[-7.0896,10.2249,410.4739],[-7.1187,10.2302,383.8201],[-7.1367,10.2415,409.7047],[-7.1539,10.2406,389.6495],[-7.1615,10.2423,402.9327],[-7.1688,10.253,402.1939],[-7.1785,10.2573,417.696],[-7.2015,10.2551,415.3427],[-7.2168,10.2574,433.5688],[-7.2265,10.2599,413.9798],[-7.2334,10.265,405.5344],[-7.2445,10.2686,413.8565],[-7.2596,10.2693,404.0235],[-7.2815,10.264099999999999,391.0551],[-7.2854,10.2665,400.1757],[-7.294,10.2868,409.3798],[-7.296,10.2885,405.1257],[-7.3187,10.2812,399.3074],[-7.333,10.269,384.1585],[-7.3451,10.2706,403.3082],[-7.357,10.2763,388.4194],[-7.3789,10.2745,392.625],[-7.3844,10.2826,402.0003],[-7.3708,10.3066,396.1838],[-7.3634,10.338,382.8146],[-7.3651,10.3624,399.0229],[-7.3738,10.3683,387.4195],[-7.3847,10.3716,373.7519],[-7.3926,10.3759,391.0544],[-7.4021,10.3767,403.42],[-7.4196,10.3875,375.2378],[-7.4254,10.3895,367.3444],[-7.432,10.3976,379.2735],[-7.4374,10.4092,382.5949],[-7.449,10.4636,361.566],[-7.4582,10.4704,366.8173],[-7.4802,10.4749,364.9516],[-7.4862,10.4777,376.4358],[-7.5085,10.4794,366.908],[-7.5269,10.4721,395.0603],[-7.5335,10.4662,377.1551],[-7.5513,10.4444,389.2417],[-7.5585,10.4419,383.503],[-7.5652,10.4418,391.262],[-7.5841,10.4533,402.4478],[-7.5902,10.4536,395.5685],[-7.607,10.449,405.3586],[-7.6156,10.4491,417.0934],[-7.6202,10.4526,414.6734],[-7.6217,10.4738,391.0298],[-7.6318,10.4834,407.1684],[-7.6416,10.4881,414.4317],[-7.6465,10.4868,407.7223],[-7.6512,10.4797,400.014],[-7.6548,10.4678,385.4717],[-7.6641,10.4532,373.6138],[-7.6763,10.4414,368.1955],[-7.6864,10.4363,378.4304],[-7.7283,10.4258,347.6403],[-7.731,10.4198,353.2289],[-7.7359,10.4179,355.957],[-7.7434,10.4003,378.3322],[-7.7434,10.396,364.5764],[-7.7414,10.3937,351.2712],[-7.7323,10.3938,348.6256],[-7.7289,10.3889,358.1674],[-7.7285,10.3831,350.4606],[-7.7302,10.3788,349.5186],[-7.7393,10.3757,378.5743],[-7.7382,10.3722,354.5242],[-7.7297,10.3675,349.3479],[-7.7273,10.3555,357.2542],[-7.7285,10.3512,355.4776],[-7.7318,10.3471,354.9158],[-7.7374,10.3451,349.9474],[-7.7516,10.3448,351.6335],[-7.7567,10.3419,348.7003],[-7.7593,10.338,361.1165],[-7.7569,10.3269,358.678],[-7.7586,10.3224,352.7425],[-7.761,10.321,351.935],[-7.7714,10.3214,395.5461],[-7.7742,10.3187,385.7571],[-7.7757,10.3129,377.5358],[-7.7737,10.3088,358.1482],[-7.7588,10.3074,350.7896],[-7.7566,10.303,350.9853],[-7.7624,10.2992,352.5641],[-7.7648,10.2928,357.027],[-7.7773,10.2847,358.0157],[-7.7821,10.2834,358.9781],[-7.7864,10.2795,358.6297],[-7.7917,10.2777,365.0902],[-7.7974,10.2695,380.2808],[-7.8009,10.2675,382.1039],[-7.8101,10.243,368.1877],[-7.816,10.2364,360.1608],[-7.8267,10.2334,374.4333],[-7.8398,10.2234,370.3388],[-7.8559,10.2048,374.6248],[-7.8873,10.1999,369.3658],[-7.895,10.197,373.9221],[-7.9113,10.1804,391.3656],[-7.9265,10.171,401.0418],[-7.9372,10.1676,403.7858],[-7.9483,10.1678,436.7027],[-7.9663,10.1756,440.8754],[-7.9805,10.1746,410.2839],[-7.986,10.1641,430.193],[-7.9882,10.1559,449.1132],[-8.006,10.1223,433.9379],[-8.0165,10.0971,479.6848],[-8.0245,10.0887,457.4449],[-8.0451,10.0733,458.6827],[-8.0792,10.0588,442.5856],[-8.0989,10.053,426.2691],[-8.1067,10.0469,429.37],[-8.1314,10.0139,388.4205],[-8.131,10.0097,384.3849],[-8.135,10.0077,385.1357],[-8.1373,9.9922,385.4168],[-8.1478,9.9864,408.7442],[-8.1518,9.9797,425.5799],[-8.1503,9.9749,425.7544],[-8.1436,9.97,389.3829],[-8.1385,9.9685,403.7867],[-8.1273,9.9764,386.7631],[-8.1215,9.9761,388.537],[-8.1174,9.971,388.1008],[-8.1178,9.9577,386.2221],[-8.1206,9.9543,390.2794],[-8.1236,9.9536,397.9564],[-8.1301,9.9565,386.4747],[-8.1483,9.9488,386.335],[-8.164,9.9511,396.6059],[-8.1668,9.9473,419.5343],[-8.1659,9.9447,414.6633],[-8.153,9.939,388.0504],[-8.1524,9.9372,387.1262],[-8.1631,9.9314,392.9796],[-8.1655,9.9268,402.8344],[-8.1608,9.9122,417.8721],[-8.1564,9.909,397.5182],[-8.1529,9.9092,391.5624],[-8.1422,9.9168,394.2694],[-8.1334,9.9174,396.2198],[-8.1322,9.914,392.3229],[-8.1351,9.9096,391.284],[-8.1279,9.9061,388.4577],[-8.1245,9.901,388.1739],[-8.1287,9.8824,388.9476],[-8.1308,9.8811,389.0743],[-8.134,9.8823,389.5804],[-8.1386,9.8869,391.1075],[-8.1407,9.8856,407.9418],[-8.1441,9.8739,415.6574],[-8.1434,9.8697,417.3147],[-8.1379,9.866,388.6896],[-8.1303,9.8657,389.8226],[-8.1231,9.8685,389.4139],[-8.1175,9.8689,390.2964],[-8.1133,9.8673,393.3812],[-8.1094,9.8633,396.5084],[-8.1077,9.8557,408.2587],[-8.1087,9.852,414.0468],[-8.0799,9.86,406.0029],[-8.0725,9.8683,406.5461],[-8.0616,9.8747,409.6461],[-8.0512,9.8765,419.1533],[-8.0441,9.8724,423.5281],[-8.0358,9.8781,432.3693],[-8.006,9.8777,446.2314],[-7.9679,9.8807,441.4035],[-7.8391,9.8937,440.8044],[-7.8277,9.896,438.9132],[-7.8177,9.9015,423.0576],[-7.8093,9.9089,407.6036],[-7.7993,9.9104,430.9716],[-7.7812,9.9074,436.0629],[-7.7382,9.9106,413.0753],[-7.7357,9.9178,404.4279],[-7.7271,9.9257,400.076],[-7.7117,9.9307,404.9618],[-7.7036,9.9385,394.1776],[-7.6864,9.939,390.7786],[-7.6787,9.9381,385.7546],[-7.6778,9.9358,384.8062],[-7.6666,9.9402,381.7859],[-7.651,9.942,381.9037],[-7.6482,9.9522,377.6708],[-7.6383,9.9624,377.8595],[-7.6287,9.9666,377.5984],[-7.6153,9.9676,374.8629],[-7.5949,9.9658,368.4625],[-7.5869,9.9617,366.9251],[-7.5817,9.9556,369.1002],[-7.5734,9.9519,366.7124],[-7.5741,9.9488,366.8109],[-7.5691,9.9407,370.3589],[-7.574,9.9394,368.6176],[-7.5714,9.9357,368.2423],[-7.5618,9.9332,368.4359],[-7.5691,9.9255,368.529],[-7.5668,9.9199,368.6297],[-7.5673,9.9082,368.3969],[-7.5599,9.9084,369.6451],[-7.5542,9.8997,386.1073],[-7.565,9.895,368.6958],[-7.5601,9.8865,373.5822],[-7.5608,9.8817,372.9136],[-7.5715,9.8657,370.4233],[-7.5684,9.8575,371.2786],[-7.5586,9.8584,370.3911],[-7.5573,9.8514,372.3378],[-7.5532,9.8446,373.0415],[-7.5433,9.8356,375.0031],[-7.5488,9.8289,376.1589],[-7.5477,9.8183,373.9419],[-7.5527,9.8163,371.2657],[-7.5512,9.8075,375.2312],[-7.5568,9.799,376.4689],[-7.5554,9.7891,376.459],[-7.5598,9.7797,384.4666],[-7.5636,9.7759,392.8873],[-7.5703,9.7767,383.86],[-7.5747,9.7689,387.0001],[-7.5813,9.7619,377.4986],[-7.583,9.753,382.1368],[-7.5729,9.7473,387.3933],[-7.5632,9.7449,394.2765],[-7.5526,9.7434,403.1946],[-7.5446,9.7447,399.1429],[-7.5282,9.7371,414.1464],[-7.5247,9.7327,413.5521],[-7.4906,9.723,418.2999],[-7.4643,9.7115,421.14],[-7.4229,9.7044,410.3134],[-7.4016,9.7051,424.338],[-7.3564,9.7131,390.0047],[-7.3621,9.7306,391.061],[-7.361,9.7376,397.3021]]]]}
,"properties": {"GID_2": "CIV.4.1_1","GID_0": "CIV","country": "Côted'Ivoire","GID_1": "CIV.4_1","province": "Denguélé","NL_NAME_1": "NA","county": "Folon","VARNAME_2": "NA","NL_NAME_2": "NA","TYPE_2": "Région","ENGTYPE_2": "Region","CC_2": "NA","HASC_2": "CI.DE.FO","name": "Folon.county","area_km2": 7204.843,"hist_schema_id": "Elevation0-9000","hist_area_km2": {"325": 49.026,"350": 648.324,"375": 1502.044,"400": 2351.108,"425": 1774.645,"450": 621.185,"475": 160.429,"500": 53.689,"525": 22.135,"550": 10.524,"575": 5.7,"600": 3.153,"625": 1.462,"650": 0.793,"675": 0.48,"700": 0.125}}}