{"type":"Feature","properties":{"ISO3166-1-Alpha-3":"CIV","country":"Ivory Coast","fill":"#FF0","id":"3445","name":"Fromager"},
"geometry":{"type": "Polygon","coordinates": [[[-5.4134,6.6401,143.4133],[-5.41519,6.64011,144.615],[-5.4817,6.64073,231.6596],[-5.51214,6.62923,203.8257],[-5.71037,6.49503,200.5185],[-5.73993,6.48865,237.0724],[-6.04079,6.51976,207.4053],[-6.05112,6.45948,196.291],[-6.05991,6.43475,226.1094],[-6.08399,6.38858,207.9268],[-6.09215,6.37796,192.3474],[-6.09856,6.37367,190.6416],[-6.10631,6.37889,220.1147],[-6.12471,6.38858,219.7377],[-6.12957,6.39059,230.6009],[-6.13458,6.39168,237.4177],[-6.13939,6.39121,228.4538],[-6.14357,6.38896,236.3742],[-6.20181,6.34047,221.9261],[-6.2108,6.33558,208.1156],[-6.2216,6.33341,227.6615],[-6.27189,6.33698,227.5814],[-6.2861,6.33504,228.4784],[-6.30341,6.33101,233.7302],[-6.33379,6.31835,226.8695],[-6.37043,6.30858,239.1441],[-6.39994,6.30478,230.7357],[-6.38733,6.15084,221.0306],[-6.37457,6.10337,220.2375],[-6.35498,6.05007,219.326],[-6.33534,6.01524,225.4215],[-6.32909,6.00777,223.8694],[-6.32325,6.00219,213.0868],[-6.32098,6.00033,210.1871],[-6.32077,6.00018,210.1871],[-6.32067,6.0001,210.1871],[-6.30759,5.98847,214.2004],[-6.29969,5.97914,206.6372],[-6.29483,5.97155,218.9263],[-6.28703,5.95664,192.5686],[-6.28387,5.94788,200.2894],[-6.28207,5.9399,201.7729],[-6.2771,5.88388,172.4904],[-6.27406,5.87447,182.0075],[-6.2707,5.86835,162.8886],[-6.26289,5.86192,182.6755],[-6.25871,5.85913,178.2326],[-6.25395,5.85323,162.9458],[-6.24863,5.84437,179.7442],[-6.21856,5.77812,170.2396],[-6.16088,5.79435,183.1985],[-6.13753,5.79489,170.3284],[-6.13003,5.79179,164.6926],[-6.10626,5.77704,159.2035],[-6.10234,5.77146,166.2878],[-6.09386,5.75283,155.285],[-6.072,5.73484,168.2207],[-6.0688,5.7311,159.0666],[-6.06678,5.72652,158.4093],[-6.0659,5.72149,167.2011],[-6.06766,5.71048,165.7457],[-6.06797,5.70451,152.8],[-6.06621,5.6979,154.233],[-6.06234,5.69456,158.6163],[-6.05712,5.69247,152.0943],[-6.05453,5.68937,151.1817],[-6.05164,5.67821,150.8447],[-5.86705,5.89496,232.3514],[-5.82116,5.9368,262.3057],[-5.81331,5.93773,258.6471],[-5.80411,5.94083,246.7869],[-5.79047,5.95005,269.2504],[-5.78484,5.9569,247.8289],[-5.78137,5.96364,260.7517],[-5.77993,5.98224,332.3304],[-5.78137,6.00033,262.8995],[-5.75378,6.05139,250.7772],[-5.75378,6.06061,230.9327],[-5.75874,6.08188,254.3622],[-5.76287,6.11826,255.8998],[-5.75688,6.13975,231.4459],[-5.72882,6.19616,283.2327],[-5.50521,6.16676,177.5853],[-5.31256,6.23394,175.9755],[-5.29065,6.2306,170.8262],[-5.24435,6.21812,176.7934],[-5.21495,6.29928,169.4915],[-5.21267,6.32566,141.1115],[-5.21433,6.33194,148.9954],[-5.21531,6.36677,130.9641],[-5.23495,6.37279,130.6372],[-5.26998,6.36072,129.0217],[-5.28657,6.36576,136.0223],[-5.30347,6.38271,142.7916],[-5.31091,6.39858,135.6794],[-5.31215,6.4177,150.3342],[-5.31081,6.44459,145.8717],[-5.31391,6.45049,139.3778],[-5.32026,6.45542,142.3174],[-5.3244,6.461,133.5],[-5.32073,6.4688,151.0386],[-5.31535,6.47477,149.7699],[-5.31272,6.47955,140.4997],[-5.31081,6.49237,140.6257],[-5.30564,6.50728,138.6745],[-5.30817,6.51139,145.9242],[-5.32073,6.51286,146.9424],[-5.33685,6.51898,161.923],[-5.32404,6.53746,152.6962],[-5.31401,6.55175,145.9659],[-5.31763,6.56748,154.8972],[-5.30853,6.58916,139.3538],[-5.32083,6.60208,147.9917],[-5.34362,6.6081,142.2444],[-5.39809,6.60714,152.7097],[-5.40941,6.61399,145.9648],[-5.4138,6.63329,144.1313],[-5.4134,6.6401,143.4133]]]}}