{"type":"Feature","properties":{"featurecla":"Reservoir","scalerank":7,"name":"Lac de Kossou","name_abb":"L. de Kossou","name_alt":null,"note":null,"delta":null,"dam_name":null,"year":1973,"admin":null,"min_zoom":5.7,"min_label":6.7},
"geometry":{"type": "Polygon","coordinates": [[[-5.3449126265165026,7.4307474392567769,213.3342],[-5.3662540257335536,7.4307474392567769,201.9036],[-5.3666955719242537,7.4127912275017422,206.726],[-5.3724356724032987,7.4057264884505969,212.7055],[-5.3817081424079731,7.4027828471792816,221.9445],[-5.3928939792389494,7.3971899287637646,225.8732],[-5.4205642071893294,7.3762900757374146,203.7399],[-5.4276289462405032,7.36922533668627,219.3573],[-5.4324859543381763,7.3936575592381928,191.3803],[-5.4230663022699446,7.4192672382986586,217.1136],[-5.4037854519428379,7.440755819579266,211.9612],[-5.37920604732733,7.4525303846645272,207.6531],[-5.37920604732733,7.4587120313343007,211.0611],[-5.3995171720994222,7.4628331291141308,238.5856],[-5.4049629084513526,7.482555525631966,215.8045],[-5.4002530824172652,7.5311256066086969,210.3021],[-5.40187208511648,7.5449607205838731,216.962],[-5.4061403649598958,7.5549691009063622,228.5995],[-5.4126163757567838,7.5620338399575084,211.5228],[-5.4207113892529151,7.5679211225001382,219.8479],[-5.4288064027490179,7.5723365844071111,212.373],[-5.4402866037071647,7.5761633180598267,211.9041],[-5.4505893481567682,7.5749858615513119,214.0951],[-5.4550048100637412,7.5643887529745646,221.3926],[-5.4516196226017257,7.5493761824908461,229.795],[-5.4370485983087056,7.5234721393032657,216.112],[-5.4338105929102767,7.5102257535823469,198.0724],[-5.4363126879908918,7.5016891938955146,203.149],[-5.4707532908652752,7.4487036510118116,220.4285],[-5.4767877554714914,7.4534134770459266,228.6186],[-5.480614489124207,7.4731358735637343,223.2703],[-5.48915104881101,7.4934469983358269,223.6823],[-5.4959214237350409,7.4934469983358269,206.2112],[-5.4959214237350409,7.4837329821404808,217.6191],[-5.4973932443706994,7.4751964224536778,211.6671],[-5.5026917986590718,7.4587120313343007,197.1843],[-5.50960935564666,7.4587120313343007,200.4774],[-5.5138776354900756,7.468131683402504,209.6808],[-5.51549663818929,7.4799062484877652,200.5958],[-5.5157910023164334,7.5072821123110316,226.8698],[-5.52682965708388,7.4972737319885434,211.2557],[-5.5399288607412416,7.4757851507079351,210.4956],[-5.55052596931796,7.4654824062583316,231.7909],[-5.54640487153813,7.4489980151389554,251.8355],[-5.5478766921737872,7.4316305316381772,226.5815],[-5.5474351459830871,7.4207390589343163,238.5925],[-5.537426765660598,7.4245657925870319,219.4205],[-5.5149079099350331,7.4180897817901146,210.9948],[-5.5078431708838878,7.4139686840102854,225.4865],[-5.5026917986590718,7.4042546678149392,219.2635],[-5.5178515512063484,7.3918913744753922,216.1467],[-5.5194705539055917,7.3898308255854772,218.5577],[-5.524474744066822,7.3868871843141619,224.5579],[-5.5205008283505492,7.3812942658986742,231.8942],[-5.5135832713629611,7.3762900757374146,229.3545],[-5.50960935564666,7.3762900757374146,228.1248],[-5.5085790812017024,7.3577451357281234,207.874],[-5.5134360892993746,7.3559789509653513,187.3279],[-5.53006766248231,7.3624549617622392,198.3163],[-5.5372795835970408,7.3680478801777269,205.2708],[-5.5580322545598344,7.3971899287637646,220.1036],[-5.5589153469412338,7.3815886300257887,232.1275],[-5.5565604339241759,7.3686366084320127,202.8456],[-5.5506731513815453,7.3574507716010089,218.979],[-5.5316866651815531,7.3350790979390013,210.3594],[-5.5157910023164334,7.3012272233188469,218.9903],[-5.5325697575629533,7.2950455766490734,220.6815],[-5.5519977899536173,7.294456848394816,207.1507],[-5.5689237272636936,7.3003441309374466,224.1697],[-5.5784905613954834,7.3147679731669086,211.128],[-5.577901833141226,7.3018159515731043,201.1791],[-5.5796680179039981,7.2909244788692433,205.4455],[-5.5840834798109711,7.2817991909281554,217.1635],[-5.5921784933071024,7.2738513594956089,231.5555],[-5.5859968466373289,7.2685528052072357,205.9043],[-5.5684821810729943,7.2585444248847466,232.0898],[-5.5648026294838644,7.257072604249089,228.6722],[-5.5625948985303637,7.2535402347235163,244.6327],[-5.5577378904326906,7.2514796858336013,237.4478],[-5.55273370027146,7.2488304086894,221.3437],[-5.55052596931796,7.2426487620196554,202.375],[-5.5517034258265028,7.2382333001126824,200.1652],[-5.5542055209071179,7.2341122023328239,216.8248],[-5.5567076159877331,7.231757289315766,236.3282],[-5.5580322545598344,7.2329347458243092,234.9472],[-5.5599456213861913,7.2076194308909862,226.2456],[-5.561417442021849,7.2017321483483556,213.8062],[-5.5687765452001372,7.1981997788227554,201.483],[-5.5739279174249532,7.2037926972382706,199.3761],[-5.5787849255225979,7.2126236210522174,216.7517],[-5.5846722080652569,7.2190996318491054,212.6221],[-5.59453340632416,7.2214545448661616,238.6852],[-5.6043946045830637,7.22204327312042,207.8862],[-5.613814256651267,7.2235150937560766,228.6378],[-5.6224979984016557,7.2294023762987081,269.2532],[-5.6251472755458556,7.236172751222739,235.322],[-5.6211733598295837,7.2417656696382551,229.5099],[-5.61543325935051,7.2467698597994854,241.7984],[-5.6126368001427522,7.2532458705963734,221.4565],[-5.6126368001427522,7.3147679731669086,229.9139],[-5.6255888217365566,7.3082919623700207,226.228],[-5.63957111777529,7.306820141734363,231.9083],[-5.65178722905128,7.31064687538705,208.4857],[-5.66047097080164,7.3209496198366821,189.6134],[-5.6551724165132669,7.3241876252351119,208.3409],[-5.6526703214326517,7.32742563063357,194.2203],[-5.6507569546062939,7.3309580001591428,202.8422],[-5.6473717671442776,7.3350790979390013,209.9377],[-5.6581160577846106,7.3389058315917168,210.5412],[-5.6612068811194831,7.3471480271513769,204.1704],[-5.6588519681024252,7.3583338639823808,215.9281],[-5.653553413814052,7.36922533668627,193.7063],[-5.6348612917412026,7.36333805414364,220.5704],[-5.6270606423722143,7.3742295268475,209.8711],[-5.6194071750667831,7.4104363144846843,218.6699],[-5.6473717671442776,7.3898308255854772,203.9177],[-5.65546678064041,7.392480102729678,218.1745],[-5.66002942461094,7.396895564636651,232.1998],[-5.6631202479458409,7.4013110265436239,204.4547],[-5.6666526174714136,7.4042546678149392,208.8369],[-5.6656223430264561,7.405432124323454,215.9589],[-5.6791630928745178,7.4175010535358581,203.6766],[-5.68092927763729,7.417795417663001,195.2917],[-5.6846088292264483,7.4195616024257731,207.4154],[-5.69770803288381,7.4227996078242313,218.3689],[-5.7019763127272256,7.4245657925870319,226.7698],[-5.69814957907451,7.4333967164009778,233.0688],[-5.6938812992310943,7.4404614554521231,238.9121],[-5.6882883808156066,7.4466431021218966,224.2088],[-5.68092927763729,7.4525303846645272,210.6362],[-5.6913792041504792,7.4672485910211037,208.1922],[-5.6931453889132513,7.4875597157931963,242.555],[-5.6862278319256632,7.505515927548231,216.3532],[-5.6703321690605719,7.5134637589807767,227.8958],[-5.6592935142931253,7.5087539329466892,235.1041],[-5.6475189492078641,7.5019835580226584,215.8614],[-5.6376577509489323,7.5022779221497728,236.0124],[-5.6330951069784021,7.5202341339048084,207.8431],[-5.6255888217365566,7.5202341339048084,201.8805],[-5.61999590332104,7.5161130361249766,220.7732],[-5.6146973490326673,7.5111088459637187,233.0018],[-5.6101347050621371,7.5058102916753464,235.0874],[-5.6057192431551641,7.4996286450056,238.6552],[-5.5989488682311332,7.4996286450056,230.9094],[-5.5937974960063173,7.5058102916753464,226.6475],[-5.5898235802900436,7.5069877481838887,227.977],[-5.5865855748916147,7.50286665040403,218.9816],[-5.5846722080652569,7.4934469983358269,253.4053],[-5.5720145505985954,7.5013948297683726,238.6896],[-5.5711314582171951,7.511991938345119,237.904],[-5.5784905613954834,7.5311256066086969,233.0542],[-5.5751053739334679,7.5408396228040147,214.1569],[-5.5609758958311488,7.5608563834489928,228.7798],[-5.5580322545598344,7.5752802256784264,209.4014],[-5.5812870206032414,7.56556620948308,218.3689],[-5.6023340556931487,7.5534972802706761,196.555],[-5.6180825364946827,7.55555782916062,207.8635],[-5.6255888217365566,7.5891153396536311,218.4747],[-5.6236754549101988,7.5902927961621458,223.857],[-5.6148445310962529,7.60324481775595,200.0457],[-5.6126368001427522,7.6088377361714379,203.7506],[-5.6182297185582684,7.62738267618073,222.5319],[-5.6194071750667831,7.6335643228505026,214.8839],[-5.6157276234776248,7.6468107085714223,218.6156],[-5.6061607893458643,7.6550529041311108,231.6039],[-5.5930615856885026,7.658290909529569,231.8486],[-5.5784905613954834,7.6574078171481688,234.4719],[-5.5784905613954834,7.6635894638179423,220.9333],[-5.5809926564760994,7.6797794908101764,224.5451],[-5.5517034258265028,7.7289383000411647,213.3347],[-5.5436084123303706,7.750426881321772,229.3751],[-5.5369852194699263,7.7766252886364953,230.5831],[-5.5057826219939443,7.8078278861124488,236.7967],[-5.4959214237350409,7.8287277391387988,212.7535],[-5.5580322545598344,7.7883998537217556,200.2236],[-5.5726032788528528,7.7942871362643871,218.3559],[-5.5820229309210561,7.7883998537217556,244.996],[-5.584377843938114,7.775742196255095,214.1294],[-5.5784905613954834,7.7604352616442611,211.6499],[-5.5955636807691178,7.7457170552876562,240.1166],[-5.6054248790280212,7.7407128651264259,230.7925],[-5.6194071750667831,7.7398297727450256,228.257],[-5.6163163517319106,7.7445395987791414,231.5024],[-5.6110177974435373,7.754842343228745,215.2692],[-5.6057192431551641,7.7604352616442611,230.6221],[-5.6266190961815141,7.7624958105341761,209.2537],[-5.628974009198572,7.7730929191109226,232.8728],[-5.6179353544311246,7.7860449407046994,227.1371],[-5.5989488682311332,7.7951702286457873,240.0751],[-5.6113121615706518,7.8040011524597332,221.8352],[-5.6170522620497252,7.8066504296039341,238.0898],[-5.6255888217365566,7.8075335219853343,229.4177],[-5.6201430853845977,7.8178362664349379,222.7366],[-5.60998752299858,7.8263728261217409,206.9908],[-5.5974770475954756,7.8325544727915144,216.2059],[-5.5846722080652569,7.83549811406283,221.7718],[-5.5868799390187291,7.8399135759698027,215.7329],[-5.5899707623536017,7.8513937769279494,214.1926],[-5.5921784933071024,7.8558092388349223,219.7823],[-5.5808454744125413,7.8602247007418953,227.9546],[-5.5770187407598257,7.8711161734457562,252.1195],[-5.5784905613954834,7.9005525861589376,220.2914],[-5.5728976429799673,7.9085004175914833,234.0167],[-5.5593568931319339,7.9073229610829694,223.6825],[-5.53006766248231,7.8976089448876223,227.1755],[-5.5344831243892827,7.9117384229899406,216.0666],[-5.537426765660598,7.9173313414054292,217.7605],[-5.5319810293086684,7.9196862544224871,230.4708],[-5.52771274946528,7.9223355315666586,235.6268],[-5.5230029234311644,7.9243960804566029,241.1482],[-5.5157910023164334,7.92498480871086,237.4517],[-5.5190290077148916,7.9326382760162906,217.5173],[-5.5240331978761219,7.9397030150674368,208.9292],[-5.5302148445458954,7.9464733899914677,219.7421],[-5.537426765660598,7.9520663084069838,217.6989],[-5.5441971405846289,7.9402917433216942,204.7987],[-5.5534696105892749,7.9332270042705488,199.8967],[-5.5649498115474216,7.9320495477620057,216.2093],[-5.5784905613954834,7.9385255585589221,222.4133],[-5.5693652734543946,7.9447072052286671,219.6525],[-5.5602399855133058,7.949417031262783,229.3207],[-5.5533224285257177,7.9561874061868139,219.1814],[-5.55052596931796,7.9691394277806182,255.94],[-5.5524393361443174,7.9929829220782844,229.32],[-5.5489069666187447,7.9994589328751724,210.835],[-5.537426765660598,8.00681803605346,226.7243],[-5.5443443226482154,8.0241855195542371,230.0011],[-5.5384570401055839,8.0365488128937557,220.9986],[-5.5284486597830949,8.0450853725805871,233.6842],[-5.5232972875582789,8.0515613833774751,229.5061],[-5.5203536462869636,8.0621584919542215,233.8276],[-5.5128473610451181,8.07363869291234,218.6387],[-5.5018087062776706,8.0836470732348289,235.5629],[-5.4822334918234219,8.0824696167263141,234.076],[-5.4832637662683794,8.0892399916503166,238.2152],[-5.4814975815056073,8.0921836329216319,231.5453],[-5.4784067581707063,8.0933610894301751,223.1725],[-5.4748743886451336,8.09542163832009,212.819],[-5.4860602254761366,8.1036638338797786,212.9369],[-5.4997481573877556,8.1077849316596371,198.0794],[-5.5265352929567371,8.1092567522952947,199.4417],[-5.5356605808978259,8.1057243827696936,198.4087],[-5.5386042221691412,8.09630473070149,205.1787],[-5.537426765660598,8.0718725081495677,211.667],[-5.5449330509024719,8.0571543017929628,199.1832],[-5.5611230778947061,8.0447910084534442,205.7713],[-5.57731310488694,8.02860098146121,217.7146],[-5.5880573955272723,7.989156188425568,218.7183],[-5.5967411372776326,7.9823858135015371,200.6883],[-5.608074156172222,7.976792895086021,209.8355],[-5.6194071750667831,7.96590142238216,223.9639],[-5.6211733598295837,7.9594254115852721,223.814],[-5.6185240826853828,7.9547155855511562,218.692],[-5.6146973490326673,7.9511832160255844,215.1142],[-5.6126368001427522,7.9485339388813827,220.6342],[-5.6144029849055528,7.94088047157598,209.133],[-5.6183769006218256,7.9397030150674368,209.9249],[-5.6227923625287994,7.9402917433216942,201.7726],[-5.6255888217365566,7.9385255585589221,202.3222],[-5.6433978514280057,7.9061455045744253,218.0601],[-5.6482548595256787,7.8852456515480753,210.0714],[-5.639865481902433,7.8628739778860677,204.4156],[-5.66047097080164,7.8422684889868606,189.744],[-5.6703321690605719,7.8531599616907224,218.8616],[-5.6753363592218022,7.865817619157383,218.602],[-5.68092927763729,7.8899554775821912,235.0948],[-5.6884355628791639,7.8899554775821912,246.3592],[-5.704625589871398,7.8793583690054447,212.0145],[-5.7131621495582294,7.8758259994798721,202.6278],[-5.7127206033675293,7.8828907385310174,219.0975],[-5.7019763127272256,7.9037905915573674,285.1378],[-5.709776962096214,7.9052624121930251,259.0547],[-5.7147811522574443,7.9073229610829694,256.687],[-5.72184589130859,7.9111496947356557,276.1466],[-5.7293521765504636,7.9111496947356557,251.1134],[-5.7349450949659513,7.88230201027676,216.2829],[-5.7333260922667364,7.8702330810643559,232.3694],[-5.725525442897748,7.859341608360495,262.033],[-5.7119846930496863,7.8513937769279494,222.8353],[-5.6996213997101677,7.8463895867666906,197.4648],[-5.6944700274853517,7.838441755334145,202.9292],[-5.7019763127272256,7.8219573642147679,222.3179],[-5.6956474839938949,7.8207799077062532,213.5039],[-5.68092927763729,7.8148926251636226,207.6031],[-5.695353119866752,7.8087109784938491,201.2109],[-5.7019763127272256,7.8075335219853343,208.4249],[-5.6843144650993054,7.7860449407046994,217.0202],[-5.6794574570016323,7.7742703756194373,210.2011],[-5.6884355628791639,7.767205636568292,219.1178],[-5.7034481333628833,7.7698549137124644,206.4084],[-5.7133093316217867,7.7804520222892108,225.9791],[-5.7209627989272178,7.7928153156287294,225.5202],[-5.7293521765504636,7.8013518753155608,220.349],[-5.7540787632295292,7.8057673372225338,233.2829],[-5.7518710322760276,7.7895773102303,218.2648],[-5.7331789102031792,7.7675000006954056,219.5168],[-5.7088938697148137,7.7542536149744876,211.8519],[-5.71860788591016,7.7480719683047141,229.7139],[-5.7290578124233207,7.7460114194147991,211.1389],[-5.7393605568729242,7.7480719683047141,210.3037],[-5.74907457306827,7.7542536149744876,217.8666],[-5.7461309317969551,7.7386523162365108,221.7747],[-5.7367112797287518,7.729527028295422,211.9485],[-5.7265557173427064,7.7265833870241067,236.8584],[-5.72184589130859,7.729527028295422,226.8231],[-5.71993252448226,7.7354143108380526,207.5329],[-5.7155170625752589,7.7312932130582226,210.3744],[-5.7088938697148137,7.7195186479729614,225.094],[-5.7088938697148137,7.7136313654303308,203.977],[-5.7125734213039436,7.7092159035233294,232.6816],[-5.7144867881303014,7.7050948057434994,220.6375],[-5.7088938697148137,7.6989131590737259,216.1402],[-5.7088938697148137,7.6915540558954376,193.2054],[-5.7209627989272178,7.6865498657342073,215.0098],[-5.7196381603551174,7.677130213666004,206.1472],[-5.7130149674946438,7.6665331050892576,205.0781],[-5.7088938697148137,7.6574078171481688,223.8493],[-5.7063917746341994,7.6550529041311108,211.3445],[-5.7024178589179257,7.6479881650799646,199.6322],[-5.702565040981483,7.6403346977745343,211.0755],[-5.7122790571768292,7.6368023282489617,197.3945],[-5.7211099809907751,7.6382741488846193,200.8338],[-5.7280275379783632,7.6423952466644494,202.3212],[-5.7328845460760363,7.6488712574613373,220.6487],[-5.7355338232202371,7.6574078171481688,225.7409],[-5.742304198144268,7.6574078171481688,212.6091],[-5.74274574433494,7.6382741488846193,242.6225],[-5.73906619274581,7.6264995837993581,207.1376],[-5.7318542716310787,7.6176686599853838,245.9108],[-5.72184589130859,7.6088377361714379,211.3506],[-5.7191966141644173,7.6120757415698961,206.9319],[-5.7099241441597712,7.6138419263326682,205.107],[-5.702565040981483,7.6123701056970106,221.3405],[-5.705361500189241,7.6058940949001226,218.1912],[-5.711837510986129,7.5988293558489772,219.2932],[-5.7143396060667442,7.5929420733063466,199.6677],[-5.7133093316217867,7.5873491548908314,203.3806],[-5.7088938697148137,7.5817562364753428,205.0639],[-5.7209627989272178,7.5773407745683414,210.3374],[-5.7197853424186746,7.5679211225001382,221.1765],[-5.7164001549566592,7.5567352856691343,198.0804],[-5.72184589130859,7.5476099977280464,214.0013],[-5.7324429998853361,7.5479043618551884,189.8476],[-5.7571695865644017,7.5638000247203081,214.5644],[-5.7664420565690477,7.5679211225001382,215.8971],[-5.7707103364124626,7.5617394758303647,236.0546],[-5.7670307848233051,7.5479043618551884,250.7227],[-5.7579054968822447,7.5337748837528693,223.342],[-5.7458365676698406,7.5275932370830958,217.598],[-5.7433344725892246,7.5208228621590649,241.32],[-5.74539502147914,7.507870840565289,219.5718],[-5.7537843991023863,7.4996286450056,210.1707],[-5.7702687902217633,7.5072821123110316,233.8902],[-5.7714462467302781,7.5031610145311731,224.7199],[-5.7711518826031636,7.5013948297683726,230.3431],[-5.7720349749845639,7.5005117373870007,230.3431],[-5.7764504368915368,7.4996286450056,246.8166],[-5.7637927794248753,7.4840273462676237,224.4263],[-5.7627625049799178,7.4793175202335078,228.0149],[-5.7907270970574132,7.4307474392567769,210.7301],[-5.7869003634046976,7.4278037979854616,207.9267],[-5.78542854276904,7.4248601567141463,219.0328],[-5.7839567221333823,7.417795417663001,248.4764],[-5.7788053499085947,7.426331977349804,215.0728],[-5.7707103364124626,7.4331023522738349,207.2765],[-5.7605547740264171,7.4354572652908928,224.1841],[-5.74907457306827,7.4307474392567769,220.7992],[-5.7651174179969473,7.4169123252816007,209.0372],[-5.7623209587892177,7.4021941189250242,207.36],[-5.7615850484713746,7.38835900494982,211.4414],[-5.7839567221333823,7.3762900757374146,223.4165],[-5.7774807113364943,7.3677535160506116,217.4808],[-5.760113227835717,7.350680396676978,198.608],[-5.7567280403737016,7.3456762065157193,196.8619],[-5.7581998610093592,7.3315467284134,207.423],[-5.7624681408527749,7.3300749077777434,204.8204],[-5.7686497875225484,7.3336072773033436,216.6868],[-5.7764504368915368,7.3350790979390013,223.6813],[-5.788225001976798,7.3392001957188313,210.1315],[-5.794701012773686,7.3371396468289163,219.2655],[-5.7976446540450013,7.3247763534893693,212.6734],[-5.8030903903969318,7.3206552557095392,194.4835],[-5.8158952299271789,7.3221270763451969,214.466],[-5.8391499959705868,7.32830872301497,234.982],[-5.8234015151690244,7.3003441309374466,220.4098],[-5.8189860532620514,7.2850371963266127,214.9334],[-5.8175142326263938,7.2635486150460054,205.0166],[-5.8116269500837632,7.2541289629777737,219.712],[-5.7985277464264016,7.2659035280630349,208.9813],[-5.7764504368915368,7.2941624842677024,194.8911],[-5.7768919830822369,7.267080984571578,230.9768],[-5.7751257983194364,7.2550120553591739,215.6886],[-5.7702687902217633,7.2464754956723709,225.056],[-5.76129068434426,7.24382621852817,206.2001],[-5.7496633013225562,7.2452980391638278,209.001],[-5.7361225514744936,7.2455924032909707,208.3255],[-5.72184589130859,7.2391163924940543,227.7406],[-5.7448062932248831,7.2258700067731354,209.8569],[-5.7568752224372588,7.2208658166119051,202.5068],[-5.7702687902217633,7.2190996318491054,204.9292],[-5.7614378664078174,7.2073250667638433,224.1336],[-5.7498104833861126,7.2085025232723856,223.2646],[-5.7398021030636244,7.2076194308909862,215.0332],[-5.7355338232202371,7.1881913985002939,206.2856],[-5.7346507308388368,7.1678802737282012,225.2383],[-5.7309711792496776,7.1566944368971974,231.6547],[-5.7219930733721753,7.1555169803886827,213.6142],[-5.6919679324047374,7.1764168334150327,207.7457],[-5.6904961117690789,7.1699408226181163,228.7591],[-5.6955003019303092,7.15610570864294,229.0589],[-5.7196381603551174,7.1157778232258977,212.8736],[-5.71993252448226,7.1057694429034086,224.283],[-5.7088938697148137,7.095761062580948,226.5791],[-5.7084523235241136,7.09841033972512,220.9714],[-5.7044784078078408,7.1025314375049788,214.6261],[-5.6975608508202527,7.1051807146491512,201.6948],[-5.6884355628791639,7.1025314375049788,216.275],[-5.6831370085907906,7.0972328832166056,224.9171],[-5.681665187955133,7.0854583181313444,224.9858],[-5.6775440901752754,7.0783935790801706,241.1114],[-5.6620899735008834,7.070445747647625,250.1085],[-5.6531118676233518,7.0807484920972286,216.1049],[-5.6460471285722056,7.0931117854367471,201.2995],[-5.6366274765039748,7.0919343289282324,201.2282],[-5.6250000934822708,7.0866357746398592,214.9187],[-5.5989488682311332,7.0919343289282324,223.7566],[-5.5846722080652569,7.0881075952755168,225.5278],[-5.5827588412388991,7.0819259486057433,232.6826],[-5.5840834798109711,7.0728006606646829,242.0782],[-5.5833475694931556,7.0645584651049944,263.98],[-5.574811009806325,7.0607317314522788,264.5782],[-5.5649498115474216,7.0622035520879356,234.5177],[-5.5587681648776481,7.0642641009778524,220.1405],[-5.5528808823350184,7.0648528292321089,213.4164],[-5.5436084123303706,7.0607317314522788,210.1274],[-5.5480238742373444,7.0513120793840756,226.5493],[-5.5391929504233994,7.0448360685871592,219.1478],[-5.5240331978761219,7.043069883824387,202.739],[-5.50960935564666,7.0471909816042171,201.2641],[-5.5069600785024866,7.037182601281728,251.6752],[-5.5016615242141143,7.0259967644507242,309.8589],[-5.4944496030993832,7.0168714765096638,207.2271],[-5.4857658613489946,7.0130447428569482,163.8658],[-5.4611864567335147,6.9721281291856494,426.0016],[-5.4591259078436,6.9774266834740217,331.7243],[-5.4570653589536562,6.9809590529995944,327.6719],[-5.4555935383179994,6.9850801507794236,297.691],[-5.4550048100637412,6.9927336180848556,337.2723],[-5.448087253076153,6.9927336180848556,269.9238],[-5.4476457068854529,6.982725237762395,336.5394],[-5.4457323400590951,6.9777210476011362,320.2234],[-5.4416112422792651,6.9771323193468788,281.6431],[-5.4338105929102767,6.9788985041096794,256.8227],[-5.4276289462405032,6.9721281291856494,235.356],[-5.4338105929102767,6.9591761075918441,239.0489],[-5.4289535848126036,6.96300284124456,239.69],[-5.4139410143288842,6.9721281291856494,205.6582],[-5.4139410143288842,6.93798189043838,209.4841],[-5.4011361747986371,6.9406311675825521,201.5381],[-5.3958376205102923,6.9400424393282947,206.5077],[-5.3865651505056178,6.93798189043838,223.4203],[-5.3880369711413039,6.951522640286413,221.1047],[-5.3843574195521464,6.9577042869561856,208.506],[-5.378175772882372,6.9609422923546447,217.4626],[-5.3724356724032987,6.9653577542616176,222.7811],[-5.3728772185939988,6.9609422923546447,228.4834],[-5.3690504849412832,6.9585873793375868,223.1772],[-5.3634575665257964,6.9582930152104439,220.6273],[-5.3593364687459646,6.9591761075918441,213.3742],[-5.3584533763645652,6.9624141129903023,226.4561],[-5.3597780149366372,6.9747774063298209,206.3261],[-5.3593364687459646,6.9788985041096794,202.6394],[-5.3556569171568071,6.9809590529995944,210.4375],[-5.351094273186277,6.9794872323639368,219.6989],[-5.3472675395335614,6.9794872323639368,212.6157],[-5.3456485368343181,6.98566887903371,217.105],[-5.3478562677878188,6.9906730691949406,211.9761],[-5.3524189117583489,6.9930279822119994,204.0272],[-5.3571287377924648,6.9936167104662559,213.3674],[-5.3593364687459646,6.9927336180848556,213.6825],[-5.3560984633475073,7.0236418514336947,215.0429],[-5.3519773655676488,7.0336502317561553,213.83],[-5.3684617566870259,7.02658549270501,213.1884],[-5.3793532293909152,7.02982349810344,205.3671],[-5.383327145107188,7.0401262425530717,198.8233],[-5.37920604732733,7.0545500847825053,227.3507],[-5.3865651505056178,7.0471909816042171,217.7024],[-5.3928939792389494,7.0545500847825053,185.7595],[-5.3890672455862614,7.0586711825623638,185.242],[-5.3890672455862614,7.0592599108166212,189.1554],[-5.3909806124126192,7.0610260955793933,204.5538],[-5.3928939792389494,7.0677964705034242,216.388],[-5.412763557820341,7.0630866444693368,204.8242],[-5.4308669516389614,7.0719175682832827,202.948],[-5.4401394216436074,7.0872245028941174,208.0589],[-5.4338105929102767,7.1025314375049788,228.2365],[-5.4213001175071724,7.1007652527421783,213.9764],[-5.4048157263877954,7.0916399648010886,215.501],[-5.3892144276498186,7.0916399648010886,244.7179],[-5.37920604732733,7.1160721873530406,215.8462],[-5.3874482428870181,7.1116567254460676,214.58],[-5.3965735308281069,7.1101849048103816,224.7752],[-5.4056988187691957,7.1116567254460676,216.8445],[-5.4139410143288842,7.1160721873530406,201.4639],[-5.4139410143288842,7.1228425622770706,206.0306],[-5.404226998133538,7.1284354806925592,231.4523],[-5.3998115362265651,7.1369720403793906,243.0472],[-5.4008418106715226,7.1469804207018512,202.9139],[-5.4071706394048533,7.15698880102434,207.5805],[-5.4039326340063951,7.16022680642277,204.6136],[-5.40275517749788,7.1619929911855706,213.0465],[-5.4002530824172652,7.1708239149995174,226.8444],[-5.4115861013118263,7.1684690019824586,218.7348],[-5.4204170251257722,7.1631704476940854,234.5813],[-5.4261571256048464,7.1549282521343969,223.1738],[-5.4276289462405032,7.1434480511762786,213.7592],[-5.4338105929102767,7.1434480511762786,205.5128],[-5.4391091471986206,7.1608155346770559,214.5985],[-5.4510308943474683,7.16022680642277,215.7904],[-5.4630998235598716,7.1534564314987392,181.5],[-5.4685455599118029,7.154045159753025,181.5],[-5.4716363832466746,7.1678802737282012,213.8086],[-5.4770821195986059,7.1728844638894316,181.5],[-5.4791426684885494,7.1772999257964054,187.2936],[-5.4716363832466746,7.1881913985002939,194.4198],[-5.4673681034032882,7.200260327712698,203.3558],[-5.4759046630900912,7.2223376372475627,225.942],[-5.4748743886451336,7.2329347458243092,207.4154],[-5.4664850110218879,7.23793893598554,230.2556],[-5.4560350845086987,7.2382333001126824,220.5006],[-5.4464682503769382,7.2408825772568548,226.5636],[-5.4405809678342791,7.2532458705963734,205.1153],[-5.4332218646559909,7.2402938490025974,217.64],[-5.42144729957073,7.2332291099514237,233.3691],[-5.4073178214684106,7.2326403816971663,213.8919],[-5.3928939792389494,7.2391163924940543,239.5535],[-5.3955432563831494,7.24294312614677,222.22],[-5.4002530824172652,7.2532458705963734,205.5332],[-5.3865651505056178,7.2532458705963734,243.1145],[-5.3886256993955612,7.2579556966304892,226.0766],[-5.3909806124126192,7.2691415334614931,209.2485],[-5.3928939792389494,7.2738513594956089,209.9515],[-5.3828855989164879,7.2747344518770092,232.1878],[-5.3758208598653141,7.277972457275439,217.54],[-5.3627216562079516,7.2909244788692433,207.1126],[-5.3594836508095227,7.2979892179203887,200.7368],[-5.3674314822420683,7.2985779461746736,199.6969],[-5.3951017101924492,7.2909244788692433,220.1091],[-5.4098199165490257,7.2841541039452116,203.5051],[-5.4254212152870016,7.2791499137839821,190.6153],[-5.4405809678342791,7.2800330061653824,184.8083],[-5.4498534378389536,7.2891582941064428,229.748],[-5.4464682503769382,7.30152158744599,228.4505],[-5.4383732368808069,7.3159454296754234,213.2706],[-5.4338105929102767,7.3318410925405431,223.0383],[-5.42733458211336,7.3459705706428622,214.9509],[-5.4117332833753844,7.3489142119141766,237.47559999999999],[-5.3936298895567916,7.34744239127852,247.7942],[-5.37920604732733,7.3489142119141766,244.3057],[-5.370963851767641,7.3577451357281234,252.4769],[-5.3669899360513682,7.36922533668627,240.5923],[-5.3615441996994377,7.3792337170087308,253.6369],[-5.348739360169219,7.3836491789157037,258.0014],[-5.3410858928637879,7.3874759125684193,254.4845],[-5.31694803443898,7.4045490319420537,240.9392],[-5.3109135698327918,7.4104363144846843,238.546],[-5.3022298280824032,7.43604599354515,240.9814],[-5.3184198550746373,7.4378121783079507,220.7844],[-5.3449126265165026,7.4307474392567769,213.3342]]]}}