{"type":"Feature","properties":{"featurecla":"River","scalerank":7,"rivernum":417,"dissolve":"417River","name":"Bandama2","name_alt":null,"note":null,"min_zoom":6.0,"strokeweig":0.25,"name_en":"Bandama","min_label":7.0},
"geometry":{"type": "LineString","coordinates": [[-5.486083984375,7.01325104374412,163.8658],[-5.5079101562499773,6.96442291874412,164.7281],[-5.5096191406249773,6.94818756718162,164.4372],[-5.5148193359374886,6.9312686218691084,156.8759],[-5.5356933593749886,6.91474030155662,159.6098],[-5.5375244140624886,6.89642975468162,156.4841],[-5.5289062499999773,6.87787506718162,153.7298],[-5.501708984375,6.84650299686912,177.5737],[-5.4958984374999886,6.8247256531191169,155.0883],[-5.4861816406249773,6.81305573124412,148.7685],[-5.437255859375,6.76666901249412,144.826],[-5.43505859375,6.7580752624941169,148.539],[-5.4139160156249773,6.7120303406191084,145.7893],[-5.4100097656249773,6.6914248718691169,144.7058],[-5.4139160156249773,6.63324616093162,144.1313],[-5.4095214843749773,6.61395905155662,145.9648],[-5.3982910156249773,6.6070498718691084,153.9035],[-5.3438476562499773,6.6080264343691084,142.2444],[-5.321044921875,6.60199616093162,147.9917],[-5.3086914062499773,6.5891299499941169,139.3538],[-5.3177734374999943,6.56745026249412,154.8972],[-5.314208984375,6.5516299499941084,154.5054],[-5.3370117187499773,6.5189151062441084,161.923],[-5.3208984374999773,6.5128115906191084,146.9424],[-5.308349609375,6.5113467468691084,145.9242],[-5.3057617187499773,6.5071963562441084,138.6745],[-5.3108886718749773,6.4923037781191084,140.6257],[-5.3129394531249829,6.4795108093691169,140.4997],[-5.3155273437499773,6.4747256531191084,149.7699],[-5.3208984374999773,6.46869537968162,148.3036],[-5.3245605468749773,6.4609561218691169,145.8804],[-5.3204101562499773,6.45538971561912,133.5],[-5.3140624999999773,6.4504580749941169,139.3778],[-5.3108886718749773,6.44452545780662,145.8717],[-5.3123535156249773,6.41766998905662,150.3342],[-5.3110839843749886,6.39850494999412,135.6794],[-5.3037109375,6.38263580936912,142.7916],[-5.2867187499999773,6.3657412781191169,136.0223],[-5.2701171874999773,6.36066315311912,129.0217],[-5.235107421875,6.37274811405662,130.6372],[-5.2146972656249773,6.36884186405662,129.6818]]}}