{"type":"Feature","properties":{"GID_3":"CIV.8.1.3_1","GID_0":"CIV","country":"Côted'Ivoire","GID_1":"CIV.8_1","province":"Montagnes","NL_NAME_1":"NA","GID_2":"CIV.8.1_1","county":"Cavally","NL_NAME_2":"NA","city":"Taï","VARNAME_3":"NA","NL_NAME_3":"NA","TYPE_3":"Département","ENGTYPE_3":"Department","CC_3":"NA","HASC_3":"NA","name":"Taï.city"},
"geometry":{"type": "MultiPolygon","coordinates": [[[[-7.1268,6.2697,189.5],[-7.1677,6.3274,195.0679],[-7.1925,6.4025,204.6697],[-7.2014,6.3984,201.7144],[-7.2083,6.3926,189.5],[-7.216,6.3911,189.5],[-7.2236,6.3928,189.5],[-7.234,6.3923,189.5],[-7.2561,6.3971,189.5],[-7.2607,6.3926,189.5],[-7.2683,6.3956,189.5],[-7.2869,6.3894,189.5],[-7.291,6.3857,189.5],[-7.298,6.3843,198.9651],[-7.3593,6.3372,221.0086],[-7.3672,6.3266,212.5852],[-7.3688,6.3196,218.4055],[-7.3724,6.313,219.2591],[-7.375,6.2742,213.987],[-7.3767,6.268,223.5964],[-7.3877,6.2582,207.7736],[-7.4009,6.2389,201.575],[-7.4063,6.2349,202.6134],[-7.4128,6.2199,205.6366],[-7.4897,6.2208,230.0525],[-7.6464,6.2057,240.5635],[-7.6547,6.2007,232.6596],[-7.66,6.2033,235.5248],[-7.6932,6.2024,226.3085],[-7.7004,6.1971,225.3414],[-7.7049,6.1915,214.4671],[-7.7143,6.1887,220.2858],[-7.7249,6.1911,213.0845],[-7.7269,6.1931,217.4061],[-7.7436,6.1918,210.0243],[-7.749,6.1861,206.8038],[-7.7499,6.1818,202.379],[-7.757,6.1835,212.4447],[-7.7613,6.1818,200.868],[-7.7622,6.185,202.874],[-7.7679,6.1817,203.3371],[-7.7725,6.1821,194.747],[-7.7738,6.1875,203.4475],[-7.7828,6.186,197.1114],[-7.7846,6.1833,193.4292],[-7.7904,6.1853,214.9342],[-7.7988,6.1811,222.504],[-7.7992,6.1767,212.3668],[-7.806,6.178,197.1512],[-7.806,6.1821,205.0139],[-7.8088,6.1867,209.659],[-7.8146,6.1859,212.226],[-7.8166,6.1898,211.4528],[-7.8194,6.191,212.3593],[-7.8238,6.1879,221.0083],[-7.8367,6.1882,204.015],[-7.8406,6.1846,189.6117],[-7.834,6.1758,220.5175],[-7.8352,6.1666,190.01],[-7.8316,6.1599,211.6156],[-7.8337,6.1565,204.0561],[-7.8443,6.1492,215.6628],[-7.8464,6.1435,210.5916],[-7.8483,6.0941,206.2036],[-7.8472,6.0904,186.2115],[-7.8426,6.0881,199.7206],[-7.8419,6.0851,196.4428],[-7.8443,6.0768,208.8817],[-7.8434,6.072,217.186],[-7.8341,6.0765,209.0936],[-7.8315,6.0903,210.0398],[-7.8283,6.0926,198.4393],[-7.8239,6.093,182.5737],[-7.8182,6.0909,176.9874],[-7.8075,6.0826,203.5998],[-7.806,6.0915,191.0707],[-7.8021,6.0922,185.0407],[-7.7966,6.0878,198.9472],[-7.7868,6.0749,190.7325],[-7.7873,6.0707,207.5937],[-7.7929,6.0609,215.0964],[-7.7931,6.0574,211.3458],[-7.7904,6.0512,180.7158],[-7.7781,6.0445,182.8509],[-7.7726,6.0394,176.3373],[-7.7685,6.0316,193.4754],[-7.771,6.0261,194.7914],[-7.7814,6.0208,199.2405],[-7.7844,6.016,193.0792],[-7.7797,6.0063,183.2231],[-7.7896,5.9951,184.2928],[-7.791,5.9915,179.2902],[-7.7881,5.9836,177.8915],[-7.7661,5.9748,175.7619],[-7.7636,5.9709,171.8961],[-7.7584,5.9534,179.4523],[-7.7394,5.9378,184.7373],[-7.7257,5.9336,188.6314],[-7.7186,5.9283,180.9245],[-7.7136,5.9193,178.0732],[-7.693,5.9049,168.7879],[-7.6843,5.9007,166.0833],[-7.6799,5.9009,185.255],[-7.6769,5.9034,178.6101],[-7.676,5.9069,182.8674],[-7.6821,5.9232,193.8971],[-7.6807,5.9283,182.1977],[-7.6737,5.9351,179.4061],[-7.6695,5.9473,180.7289],[-7.6632999999999996,5.9507,170.082],[-7.6606,5.9502,170.0681],[-7.6577,5.9332,183.203],[-7.6603,5.9197,185.8384],[-7.6596,5.9157,183.2283],[-7.6553,5.915,176.6707],[-7.6491,5.9173,174.6249],[-7.6449,5.9157,179.423],[-7.6376,5.9085,179.3937],[-7.6137,5.9074,181.1818],[-7.6115,5.8973,170.7785],[-7.609,5.8968,174.0271],[-7.6046,5.8991,175.6781],[-7.6024,5.8906,169.6849],[-7.5996,5.8883,171.7485],[-7.5962,5.8908,176.1856],[-7.592,5.9011,181.4102],[-7.5839,5.9008,177.7111],[-7.5752,5.8973,188.1013],[-7.5526,5.8735,203.8176],[-7.5533,5.8693,166.9027],[-7.5687,5.8734,177.3895],[-7.5719,5.8688,165.1977],[-7.5699,5.8646,169.9497],[-7.5578,5.8613,169.0124],[-7.5544,5.8496,174.0997],[-7.5487,5.8429,175.1173],[-7.5458,5.8351,162.8426],[-7.5398,5.8348,172.9052],[-7.5381,5.8495,167.0477],[-7.5298,5.8494,172.3375],[-7.5192,5.859,157.348],[-7.5125,5.856,158.7295],[-7.5107,5.8502,160.1595],[-7.5121,5.8461,164.47],[-7.5195,5.8413,166.2556],[-7.5179,5.8388,155.2542],[-7.5062,5.8385,155.7935],[-7.5026,5.8366,171.7628],[-7.4905,5.817,172.3614],[-7.4839,5.8117,173.6418],[-7.4756,5.8105,164.3205],[-7.4737,5.8229,179.2626],[-7.4691,5.8327,173.9338],[-7.4715,5.8399,163.8525],[-7.4683,5.8472,168.0076],[-7.4687,5.8539,158.1292],[-7.4668,5.8596,163.8011],[-7.4634,5.8612,150.8032],[-7.4512,5.857,185.9838],[-7.4457,5.8613,151.6911],[-7.4395,5.8551,165.4746],[-7.4364,5.8465,151.1547],[-7.4297,5.8433,162.4349],[-7.4224,5.8435,154.9173],[-7.4226,5.8375,148.9149],[-7.4298,5.832,149.6562],[-7.4308,5.8169,146.7729],[-7.4392,5.8004,161.1737],[-7.4392,5.7962,148.1485],[-7.429,5.7812,146.7215],[-7.4274,5.7752,149.4765],[-7.4293,5.7688,150.8893],[-7.4413,5.7537,145.1941],[-7.4361,5.7445,141.4651],[-7.4337,5.7293,141.1844],[-7.4289,5.7189,141.2561],[-7.4286,5.6975,142.9139],[-7.4263,5.6945,127.3582],[-7.4172,5.6908,130.7138],[-7.4159,5.6758,125.6887],[-7.4118,5.6712,119.0],[-7.4093,5.6595,123.7892],[-7.4043,5.6477,122.9071],[-7.3973,5.638,143.8116],[-7.0843,5.6665,188.2877],[-7.0833,5.6985,185.9932],[-7.0871,5.7042,188.6772],[-7.0875,5.82,229.8485],[-7.0863,5.9785,194.4282],[-7.0834,5.9914,192.1784],[-7.0865,6.0586,214.5152],[-7.1268,6.2697,189.5]]]]}}