{"type": "Feature","bbox": [-7.0671,6.6259,-6.6501,7.0623],"geometry": {"type": "MultiPolygon","coordinates": [[[[-7.0643,6.9405,197.0],[-7.0586,6.9336,201.3968],[-7.0516,6.9327,201.9132],[-7.044,6.9284,202.8085],[-7.0413,6.9202,199.6086],[-7.0435,6.9123,199.1721],[-7.0428,6.9054,201.3371],[-7.0464,6.8976,200.6303],[-7.0609,6.8906,196.9257],[-7.0641,6.8828,193.0],[-7.0614,6.8729,193.4857],[-7.061,6.8595,199.5465],[-7.0634,6.8508,193.8182],[-7.0607,6.8477,197.3177],[-7.0403,6.8388,195.5197],[-7.0258,6.8399,194.9831],[-7.0178,6.8388,198.5392],[-7.0081,6.8333,191.4906],[-6.9982,6.8159,190.5028],[-6.9948,6.7925,189.5],[-6.9961,6.7742,189.5],[-6.9898,6.7666,189.5],[-6.9819,6.7454,198.8674],[-6.9827,6.7384,189.5],[-6.9888,6.7288,189.5],[-6.9899,6.723,189.5],[-6.9872,6.7198,189.5],[-6.9786,6.7171,190.7672],[-6.9743,6.7131,189.5],[-6.9715,6.7073,189.5],[-6.9863,6.6869,189.5],[-6.9913,6.6728,189.5],[-6.9898,6.6648,189.5],[-6.9836,6.6567,189.5],[-6.9835,6.6415,189.5],[-6.9869,6.6259,189.5],[-6.8623,6.6401,251.7728],[-6.7125,6.627,187.8901],[-6.7145,6.63,198.2898],[-6.7122,6.6363,203.5905],[-6.6998,6.6412,191.4633],[-6.6999,6.6453,193.7337],[-6.6952,6.6488,190.4854],[-6.7001,6.6507,190.8302],[-6.7048,6.6477,192.0241],[-6.7115,6.6481,192.2895],[-6.7185,6.6634,191.6068],[-6.7164,6.6714,190.8392],[-6.7288,6.6794,187.1168],[-6.7364,6.6804,213.0721],[-6.7405,6.6836,212.2842],[-6.7387,6.6894,195.4661],[-6.7302,6.6882,189.4825],[-6.7223,6.6847,189.1926],[-6.7147,6.6883,198.6404],[-6.7224,6.6962,187.7702],[-6.722,6.7039,190.5117],[-6.7247,6.7095,193.2903],[-6.7308,6.7111,192.0361],[-6.7319,6.716,198.6966],[-6.7306,6.7222,198.2917],[-6.7145,6.7244,190.6624],[-6.7107,6.7225,197.2331],[-6.7105,6.7266,191.2453],[-6.708,6.7293,193.6509],[-6.7109,6.7323,193.0621],[-6.7073,6.7382,191.1472],[-6.713,6.7364,193.6928],[-6.7186,6.737,203.4575],[-6.7211,6.7417,191.5761],[-6.7251,6.7434,197.7806],[-6.7395,6.745,201.398],[-6.7371,6.7538,197.9699],[-6.7327,6.7611,197.4727],[-6.7277,6.7605,192.1272],[-6.7246,6.7678,193.7155],[-6.7201,6.7706,203.9771],[-6.7176,6.7671,196.0545],[-6.7009,6.7596,194.4496],[-6.6968,6.7591,197.6161],[-6.6885,6.7711,195.959],[-6.7011,6.7771,220.7455],[-6.7032,6.7823,215.1675],[-6.6991,6.7867,205.422],[-6.6838,6.786,199.205],[-6.6993,6.8037,195.1947],[-6.7121,6.7998,208.0362],[-6.7131,6.8054,202.6399],[-6.7048,6.8225,201.8604],[-6.6953,6.8229,198.2885],[-6.6838,6.8179,199.2892],[-6.6779,6.827,199.2099],[-6.6801,6.8308,202.2503],[-6.6794,6.8336,198.2802],[-6.67,6.8377,200.0269],[-6.6639,6.8427,198.2681],[-6.6642,6.8477,199.1866],[-6.6709,6.8517,202.9893],[-6.6732,6.86,203.8295],[-6.6603,6.8674,206.378],[-6.6501,6.8588,200.7485],[-6.6559,6.8679,205.755],[-6.6564,6.8736,201.2949],[-6.6512,6.8789,203.0012],[-6.6555,6.8898,201.923],[-6.6555,6.8973,203.313],[-6.6649,6.9054,203.1186],[-6.6659,6.9113,202.6451],[-6.6744,6.9154,212.5859],[-6.6888,6.9298,208.8497],[-6.7155,6.9354,231.295],[-6.7205,6.9401,234.4534],[-6.7595,6.9487,223.611],[-6.7727,6.9616,220.1428],[-6.7776,6.9641,221.6772],[-6.7875,6.9634,228.1286],[-6.7908,6.9653,227.3924],[-6.7946,6.9721,226.8838],[-6.8167,6.9814,232.048],[-6.8313,6.9903,232.0223],[-6.8345,6.9942,231.25],[-6.8402,6.9969,233.7879],[-6.8472,7.0055,232.6449],[-6.8555,7.0062,235.6488],[-6.8699,7.025,242.3245],[-6.876,7.0363,251.5516],[-6.8854,7.0434,249.3517],[-6.9002,7.0623,251.1335],[-7.0123,7.0621,250.6629],[-7.0517,7.0556,228.0346],[-7.0588,7.0488,201.7984],[-7.0608,7.0251,207.0771],[-7.0671,7.0051,203.4531],[-7.0652,7.0015,203.869],[-7.0593,6.998,206.9466],[-7.0599,6.9696,206.1697],[-7.0649,6.9598,201.8961],[-7.0643,6.9405,197.0]]]]}
,"properties": {"GID_3": "CIV.9.1.4_1","GID_0": "CIV","country": "Côted'Ivoire","GID_1": "CIV.9_1","province": "Sassandra-Marahoué","NL_NAME_1": "NA","GID_2": "CIV.9.1_1","county": "Haut-Sassandra","NL_NAME_2": "NA","city": "Zoukougbeu","VARNAME_3": "NA","NL_NAME_3": "NA","TYPE_3": "Département","ENGTYPE_3": "Department","CC_3": "NA","HASC_3": "NA","name": "Zoukougbeu.city","area_km2": 1517.113,"hist_schema_id": "Elevation0-9000","hist_area_km2": {"175": 0.274,"200": 229.853,"225": 582.844,"250": 516.079,"275": 177.457,"300": 10.501,"325": 0.105}}}