{"type":"Feature","properties":{"GID_3":"CIV.8.3.2_1","GID_0":"CIV","country":"Côted'Ivoire","GID_1":"CIV.8_1","province":"Montagnes","NL_NAME_1":"NA","GID_2":"CIV.8.3_1","county":"Tonkpi","NL_NAME_2":"NA","city":"Danané","VARNAME_3":"NA","NL_NAME_3":"NA","TYPE_3":"Département","ENGTYPE_3":"Department","CC_3":"NA","HASC_3":"NA","name":"Danané.city"},
"geometry":{"type": "MultiPolygon","coordinates": [[[[-7.8858,7.0922,291.5632],[-7.8797,7.1044,282.0995],[-7.8663,7.1067,290.1989],[-7.8585,7.1122,280.3819],[-7.855,7.1222,283.5163],[-7.8575,7.1305,284.8694],[-7.86,7.1334,286.8423],[-7.8394,7.2398,306.1007],[-7.9561,7.369,347.9771],[-7.9531,7.3877,483.4525],[-7.9541,7.3966,656.3596],[-7.9521,7.4004,654.598],[-7.9584,7.4167,650.8543],[-7.9614,7.4396,732.1371],[-7.9614,7.475,720.2031],[-7.9581,7.4846,687.6358],[-7.9608,7.495,666.4863],[-7.9628,7.5738,646.9963],[-7.9677,7.5991,704.8354],[-7.9636,7.6338,623.7599],[-7.9665,7.6527,596.6317],[-7.9718,7.6599,593.6023],[-7.9915,7.6756,880.1526],[-7.9925,7.6793,864.4219],[-7.992,7.7217,513.9661],[-7.9826,7.7318,518.101],[-7.9752,7.7327,486.0832],[-7.9674,7.7393,480.0051],[-7.9634,7.7378,491.909],[-7.9617,7.7395,482.8561],[-7.9571,7.7558,475.9537],[-7.9573,7.7638,471.6678],[-7.9536,7.7669,491.1017],[-7.9532,7.7707,470.932],[-7.9591,7.7764,469.1459],[-7.9596,7.7805,471.0845],[-7.9765,7.7838,477.8781],[-7.982,7.7794,490.5082],[-8.0004,7.7775,564.1608],[-8.0163,7.7658,620.3068],[-8.0615,7.7407,558.6415],[-8.0712,7.7421,574.6283],[-8.0775,7.7351,557.2035],[-8.0813,7.734,587.2029],[-8.0927,7.7357,560.2014],[-8.094,7.722,568.9855],[-8.1013,7.7159,579.1604],[-8.1237,7.7108,526.674],[-8.1399,7.6933,572.6501],[-8.1437,7.6555,557.1011],[-8.1489,7.6493,509.8687],[-8.1572,7.6442,490.1064],[-8.1719,7.62,499.0989],[-8.1726,7.5817,683.3112],[-8.18,7.5667,503.8682],[-8.1936,7.545,597.8718],[-8.205,7.5358,429.3849],[-8.2149,7.5337,370.6569],[-8.2299,7.5498,406.8843],[-8.2356,7.5519,348.6071],[-8.2573,7.5676,475.4529],[-8.2894,7.577,549.9385],[-8.2977,7.5848,474.3252],[-8.2997,7.5916,434.076],[-8.2986,7.5967,424.6054],[-8.3028,7.6014,461.8885],[-8.3225,7.5994,500.6119],[-8.3465,7.5789,464.1211],[-8.3569,7.5748,511.5075],[-8.3693,7.5727,515.739],[-8.3797,7.579,465.1685],[-8.3817,7.5976,570.4763],[-8.3847,7.607,597.9626],[-8.393,7.6122,910.3134],[-8.4055,7.6112,1098.3119],[-8.4174,7.6082,1341.1746],[-8.4722,7.5546,1168.2312],[-8.4645,7.5364,474.9705],[-8.4568,7.5266,482.0469],[-8.434,7.5171,436.2855],[-8.4141,7.4938,365.5715],[-8.4137,7.4857,355.8112],[-8.408,7.476,368.6562],[-8.4096,7.4691,359.1686],[-8.4055,7.4563,355.8703],[-8.4044,7.4457,356.9781],[-8.4098,7.429,360.1868],[-8.3989,7.4092,353.4278],[-8.3939,7.3938,391.0439],[-8.3959,7.3724,353.893],[-8.3899,7.3288,355.5027],[-8.386,7.3196,350.6739],[-8.3728,7.3021,349.2892],[-8.3605,7.2813,335.3284],[-8.36,7.2744,328.7074],[-8.3534,7.2733,339.8469],[-8.3518,7.271,365.5285],[-8.3523,7.2572,333.1678],[-8.3562,7.2519,330.9468],[-8.3565,7.2478,329.288],[-8.3609,7.2428,320.226],[-8.3573,7.2342,322.8886],[-8.346,7.2296,330.8591],[-8.3357,7.2192,325.6553],[-8.3314,7.2137,331.708],[-8.3305,7.2056,318.8737],[-8.325,7.2006,335.0202],[-8.3181,7.2026,321.5977],[-8.3142,7.201,330.907],[-8.3076,7.1943,314.7286],[-8.3036,7.1945,323.5301],[-8.3018,7.1873,327.757],[-8.2942,7.1868,321.7216],[-8.2906,7.1818,311.2098],[-8.2871,7.1813,312.0066],[-8.2841,7.1852,310.5032],[-8.2784,7.1852,324.6453],[-8.2761,7.1808,329.0125],[-8.2785,7.1702,301.1929],[-8.2758,7.1562,296.7652],[-8.2779,7.1514,303.5652],[-8.2929,7.1393,301.4055],[-8.2938,7.1318,293.8631],[-8.2881,7.1336,311.2769],[-8.2712,7.1233,323.6824],[-8.2579,7.1088,313.5236],[-8.2474,7.0936,288.4153],[-8.2396,7.0863,278.4797],[-8.2313,7.0809,268.9612],[-8.2196,7.0789,308.7644],[-8.1864,7.0791,298.239],[-8.1682,7.0866,325.826],[-8.1409,7.1045,336.477],[-8.1264,7.1076,346.481],[-8.1079,7.1079,301.6121],[-8.1034,7.1015,298.7758],[-8.1049,7.0954,290.3413],[-8.1017,7.0918,301.1912],[-8.1043,7.0874,296.8167],[-8.1097,7.0861,280.7409],[-8.1075,7.0677,277.0221],[-8.104,7.0701,278.884],[-8.0943,7.0686,280.4278],[-8.0907,7.0729,281.8797],[-8.0831,7.0722,278.3694],[-8.079,7.0764,277.9027],[-8.0751,7.0717,276.8907],[-8.0688,7.0724,283.1172],[-8.0617,7.0648,278.9079],[-8.0596,7.067,275.3741],[-8.0583,7.0658,278.9672],[-8.0583,7.0603,276.4532],[-8.0538,7.0585,275.6779],[-8.0523,7.0502,274.4413],[-8.0467,7.0538,276.8374],[-8.0392,7.049,277.8494],[-8.0403,7.0545,275.2131],[-8.0378,7.0564,275.6036],[-8.0274,7.0539,273.4979],[-8.0257,7.0463,275.3093],[-8.0203,7.0449,276.6068],[-8.0212,7.0388,280.2629],[-8.0153,7.0349,279.2372],[-8.0239,7.0305,271.8998],[-8.0147,7.0209,271.1537],[-8.0151,7.0192,271.5452],[-8.0185,7.0188,271.6766],[-8.0187,7.0172,274.0739],[-8.0129,7.0177,272.0026],[-8.0118,7.0138,271.2725],[-8.0074,7.0149,274.8257],[-8.0034,7.0084,278.836],[-8.0039,7.003,270.7108],[-8.0072,7.0016,270.4136],[-8.0097,7.0023,270.6706],[-8.0099,7.0011,272.3873],[-8.0045,6.9884,273.2726],[-8.0101,6.9859,274.1949],[-8.0111,6.983,270.2354],[-8.0059,6.9845,275.6239],[-7.9977,6.9933,271.1918],[-7.9879,6.9945,269.8385],[-7.9787,7.009,268.7394],[-7.9676,7.0209,274.9154],[-7.9665,7.0261,273.2373],[-7.9447,7.0396,270.8523],[-7.942,7.0449,273.1476],[-7.924,7.0626,275.6166],[-7.9234,7.072,274.4793],[-7.9221,7.0734,278.0091],[-7.9129,7.0745,279.5617],[-7.9087,7.0773,275.8782],[-7.9015,7.0759,277.1503],[-7.8985,7.0771,290.688],[-7.8945,7.0801,284.3564],[-7.8858,7.0922,291.5632]]]]}}