{"type":"Feature","properties":{"GID_3":"CIV.6.4.2_1","GID_0":"CIV","country":"Côted'Ivoire","GID_1":"CIV.6_1","province":"Lacs","NL_NAME_1":"NA","GID_2":"CIV.6.4_1","county":"N'zi","NL_NAME_2":"NA","city":"Dimbokro","VARNAME_3":"NA","NL_NAME_3":"NA","TYPE_3":"Département","ENGTYPE_3":"Department","CC_3":"NA","HASC_3":"NA","name":"Dimbokro.city"},
"geometry":{"type": "MultiPolygon","coordinates": [[[[-4.8353,6.8678,137.0786],[-4.8575,6.8504,171.5707],[-4.8781,6.8441,169.1774],[-4.8864,6.844,171.3095],[-4.8927,6.8422,177.1095],[-4.9062,6.8475,174.7676],[-4.9202,6.8455,155.9154],[-4.9417,6.8486,138.5638],[-4.9634,6.8422,120.5],[-4.9623,6.8368,129.6749],[-4.9671,6.8289,120.5],[-4.9674,6.8252,139.6837],[-4.9592,6.8211,122.117],[-4.9538,6.8225,120.5],[-4.952,6.8124,123.1752],[-4.9525,6.8007,118.6918],[-4.9552,6.7946,123.6566],[-4.9516,6.7915,128.8365],[-4.9556,6.7776,121.7638],[-4.9603,6.7701,122.0004],[-4.9601,6.7668,120.1237],[-4.9682,6.7601,117.8451],[-4.9654,6.7547,131.2701],[-4.9682,6.7498,131.2084],[-4.9695,6.7414,113.5041],[-4.9593,6.7282,115.0226],[-4.953,6.7242,113.3828],[-4.9342,6.7214,111.0831],[-4.9299,6.7189,142.0394],[-4.9302,6.7075,128.0751],[-4.9316,6.7042,119.7649],[-4.9331,6.7024,118.0323],[-4.9392,6.7015,111.7911],[-4.9466,6.6979,112.4653],[-4.9449,6.6899,108.9942],[-4.9465,6.6883,108.7103],[-4.9535,6.6874,108.7971],[-4.9543,6.6857,107.7249],[-4.9495,6.6805,106.5017],[-4.9545,6.6693,107.0559],[-4.9518,6.6652,105.8618],[-4.9352,6.659,106.0191],[-4.9336,6.6564,109.5589],[-4.9361,6.6511,107.047],[-4.9308,6.6473,102.6564],[-4.934,6.6456,108.2034],[-4.9321,6.6429,108.1194],[-4.9261,6.6457,104.4763],[-4.9231,6.6449,105.8696],[-4.9214,6.6281,111.0886],[-4.9193,6.6224,111.9807],[-4.9243,6.6192,105.0959],[-4.9295,6.6271,105.7064],[-4.9323,6.6295,104.0932],[-4.9351,6.6292,98.9897],[-4.9392,6.615,104.6965],[-4.9309,6.6066,101.2591],[-4.9273,6.6032,103.0313],[-4.9216,6.6036,105.2868],[-4.9138,6.5996,102.1723],[-4.9124,6.6019,101.9479],[-4.904,6.6004,101.0087],[-4.8976,6.5974,101.5892],[-4.8928,6.5977,100.0534],[-4.8901,6.5996,99.1991],[-4.8987,6.6008,102.77],[-4.8995,6.6039,99.86],[-4.8953,6.6154,96.6802],[-4.8845,6.6141,95.6804],[-4.873,6.6154,93.6501],[-4.8657,6.6216,87.0525],[-4.8659,6.6258,86.5818],[-4.8559,6.6329,81.2584],[-4.8324,6.6322,77.7482],[-4.8075,6.6224,98.2495],[-4.7668,6.6023,70.5976],[-4.759,6.5968,82.4025],[-4.7549,6.5959,71.4248],[-4.7418,6.5976,73.6945],[-4.7367,6.6,79.3708],[-4.735,6.6038,76.7214],[-4.6648,6.5761,84.7742],[-4.5123,6.5431,112.7694],[-4.5074,6.5468,112.2955],[-4.5368,6.6219,139.6021],[-4.5608,6.6779,82.0419],[-4.544,6.6817,83.1626],[-4.5418,6.6859,77.3716],[-4.5532,6.6978,90.7067],[-4.559,6.7077,80.6365],[-4.5678,6.7134,107.0202],[-4.5698,6.7187,80.8665],[-4.5679,6.7226,82.5696],[-4.5537,6.7204,83.1082],[-4.5436,6.7064,91.5833],[-4.5385,6.7106,85.2782],[-4.5382,6.715,81.4955],[-4.5428,6.7225,84.1706],[-4.5433,6.7352,86.1363],[-4.548,6.7459,85.1957],[-4.5479,6.7503,87.2674],[-4.5402,6.7637,94.6887],[-4.5306,6.8265,132.885],[-4.5776,6.8693,147.7598],[-4.5805,6.8705,160.6225],[-4.6202,6.8678,171.7148],[-4.6443,6.8797,162.9456],[-4.6534,6.9068,164.2811],[-4.6611,6.9121,157.4622],[-4.6785,6.9157,150.9783],[-4.6967,6.9163,132.1532],[-4.6988,6.9193,130.8885],[-4.7025,6.9383,126.4373],[-4.703,6.9496,122.2493],[-4.7007,6.955,131.2771],[-4.6953,6.9592,129.9435],[-4.6799,6.9646,152.511],[-4.6744,6.9682,142.1843],[-4.6754,6.9819,173.0374],[-4.6776,6.9897,162.8748],[-4.6868,7.0094,142.8236],[-4.6861,7.0183,144.5046],[-4.6823,7.0282,132.8031],[-4.7314,7.0316,159.653],[-4.7466,7.0576,163.3459],[-4.7495,7.0685,145.6335],[-4.7495,7.0814,144.7562],[-4.7519,7.0887,142.4037],[-4.7591,7.1039,160.9303],[-4.7641,7.1097,166.4693],[-4.7678,7.0914,148.4986],[-4.769,7.0731,157.3542],[-4.7721,7.0615,158.4983],[-4.7809,7.0588,163.0131],[-4.7832,7.0559,165.3728],[-4.7931,7.0512,184.9846],[-4.808,7.0411,170.8629],[-4.7913,7.0081,182.4474],[-4.7843,7.0004,165.1694],[-4.784,6.9955,160.4895],[-4.7779,6.9818,142.6545],[-4.7786,6.979,142.848],[-4.7966,6.9546,150.896],[-4.8069,6.936,132.3214],[-4.8011,6.9307,128.451],[-4.8012,6.9258,127.7159],[-4.7976,6.9191,122.3831],[-4.8022,6.9096,121.7356],[-4.8026,6.9039,124.4462],[-4.8013,6.8975,120.9916],[-4.7935,6.885,121.4139],[-4.7918,6.8795,116.6786],[-4.7929,6.8753,118.1216],[-4.8087,6.871,122.5084],[-4.8195,6.8767,135.0305],[-4.8353,6.8678,137.0786]]]]}}