{"type":"Feature","properties":{"GID_3":"CIV.8.1.1_1","GID_0":"CIV","country":"Côted'Ivoire","GID_1":"CIV.8_1","province":"Montagnes","NL_NAME_1":"NA","GID_2":"CIV.8.1_1","county":"Cavally","NL_NAME_2":"NA","city":"Blolequin","VARNAME_3":"NA","NL_NAME_3":"NA","TYPE_3":"Département","ENGTYPE_3":"Department","CC_3":"NA","HASC_3":"NA","name":"Blolequin.city"},
"geometry":{"type": "MultiPolygon","coordinates": [[[[-7.8411,6.8491,309.7476],[-7.8873,6.9298,297.2663],[-7.8987,6.931,299.3514],[-7.905,6.9349,298.5059],[-7.9102,6.9411,288.2039],[-7.9329,6.9505,315.5125],[-7.9402,6.9382,296.9035],[-7.953,6.9452,281.0401],[-7.9774,6.9531,274.372],[-8.0016,6.9673,269.1497],[-8.0029,6.9651,269.8849],[-8.0115,6.9663,273.2991],[-8.0153,6.959,273.7198],[-8.018,6.9629,270.7131],[-8.0228,6.9592,268.2306],[-8.0263,6.9542,267.3067],[-8.0251,6.9497,275.0246],[-8.0339,6.941,273.4406],[-8.0356,6.9424,272.4969],[-8.0422,6.9386,266.1143],[-8.0408,6.9334,272.1871],[-8.0509,6.9327,272.9403],[-8.0529,6.9296,271.5186],[-8.0513,6.9246,269.073],[-8.0726,6.9202,270.3191],[-8.0776,6.9223,271.1203],[-8.0796,6.9213,268.9002],[-8.0804,6.912,272.2565],[-8.0864,6.9008,265.3627],[-8.1069,6.8964,276.2479],[-8.1093,6.891,321.7221],[-8.1084,6.8868,271.3542],[-8.0952,6.88,263.0218],[-8.1024,6.8774,267.5323],[-8.1032,6.8624,266.3879],[-8.1074,6.8552,269.919],[-8.1154,6.855,298.6955],[-8.1141,6.8444,276.7972],[-8.1163,6.8383,268.1332],[-8.1149,6.8343,271.7439],[-8.1109,6.8324,297.304],[-8.1075,6.834,282.4965],[-8.104,6.8448,270.2411],[-8.1005,6.8411,273.2186],[-8.1005,6.835,263.8307],[-8.1066,6.8302,287.7018],[-8.1041,6.8248,275.7776],[-8.0974,6.8254,262.7147],[-8.0956,6.8228,264.4727],[-8.0959,6.8171,280.7335],[-8.0935,6.8145,262.3475],[-8.0982,6.8113,263.5123],[-8.0986,6.8079,263.7331],[-8.1063,6.8083,263.1617],[-8.1108,6.7976,266.8586],[-8.1179,6.8029,267.1041],[-8.1216,6.8015,266.3258],[-8.1214,6.7943,265.4944],[-8.1271,6.7908,276.0785],[-8.1299,6.7858,272.8954],[-8.1353,6.7891,266.1697],[-8.1365,6.7885,260.5499],[-8.1506,6.7753,267.6516],[-8.148,6.7688,266.8234],[-8.1555,6.7709,263.3047],[-8.1592,6.7702,268.1826],[-8.1642,6.7642,269.5461],[-8.1613,6.7618,269.4026],[-8.1597,6.7552,262.5741],[-8.1632,6.7486,286.4121],[-8.1619,6.7375,269.3965],[-8.1579,6.7334,264.9742],[-8.1591,6.7303,271.7663],[-8.164,6.7286,269.2654],[-8.1658,6.723,273.7974],[-8.1721,6.7222,271.0172],[-8.1752,6.7147,265.6564],[-8.1893,6.7105,267.5012],[-8.1924,6.7132,274.9816],[-8.1917,6.7152,277.1484],[-8.1851,6.7192,269.2164],[-8.1905,6.7314,275.4557],[-8.2067,6.7339,261.8665],[-8.2099,6.7324,255.5494],[-8.2095,6.721,260.8567],[-8.2109,6.7194,258.1276],[-8.2171,6.7197,259.9088],[-8.2184,6.7166,257.7884],[-8.2167,6.7106,258.2339],[-8.2177,6.7085,263.8337],[-8.2279,6.7065,263.7856],[-8.2306,6.6995,259.736],[-8.2307,6.6975,255.854],[-8.2198,6.6932,267.7719],[-8.2194,6.6809,272.5905],[-8.2208,6.6793,267.3085],[-8.2356,6.6776,256.4025],[-8.2334,6.6717,254.8423],[-8.2341,6.6698,259.4437],[-8.2357,6.6696,259.4437],[-8.2364,6.6745,256.006],[-8.2407,6.6772,256.9157],[-8.2473,6.6774,259.6216],[-8.2511,6.6752,257.5322],[-8.2464,6.669,260.3352],[-8.2404,6.6655,254.1956],[-8.2366,6.6569,257.6283],[-8.2499,6.6515,268.4417],[-8.2506,6.6455,265.5863],[-8.2468,6.6435,296.6169],[-8.242,6.6325,254.3362],[-8.2451,6.6254,259.3819],[-8.2318,6.6218,257.4286],[-8.2315,6.6189,261.4902],[-8.2198,6.6165,260.3867],[-8.2581,6.3845,260.2357],[-8.2636,6.3782,246.5379],[-8.2655,6.3718,249.4345],[-8.2694,6.3695,239.9639],[-8.2681,6.363,258.639],[-8.2693,6.3601,261.0502],[-8.2738,6.3592,236.7763],[-8.2767,6.3464,235.7774],[-8.2786,6.3436,239.866],[-8.2752,6.3385,251.2576],[-8.2694,6.3387,241.5457],[-8.2669,6.3357,237.3111],[-8.2672,6.3318,240.4482],[-8.2693,6.3297,252.2545],[-8.2757,6.3275,241.5153],[-8.2796,6.3233,252.9885],[-8.2762,6.3199,245.1466],[-8.2597,6.3182,240.0008],[-8.2521,6.3202,240.364],[-8.2464,6.3179,240.5029],[-8.2411,6.3185,235.9107],[-8.2168,6.3037,232.0461],[-8.2122,6.3032,232.9361],[-8.2062,6.3089,240.3365],[-8.2019,6.3002,272.9705],[-8.1987,6.3004,263.5101],[-8.1952,6.3045,237.867],[-8.1881,6.2999,229.5516],[-8.1828,6.2925,224.4439],[-8.1746,6.286,222.5435],[-8.1717,6.2756,243.7406],[-8.1671,6.2749,245.2383],[-8.1586,6.2781,223.9634],[-8.1422,6.2782,234.2558],[-8.1335,6.2809,221.3887],[-8.1236,6.2793,219.4937],[-8.1186,6.2804,245.8409],[-8.1082,6.2891,220.6441],[-8.1004,6.2883,240.2547],[-8.0967,6.2906,238.8732],[-8.0909,6.3012,224.8246],[-8.0801,6.2967,224.9574],[-8.0734,6.2958,232.3786],[-8.0654,6.3008,212.8649],[-8.0506,6.3023,233.0911],[-8.0403,6.3089,217.3208],[-8.0053,6.3151,220.1759],[-8.0,6.3121,196.7822],[-7.9921,6.3006,210.3161],[-7.9912,6.2919,218.0929],[-7.9878,6.2895,208.0032],[-7.9836,6.2953,213.0934],[-7.9795,6.2936,199.1595],[-7.9751,6.2883,216.937],[-7.9712,6.2922,212.9591],[-7.9682,6.2929,196.1628],[-7.9653,6.2811,208.5556],[-7.9591,6.2795,204.6634],[-7.9552,6.2815,224.4778],[-7.9494,6.2902,213.0896],[-7.945,6.2925,203.7339],[-7.9406,6.2893,197.5964],[-7.9324,6.2768,219.8602],[-7.9267,6.2752,197.4194],[-7.9216,6.2885,201.0836],[-7.9175,6.2866,198.2911],[-7.9145,6.2774,211.7694],[-7.9075,6.2845,193.3497],[-7.8978,6.2872,197.0978],[-7.8914,6.2928,207.3165],[-7.8891,6.2982,201.007],[-7.8954,6.3015,199.2572],[-7.8985,6.3061,207.6497],[-7.8977,6.3232,203.5324],[-7.8945,6.3305,208.7589],[-7.8841,6.3384,210.9329],[-7.8819,6.3445,203.4874],[-7.8715,6.35,212.5106],[-7.8708,6.3601,201.4434],[-7.8639,6.3662,205.319],[-7.8631,6.371,204.7636],[-7.8589,6.3726,205.6891],[-7.8524,6.3793,203.517],[-7.8448,6.3837,214.5045],[-7.8386,6.4015,214.5959],[-7.8343,6.4074,208.2124],[-7.8297,6.4067,213.4075],[-7.8289,6.4124,209.1778],[-7.8135,6.4254,211.7808],[-7.7945,6.5659,241.9039],[-7.8064,6.789,250.5097],[-7.8411,6.8491,309.7476]]]]}}