{"type":"Feature","properties":{"GID_3":"CIV.5.2.1_1","GID_0":"CIV","country":"Côted'Ivoire","GID_1":"CIV.5_1","province":"Gôh-Djiboua","NL_NAME_1":"NA","GID_2":"CIV.5.2_1","county":"Lôh-Djiboua","NL_NAME_2":"NA","city":"Divo","VARNAME_3":"NA","NL_NAME_3":"NA","TYPE_3":"Département","ENGTYPE_3":"Department","CC_3":"NA","HASC_3":"NA","name":"Divo.city"},
"geometry":{"type": "MultiPolygon","coordinates": [[[[-5.4805,6.1657,202.7988],[-5.5218,6.1703,206.3126],[-5.5155,6.1525,177.265],[-5.5114,6.1251,199.4735],[-5.5104,6.067,194.688],[-5.4975,6.0484,268.7455],[-5.4795,6.0292,274.6032],[-5.48,5.985,399.6636],[-5.513,5.9459,400.703],[-5.5358,5.834,190.1299],[-5.5235,5.7125,215.234],[-5.3578,5.7044,123.5155],[-5.2796,5.7082,124.3226],[-5.2795,5.7147,123.5621],[-5.2721,5.7189,113.3985],[-5.2563,5.7171,106.1419],[-5.2501,5.7174,109.402],[-5.2456,5.7196,94.1862],[-5.1946,5.7192,74.3593],[-5.1589,5.7231,57.2029],[-5.0016,5.615,50.5874],[-4.9983,5.6197,44.3871],[-4.9992,5.6751,54.4203],[-4.9364,5.8117,79.3534],[-5.01,5.9099,107.3412],[-5.0083,5.9412,83.0955],[-5.0155,5.9655,80.0297],[-5.0133,5.9818,86.6882],[-5.0308,6.0374,79.4159],[-5.0063,6.0605,74.7211],[-4.9863,6.089,63.3075],[-5.002,6.128,96.2274],[-5.1947,6.1684,187.7621],[-5.2844,6.2544,179.9795],[-5.4805,6.1657,202.7988]]]]}}