{"type":"Feature","properties":{"GID_1":"CIV.2_1","GID_0":"CIV","country":"Côted'Ivoire","province":"Bas-Sassandra","VARNAME_1":"NA","NL_NAME_1":"NA","TYPE_1":"District","ENGTYPE_1":"District","CC_1":"NA","HASC_1":"CI.BA","ISO_1":"CI-BS","name":"Bas-Sassandra.province"},
"geometry":{"type": "MultiPolygon","coordinates": [[[[-7.221,4.5007,12.0022],[-7.1949,4.5104,0.0],[-7.1951,4.5143,25.9309],[-7.1868,4.5182,0.0],[-7.184,4.5215,0.7386],[-7.1615,4.5251,0.0],[-7.1599,4.5274,7.838],[-7.1546,4.5257,4.0436],[-7.1199,4.5315,2.8831],[-7.0571,4.5388,8.0673],[-7.0546,4.5393,1.9305],[-7.0557,4.5418,16.8876],[-7.0537,4.5435,4.2927],[-7.0304,4.549,3.665],[-7.0307,4.5551,6.8229],[-7.0254,4.559,0.0],[-7.024,4.5668,0.0],[-7.0204,4.5701,3.311],[-7.0146,4.5718,0.0],[-7.0132,4.5774,6.9824],[-7.0015,4.5813,3.4302],[-6.9993,4.5874,1.3009],[-6.9971,4.589,3.8799],[-6.9851,4.5924,3.7892],[-6.9812,4.5951,0.0],[-6.9826,4.5985,0.0],[-6.9818,4.6013,1.2564],[-6.9665,4.6107,7.1098],[-6.9612,4.6171,3.4183],[-6.9618,4.6185,3.4183],[-6.9571,4.6226,9.8128],[-6.9449,4.6285,0.0],[-6.9385,4.6299,0.0],[-6.9315,4.6343,4.1818],[-6.9268,4.6351,0.0],[-6.9218,4.6407,6.94],[-6.9187,4.6412,0.0],[-6.9165,4.6446,2.3152],[-6.9193,4.646,4.8086],[-6.9215,4.6537,5.4549],[-6.9185,4.6593,0.0],[-6.9135,4.664,7.7837],[-6.8971,4.6685,1.0915],[-6.8799,4.6701,0.0],[-6.8515,4.6762,7.8505],[-6.8318,4.6776,0.0],[-6.7807,4.686,3.3866],[-6.7407,4.6904,0.0],[-6.7218,4.6907,2.839],[-6.7185,4.6915,0.0],[-6.7174,4.6935,0.0],[-6.7107,4.6926,0.0],[-6.7074,4.6937,0.0],[-6.7024,4.6993,0.0],[-6.7029,4.7063,0.0],[-6.7004,4.7085,0.0],[-6.6854,4.714,4.6312],[-6.6649,4.7174,0.0],[-6.6668,4.7204,1.9064],[-6.6757,4.7237,4.6498],[-6.6824,4.7313,0.0],[-6.6893,4.7335,5.3753],[-6.6879,4.7357,0.3919],[-6.6854,4.7335,1.7693],[-6.6857,4.7365,0.488],[-6.6874,4.7379,0.5819],[-6.6896,4.7374,0.5929],[-6.6912,4.7401,0.634],[-6.6951,4.7399,10.7761],[-6.6965,4.7415,2.0316],[-6.696,4.7446,0.5126],[-6.6937,4.7404,2.7814],[-6.6901,4.7415,1.6274],[-6.6857,4.7374,1.5916],[-6.681,4.7354,0.0],[-6.6765,4.739,2.8865],[-6.6693,4.7307,1.2893],[-6.666,4.7346,1.5043],[-6.6646,4.7324,1.327],[-6.6654,4.729,2.4046],[-6.6635,4.7279,3.0038],[-6.661,4.7182,0.0],[-6.6399,4.7221,0.9861],[-6.6357,4.726,4.1511],[-6.6299,4.7254,0.0],[-6.6293,4.7287,1.3037],[-6.626,4.7299,0.0],[-6.6268,4.7313,0.7434],[-6.6243,4.7332,0.9353],[-6.6124,4.7363,0.0],[-6.6174,4.7382,1.9175],[-6.6207,4.7449,3.1264],[-6.6193,4.7512,8.1476],[-6.6174,4.7512,0.0],[-6.6193,4.749,0.0],[-6.6182,4.7446,0.7349],[-6.6087,4.7465,1.3049],[-6.6129,4.7421,2.0406],[-6.6129,4.7404,0.0],[-6.6099,4.741,0.0],[-6.6082,4.7418,0.0],[-6.6085,4.744,5.9626],[-6.6015,4.7465,0.0],[-6.6012,4.749,24.3086],[-6.599,4.7504,0.0],[-6.5993,4.7563,3.9134],[-6.5896,4.759,3.7641],[-6.5885,4.7632,9.4553],[-6.584,4.7654,0.0],[-6.5593,4.7699,0.0],[-6.5568,4.7726,0.0],[-6.501,4.7807,1.9613],[-6.4807,4.7854,0.0],[-6.474,4.7854,0.0],[-6.4724,4.7871,10.3727],[-6.4474,4.7929,0.0],[-6.4418,4.7982,12.6331],[-6.4449,4.7996,1.5571],[-6.4454,4.8029,0.0],[-6.4379,4.8107,3.0773],[-6.4096,4.8163,0.0],[-6.3971,4.8207,4.7953],[-6.3968,4.8235,17.2493],[-6.3937,4.8249,0.9096],[-6.3718,4.8268,0.0],[-6.3671,4.8296,3.2492],[-6.3629,4.829,0.0],[-6.361,4.8304,0.0],[-6.3496,4.8315,0.0],[-6.3349,4.8404,8.2152],[-6.3268,4.8415,1.4846],[-6.3249,4.8435,37.9965],[-6.3201,4.844,4.7078],[-6.3182,4.8465,0.9379],[-6.2918,4.8515,0.0],[-6.2774,4.8593,8.2854],[-6.2499,4.864,4.5574],[-6.2421,4.8682,1.5577],[-6.2371,4.8688,2.5452],[-6.2349,4.8707,2.0796],[-6.2354,4.8738,0.0],[-6.2337,4.876,2.0478],[-6.2279,4.879,30.0131],[-6.2193,4.8818,0.0],[-6.1985,4.884,0.0],[-6.1971,4.8871,18.8045],[-6.1896,4.889,3.2333],[-6.1879,4.8915,2.0057],[-6.1799,4.8957,0.0],[-6.1776,4.9015,5.5191],[-6.1679,4.9035,0.0],[-6.1535,4.9126,14.6307],[-6.1487,4.9126,0.0],[-6.1457,4.9171,29.4826],[-6.1346,4.9185,0.0],[-6.1343,4.921,19.796],[-6.1326,4.9218,0.0],[-6.1276,4.9221,6.9746],[-6.1179,4.9271,10.5329],[-6.1135,4.9274,0.0],[-6.111,4.9304,0.0],[-6.1049,4.9315,0.0],[-6.0996,4.9346,0.0],[-6.0976,4.9379,7.114],[-6.0929,4.9379,0.0],[-6.0924,4.9418,16.6178],[-6.0846,4.9432,0.0],[-6.0796,4.9476,37.7318],[-6.0821,4.954,35.8941],[-6.0765,4.9574,0.0],[-6.0765,4.9607,1.0017],[-6.0751,4.9615,1.157],[-6.0635,4.9643,2.9116],[-6.0232,4.969,7.8094],[-6.0207,4.9721,18.438],[-6.0085,4.9743,1.7291],[-6.0076,4.9768,10.2919],[-6.0046,4.9788,6.1812],[-5.9765,4.9838,0.0],[-5.9774,4.9885,18.33],[-5.974,4.9943,0.0],[-5.9635,4.9979,1.388],[-5.9546,4.999,0.0],[-5.9535,5.0007,4.9395],[-5.9321,5.0051,0.0],[-5.9279,5.0074,10.1628],[-5.9243,5.0071,0.0],[-5.9237,5.0085,0.0],[-5.9251,5.0093,4.8761],[-5.9215,5.0121,21.9743],[-5.9174,5.0121,5.6333],[-5.9163,5.014,12.8534],[-5.9124,5.0154,0.0],[-5.9032,5.0165,0.0],[-5.8974,5.0201,4.3456],[-5.8901,5.0221,3.0832],[-5.8921,5.0226,4.7316],[-5.8888,5.0279,28.7167],[-5.8876,5.0268,14.9267],[-5.889,5.0229,3.0832],[-5.8874,5.0226,5.9231],[-5.8729,5.0271,5.5408],[-5.8715,5.029,6.1634],[-5.8654,5.0313,3.1174],[-5.8613,5.0315,0.0],[-5.8613,5.0335,6.9727],[-5.8593,5.0321,7.3915],[-5.8415,5.0371,10.6258],[-5.8399,5.0379,2.4154],[-5.8396,5.0407,9.0671],[-5.8388,5.0388,6.6886],[-5.8363,5.0382,0.0],[-5.7846,5.0479,3.0659],[-5.7849,5.0524,2.5],[-5.7899,5.0568,11.2285],[-5.7901,5.0599,5.9185],[-5.7946,5.0632,10.8755],[-5.7985,5.0635,15.0978],[-5.8018,5.0596,9.8126],[-5.8068,5.0585,11.885],[-5.8021,5.0613,15.5748],[-5.8037,5.0643,22.5592],[-5.801,5.0632,2.5],[-5.799,5.0643,2.5],[-5.8018,5.0707,6.8152],[-5.7996,5.0699,45.3762],[-5.7982,5.0654,2.5],[-5.7924,5.0649,5.8562],[-5.7876,5.0582,2.5],[-5.7843,5.0565,2.5],[-5.7838,5.0615,12.6819],[-5.7879,5.0668,10.3725],[-5.7857,5.066,3.1277],[-5.7832,5.0618,2.5],[-5.7813,5.0618,2.5],[-5.7799,5.0635,2.5],[-5.7801,5.071,2.5],[-5.7776,5.0712,2.5],[-5.7779,5.0687,2.5],[-5.7757,5.0676,4.3316],[-5.7813,5.056,2.5],[-5.7796,5.049,2.9718],[-5.7618,5.0515,0.0],[-5.7612,5.0618,7.3274],[-5.7596,5.0615,8.4992],[-5.7607,5.0582,4.5],[-5.759,5.0518,0.0],[-5.7546,5.0521,27.4078],[-5.7521,5.0604,13.8468],[-5.7515,5.0596,13.8468],[-5.7521,5.0529,3.9389],[-5.751,5.0526,3.9389],[-5.7368,5.0549,0.0],[-5.7343,5.061,8.5181],[-5.7335,5.0588,19.2793],[-5.7346,5.0557,6.4984],[-5.7329,5.0551,0.0],[-5.714,5.0579,2.1775],[-5.7126,5.0621,7.6125],[-5.7121,5.0607,8.25],[-5.7126,5.0585,1.0521],[-5.7079,5.0585,0.0],[-5.6318,5.0682,0.0],[-5.6188,5.0718,0.0],[-5.6132,5.0749,0.0],[-5.5871,5.079,1.206],[-5.5846,5.0824,7.2892],[-5.5765,5.0826,3.6968],[-5.5735,5.0851,10.6392],[-5.5726,5.089,1.0],[-5.5782,5.0901,1.0],[-5.5954,5.0876,1.0],[-5.5985,5.0904,1.0],[-5.6046,5.0882,1.0],[-5.6171,5.0868,1.0],[-5.6179,5.0882,1.0],[-5.6157,5.0885,1.0],[-5.6154,5.0904,6.7394],[-5.619,5.0957,1.0],[-5.6196,5.1021,4.5875],[-5.6176,5.101,1.0],[-5.6171,5.0957,1.0],[-5.6118,5.091,1.0],[-5.5993,5.0946,4.5574],[-5.6018,5.0982,1.9632],[-5.6062,5.099,1.0],[-5.6118,5.1035,1.0],[-5.6126,5.1107,1.4645],[-5.6149,5.114,8.1602],[-5.6099,5.1149,2.7786],[-5.6093,5.1143,2.7786],[-5.6107,5.1126,1.0],[-5.6107,5.1065,1.0],[-5.6068,5.1015,1.0],[-5.604,5.1018,1.0],[-5.6032,5.1046,3.987],[-5.601,5.1057,3.6417],[-5.601,5.1115,1.0],[-5.5988,5.1115,1.0],[-5.5999,5.1101,2.3585],[-5.5971,5.1043,12.8746],[-5.5938,5.1049,1.0],[-5.5915,5.1126,9.8648],[-5.5907,5.1101,1.0],[-5.5924,5.101,1.0],[-5.5899,5.0971,1.0],[-5.5868,5.0982,7.6205],[-5.586,5.0951,1.0],[-5.5837,5.0946,1.0],[-5.576,5.096,4.941],[-5.5726,5.0982,1.0],[-5.5735,5.091,1.0],[-5.5718,5.089,1.0],[-5.569,5.0899,1.3757],[-5.5696,5.0874,1.6771],[-5.5726,5.0863,5.5809],[-5.5715,5.0829,1.1236],[-5.5707,5.0849,1.4906],[-5.5665,5.0857,1.6166],[-5.5657,5.0885,1.4983],[-5.5618,5.0854,1.0],[-5.5576,5.0863,1.0],[-5.549,5.084,1.3717],[-5.4882,5.0918,0.0],[-5.4882,5.0943,6.9627],[-5.4857,5.0954,0.7525],[-5.4871,5.0987,5.9891],[-5.4849,5.0962,2.7258],[-5.4863,5.0924,0.4875],[-5.4532,5.0962,0.5584],[-5.455,5.1719,54.8115],[-5.4715,5.4351,49.6999],[-5.516,5.4286,78.4135],[-5.6114,5.5515,161.8685],[-5.6129,5.574,165.5522],[-5.6504,5.5624,166.5738],[-5.7446,5.6268,158.1122],[-5.8295,5.5697,196.864],[-5.9745,5.5248,142.1245],[-5.9774,5.5269,141.2839],[-5.9808,5.5248,149.4303],[-5.992,5.5271,143.2596],[-5.9942,5.5346,140.7839],[-5.9996,5.543,141.3822],[-5.9988,5.5514,155.3535],[-6.0034,5.5502,143.7581],[-6.0069,5.5521,145.2562],[-6.008,5.5581,145.8636],[-6.0115,5.5625,149.7427],[-6.0145,5.5719,152.1906],[-6.0195,5.5796,144.982],[-6.0194,5.586,187.9579],[-6.0232,5.5965,147.5036],[-6.0194,5.6019,152.2421],[-6.0204,5.6052,168.1142],[-6.0282,5.6072,150.8093],[-6.0285,5.6089,158.9412],[-6.0173,5.6109,165.5656],[-6.016,5.6131,152.3966],[-6.0175,5.6171,180.2493],[-6.0159,5.6231,168.1125],[-6.0167,5.6309,157.1367],[-6.0109,5.6385,167.0957],[-6.0151,5.6455,158.1228],[-6.0218,5.6474,149.789],[-6.0259,5.656,149.847],[-6.0336,5.6576,153.7557],[-6.0352,5.6615,152.5144],[-6.0401,5.6638,156.2482],[-6.0376,5.6681,150.7593],[-6.0384,5.6738,162.6899],[-6.0461,5.6751,150.8262],[-6.0517,5.6787,150.8447],[-6.0552,5.6917,151.0007],[-6.063,5.7056,157.0655],[-6.0617,5.71,164.5025],[-6.0655,5.7122,156.7576],[-6.0692,5.7091,176.7859],[-6.074,5.7143,154.4491],[-6.0748,5.7218,152.7579],[-6.069,5.7238,156.3719],[-6.0666,5.7277,160.9308],[-6.0687,5.7318,159.0666],[-6.0676,5.7383,159.6735],[-6.0908,5.7536,157.6831],[-6.094,5.7537,155.285],[-6.0966,5.7503,162.2905],[-6.1002,5.7557,155.9808],[-6.1052,5.7578,158.3516],[-6.102,5.7636,157.4808],[-6.1021,5.7702,163.9095],[-6.1194,5.7743,165.3794],[-6.1924,5.7708,166.8587],[-6.2037,5.7658,153.0493],[-6.208,5.7656,156.9679],[-6.2116,5.7635,154.4397],[-6.2174,5.7561,158.2276],[-6.2212,5.7623,149.7074],[-6.2257,5.7711,147.5772],[-6.2249,5.7729,157.296],[-6.2263,5.7763,148.016],[-6.2245,5.7788,155.9247],[-6.2269,5.7895,175.2766],[-6.2331,5.7966,169.8152],[-6.2367,5.7976,156.3099],[-6.2434,5.8101,156.5184],[-6.2389,5.8237,155.1909],[-6.2469,5.8475,159.1095],[-6.2488,5.8492,159.9281],[-6.2515,5.8489,158.4656],[-6.2556,5.8553,160.1645],[-6.2656,5.8572,161.0307],[-6.2772,5.8636,164.5683],[-6.2818,5.8758,167.3633],[-6.2818,5.8809,166.0583],[-6.2774,5.8876,170.7034],[-6.2803,5.893,170.8186],[-6.2801,5.8967,170.5871],[-6.2849,5.9026,171.7759],[-6.286,5.9733,209.917],[-6.2999,5.9912,212.7778],[-6.3053,5.9926,206.0502],[-6.313,5.9992,214.0889],[-6.3492,6.0215,208.9829],[-6.3582,6.0286,207.1379],[-6.3663,6.0427,219.4512],[-6.3886,6.0953,199.5993],[-6.3951,6.1214,237.1366],[-6.4105,6.1587,243.9086],[-6.4222,6.1994,211.5279],[-6.4201,6.209,206.2076],[-6.4234,6.2428,200.2953],[-6.4277,6.2551,196.11],[-6.427,6.2639,196.125],[-6.4299,6.2805,192.335],[-6.4345,6.2841,192.0464],[-6.4359,6.2951,191.9222],[-6.4718,6.2793,199.7811],[-6.4808,6.272,213.5943],[-6.5082,6.2628,223.317],[-6.59,6.3209,173.6839],[-6.6806,6.2479,175.9624],[-6.8154,6.2491,219.4172],[-6.9785,6.4226,189.5],[-6.9876,6.4452,189.5],[-7.0036,6.4456,189.5],[-7.0059,6.4501,189.5],[-7.0046,6.4611,189.5],[-7.0009,6.4632,189.5],[-6.9973,6.4631,189.5],[-6.9949,6.4606,189.5],[-6.9844,6.4587,189.5],[-6.9789,6.461,189.5],[-6.9635,6.4712,189.5],[-6.9536,6.4842,189.5],[-6.9525,6.488,189.5],[-6.9611,6.5057,190.5311],[-6.9639,6.5237,197.3593],[-6.9739,6.5323,189.5],[-6.9801,6.5495,189.5],[-6.9875,6.5569,189.5],[-6.9923,6.5584,189.5],[-7.1236,6.4593,236.6225],[-7.1268,6.2697,189.5],[-7.0865,6.0586,214.5152],[-7.0834,5.9914,192.1784],[-7.0863,5.9785,194.4282],[-7.0875,5.82,229.8485],[-7.0871,5.7042,188.6772],[-7.0833,5.6985,185.9932],[-7.0843,5.6665,188.2877],[-7.3973,5.638,143.8116],[-7.3952,5.6326,117.8104],[-7.3788,5.6239,127.6463],[-7.3752,5.6144,109.4094],[-7.3785,5.6004,115.3462],[-7.3778,5.5942,113.961],[-7.3715,5.5825,115.823],[-7.374,5.5783,116.2237],[-7.3814,5.5779,108.6984],[-7.3919,5.5798,109.8609],[-7.3942,5.5773,112.675],[-7.3956,5.573,115.9222],[-7.3928,5.5543,113.9627],[-7.3967,5.5447,135.3307],[-7.392,5.5382,132.2542],[-7.3801,5.5292,104.8627],[-7.3785,5.5246,109.5463],[-7.3804,5.5204,108.9161],[-7.3836,5.5182,109.5888],[-7.3997,5.5215,107.947],[-7.4029,5.519,115.5811],[-7.4008,5.5157,121.6083],[-7.3919,5.5111,105.2477],[-7.3894,5.5067,108.1098],[-7.3915,5.5037,114.9655],[-7.3968,5.5035,107.8837],[-7.4,5.501,108.733],[-7.4026,5.4884,110.7741],[-7.4047,5.4863,124.5568],[-7.4162,5.4837,107.7662],[-7.4211,5.4786,104.1187],[-7.4232,5.4706,104.5253],[-7.4218,5.4632,102.2317],[-7.4164,5.4538,103.5406],[-7.4135,5.4398,101.903],[-7.4159,5.4294,104.2862],[-7.4187,5.4248,119.2016],[-7.4242,5.4251,107.5215],[-7.4335,5.4288,107.2325],[-7.4404,5.4376,105.9013],[-7.4438,5.4351,106.7016],[-7.4462,5.428,98.9818],[-7.4448,5.4209,104.5399],[-7.4341,5.4091,100.7598],[-7.4289,5.3998,94.6832],[-7.4247,5.3835,112.6361],[-7.4187,5.3747,113.2809],[-7.4032,5.3672,98.2343],[-7.3984,5.3592,117.06],[-7.3945,5.3582,121.281],[-7.392,5.3598,130.6613],[-7.3878,5.3681,117.2456],[-7.3864,5.3782,103.0037],[-7.3813,5.383,109.507],[-7.3767,5.3836,94.8056],[-7.3746,5.3795,93.6487],[-7.3793,5.3666,91.6041],[-7.3787,5.3588,89.83],[-7.3803,5.351,93.4197],[-7.3774,5.3381,91.1283],[-7.3729,5.3337,111.2415],[-7.3658,5.3325,92.0748],[-7.3651,5.3277,96.2851],[-7.3799,5.3069,103.5044],[-7.3827,5.306,97.5639],[-7.3861,5.3101,98.1127],[-7.39,5.3076,99.5391],[-7.3897,5.2881,102.2533],[-7.3929,5.283,93.128],[-7.4006,5.2783,102.2748],[-7.4031,5.2688,98.7669],[-7.4075,5.2617,94.0338],[-7.4154,5.2544,94.42],[-7.4214,5.2554,87.1396],[-7.4223,5.2582,84.6722],[-7.4185,5.2662,107.1477],[-7.4251,5.2779,94.8712],[-7.4226,5.2814,114.2371],[-7.418,5.2816,124.0537],[-7.4136,5.2839,117.1916],[-7.4108,5.2928,105.983],[-7.4132999999999996,5.297,100.9544],[-7.4172,5.2977,83.7367],[-7.4239,5.2954,99.6104],[-7.4352,5.2847,93.6737],[-7.4444,5.2838,87.9248],[-7.4494,5.2813,87.5357],[-7.4561,5.2713,93.4271],[-7.4673,5.2812,78.0455],[-7.4718,5.2657,83.9295],[-7.4626,5.2609,92.3116],[-7.4592,5.2533,83.2928],[-7.4598,5.2448,89.1849],[-7.464,5.2343,84.0277],[-7.4704,5.2309,78.9467],[-7.475,5.224,90.9792],[-7.4742,5.2162,82.0955],[-7.4674,5.2053,85.3213],[-7.4664,5.1965,84.4447],[-7.4721,5.1881,70.5642],[-7.4684,5.1805,75.341],[-7.4688,5.164,57.9755],[-7.4709,5.1504,56.7577],[-7.4769,5.1419,53.3275],[-7.4819,5.1247,71.6369],[-7.5004,5.0966,55.7066],[-7.5055,5.0934,60.4585],[-7.511,5.0959,56.2971],[-7.5153,5.1049,45.5653],[-7.5182,5.1063,50.5678],[-7.5261,5.1027,51.6285],[-7.5533,5.0762,41.1209],[-7.5559,5.0679,58.2452],[-7.5541,5.0631,27.0],[-7.5484,5.0585,38.5581],[-7.5484,5.0495,31.8018],[-7.5428,5.0396,29.9355],[-7.5499,5.0293,31.3155],[-7.5523,5.0205,31.0886],[-7.5514,5.0171,28.4961],[-7.5421,5.0051,23.0],[-7.54,4.9989,41.4568],[-7.5426,4.9911,42.6705],[-7.5465,4.9853,28.7574],[-7.5569,4.9753,35.9809],[-7.5551,4.9704,31.2382],[-7.5453,4.9674,26.1178],[-7.535,4.9556,29.7997],[-7.5339,4.9526,38.4988],[-7.5367,4.9457,21.0],[-7.5365,4.9416,33.3508],[-7.5329,4.9347,20.5],[-7.5265,4.9305,24.7611],[-7.5244,4.927,49.4246],[-7.5242,4.9224,30.967],[-7.5265,4.919,23.4678],[-7.5394,4.917,23.0253],[-7.5463,4.9221,27.3542],[-7.5518,4.923,25.8319],[-7.5601,4.9171,27.741],[-7.5633,4.9066,42.9674],[-7.5707,4.9066,25.6807],[-7.5778,4.911,19.908],[-7.5842,4.9101,25.4799],[-7.5918,4.9056,35.2844],[-7.5969,4.8953,22.7794],[-7.5962,4.8916,20.0534],[-7.5871,4.8828,32.8148],[-7.5888,4.8752,17.0],[-7.5872,4.8676,17.9142],[-7.5893,4.8663,13.9003],[-7.5852,4.8607,10.0],[-7.5885,4.8495,16.7559],[-7.5867,4.8419,15.9674],[-7.5796,4.8308,32.3701],[-7.5838,4.8264,21.3416],[-7.59,4.8233,9.6301],[-7.5926,4.8194,14.4067],[-7.5898,4.8171,43.1025],[-7.591,4.8053,26.7748],[-7.5819,4.7942,18.6115],[-7.5616,4.7888,29.1159],[-7.5584,4.7858,13.0943],[-7.5589,4.7794,18.6647],[-7.5628,4.769,23.8013],[-7.555,4.7357,19.4691],[-7.5581,4.7191,29.5446],[-7.5525,4.6993,20.9244],[-7.5544,4.6908,33.4218],[-7.5631,4.6904,11.7555],[-7.5654,4.6854,13.6373],[-7.5629,4.6796,17.1392],[-7.555,4.6692,11.8194],[-7.5566,4.666,20.2843],[-7.5646,4.6651,16.1391],[-7.5685,4.6619,23.4546],[-7.5711,4.6557,15.475],[-7.5691,4.652,4.5],[-7.5645,4.6492,7.3228],[-7.5572,4.6485,22.2148],[-7.5549,4.6462,27.498],[-7.552,4.6368,27.5518],[-7.5509,4.62,11.1892],[-7.5464,4.6091,10.1996],[-7.5527,4.5933,12.2],[-7.5559,4.5903,14.7654],[-7.5642,4.5897,11.5811],[-7.5667,4.5879,15.9953],[-7.5684,4.5835,26.238],[-7.5659,4.5773,6.8035],[-7.5554,4.5666,8.2796],[-7.5534,4.5602,10.0466],[-7.5566,4.5519,10.3057],[-7.5528,4.542,6.7925],[-7.559,4.537,8.336],[-7.5609,4.5324,4.8674],[-7.5586,4.5264,7.222],[-7.5547,4.5242,11.3888],[-7.55,4.5102,20.8844],[-7.5519,4.4878,11.7049],[-7.5574,4.4801,6.6463],[-7.5609,4.4667,7.8027],[-7.5601,4.4539,15.8546],[-7.5556,4.4456,1.5],[-7.5404,4.4346,1.0],[-7.5386,4.4288,13.199],[-7.54,4.4249,10.8643],[-7.5548,4.4061,21.2788],[-7.5578,4.3988,27.1182],[-7.5574,4.3935,5.2041],[-7.5531,4.3863,8.0323],[-7.5241,4.368,5.8765],[-7.5214,4.3638,3.5493],[-7.5226,4.3624,1.6105],[-7.5151,4.3618,0.0],[-7.476,4.3629,0.0],[-7.4546,4.3676,0.5738],[-7.4529,4.3715,1.2496],[-7.4046,4.3835,0.0],[-7.396,4.3888,4.6594],[-7.3963,4.3921,12.2142],[-7.394,4.394,6.0355],[-7.3751,4.4012,0.0],[-7.3699,4.4049,3.7133],[-7.3568,4.4088,0.0],[-7.3535,4.4168,8.4407],[-7.3507,4.419,3.0141],[-7.3193,4.4307,1.188],[-7.3193,4.4335,1.8874],[-7.3132,4.4374,0.0],[-7.3107,4.4457,9.8621],[-7.3007,4.4535,1.5249],[-7.2929,4.4565,3.3127],[-7.2496,4.4662,0.0],[-7.2476,4.4679,1.4537],[-7.2482,4.4735,0.0],[-7.2421,4.4788,0.0],[-7.2418,4.4801,0.0],[-7.2454,4.4801,3.2322],[-7.2424,4.4871,6.4639],[-7.2301,4.4963,10.0698],[-7.221,4.5007,12.0022]]],
[[[-6.6688,4.7288,0.0],[-6.6713,4.7293,0.7648],[-6.6707,4.7251,0.0],[-6.6693,4.7254,0.0],[-6.6688,4.7288,0.0]]],
[[[-5.5982,5.1029,2.8287],[-5.6004,5.1029,1.0],[-5.6007,5.1001,1.0],[-5.5957,5.0974,1.0],[-5.5951,5.1001,1.0],[-5.5982,5.1029,2.8287]]]]}}