{"type": "Feature","id": "3448","bbox": [-7.60602,4.34406,-5.74396,6.55787],"geometry": {"type": "Polygon","coordinates": [[[-6.82844,6.24667,199.3627],[-6.83981,6.24977,191.6683],[-6.85418,6.25954,201.1243],[-6.96983,6.39803,220.4935],[-6.99024,6.45002,189.5],[-6.99045,6.45552,189.5],[-6.98595,6.46328,189.5],[-6.9814,6.46694,189.5],[-6.97613,6.46966,189.5],[-6.97081,6.47066,189.5],[-6.96094,6.47361,189.5],[-6.95722,6.47609,190.2444],[-6.95494,6.4795,189.5],[-6.95355,6.48454,189.5],[-6.95319,6.49144,189.5],[-6.95355,6.49968,189.5],[-6.95536,6.511,189.5],[-6.96363,6.52901,202.3382],[-6.99742,6.55787,189.5],[-7.00517,6.55709,189.5],[-7.0321,6.55081,214.0926],[-7.0369,6.5488,204.1345],[-7.05272,6.53963,205.1674],[-7.05509,6.53722,200.8854],[-7.06801,6.51831,205.038],[-7.07142,6.51472,195.5534],[-7.07535,6.51177,219.922],[-7.07969,6.5096,216.3829],[-7.08414,6.50852,223.7413],[-7.09106,6.50565,224.1876],[-7.09902,6.50046,226.8917],[-7.11028,6.49097,222.0407],[-7.11545,6.45955,221.6712],[-7.1108,6.32729,189.5],[-7.09742,6.13115,226.6897],[-7.08625,6.08847,234.1961],[-7.08155,5.99925,194.2048],[-7.09406,5.69061,183.7897],[-7.39962,5.63149,142.1288],[-7.41796,5.62776,144.6121],[-7.39668,5.58509,138.4708],[-7.38412,5.56896,157.3506],[-7.4051,5.5724,133.2594],[-7.41192,5.56036,165.2457],[-7.40711,5.54139,138.6602],[-7.39363,5.52398,123.1454],[-7.41347,5.52282,129.6921],[-7.41998,5.52313,134.4625],[-7.40985,5.51342,152.2647],[-7.40815,5.51178,147.0217],[-7.41347,5.50349,120.9757],[-7.42515,5.49416,132.2202],[-7.43238,5.47956,158.541],[-7.43171,5.44192,112.5881],[-7.43621,5.43132,100.7244],[-7.45021,5.43871,114.2042],[-7.44995,5.42277,136.1238],[-7.44603,5.40492,113.3562],[-7.4391,5.38781,122.8296],[-7.4297,5.3743,120.9526],[-7.41487,5.36598,114.2183],[-7.40438,5.36799,98.2343],[-7.39693,5.36644,94.7535],[-7.39146,5.34769,123.1085],[-7.38882,5.32838,117.5695],[-7.38975,5.31714,109.702],[-7.39559,5.30678,103.6076],[-7.40768,5.28986,114.7259],[-7.41011,5.28317,111.6294],[-7.41378,5.26671,105.3638],[-7.41879,5.26046,100.044],[-7.42851,5.25614,91.2279],[-7.43083,5.25999,93.0209],[-7.43089,5.26753,92.5111],[-7.43409,5.27407,93.6958],[-7.43517,5.27929,99.1958],[-7.43011,5.28425,102.1726],[-7.42851,5.28815,100.3458],[-7.43993,5.29017,101.4824],[-7.44241,5.28738,81.6038],[-7.46825,5.27345,89.6714],[-7.47569,5.26423,76.0],[-7.47993,5.25516,124.6158],[-7.49047,5.22219,114.1194],[-7.48225,5.17506,67.7846],[-7.48303,5.15824,68.7517],[-7.48892,5.14067,75.0598],[-7.51584,5.09181,59.7776],[-7.52992,5.09739,43.5754],[-7.54685,5.0977,70.7258],[-7.56323,5.09016,65.5763],[-7.57579,5.07207,69.2853],[-7.57816,5.05473,89.4203],[-7.57036,4.99688,86.4212],[-7.57021,4.99688,86.4212],[-7.5716,4.97538,48.7729],[-7.56462,4.96158,63.4427],[-7.55532,4.94843,64.3028],[-7.54959,4.92905,60.6814],[-7.54953,4.91389,56.2841],[-7.55346,4.91425,43.7692],[-7.56178,4.92017,19.0],[-7.57496,4.92156,46.559],[-7.6055,4.89743,55.5291],[-7.60597,4.888,47.8886],[-7.59883,4.85709,35.6311],[-7.60023,4.8458,39.2579],[-7.60586,4.82513,63.7757],[-7.606,4.81736,29.8095],[-7.60602,4.81619,36.0229],[-7.601,4.80464,21.6256],[-7.59341,4.79743,24.932],[-7.58555,4.79154,15.007],[-7.57956,4.78428,42.2155],[-7.57687,4.77529,44.4265],[-7.57248,4.72336,24.2045],[-7.57687,4.50934,14.2181],[-7.57542,4.50035,32.6233],[-7.57274,4.4911199999999996,11.1853],[-7.57093,4.48071,14.8112],[-7.57284,4.45539,12.9394],[-7.56571,4.43521,15.17],[-7.56431,4.42583,19.33],[-7.56741,4.41593,12.5095],[-7.57785,4.39728,12.1359],[-7.5792,4.38715,7.5656],[-7.57377,4.37539,12.5515],[-7.54067,4.35284,0.0],[-7.54064,4.35285,0.0],[-7.52432,4.35468,0.0],[-7.48087,4.34614,0.0],[-7.45678,4.34406,0.0],[-7.43871,4.35098,0.0],[-7.35985,4.41608,30.2711],[-7.30602,4.44546,0.0],[-7.28816,4.46052,19.7733],[-7.27847,4.46377,22.7167],[-7.26602,4.46361,5.5269],[-7.25524,4.46552,20.9082],[-7.24523,4.48493,6.7962],[-7.23282,4.49331,0.0],[-7.17345,4.51878,0.0],[-7.09919,4.52652,0.0],[-7.05822,4.53901,8.0673],[-6.996,4.57648,0.0],[-6.94213,4.62157,0.0],[-6.91417,4.65571,0.0],[-6.90315,4.66201,0.0],[-6.87951,4.66791,0.0],[-6.85367,4.68061,16.687],[-6.75333,4.68732,0.0],[-6.62682,4.7246,0.0],[-6.61075,4.73477,0.0],[-6.58385,4.7604,0.0],[-6.56786,4.76557,0.0],[-6.54719,4.76801,0.0],[-6.44152,4.79393,0.0],[-6.42663,4.80199,0.0],[-6.42077,4.81712,24.9188],[-6.41222,4.82388,46.2775],[-6.13858,4.91523,0.0],[-6.05972,4.9558,0.0],[-6.00744,4.97525,0.0],[-5.99559,4.97476,0.0],[-5.98843,4.98387,69.9796],[-5.97142,4.99262,0.0],[-5.85868,5.02769,0.0],[-5.8594,5.03065,0.0],[-5.87305,5.12974,53.566],[-5.87253,5.14199,63.482],[-5.86814,5.1579,50.8788],[-5.86468,5.16573,57.6688],[-5.86116,5.17173,54.6577],[-5.85114,5.18211,66.3838],[-5.84282,5.18754,63.8641],[-5.83315,5.19172,57.3796],[-5.75274,5.21198,59.9613],[-5.74396,5.27591,82.8866],[-5.82881,5.55948,194.8654],[-5.95387,5.51698,165.025],[-5.96958,5.51481,142.7813],[-5.97216,5.51845,150.1813],[-5.97506,5.52395,143.006],[-5.9794,5.52915,140.872],[-5.98963,5.53341,139.8958],[-5.99562,5.53682,141.0349],[-5.99934,5.54002,142.3387],[-6.00353,5.54568,143.7888],[-6.00989,5.55243,150.9831],[-6.01288,5.55622,147.5368],[-6.01536,5.56057,150.374],[-6.01981,5.5809,145.6956],[-6.02167,5.5854,179.9692],[-6.02394,5.5895,150.3724],[-6.02596,5.59408,144.3084],[-6.02725,5.60527,151.1519],[-6.02735,5.61054,148.6698],[-6.02591,5.61542,157.312],[-6.02368,5.61968,147.1642],[-6.02219,5.62475,150.9404],[-6.02167,5.63482,150.9595],[-6.032,5.65144,161.2195],[-6.03578,5.6557,148.412],[-6.0397,5.66136,151.2705],[-6.04513,5.66733,150.3003],[-6.05164,5.67821,150.8447],[-6.05453,5.68937,151.1817],[-6.05712,5.69247,152.0943],[-6.06234,5.69456,158.6163],[-6.06621,5.6979,154.233],[-6.06797,5.70451,152.8],[-6.06766,5.71048,165.7457],[-6.0659,5.72149,167.2011],[-6.06678,5.72652,158.4093],[-6.0688,5.7311,159.0666],[-6.072,5.73484,168.2207],[-6.09386,5.75283,155.285],[-6.10234,5.77146,166.2878],[-6.10626,5.77704,159.2035],[-6.13003,5.79179,164.6926],[-6.13753,5.79489,170.3284],[-6.16088,5.79435,183.1985],[-6.21856,5.77812,170.2396],[-6.24863,5.84437,179.7442],[-6.25395,5.85323,162.9458],[-6.25871,5.85913,178.2326],[-6.26289,5.86192,182.6755],[-6.2707,5.86835,162.8886],[-6.27406,5.87447,182.0075],[-6.2771,5.88388,172.4904],[-6.28207,5.9399,201.7729],[-6.28387,5.94788,200.2894],[-6.28703,5.95664,192.5686],[-6.29483,5.97155,218.9263],[-6.29969,5.97914,206.6372],[-6.30759,5.98847,214.2004],[-6.32067,6.0001,210.1871],[-6.32077,6.00018,210.1871],[-6.32098,6.00033,210.1871],[-6.32325,6.00219,213.0868],[-6.32909,6.00777,223.8694],[-6.33534,6.01524,225.4215],[-6.35498,6.05007,219.326],[-6.37457,6.10337,220.2375],[-6.38733,6.15084,221.0306],[-6.39994,6.30478,230.7357],[-6.42454,6.30075,196.5862],[-6.48593,6.27584,234.7031],[-6.50303,6.27569,204.8925],[-6.52081,6.28127,213.7906],[-6.57058,6.31137,173.6765],[-6.58184,6.31564,171.192],[-6.59001,6.31098,176.442],[-6.66452,6.25559,194.453],[-6.67507,6.24962,171.1748],[-6.68478,6.24753,179.7756],[-6.82844,6.24667,199.3627]]]}
,"properties": {"ISO3166-1-Alpha-3": "CIV","country": "Ivory Coast","fill": "#F0F","name": "Bas-Sassandra","area_km2": 26294.14,"hist_schema_id": "Elevation0-9000","hist_area_km2": {"0": 734.87,"25": 2842.97,"50": 2795.81,"75": 2876.96,"100": 2755.13,"125": 2450.28,"150": 2781.67,"175": 3869.74,"200": 3420.13,"225": 1441.17,"250": 231.75,"275": 44.5,"300": 21.64,"325": 12.79,"350": 7.31,"375": 4.29,"400": 1.71,"425": 1.03,"450": 0.27}}}