{"type":"Feature","properties":{"GID_3":"CIV.5.2.3_1","GID_0":"CIV","country":"Côted'Ivoire","GID_1":"CIV.5_1","province":"Gôh-Djiboua","NL_NAME_1":"NA","GID_2":"CIV.5.2_1","county":"Lôh-Djiboua","NL_NAME_2":"NA","city":"Lakota","VARNAME_3":"NA","NL_NAME_3":"NA","TYPE_3":"Département","ENGTYPE_3":"Department","CC_3":"NA","HASC_3":"NA","name":"Lakota.city"},
"geometry":{"type": "MultiPolygon","coordinates": [[[[-5.6316,5.5682,139.9239],[-5.5918,5.5814,193.0211],[-5.5235,5.7125,215.234],[-5.5358,5.834,190.1299],[-5.513,5.9459,400.703],[-5.48,5.985,399.6636],[-5.4795,6.0292,274.6032],[-5.4975,6.0484,268.7455],[-5.5104,6.067,194.688],[-5.5114,6.1251,199.4735],[-5.5155,6.1525,177.265],[-5.5218,6.1703,206.3126],[-5.6763,6.1871,246.4898],[-5.6981,6.1869,259.077],[-5.7406,6.2015,266.1038],[-5.7948,6.0057,268.6871],[-5.7916,5.9391,264.2325],[-5.8356,5.9133,254.986],[-5.9468,5.7731,196.2817],[-5.9822,5.7806,206.6639],[-5.9968,5.7377,177.6699],[-5.9988,5.714,193.6926],[-6.0259,5.656,149.847],[-6.0218,5.6474,149.789],[-6.0151,5.6455,158.1228],[-6.0109,5.6385,167.0957],[-6.0167,5.6309,157.1367],[-6.0159,5.6231,168.1125],[-6.0175,5.6171,180.2493],[-6.016,5.6131,152.3966],[-6.0205,5.6095,176.4395],[-6.0285,5.6089,158.9412],[-6.0282,5.6072,150.8093],[-6.0204,5.6052,168.1142],[-6.0194,5.6019,152.2421],[-6.0232,5.5965,147.5036],[-6.0194,5.586,187.9579],[-6.0195,5.5796,144.982],[-6.0145,5.5719,152.1906],[-6.0115,5.5625,149.7427],[-6.008,5.5581,145.8636],[-6.0069,5.5521,145.2562],[-6.0034,5.5502,143.7581],[-5.9988,5.5514,155.3535],[-5.9996,5.543,141.3822],[-5.9942,5.5346,140.7839],[-5.992,5.5271,143.2596],[-5.9808,5.5248,149.4303],[-5.9774,5.5269,141.2839],[-5.9745,5.5248,142.1245],[-5.8295,5.5697,196.864],[-5.7446,5.6268,158.1122],[-5.6504,5.5624,166.5738],[-5.6316,5.5682,139.9239]]]]}}