{"type":"Feature","properties":{"GID_3":"CIV.10.1.1_1","GID_0":"CIV","country":"Côted'Ivoire","GID_1":"CIV.10_1","province":"Savanes","NL_NAME_1":"NA","GID_2":"CIV.10.1_1","county":"Bagoué","NL_NAME_2":"NA","city":"Boundiali","VARNAME_3":"NA","NL_NAME_3":"NA","TYPE_3":"Département","ENGTYPE_3":"Department","CC_3":"NA","HASC_3":"NA","name":"Boundiali.city"},
"geometry":{"type": "MultiPolygon","coordinates": [[[[-6.8086,9.3567,483.7057],[-6.8176,9.3514,480.7194],[-6.8177,9.3495,520.9431],[-6.7884,9.3252,446.5115],[-6.7924,9.3194,454.9642],[-6.7937,9.3011,431.3394],[-6.7977,9.292,431.0015],[-6.7952,9.2873,423.9163],[-6.7854,9.2822,431.9407],[-6.7658,9.2849,428.2289],[-6.7629,9.2816,442.1772],[-6.7542,9.2766,408.1909],[-6.7681,9.1292,463.1479],[-6.7767,9.1008,457.8429],[-6.7816,9.0965,423.1714],[-6.7678,9.1013,402.1954],[-6.724,9.1096,366.097],[-6.697,9.085,349.4908],[-6.6932,9.0869,347.4252],[-6.6786,9.0886,355.6261],[-6.6679,9.0881,352.5541],[-6.6614,9.0987,356.439],[-6.6522,9.1053,362.8212],[-6.6416,9.0968,368.8165],[-6.6304,9.0915,369.3932],[-6.617,9.0964,378.7307],[-6.6127,9.0962,376.0872],[-6.6073,9.0952,383.1974],[-6.6024,9.0915,381.1604],[-6.6007,9.0879,383.1912],[-6.5469,9.0836,396.9373],[-6.5799,9.1499,397.7502],[-6.5268,9.1534,388.3151],[-6.5236,9.1475,394.2637],[-6.5236,9.1348,390.0475],[-6.5217,9.129,377.1384],[-6.5161,9.1237,374.8984],[-6.503,9.1006,372.7842],[-6.4912,9.0932,370.2586],[-6.4889,9.0861,384.5452],[-6.4862,9.0647,358.1662],[-6.4828,9.0595,363.2655],[-6.473,9.0543,348.6399],[-6.4693,9.0493,348.6596],[-6.4648,9.0502,340.0393],[-6.4649,9.0523,340.2604],[-6.4716,9.0608,346.0619],[-6.469,9.0715,359.4537],[-6.4505,9.0875,359.2199],[-6.4415,9.1013,369.6913],[-6.4352,9.1052,381.2526],[-6.3791,9.1269,378.7106],[-6.345,9.1747,398.8203],[-6.3495,9.184,389.5377],[-6.3501,9.1899,382.1639],[-6.3479,9.195,382.1758],[-6.3494,9.205,371.5144],[-6.3478,9.2105,372.217],[-6.344,9.2138,370.9254],[-6.3386,9.2137,373.6981],[-6.334,9.2157,373.2971],[-6.3193,9.2143,369.4159],[-6.3155,9.2174,376.5132],[-6.3095,9.2271,381.3351],[-6.3071,9.2333,381.0291],[-6.3072,9.2385,385.638],[-6.2943,9.268,384.9626],[-6.2895,9.2726,379.1033],[-6.2844,9.2848,377.0789],[-6.2867,9.3213,378.3292],[-6.2842,9.3265,366.3453],[-6.2741,9.3325,366.4468],[-6.2714,9.3367,365.5],[-6.2814,9.3487,365.5],[-6.2862,9.3647,380.7488],[-6.2844,9.3747,387.1823],[-6.2814,9.3799,386.9657],[-6.2734,9.4097,395.7719],[-6.1575,9.4596,368.9818],[-6.1433,9.5013,375.8928],[-6.1467,9.6158,351.1801],[-6.1205,9.6357,344.3605],[-6.1273,9.7264,348.6943],[-6.1177,9.7376,349.9422],[-6.1173,9.7466,344.0259],[-6.1105,9.7581,343.4822],[-6.1137,9.7726,343.1612],[-6.1112,9.779,339.5227],[-6.1036,9.7869,353.7251],[-6.0899,9.7928,346.6464],[-6.0721,9.7942,345.5135],[-6.0686,9.7901,355.8455],[-6.0448,9.7836,348.432],[-6.0356,9.7923,344.7419],[-6.0298,9.7944,343.7617],[-6.0202,9.7942,333.2948],[-6.0234,9.8268,335.2359],[-6.0427,9.8388,343.091],[-6.0557,9.8561,331.5417],[-6.1456,9.9062,341.0583],[-6.1515,9.9145,342.3898],[-6.1606,9.9175,340.8749],[-6.1767,9.9333,345.6601],[-6.1772,9.9452,351.3535],[-6.1581,9.9892,353.9865],[-6.1037,9.9912,343.9456],[-6.105,10.0,348.1825],[-6.1698,10.0389,385.8538],[-6.2323,10.0432,359.9835],[-6.2718,10.0583,338.4995],[-6.2755,10.0629,339.36],[-6.2846,10.0532,331.1443],[-6.2878,10.0459,330.8278],[-6.2979,10.0528,331.5576],[-6.3113,10.0421,329.8958],[-6.318,10.0457,331.5854],[-6.3235,10.0428,332.2805],[-6.3239,10.0389,334.7175],[-6.3155,10.0324,337.1129],[-6.3029,10.0266,333.6519],[-6.3016,10.0213,333.2878],[-6.3108,10.0029,332.2717],[-6.3168,9.9991,333.2809],[-6.319,9.9873,333.039],[-6.3165,9.983,334.1392],[-6.3177,9.9755,335.7068],[-6.3035,9.9764,335.4561],[-6.3007,9.9732,335.3885],[-6.3121,9.9639,340.1273],[-6.3127,9.9588,335.7283],[-6.3069,9.9477,335.5483],[-6.3062,9.9397,334.4059],[-6.3118,9.9415,337.8122],[-6.3222,9.9395,340.1244],[-6.3334,9.9264,337.0297],[-6.3294,9.9246,336.2034],[-6.3206,9.9251,336.7306],[-6.3236,9.9191,337.1179],[-6.3191,9.913,337.342],[-6.3184,9.9072,337.3333],[-6.3322,9.9027,336.1506],[-6.3319,9.9092,336.3934],[-6.3379,9.9126,338.524],[-6.3429,9.9103,338.4287],[-6.3408,9.9026,339.5641],[-6.3664,9.8856,339.6499],[-6.3671,9.8813,339.489],[-6.3738,9.8786,346.2819],[-6.3727,9.8747,348.3276],[-6.361,9.8746,339.9927],[-6.3563,9.8673,338.9577],[-6.3575,9.8605,339.056],[-6.3625,9.854,343.356],[-6.3529,9.8458,340.9703],[-6.3506,9.8405,341.2009],[-6.3533,9.8329,339.6035],[-6.3519,9.8281,341.4187],[-6.3545,9.8243,341.3908],[-6.3712,9.8185,342.4255],[-6.3759,9.8118,341.6816],[-6.3738,9.8079,340.8964],[-6.3684,9.8046,342.9361],[-6.3673,9.8008,340.523],[-6.3747,9.7922,350.1524],[-6.3727,9.7872,342.295],[-6.3613,9.7849,340.1111],[-6.3549,9.7809,343.6312],[-6.3548,9.7738,341.2952],[-6.3616,9.7702,340.9321],[-6.3675,9.7634,341.2502],[-6.371,9.7545,342.8939],[-6.3708,9.7457,342.9476],[-6.3672,9.74,350.081],[-6.3816,9.7273,353.7683],[-6.3791,9.7238,341.9682],[-6.366,9.7239,343.3836],[-6.3609,9.7202,343.3088],[-6.3629,9.7168,343.4175],[-6.3632,9.7072,343.7115],[-6.3672,9.7084,342.5976],[-6.3718,9.707,345.3874],[-6.374,9.7031,346.0749],[-6.3702,9.6978,342.3787],[-6.3597,9.6949,343.5303],[-6.3594,9.6908,345.5688],[-6.36,9.6845,345.7776],[-6.3641,9.6829,345.1418],[-6.372,9.6839,344.5698],[-6.3817,9.6801,347.3126],[-6.3768,9.663,343.8667],[-6.373,9.6627,344.8508],[-6.3752,9.654,347.5363],[-6.3727,9.6476,347.9457],[-6.3689,9.6422,345.7998],[-6.3649,9.6396,348.5419],[-6.381,9.6237,359.1344],[-6.3691,9.6166,346.3594],[-6.3725,9.6073,347.2802],[-6.3767,9.6081,348.3466],[-6.3872,9.6017,347.9744],[-6.3931,9.5957,350.3267],[-6.396,9.5862,349.5746],[-6.4036,9.5861,347.5655],[-6.4112,9.5955,354.4161],[-6.4154,9.5914,350.1921],[-6.4179,9.5765,351.89],[-6.4246,9.5771,351.5788],[-6.4268,9.5739,351.1099],[-6.4366,9.5798,356.1995],[-6.4425,9.5788,349.9937],[-6.448,9.5819,349.575],[-6.4512,9.5861,350.0126],[-6.4519,9.5953,359.9191],[-6.4553,9.5976,365.9486],[-6.4608,9.5979,350.2581],[-6.4664,9.6057,353.5753],[-6.4665,9.6096,357.6561],[-6.4754,9.6168,352.63],[-6.4826,9.6177,351.0174],[-6.4857,9.6158,358.7617],[-6.4813,9.6052,354.1974],[-6.4921,9.6066,353.817],[-6.4963,9.603,352.5272],[-6.499,9.5981,353.6532],[-6.5094,9.5912,352.0097],[-6.5083,9.58,358.4153],[-6.5107,9.5765,351.9091],[-6.516,9.5739,352.6142],[-6.521,9.574,355.0847],[-6.5238,9.5771,354.3666],[-6.5241,9.5812,353.9026],[-6.5224,9.5851,353.5623],[-6.5234,9.59,354.9801],[-6.5267,9.5924,354.2216],[-6.5302,9.5909,353.7572],[-6.5328,9.5871,355.6025],[-6.5345,9.5768,367.7169],[-6.5443,9.5776,354.5044],[-6.5483,9.5806,355.5761],[-6.5482,9.5845,357.3338],[-6.5521,9.5865,360.4865],[-6.555,9.5946,357.1627],[-6.5626,9.6005,358.3265],[-6.5627,9.6084,359.7523],[-6.5654,9.6146,365.5293],[-6.5763,9.6203,364.9121],[-6.5907,9.6188,364.0825],[-6.5947,9.6236,366.7576],[-6.5996,9.6263,368.8606],[-6.6065,9.6267,368.1722],[-6.6111,9.6229,389.0659],[-6.6265,9.6182,378.2664],[-6.6513,9.6185,384.3882],[-6.6782,9.6164,392.4863],[-6.6902,9.6182,398.9036],[-6.7216,9.6178,423.4662],[-6.7757,9.6374,409.2301],[-6.7773,9.6208,417.7587],[-6.781,9.6138,423.4002],[-6.7779,9.5996,431.313],[-6.7746,9.5968,439.2794],[-6.79,9.585,423.507],[-6.79,9.5791,418.317],[-6.7919,9.5749,420.8337],[-6.7958,9.5721,420.3369],[-6.7984,9.5655,407.1424],[-6.7926,9.5615,409.6536],[-6.7898,9.5555,408.1994],[-6.781,9.5544,409.8465],[-6.7773,9.5565,405.4103],[-6.7759,9.554,400.0539],[-6.777,9.5472,398.3062],[-6.7753,9.5435,411.1984],[-6.752,9.5253,398.7479],[-6.7913,9.4955,426.8014],[-6.789,9.4429,560.2645],[-6.7999,9.3692,566.5518],[-6.8086,9.3567,483.7057]]]]}}