{"type":"Feature","properties":{"GID_3":"CIV.3.1.3_1","GID_0":"CIV","country":"Côted'Ivoire","GID_1":"CIV.3_1","province":"Comoé","NL_NAME_1":"NA","GID_2":"CIV.3.1_1","county":"Indénié-Djuablin","NL_NAME_2":"NA","city":"Bettié","VARNAME_3":"NA","NL_NAME_3":"NA","TYPE_3":"Département","ENGTYPE_3":"Department","CC_3":"NA","HASC_3":"NA","name":"Bettié.city"},
"geometry":{"type": "MultiPolygon","coordinates": [[[[-3.4442,6.2431,110.4506],[-3.4423,6.2394,118.0092],[-3.4426,6.2352,105.1684],[-3.445,6.2312,107.7664],[-3.4489,6.2292,118.159],[-3.4723,6.2386,98.2814],[-3.4754,6.2376,102.2801],[-3.4821,6.2283,104.7977],[-3.4817,6.2171,102.498],[-3.4797,6.2128,95.9712],[-3.4627,6.2047,103.9586],[-3.4569,6.194,134.1998],[-3.4576,6.1749,102.0811],[-3.4436,6.1738,95.1618],[-3.454,6.1834,104.5863],[-3.455,6.1896,131.6072],[-3.4526,6.195,119.9035],[-3.4265,6.1967,97.7871],[-3.4234,6.1944,98.3252],[-3.4176,6.1836,93.1227],[-3.4112,6.1629,96.5903],[-3.3954,6.1453,102.8199],[-3.3959,6.1292,107.8187],[-3.3989,6.1275,103.7528],[-3.4073,6.1301,110.803],[-3.4103,6.1283,114.526],[-3.4114,6.1242,105.9966],[-3.4076,6.1121,98.3514],[-3.3937,6.1007,99.5159],[-3.3952,6.0887,119.9087],[-3.398,6.0863,120.4764],[-3.4088,6.0869,106.0331],[-3.4193,6.0835,105.7031],[-3.4227,6.0773,108.3676],[-3.4242,6.0693,100.7153],[-3.4228,6.0667,91.7159],[-3.4176,6.0695,103.0691],[-3.4109,6.0695,97.962],[-3.4043,6.0654,107.1549],[-3.4048,6.0591,95.1984],[-3.4121,6.0493,98.5898],[-3.4038,6.0444,97.6222],[-3.4008,6.0373,95.8909],[-3.3983,6.0351,96.1295],[-3.3958,6.0253,94.5727],[-3.3888,6.0176,95.7831],[-3.3907,6.0089,114.1924],[-3.4006,6.0048,92.8699],[-3.3987,5.9958,93.786],[-3.4022,5.9795,101.8326],[-3.4093,5.9718,98.4563],[-3.4298,5.9714,98.4479],[-3.4363,5.9638,94.951],[-3.4298,5.9524,93.0154],[-3.4293,5.9479,90.7518],[-3.4315,5.938,90.6678],[-3.4405,5.9299,88.8672],[-3.4447,5.9165,125.1222],[-3.4541,5.9003,100.8594],[-3.4571,5.8846,94.8277],[-3.459,5.8827,101.875],[-3.4519,5.8642,73.3377],[-3.4494,5.8633,73.4105],[-3.4413,5.8537,70.6034],[-3.4403,5.8441,109.1454],[-3.4495,5.8495,114.4334],[-3.4469,5.842,50.9559],[-3.451,5.8391,61.5709],[-3.4488,5.8298,83.2316],[-3.4596,5.7946,74.7466],[-3.4554,5.7867,87.7124],[-3.4544,5.781,44.3367],[-3.4434,5.7794,44.3879],[-3.4371,5.7803,58.196],[-3.4332,5.7786,36.7525],[-3.4278,5.7681,77.6255],[-3.425,5.772,77.9882],[-3.4192,5.7745,84.2921],[-3.4165,5.7821,92.9983],[-3.4168,5.7874,117.5709],[-3.4241,5.7981,114.6453],[-3.4228,5.7994,116.9866],[-3.4156,5.7966,111.3537],[-3.4072,5.7967,110.0716],[-3.3944,5.7845,126.0307],[-3.3867,5.7868,107.1569],[-3.3726,5.8096,118.4236],[-3.3722,5.8189,123.6155],[-3.3659,5.8287,124.0058],[-3.3542,5.8431,146.23],[-3.3331,5.8756,154.9137],[-3.3174,5.8939,143.0471],[-3.3135,5.8939,141.8377],[-3.3095,5.9216,146.7919],[-3.304,5.9123,134.9526],[-3.2804,5.9621,123.6043],[-3.2738,5.9716,126.4843],[-3.2643,5.9807,101.3631],[-3.2552,5.9821,112.9747],[-3.2465,5.9871,105.3073],[-3.2436,5.9928,114.5336],[-3.2412,6.0042,105.6259],[-3.2354,6.0065,110.4667],[-3.2303,6.0158,105.9499],[-3.2287,6.0198,109.083],[-3.2324,6.0346,117.8648],[-3.222,6.0557,114.9523],[-3.2234,6.0922,115.7644],[-3.2124,6.1086,111.3151],[-3.2094,6.121,115.4269],[-3.2038,6.1336,128.2565],[-3.204,6.1376,118.1817],[-3.1965,6.1468,123.6307],[-3.1953,6.1535,117.6996],[-3.1971,6.1634,118.1262],[-3.203,6.1773,125.4908],[-3.2031,6.1821,126.0009],[-3.1966,6.202,127.2649],[-3.1825,6.2132,130.1315],[-3.1809,6.217,126.2988],[-3.1823,6.2312,126.5022],[-3.1798,6.242,130.6684],[-3.1773,6.2435,132.842],[-3.1832,6.2522,151.7532],[-3.2262,6.2548,154.1491],[-3.2424,6.2574,159.7998],[-3.3016,6.2571,175.0633],[-3.3396,6.253,172.0849],[-3.357,6.2541,155.3334],[-3.367,6.2511,217.4114],[-3.3759,6.2519,156.4135],[-3.3902,6.2484,142.3036],[-3.4073,6.2463,127.734],[-3.4205,6.2472,117.5422],[-3.443,6.2443,109.3542],[-3.4442,6.2431,110.4506]]]]}}