{"type":"Feature","properties":{"GID_3":"CIV.12.1.3_1","GID_0":"CIV","country":"Côted'Ivoire","GID_1":"CIV.12_1","province":"Woroba","NL_NAME_1":"NA","GID_2":"CIV.12.1_1","county":"Bafing","NL_NAME_2":"NA","city":"Touba","VARNAME_3":"NA","NL_NAME_3":"NA","TYPE_3":"Département","ENGTYPE_3":"Department","CC_3":"NA","HASC_3":"NA","name":"Touba.city"},
"geometry":{"type": "MultiPolygon","coordinates": [[[[-7.3976,8.1241,410.4998],[-7.3855,8.1138,398.7009],[-7.3536,8.0961,382.3684],[-7.3423,8.0871,367.4606],[-7.3393,8.086,368.4581],[-7.333,8.0868,364.7483],[-7.3245,8.08,360.4661],[-7.3189,8.0729,358.2014],[-7.3156,8.0716,357.4117],[-7.3117,8.0724,359.3318],[-7.3092,8.0688,353.3508],[-7.3053,8.0675,351.416],[-7.2931,8.0658,346.6384],[-7.2922,8.0622,349.0569],[-7.2877,8.0572,344.3325],[-7.2845,8.0483,337.5683],[-7.2726,8.0401,329.264],[-7.2695,8.0364,333.2846],[-7.2657,8.0262,326.7035],[-7.2578,8.018,324.4607],[-7.2552,8.0105,321.9279],[-7.2527,7.9908,312.7225],[-7.249,7.9914,311.6331],[-7.2458,7.9805,309.9671],[-7.243,7.9784,307.0692],[-7.2386,7.9789,306.4335],[-7.2349,7.9774,301.9232],[-7.2283,7.9717,297.3488],[-7.2262,7.9728,299.4001],[-7.2238,7.9681,299.6248],[-7.2181,7.963,294.4089],[-7.2148,7.9544,292.3702],[-7.2148,7.9443,284.819],[-7.2111,7.9329,286.7331],[-7.2125,7.9225,285.1088],[-7.21,7.915,279.899],[-7.2077,7.9145,280.1878],[-7.2075,7.911,280.5937],[-7.2017,7.9102,282.5517],[-7.2004,7.9064,276.7046],[-7.2031,7.8878,270.1151],[-7.206,7.8834,268.3656],[-7.202,7.8767,270.8222],[-7.1985,7.8765,269.9636],[-7.188,7.8689,263.8382],[-7.1807,7.8608,265.1161],[-7.1731,7.8634,263.6],[-7.1623,7.8645,275.4377],[-7.1588,7.8676,260.937],[-7.1501,7.87,268.369],[-7.1471,7.873,256.5267],[-7.139,7.875,254.135],[-7.1299,7.8732,260.0819],[-7.126,7.8657,258.4398],[-7.1202,7.8644,260.1797],[-7.1135,7.8585,249.7007],[-7.1108,7.8596,258.2261],[-7.1091,7.8624,254.7948],[-7.1123,7.8715,249.9491],[-7.1097,7.8789,261.6649],[-7.1075,7.8816,256.4622],[-7.0967,7.8842,255.2751],[-7.0929,7.8867,252.6879],[-7.0922,7.9013,253.8522],[-7.0892,7.9112,252.2899],[-7.0868,7.9134,254.6801],[-7.0812,7.9143,253.7063],[-7.0784,7.919,256.3274],[-7.0683,7.9241,252.9553],[-7.0638,7.9318,251.645],[-7.0601,7.9506,269.8515],[-7.0667,7.969,253.5152],[-7.0605,7.9845,286.4349],[-7.0585,7.9947,263.7831],[-7.0612,8.0,257.9727],[-7.0701,8.0066,266.3783],[-7.0793,8.0111,268.0047],[-7.0898,8.021,260.3286],[-7.0903,8.0256,261.111],[-7.0852,8.0348,275.8339],[-7.0877,8.0452,266.8136],[-7.0992,8.053,270.4016],[-7.1018,8.0731,275.3429],[-7.1058,8.0785,259.3275],[-7.1077,8.0866,265.4016],[-7.0882,8.0983,263.2778],[-7.0838,8.108,262.6331],[-7.0897,8.1233,271.0327],[-7.1069,8.144,265.0984],[-7.1093,8.1504,264.5621],[-7.1068,8.164,270.3745],[-7.1035,8.1674,264.6746],[-7.0921,8.1714,270.6067],[-7.0911,8.176,280.7815],[-7.0924,8.1808,265.8434],[-7.0984,8.1843,280.6174],[-7.1015,8.1882,283.6946],[-7.1019,8.1941,285.2855],[-7.1039,8.1983,299.7708],[-7.1208,8.2197,272.3564],[-7.136,8.2326,274.097],[-7.1355,8.2367,275.5501],[-7.1339,8.2383,277.4799],[-7.1172,8.2442,278.697],[-7.1115,8.2504,284.9535],[-7.112,8.2555,292.57],[-7.118,8.2679,283.195],[-7.1209,8.286,294.594],[-7.1378,8.2988,276.156],[-7.1385,8.3019,276.8878],[-7.1342,8.3045,279.1053],[-7.1213,8.305,287.3224],[-7.1045,8.3097,279.4343],[-7.1034,8.3212,284.4016],[-7.1197,8.3376,275.4266],[-7.126,8.3395,275.7023],[-7.134,8.345,277.5316],[-7.145,8.3464,287.5237],[-7.1464,8.3491,287.6801],[-7.1462,8.3592,285.5081],[-7.1342,8.3649,293.1068],[-7.1344,8.3711,295.6653],[-7.1482,8.3779,279.7624],[-7.1534,8.3841,282.3536],[-7.1548,8.3916,280.6143],[-7.1491,8.4029,295.6621],[-7.158,8.4269,280.5872],[-7.1645,8.4282,278.1524],[-7.1682,8.4269,285.4731],[-7.1756,8.4276,286.0902],[-7.1753,8.4313,285.282],[-7.1787,8.4321,286.4054],[-7.1851,8.4407,293.4767],[-7.1866,8.4483,286.9113],[-7.1968,8.4477,288.61],[-7.2067,8.4412,292.7598],[-7.2135,8.4417,298.4135],[-7.2205,8.4472,292.519],[-7.2225,8.4507,294.6018],[-7.2411,8.4357,306.8393],[-7.2512,8.4348,310.8318],[-7.2568,8.4431,305.9017],[-7.259,8.4503,310.0358],[-7.2586,8.4558,306.9397],[-7.2664,8.4633,312.3911],[-7.2683,8.4684,307.1951],[-7.2752,8.4723,316.716],[-7.2738,8.4779,307.0582],[-7.2801,8.4789,313.3676],[-7.2928,8.4782,315.641],[-7.3103,8.4714,336.6315],[-7.3137,8.4638,331.8264],[-7.3108,8.4476,336.3062],[-7.3131,8.4445,334.5258],[-7.3176,8.4449,345.9038],[-7.319,8.4351,351.7346],[-7.3257,8.4258,360.3782],[-7.332,8.4238,356.1567],[-7.3364,8.4241,353.025],[-7.342,8.4289,354.287],[-7.3469,8.4299,359.7248],[-7.3529,8.4361,366.9005],[-7.3581,8.4378,368.1965],[-7.3723,8.4341,373.666],[-7.3636,8.4265,373.8428],[-7.3649,8.4156,367.8536],[-7.3746,8.4135,377.721],[-7.3718,8.4079,379.1809],[-7.3842,8.394,379.5482],[-7.3874,8.3934,383.3874],[-7.3909,8.3967,377.168],[-7.3921,8.4029,373.4229],[-7.3938,8.4037,375.7888],[-7.3965,8.3948,378.4864],[-7.3947,8.3904,384.149],[-7.3956,8.3883,382.3167],[-7.3988,8.3873,372.6196],[-7.4066,8.3978,372.7272],[-7.4132999999999996,8.3997,374.3649],[-7.4157,8.4026,376.0757],[-7.4304,8.4057,374.4187],[-7.434,8.412,374.1962],[-7.438,8.4115,380.9947],[-7.4416,8.4077,395.2728],[-7.4459,8.4091,398.0989],[-7.4495,8.4195,375.5434],[-7.4575,8.4164,394.9182],[-7.4766,8.4353,376.1801],[-7.4811,8.4339,377.4814],[-7.4791,8.4275,378.425],[-7.4732,8.4202,399.1048],[-7.4764,8.4166,408.4695],[-7.4859,8.4192,378.5403],[-7.4882,8.4168,379.2835],[-7.4894,8.409,394.8798],[-7.4921,8.4068,394.6374],[-7.5011,8.4049,381.9256],[-7.5059,8.399,381.3676],[-7.5087,8.3979,383.7327],[-7.5212,8.3965,389.7307],[-7.5204,8.3943,382.0092],[-7.5151,8.391,388.2468],[-7.5157,8.3809,398.2184],[-7.5184,8.3797,396.4177],[-7.5354,8.3837,393.0659],[-7.5397,8.3821,389.7651],[-7.5379,8.3801,383.8038],[-7.5265,8.3778,383.1291],[-7.525,8.3725,399.568],[-7.5276,8.3662,380.4075],[-7.5285,8.3558,388.845],[-7.5295,8.3547,392.8051],[-7.536,8.3553,381.3258],[-7.5422,8.3486,398.1689],[-7.5459,8.348,406.7202],[-7.5544,8.3539,384.1457],[-7.5648,8.3498,409.2573],[-7.568,8.35,397.6422],[-7.5735,8.3577,384.3217],[-7.5761,8.3587,398.6414],[-7.5775,8.3662,385.3693],[-7.5859,8.3654,407.1096],[-7.598,8.373,401.6567],[-7.6328,8.4027,412.8852],[-7.6643,8.4077,426.3693],[-7.6546,8.4006,426.0707],[-7.6514,8.3964,421.5902],[-7.6497,8.3879,421.9169],[-7.6411,8.3774,414.5769],[-7.6517,8.3745,418.7429],[-7.6628,8.3754,422.9305],[-7.6769,8.3742,431.0919],[-7.6834,8.372,438.2172],[-7.6896,8.373,438.1734],[-7.6954,8.371,453.6668],[-7.717,8.3748,458.5256],[-7.7499,8.3735,447.8405],[-7.7525,8.3723,448.1194],[-7.7608,8.3567,472.7585],[-7.7732,8.2608,538.2313],[-7.7453,8.2121,546.8909],[-7.7137,8.175,534.5431],[-7.7073,8.1709,513.2111],[-7.7072,8.1669,503.6591],[-7.711,8.1607,504.8292],[-7.7125,8.1527,501.533],[-7.716,8.1476,497.4886],[-7.7154,8.1437,538.5774],[-7.7095,8.1379,494.689],[-7.7113,8.1309,487.8224],[-7.7394,8.1066,489.5717],[-7.7508,8.092,485.9165],[-7.7577,8.0787,488.5069],[-7.7585,8.0701,472.4052],[-7.7606,8.0671,473.212],[-7.769,8.0607,464.9883],[-7.7978,8.0486,453.9577],[-7.8119,8.0223,446.9727],[-7.8151,8.0123,450.6355],[-7.8199,8.008,447.3556],[-7.8279,7.9878,445.3026],[-7.8383,7.9878,451.9193],[-7.8432,7.9863,435.7719],[-7.8458,7.9835,432.978],[-7.844,7.9799,434.5636],[-7.8484,7.9725,441.3754],[-7.8451,7.956,431.3809],[-7.8466,7.9548,441.545],[-7.8431,7.9555,431.3809],[-7.839,7.9591,436.4199],[-7.8328,7.9552,439.8347],[-7.8281,7.954,434.7698],[-7.8243,7.9552,440.5304],[-7.8216,7.9538,434.3664],[-7.8177,7.9435,445.3377],[-7.815,7.941,437.1055],[-7.8007,7.9392,436.6703],[-7.7992,7.9367,437.012],[-7.8012,7.9337,439.9783],[-7.8025,7.9245,434.0906],[-7.8034,7.9166,434.4406],[-7.8021,7.9141,442.1978],[-7.7954,7.9168,429.8711],[-7.7878,7.9134,437.9119],[-7.7851,7.9088,430.9258],[-7.7852,7.9044,432.3416],[-7.773,7.8905,429.7467],[-7.7644,7.8873,435.0657],[-7.7615,7.8885,439.6459],[-7.7587,7.8956,436.6042],[-7.7544,7.8953,434.7329],[-7.7322,7.8829,437.2689],[-7.7227,7.8874,435.9821],[-7.7207,7.8865,432.4197],[-7.7176,7.882,432.6274],[-7.7202,7.8788,433.2776],[-7.7198,7.8751,434.9165],[-7.714,7.8647,436.2901],[-7.7116,7.8633,439.7159],[-7.7039,7.8641,439.0411],[-7.7016,7.8541,423.9529],[-7.6924,7.8467,415.9632],[-7.6804,7.8542,406.0399],[-7.67,7.8442,404.5312],[-7.6619,7.8415,416.114],[-7.6474,7.8414,418.5167],[-7.6419,7.8486,405.3353],[-7.6305,7.8499,412.8765],[-7.6285,7.8525,428.3073],[-7.6292,7.859,411.1149],[-7.626,7.8706,414.3093],[-7.6094,7.8703,404.0642],[-7.6058,7.8649,387.5535],[-7.5966,7.8595,393.3552],[-7.5874,7.8595,386.7126],[-7.5808,7.8669,386.2458],[-7.5734,7.8672,391.5925],[-7.5728,7.8701,384.0768],[-7.568,7.8609,381.1116],[-7.5644,7.8617,395.0276],[-7.5599,7.8671,381.4413],[-7.5545,7.8656,388.9003],[-7.55,7.8707,389.4286],[-7.5493,7.8743,385.8392],[-7.5452,7.8779,388.9004],[-7.5432,7.8837,379.6811],[-7.5337,7.8806,377.3784],[-7.53,7.8829,377.7793],[-7.5211,7.8809,383.6713],[-7.5186,7.8835,377.7116],[-7.5206,7.8951,378.6862],[-7.5186,7.8964,380.9507],[-7.5146,7.8961,381.5072],[-7.5129,7.8983,389.4288],[-7.5109,7.9081,372.8798],[-7.5209,7.9172,369.3049],[-7.5113,7.9233,362.9686],[-7.5067,7.922,374.9805],[-7.5045,7.9229,366.9197],[-7.5012,7.9267,364.8961],[-7.5024,7.9322,393.6604],[-7.5091,7.9377,382.7163],[-7.5134,7.9381,383.0642],[-7.5184,7.9421,394.4088],[-7.5132,7.9582,408.4265],[-7.5106,7.9769,405.1399],[-7.5135,7.982,425.3742],[-7.5135,7.9896,427.8935],[-7.5083,8.0013,455.3964],[-7.506,8.0149,436.1974],[-7.5088,8.0198,437.3997],[-7.5083,8.0228,430.7099],[-7.5049,8.0258,461.3611],[-7.5029,8.044,448.0822],[-7.5077,8.0472,440.0856],[-7.509,8.0519,450.8355],[-7.516,8.0579,446.585],[-7.4846,8.1289,408.8256],[-7.4798,8.1315,410.8965],[-7.4691,8.1465,414.4183],[-7.463,8.1491,405.7066],[-7.4541,8.1559,399.5836],[-7.4482,8.157,392.8212],[-7.4328,8.1558,384.2545],[-7.4284,8.1382,403.8521],[-7.4226,8.1295,428.3867],[-7.4097,8.1298,435.159],[-7.3976,8.1241,410.4998]]]]}}