{"type":"Feature","properties":{"GID_3":"CIV.14.2.1_1","GID_0":"CIV","country":"Côted'Ivoire","GID_1":"CIV.14_1","province":"Zanzan","NL_NAME_1":"NA","GID_2":"CIV.14.2_1","county":"Gontougo","NL_NAME_2":"NA","city":"Bondoukou","VARNAME_3":"NA","NL_NAME_3":"NA","TYPE_3":"Département","ENGTYPE_3":"Department","CC_3":"NA","HASC_3":"NA","name":"Bondoukou.city"},
"geometry":{"type": "MultiPolygon","coordinates": [[[[-2.6166,8.7869,196.1082],[-2.6259,8.7928,194.8567],[-2.6289,8.7894,198.7501],[-2.6298,8.7843,197.4828],[-2.6262,8.7782,199.8089],[-2.7876,8.6838,364.8486],[-2.9399,8.6396,280.92],[-2.9566,8.6432,278.6652],[-2.9726,8.6424,284.6521],[-2.9852,8.6483,286.5098],[-2.9898,8.6482,289.5327],[-2.9964,8.6514,284.3871],[-3.0082,8.6515,290.1493],[-3.0235,8.6447,297.9736],[-3.0319,8.6337,299.5573],[-3.0567,8.6292,302.8044],[-3.06,8.6271,303.5381],[-3.0649,8.6201,329.4117],[-3.0721,8.6173,319.7997],[-3.0762,8.6121,335.2415],[-3.0868,8.6101,352.477],[-3.0994,8.6152,342.5048],[-3.1076,8.6159,342.4785],[-3.1207,8.6079,347.4031],[-3.1384,8.606,353.8008],[-3.1441,8.6027,357.052],[-3.1533,8.5904,365.4091],[-3.1543,8.5862,369.0352],[-3.1623,8.5742,373.4462],[-3.1646,8.5738,368.4742],[-3.1656,8.5627,376.2635],[-3.1681,8.5579,377.8916],[-3.1747,8.5513,389.175],[-3.1803,8.54,394.6705],[-3.1868,8.5337,405.8333],[-3.196,8.5206,371.7381],[-3.2066,8.513,399.1746],[-3.2303,8.5033,364.1777],[-3.2412,8.4947,371.0106],[-3.2593,8.4888,383.8274],[-3.2645,8.4851,396.229],[-3.2761,8.4853,363.2691],[-3.2825,8.4798,342.3909],[-3.2886,8.4693,315.8176],[-3.2987,8.4395,293.9143],[-3.3027,8.4364,313.9592],[-3.3113,8.4217,299.0521],[-3.3271,8.4077,333.8566],[-3.3302,8.4019,344.8838],[-3.331,8.3948,360.1118],[-3.3294,8.3905,366.1893],[-3.3344,8.3782,369.046],[-3.3459,8.3587,371.398],[-3.3534,8.3511,359.575],[-3.3522,8.3458,368.1505],[-3.3576,8.3203,348.3686],[-3.3526,8.308,316.0377],[-3.3549,8.3043,310.8887],[-3.3645,8.3004,308.3107],[-3.3914,8.3014,293.583],[-3.4021,8.3003,294.6905],[-3.411,8.2973,284.6255],[-3.4152,8.2906,271.9525],[-3.4211,8.287,268.4496],[-3.4243,8.2814,263.9012],[-3.4244,8.2769,261.2261],[-3.4274,8.2751,265.2397],[-3.4287,8.2678,255.6911],[-3.4333,8.2604,252.2785],[-3.4399,8.2573,255.9222],[-3.4472,8.2588,256.1362],[-3.4513,8.2577,253.0626],[-3.4605,8.2495,251.8965],[-3.4765,8.2454,245.8535],[-3.4828,8.2506,253.7133],[-3.4873,8.2592,254.6148],[-3.4922,8.2589,245.7808],[-3.4985,8.2545,244.1417],[-3.4967,8.2426,236.035],[-3.5,8.2404,237.5423],[-3.5023,8.2356,242.5811],[-3.5086,8.2351,244.6049],[-3.5224,8.2279,240.6267],[-3.5142,8.2083,278.5093],[-3.513,8.202,265.997],[-3.5188,8.1929,258.2738],[-3.5259,8.1716,247.1705],[-3.5262,8.1654,234.9456],[-3.5074,8.1439,234.207],[-3.5015,8.1304,224.4355],[-3.5146,8.1208,253.7863],[-3.5147,8.118,256.5674],[-3.518,8.1134,243.2828],[-3.5179,8.1061,261.3752],[-3.5119,8.0913,292.1857],[-3.4989,8.077,250.6575],[-3.4975,8.0684,241.1716],[-3.4919,8.0639,231.2232],[-3.4779,8.0576,241.7494],[-3.4606,8.0446,230.6131],[-3.4545,8.0429,203.9942],[-3.4443,8.0466,222.6727],[-3.4154,8.0625,253.6677],[-3.4062,8.0643,252.1811],[-3.3925,8.0645,240.203],[-3.3852,8.0617,218.1774],[-3.3715,8.0455,257.7334],[-3.3698,8.0388,234.2543],[-3.373,8.0308,234.1041],[-3.3703,8.0231,225.3048],[-3.3663,8.019,240.1715],[-3.3589,8.0178,259.0279],[-3.3328,8.0178,272.617],[-3.3291,8.0198,272.0292],[-3.3176,8.0327,279.3476],[-3.3073,8.0379,271.9047],[-3.3012,8.0388,262.7357],[-3.286,8.0328,255.4892],[-3.2681,8.0323,245.4951],[-3.2571,8.0272,241.579],[-3.2457,8.0274,251.9568],[-3.2316,8.0219,252.3211],[-3.2176,8.024,266.6772],[-3.2068,8.0321,300.9562],[-3.1982,8.0451,292.9492],[-3.1937,8.0475,298.3307],[-3.1894,8.0477,281.7441],[-3.1721,8.041,271.519],[-3.1654,8.0431,262.6057],[-3.1609,8.0419,276.47],[-3.1484,8.0324,270.8503],[-3.1298,8.0301,274.6045],[-3.1157,8.0318,288.9921],[-3.0921,8.0245,294.3302],[-3.0842,8.024,289.2305],[-3.0808,8.0214,290.2808],[-3.0795,8.0032,282.9467],[-3.0814,7.9983,277.6867],[-3.0862,7.9933,275.1326],[-3.102,7.9898,275.618],[-3.1056,7.9832,277.473],[-3.1015,7.9744,298.721],[-3.0967,7.9491,272.212],[-3.0964,7.9411,282.7479],[-3.0985,7.9389,282.5626],[-3.0965,7.9302,281.3056],[-3.0868,7.9278,297.1504],[-3.076,7.9273,278.8336],[-3.0641,7.9196,262.3214],[-3.0446,7.9159,278.3581],[-3.0225,7.9043,286.709],[-3.0154,7.8996,289.8864],[-3.0054,7.8869,288.9686],[-2.9815,7.8709,277.9767],[-2.9779,7.8647,263.7544],[-2.9791,7.857,254.1312],[-2.9772,7.8542,251.1651],[-2.9625,7.8616,280.9922],[-2.9594,7.866,270.3365],[-2.9495,7.8682,258.2777],[-2.9452,7.8757,261.7838],[-2.9405,7.8741,255.2973],[-2.9304,7.8758,259.3815],[-2.9232,7.8679,278.6665],[-2.921,7.8676,273.4755],[-2.9085,7.8687,331.0245],[-2.9065,7.8704,306.7428],[-2.9027,7.8663,303.6109],[-2.9014,7.8614,326.5587],[-2.8992,7.8512,438.6328],[-2.9003,7.8401,330.5793],[-2.8963,7.8297,313.1429],[-2.888,7.8287,339.4085],[-2.8775,7.8232,365.847],[-2.8758,7.8209,358.1603],[-2.8759,7.8089,341.1516],[-2.8854,7.7885,287.4208],[-2.8884,7.7865,306.6729],[-2.8872,7.7774,281.4955],[-2.8497,7.7705,340.0963],[-2.8506,7.7619,342.4809],[-2.8486,7.7802,336.4331],[-2.8352,7.7936,349.4802],[-2.8261,7.8057,334.9637],[-2.8304,7.8205,286.6523],[-2.8251,7.8244,286.4109],[-2.8291,7.8337,294.729],[-2.8292,7.8427,291.7617],[-2.8329,7.8486,295.2161],[-2.8252,7.8682,298.219],[-2.8217,7.8949,328.815],[-2.8221,7.9124,320.747],[-2.8103,7.9385,362.4898],[-2.81,7.9595,372.5909],[-2.8086,7.9656,458.5644],[-2.8037,7.9724,396.1327],[-2.7931,7.9837,331.4152],[-2.7717,7.9971,351.3109],[-2.7516,8.0018,350.8256],[-2.7127,8.0172,339.3589],[-2.6956,8.0298,309.8781],[-2.6921,8.0296,321.9709],[-2.662,8.0421,337.3122],[-2.6527,8.0422,354.9591],[-2.6367,8.0547,320.5698],[-2.6314,8.0532,323.9861],[-2.6362,8.0671,323.0465],[-2.6341,8.0913,297.68],[-2.6299,8.1151,275.652],[-2.625,8.125,270.4728],[-2.6225,8.1265,274.1291],[-2.621,8.1312,265.8718],[-2.6148,8.1376,266.2091],[-2.6085,8.1519,258.7228],[-2.6018,8.1536,261.7604],[-2.5913,8.1515,255.4218],[-2.5899,8.1524,258.0605],[-2.5875,8.1498,255.4337],[-2.5851,8.1505,257.3929],[-2.5762,8.1448,252.598],[-2.5697,8.1455,250.598],[-2.5654,8.1493,248.8618],[-2.5614,8.1473,247.3402],[-2.5597,8.1434,247.651],[-2.5582,8.1462,246.8633],[-2.5554,8.1469,245.3651],[-2.5448,8.1757,279.4157],[-2.5179,8.1908,263.9494],[-2.509,8.1934,272.843],[-2.4949,8.2052,256.2722],[-2.4977,8.2448,304.2874],[-2.5,8.2565,304.6902],[-2.5014,8.3074,283.587],[-2.5044,8.334,305.2288],[-2.5164,8.3831,238.8592],[-2.5175,8.4017,227.0714],[-2.5244,8.4406,217.8188],[-2.533,8.4809,234.8058],[-2.5396,8.5005,238.35],[-2.549,8.5423,225.122],[-2.5621,8.6149,242.5673],[-2.5626,8.6289,254.7161],[-2.5671,8.6596,242.6318],[-2.5739,8.6909,259.6284],[-2.5734,8.7006,254.4217],[-2.5872,8.7786,199.8163],[-2.5937,8.7883,194.0643],[-2.6166,8.7869,196.1082]]]]}}