{"type":"Feature","properties":{"GID_3":"CIV.3.1.1_1","GID_0":"CIV","country":"Côted'Ivoire","GID_1":"CIV.3_1","province":"Comoé","NL_NAME_1":"NA","GID_2":"CIV.3.1_1","county":"Indénié-Djuablin","NL_NAME_2":"NA","city":"Abengourou","VARNAME_3":"NA","NL_NAME_3":"NA","TYPE_3":"Département","ENGTYPE_3":"Department","CC_3":"NA","HASC_3":"NA","name":"Abengourou.city"},
"geometry":{"type": "MultiPolygon","coordinates": [[[[-3.2782,6.7985,179.3247],[-3.3052,6.8004,204.4921],[-3.3453,6.8185,185.0721],[-3.3544,6.8387,188.7863],[-3.3344,6.9876,280.4667],[-3.3577,7.0063,251.058],[-3.375,7.0233,230.4568],[-3.3825,7.0346,217.2976],[-3.3856,7.0367,223.0431],[-3.4015,7.0407,215.3208],[-3.4045,7.0396,206.7161],[-3.4143,7.0287,236.6884],[-3.4265,7.0209,251.7319],[-3.4358,7.0156,305.0715],[-3.4432,7.0149,287.4792],[-3.4505,7.0176,253.9603],[-3.4659,7.0276,239.3597],[-3.4828,7.0425,211.6337],[-3.4974,7.0476,191.4798],[-3.5091,7.048,177.3938],[-3.5151,7.0501,169.2027],[-3.5418,7.0864,164.7112],[-3.5449,7.0925,138.6068],[-3.5456,7.0987,136.2458],[-3.5579,7.1071,139.5497],[-3.5616,7.1081,136.1068],[-3.5703,7.1025,140.7171],[-3.579,7.0919,137.56],[-3.5826,7.0826,137.1182],[-3.5802,7.0687,138.9275],[-3.5827,7.0649,137.9652],[-3.5938,7.0798,135.3936],[-3.61,7.0846,136.4504],[-3.6257,7.092,157.937],[-3.6299,7.0829,134.2247],[-3.6286,7.0773,141.4073],[-3.6221,7.0705,133.9284],[-3.6243,7.0651,140.0212],[-3.6367,7.048,132.612],[-3.6399,7.0461,133.3013],[-3.6635,7.0538,139.91],[-3.6681,7.0533,139.2741],[-3.6789,7.0481,137.7909],[-3.6875,7.0387,131.2174],[-3.7034,7.0301,131.1685],[-3.7162,7.0183,130.5737],[-3.7173,7.0134,131.162],[-3.7164,7.0059,133.4122],[-3.7181,7.0047,132.338],[-3.7218,7.007,134.4083],[-3.7324,7.0093,133.4299],[-3.7577,7.0012,131.0084],[-3.7712,6.9851,126.8641],[-3.7833,6.9659,131.1652],[-3.7856,6.9534,136.5528],[-3.7842,6.9483,127.4717],[-3.7863,6.9442,139.9172],[-3.7821,6.9366,128.7394],[-3.7792,6.9357,131.0533],[-3.7751,6.9305,133.5464],[-3.7707,6.9337,125.7244],[-3.7625,6.9519,132.1733],[-3.7548,6.9594,150.8345],[-3.7474,6.9614,145.6762],[-3.7399,6.9592,146.8086],[-3.7382,6.9526,137.2177],[-3.7416,6.9439,134.8836],[-3.7326,6.9272,130.5128],[-3.7326,6.9239,134.676],[-3.7345,6.9115,132.3717],[-3.7431,6.9052,132.746],[-3.7628,6.8842,125.3653],[-3.7788,6.8625,124.6243],[-3.7787,6.8574,126.0404],[-3.7726,6.8498,129.7262],[-3.752,6.8317,153.1198],[-3.75,6.8254,122.1988],[-3.7465,6.8212,125.615],[-3.7467,6.8177,121.5],[-3.7475,6.8152,137.26],[-3.7616,6.8029,122.4551],[-3.7617,6.7942,126.1319],[-3.7583,6.7803,127.7932],[-3.7585,6.7775,124.1024],[-3.762,6.7735,127.707],[-3.7769,6.7727,125.4611],[-3.7959,6.7649,127.5302],[-3.7991,6.7607,124.718],[-3.7925,6.7542,132.0606],[-3.7884,6.7451,125.2224],[-3.7887,6.736,125.8505],[-3.7743,6.7259,129.0939],[-3.773,6.7176,120.0085],[-3.7645,6.7024,125.4931],[-3.7716,6.6973,125.273],[-3.7768,6.6967,124.7018],[-3.7826,6.687,125.3058],[-3.7946,6.6791,123.278],[-3.7968,6.6756,126.053],[-3.7917,6.6711,118.7212],[-3.789,6.6708,122.3865],[-3.78,6.6546,128.7278],[-3.7725,6.6476,120.7679],[-3.774,6.6403,119.1669],[-3.7699,6.6221,115.0217],[-3.7624,6.6345,127.0876],[-3.7579,6.6378,120.2796],[-3.7405,6.6372,119.1686],[-3.7286,6.6301,116.6556],[-3.7195,6.632,115.0258],[-3.7111,6.6431,115.6977],[-3.7,6.6495,115.547],[-3.6826,6.6466,114.8898],[-3.6807,6.6449,110.2398],[-3.6769,6.6353,110.3735],[-3.678,6.6221,117.0157],[-3.6894,6.6095,115.8766],[-3.6846,6.6029,118.1383],[-3.6853,6.594,116.8814],[-3.6828,6.5893,117.1658],[-3.6649,6.5812,115.8802],[-3.6603,6.5762,110.9297],[-3.6574,6.5689,117.3153],[-3.6607,6.5548,115.4225],[-3.6588,6.5504,116.4035],[-3.6505,6.5434,111.7359],[-3.6466,6.5352,112.3766],[-3.6461,6.5216,108.3309],[-3.6402,6.5102,116.3788],[-3.6354,6.49,108.2935],[-3.6472,6.4629,119.6934],[-3.6472,6.4579,108.1551],[-3.6438,6.4519,103.4392],[-3.6436,6.4405,114.843],[-3.6364,6.443,109.7619],[-3.6185,6.4325,125.5153],[-3.6139,6.4265,109.7553],[-3.6108,6.3987,102.5834],[-3.6082,6.3943,104.1242],[-3.598,6.3863,102.0],[-3.591,6.3744,114.8865],[-3.5891,6.3757,114.0211],[-3.5861,6.3844,122.2767],[-3.5782,6.3864,114.2749],[-3.5736,6.3856,136.0408],[-3.5483,6.3661,104.7404],[-3.5435,6.3719,107.4832],[-3.5483,6.382,105.6109],[-3.5381,6.3875,106.9161],[-3.5313,6.3848,110.8064],[-3.511,6.3649,115.3826],[-3.513,6.3612,108.755],[-3.511,6.3463,101.83],[-3.5021,6.3496,115.0607],[-3.4954,6.3455,105.1276],[-3.5032,6.3227,105.002],[-3.4941,6.3162,107.1775],[-3.4928,6.3123,105.4901],[-3.4734,6.2953,127.1139],[-3.4706,6.2893,142.8035],[-3.4695,6.2709,102.7246],[-3.4647,6.2549,98.3279],[-3.4442,6.2431,110.4506],[-3.443,6.2443,109.3542],[-3.4205,6.2472,117.5422],[-3.4073,6.2463,127.734],[-3.3902,6.2484,142.3036],[-3.3759,6.2519,156.4135],[-3.367,6.2511,217.4114],[-3.357,6.2541,155.3334],[-3.3396,6.253,172.0849],[-3.3016,6.2571,175.0633],[-3.2424,6.2574,159.7998],[-3.2262,6.2548,154.1491],[-3.1832,6.2522,151.7532],[-3.1773,6.2435,132.842],[-3.1737,6.2539,137.0998],[-3.1739,6.2597,137.232],[-3.1717,6.2643,137.3317],[-3.1709,6.2959,146.5703],[-3.1746,6.3101,143.2425],[-3.1809,6.3159,165.5698],[-3.1858,6.326,165.8344],[-3.1865,6.3429,175.6361],[-3.1902,6.3487,159.6755],[-3.1935,6.3604,176.4587],[-3.2366,6.5387,169.9925],[-3.2341,6.5965,181.0784],[-3.2436,6.6008,149.3936],[-3.2549,6.6095,163.29],[-3.2553,6.6156,150.7036],[-3.2621,6.6176,139.2998],[-3.2601,6.6215,140.2573],[-3.2598,6.6303,139.0083],[-3.2571,6.6331,138.8273],[-3.2567,6.6439,138.3384],[-3.2548,6.645,139.7339],[-3.2529,6.6502,140.9304],[-3.2504,6.6513,141.0617],[-3.2478,6.6597,142.1583],[-3.2437,6.6655,145.2673],[-3.2353,6.6677,144.9205],[-3.2367,6.6764,142.6477],[-3.2311,6.6807,147.7346],[-3.2309,6.6839,147.5616],[-3.2327,6.6863,145.0337],[-3.2295,6.6874,146.2486],[-3.2278,6.6913,148.1213],[-3.2314,6.6947,149.5777],[-3.2299,6.6997,152.3037],[-3.2322,6.7006,149.0762],[-3.2294,6.7034,152.0231],[-3.2223,6.7052,151.994],[-3.2207,6.7099,149.1466],[-3.2166,6.7143,153.2014],[-3.2162,6.722,151.072],[-3.214,6.7219,153.136],[-3.209,6.7316,152.9839],[-3.2089,6.7344,152.8967],[-3.214,6.7395,151.7212],[-3.2144,6.7442,154.1594],[-3.2178,6.7488,157.9608],[-3.2119,6.7553,156.1857],[-3.2157,6.7608,158.7363],[-3.2185,6.761,157.5148],[-3.2183,6.7625,159.2454],[-3.2272,6.7678,157.4376],[-3.229,6.7742,164.0892],[-3.2313,6.7767,163.7024],[-3.2317,6.7811,164.4517],[-3.2321,6.7749,162.2675],[-3.2355,6.7755,161.2122],[-3.2418,6.7823,163.665],[-3.2461,6.798,168.9206],[-3.2491,6.8023,167.3427],[-3.2612,6.8086,180.0616],[-3.2673,6.8066,179.079],[-3.2782,6.7985,179.3247]]]]}}