{"type":"Feature","properties":{"GID_3":"CIV.7.2.3_1","GID_0":"CIV","country":"Côted'Ivoire","GID_1":"CIV.7_1","province":"Lagunes","NL_NAME_1":"NA","GID_2":"CIV.7.2_1","county":"GrandsPonts","NL_NAME_2":"NA","city":"Jacqueville","VARNAME_3":"NA","NL_NAME_3":"NA","TYPE_3":"Département","ENGTYPE_3":"Department","CC_3":"NA","HASC_3":"NA","name":"Jacqueville.city"},
"geometry":{"type": "MultiPolygon","coordinates": [[[[-4.2941,5.307,0.0],[-4.319,5.3135,0.0],[-4.3455,5.2786,0.0],[-4.4587,5.2747,7.2758],[-4.4739,5.2648,0.0],[-4.4748,5.2588,0.0],[-4.4766,5.2571,0.0],[-4.4847,5.2597,0.0],[-4.4925,5.267,0.0],[-4.4968,5.2661,0.0],[-4.501,5.2592,0.0],[-4.5078,5.2589,0.0],[-4.5231,5.2687,18.9062],[-4.5377,5.2728,0.0],[-4.605,5.2675,0.0],[-4.6009,5.259,0.0],[-4.6022,5.2545,0.0],[-4.5925,5.2473,0.0],[-4.5958,5.241,0.0],[-4.6048,5.2407,0.0],[-4.6185,5.2432,0.0],[-4.6219,5.2466,0.0],[-4.6227,5.2524,0.0],[-4.6276,5.2525,0.0],[-4.6487,5.2409,0.0],[-4.6785,5.2315,0.0],[-4.6809,5.2318,0.0],[-4.6878,5.2379,7.1297],[-4.7005,5.2616,3.4756],[-4.723,5.2689,0.0],[-4.7316,5.2794,0.0],[-4.7339,5.2848,16.0675],[-4.74,5.2901,31.9608],[-4.7572,5.3131,35.6345],[-4.7652,5.3198,11.299],[-4.7866,5.3284,12.4088],[-4.8107,5.2456,57.6971],[-4.8064,5.1767,0.0],[-4.7907,5.1609,2.7599],[-4.7907,5.1518,0.0],[-4.7657,5.1532,0.0],[-4.701,5.1635,0.0],[-4.656,5.1726,6.8254],[-4.6501,5.1724,1.766],[-4.6362,5.176,10.5935],[-4.5435,5.1879,6.1085],[-4.2165,5.2207,4.8779],[-4.2273,5.2382,8.7771],[-4.2357,5.2389,10.7324],[-4.2433,5.283,0.0],[-4.2467,5.2883,0.0],[-4.2514,5.2878,0.0],[-4.2535,5.2899,0.0],[-4.2543,5.2931,3.238],[-4.2519,5.2994,0.0],[-4.2941,5.307,0.0]]]]}}