{"type":"Feature","properties":{"GID_3":"CIV.8.3.4_1","GID_0":"CIV","country":"Côted'Ivoire","GID_1":"CIV.8_1","province":"Montagnes","NL_NAME_1":"NA","GID_2":"CIV.8.3_1","county":"Tonkpi","NL_NAME_2":"NA","city":"Sipilou","VARNAME_3":"NA","NL_NAME_3":"NA","TYPE_3":"Département","ENGTYPE_3":"Department","CC_3":"NA","HASC_3":"NA","name":"Sipilou.city"},
"geometry":{"type": "MultiPolygon","coordinates": [[[[-7.67,7.8442,404.5312],[-7.6804,7.8542,406.0399],[-7.6924,7.8467,415.9632],[-7.697,7.8495,412.3687],[-7.7016,7.8541,423.9529],[-7.7039,7.8641,439.0411],[-7.7116,7.8633,439.7159],[-7.7161,7.8678,429.0653],[-7.7202,7.8788,433.2776],[-7.7176,7.882,432.6274],[-7.7207,7.8865,432.4197],[-7.7227,7.8874,435.9821],[-7.7322,7.8829,437.2689],[-7.7544,7.8953,434.7329],[-7.7587,7.8956,436.6042],[-7.7615,7.8885,439.6459],[-7.7644,7.8873,435.0657],[-7.773,7.8905,429.7467],[-7.7852,7.9044,432.3416],[-7.7851,7.9088,430.9258],[-7.7878,7.9134,437.9119],[-7.7954,7.9168,429.8711],[-7.8021,7.9141,442.1978],[-7.8034,7.9166,434.4406],[-7.8025,7.9245,434.0906],[-7.8012,7.9337,439.9783],[-7.7992,7.9367,437.012],[-7.8007,7.9392,436.6703],[-7.815,7.941,437.1055],[-7.8177,7.9435,445.3377],[-7.8216,7.9538,434.3664],[-7.8243,7.9552,440.5304],[-7.8281,7.954,434.7698],[-7.8328,7.9552,439.8347],[-7.839,7.9591,436.4199],[-7.8431,7.9555,431.3809],[-7.8466,7.9548,441.545],[-7.8451,7.956,431.3809],[-7.8484,7.9725,441.3754],[-7.844,7.9799,434.5636],[-7.8475,7.9866,433.2509],[-7.8531,7.9898,434.7998],[-7.8495,7.9961,440.4875],[-7.85,7.9979,435.8639],[-7.8585,8.0011,434.8675],[-7.8577,8.0146,448.6353],[-7.8592,8.0173,441.018],[-7.8673,8.02,440.3182],[-7.8835,8.0208,446.9176],[-7.8859,8.0227,438.3837],[-7.8885,8.0117,435.9],[-7.897,8.0081,441.0906],[-7.9083,8.007,441.0883],[-7.9106,8.0106,443.6687],[-7.9144,8.0109,443.4539],[-7.9154,8.0131,440.6612],[-7.9249,8.012,442.2018],[-7.9284,8.0132,438.3179],[-7.9346,8.0199,441.8944],[-7.9394,8.0171,443.2256],[-7.9465,8.023,447.3309],[-7.9469,8.0158,443.0286],[-7.9456,8.013,454.4893],[-7.9482,8.0073,471.122],[-7.9537,8.0071,457.8444],[-7.9596,8.0129,448.0902],[-7.9727,8.017,442.9613],[-7.9822,8.0105,462.4643],[-7.9843,8.011,466.015],[-7.986,8.0181,458.736],[-7.9907,8.0168,460.5839],[-7.9918,8.0182,462.7991],[-7.9873,8.0312,447.9808],[-7.9891,8.0349,461.1579],[-8.0003,8.0392,461.9373],[-8.0033,8.0385,464.0114],[-8.0098,8.032,463.1455],[-8.0243,8.0331,454.3198],[-8.0297,8.0297,483.0645],[-8.0407,8.0328,467.7473],[-8.0576,8.0227,475.2789],[-8.0635,8.0111,483.0432],[-8.0534,8.0,513.7914],[-8.0658,7.9583,512.6216],[-8.0752,7.9387,542.7903],[-8.0826,7.916,518.7702],[-8.0941,7.8985,549.3779],[-8.1072,7.8846,500.4865],[-8.1156,7.8691,542.1998],[-8.1172,7.8588,558.3548],[-8.1147,7.8448,550.2146],[-8.0831,7.8198,529.0477],[-8.0718,7.8083,594.4813],[-8.0703,7.7995,568.0728],[-8.0714,7.7902,590.694],[-8.086,7.7686,557.0466],[-8.0913,7.751,570.843],[-8.0927,7.7357,560.2014],[-8.0813,7.734,587.2029],[-8.0775,7.7351,557.2035],[-8.0712,7.7421,574.6283],[-8.0615,7.7407,558.6415],[-8.0163,7.7658,620.3068],[-8.0004,7.7775,564.1608],[-7.982,7.7794,490.5082],[-7.9765,7.7838,477.8781],[-7.9596,7.7805,471.0845],[-7.9591,7.7764,469.1459],[-7.9532,7.7707,470.932],[-7.9536,7.7669,491.1017],[-7.9573,7.7638,471.6678],[-7.9571,7.7558,475.9537],[-7.9617,7.7395,482.8561],[-7.9634,7.7378,491.909],[-7.9623,7.7348,511.83],[-7.9472,7.7317,547.657],[-7.9273,7.7223,837.6487],[-7.9068,7.7178,768.1412],[-7.8183,7.6909,494.2607],[-7.8082,7.6837,480.9516],[-7.8085,7.6817,497.4819],[-7.802,7.6736,499.7342],[-7.7785,7.6612,420.2996],[-7.7551,7.6523,456.7976],[-7.7517,7.6593,468.7833],[-7.7414,7.6622,471.365],[-7.7344,7.6748,503.4698],[-7.7325,7.6832,510.6561],[-7.735,7.7405,570.132],[-7.7372,7.7423,521.845],[-7.7199,7.7613,481.0157],[-7.7081,7.7699,483.8835],[-7.7058,7.7789,468.9657],[-7.6947,7.7884,474.5904],[-7.6951,7.7904,463.7669],[-7.6897,7.7927,469.1354],[-7.6777,7.8056,441.8543],[-7.6694,7.81,442.905],[-7.6689,7.8133,437.7178],[-7.6707,7.8171,443.9055],[-7.6799,7.8227,446.0046],[-7.6819,7.8267,455.942],[-7.67,7.8442,404.5312]]]]}}