{"type":"Feature","properties":{"ISO3166-1-Alpha-3":"CIV","country":"Ivory Coast","fill":"#FF0","id":"3460","name":"Moyen-Comoe"},
"geometry":{"type": "Polygon","coordinates": [[[-3.47888,7.34304,150.6016],[-3.4949,7.34823,148.8992],[-3.49836,7.34878,150.9433],[-3.50317,7.34785,150.0669],[-3.53505,7.33792,147.4626],[-3.54461,7.32315,148.3302],[-3.54244,7.30113,151.2514],[-3.53531,7.30395,151.2775],[-3.52818,7.30798,154.9733],[-3.5273,7.30459,153.276],[-3.52735,7.30219,156.3545],[-3.52632,7.30098,155.7777],[-3.52198,7.30113,143.4651],[-3.52828,7.28589,157.132],[-3.53593,7.28085,148.5706],[-3.55608,7.28005,155.4493],[-3.58233,7.27475,141.9081],[-3.58347,7.26876,148.2854],[-3.58264,7.23953,147.2088],[-3.58058,7.22863,143.571],[-3.57996,7.21811,149.3583],[-3.58337,7.20556,139.7865],[-3.5891,7.19274,140.9774],[-3.59313,7.18662,139.7496],[-3.59928,7.18297,137.8884],[-3.61132,7.17762,161.54],[-3.61448,7.19447,135.7076],[-3.62492,7.19775,135.8903],[-3.63716,7.19098,160.9527],[-3.64548,7.17762,146.0379],[-3.64528,7.16535,135.0084],[-3.63603,7.13292,139.1295],[-3.63184,7.123,139.3032],[-3.62311,7.11269,142.9498],[-3.6122,7.1076,140.6943],[-3.58337,7.10251,141.1998],[-3.5829,7.10559,132.8133],[-3.57582,7.11001,135.6666],[-3.56755,7.11161,132.0109],[-3.56352,7.10623,132.9417],[-3.56445,7.0991,136.6272],[-3.56714,7.09406,139.2386],[-3.57148,7.0906,139.4413],[-3.57717,7.08825,136.0097],[-3.56998,7.07184,135.4344],[-3.58306,7.07078,142.5437],[-3.61877,7.08205,141.3554],[-3.6213,7.06047,143.9224],[-3.63432,7.05115,137.1317],[-3.66595,7.04727,137.7589],[-3.68419,7.03962,130.3732],[-3.69463,7.02893,132.4577],[-3.70284,7.01714,145.0136],[-3.71437,7.00632,127.7579],[-3.75163,7.00012,128.6725],[-3.77519,6.97901,131.5466],[-3.78077,6.9534,141.5232],[-3.77126,6.93723,133.9408],[-3.76165,6.93632,141.792],[-3.75535,6.95914,150.8345],[-3.74124,6.94893,126.5029],[-3.73168,6.93012,131.6967],[-3.72972,6.91201,137.5821],[-3.73829,6.90389,133.0797],[-3.74801,6.89785,127.7114],[-3.76144,6.88322,130.9946],[-3.77255,6.86527,138.0137],[-3.77519,6.84927,127.1912],[-3.76672,6.84382,126.8453],[-3.75008,6.82961,152.6364],[-3.74015,6.81504,138.2253],[-3.75163,6.80832,126.2424],[-3.7539,6.80108,131.8111],[-3.79627,6.7599,125.8572],[-3.77044,6.70582,123.5251],[-3.77204,6.68424,151.1037],[-3.8031,6.67114,146.5443],[-3.78888,6.65985,125.7827],[-3.78232,6.64698,129.1395],[-3.77757,6.63236,122.1862],[-3.77488,6.62714,122.0839],[-3.76899,6.6159,119.3847],[-3.75607,6.62016,151.8276],[-3.7417,6.62272,118.0971],[-3.71948,6.62226,131.3237],[-3.71437,6.62272,119.6896],[-3.69995,6.63941,117.6747],[-3.69044,6.64469,117.9812],[-3.68021,6.63639,112.7488],[-3.67804,6.62347,117.0157],[-3.68579,6.59446,116.8814],[-3.68641,6.58177,116.6379],[-3.68259,6.57513,124.9732],[-3.67008,6.56547,142.6371],[-3.66595,6.56128,113.801],[-3.66357,6.55368,106.0],[-3.66078,6.53712,119.8993],[-3.65602,6.53025,110.4927],[-3.65143,6.52058,116.3257],[-3.64548,6.47532,114.9605],[-3.64765,6.4686,103.5],[-3.65261,6.46291,125.3216],[-3.65752,6.45831,112.0199],[-3.65975,6.45483,113.3581],[-3.65861,6.44723,122.1227],[-3.65602,6.44149,125.5316],[-3.65344,6.43731,121.1614],[-3.6523,6.43434,137.5259],[-3.64817,6.4279,108.8571],[-3.62843,6.40834,115.232],[-3.62187,6.40423,110.6431],[-3.61132,6.35584,112.2615],[-3.59014,6.3591,114.4989],[-3.57138,6.353,126.7599],[-3.55536,6.35346,153.9667],[-3.54244,6.3763,103.3347],[-3.50074,6.32977,105.4542],[-3.47795,6.29644,97.1942],[-3.46348,6.25579,107.7935],[-3.45676,6.24631,113.6773],[-3.45821,6.24089,105.7896],[-3.47784,6.23915,98.2182],[-3.48353,6.23523,134.9252],[-3.48136,6.22701,103.0528],[-3.4765,6.21954,105.9146],[-3.47133,6.21642,103.7318],[-3.46441,6.20577,108.3484],[-3.45893,6.19445,96.9078],[-3.46048,6.19073,102.264],[-3.44916,6.18942,102.9181],[-3.44415,6.20582,103.2373],[-3.4332,6.21182,149.7632],[-3.42028,6.20531,124.9657],[-3.40359,6.17086,105.1695],[-3.39563,6.1628,125.0665],[-3.39222,6.11221,125.6383],[-3.39857,6.09999,99.7594],[-3.41196,6.09139,97.2521],[-3.4242,6.0804,91.3592],[-3.42699,6.061,121.1446],[-3.4211,6.06369,106.9349],[-3.40529,6.06782,97.4266],[-3.40736,6.06322,91.1462],[-3.41066,6.05209,121.1204],[-3.41273,6.04736,92.0302],[-3.39656,6.03834,95.8857],[-3.38607,6.02183,108.7317],[-3.38462,6.0017,100.5686],[-3.39563,5.98186,124.014],[-3.40488,5.97697,93.3041],[-3.41521,5.97496,83.0],[-3.42353,5.97124,92.8314],[-3.42699,5.96139,116.3579],[-3.42782,5.94835,89.5836],[-3.4303,5.93734,98.6261],[-3.46265,5.87538,103.5808],[-3.46679,5.85773,160.9523],[-3.46766,5.83755,155.4972],[-3.46792,5.83104,152.1684],[-3.46524,5.80691,125.3776],[-3.4579,5.79613,100.4043],[-3.44689,5.78983,126.7172],[-3.43413,5.78029,55.5062],[-3.39377,5.79076,113.2821],[-3.38881,5.79272,115.6527],[-3.38503,5.79567,109.9809],[-3.38183,5.79947,109.6686],[-3.30897,5.91879,140.4395],[-3.24892,6.06364,124.1918],[-3.23941,6.07932,123.6252],[-3.23,6.08738,148.1353],[-3.22344,6.09436,111.7524],[-3.2206,6.0987,119.2501],[-3.21827,6.10531,112.4522],[-3.21626,6.11454,118.4026],[-3.21714,6.12634,113.8363],[-3.2207,6.1465,126.4652],[-3.22075,6.15254,136.5782],[-3.21109,6.17769,134.2902],[-3.17182,6.24941,143.7989],[-3.17172,6.24958,143.7989],[-3.1836,6.26391,142.8262],[-3.26251,6.61714,139.2998],[-3.26111,6.63394,143.331],[-3.25391,6.64443,141.7856],[-3.23548,6.65458,154.0829],[-3.23006,6.66112,165.4733],[-3.21042,6.716,162.4383],[-3.21274,6.72267,152.4225],[-3.22623,6.74858,166.4463],[-3.23874,6.76463,187.1994],[-3.24308,6.77476,178.923],[-3.24168,6.8109,178.6951],[-3.22494,6.8494,212.4844],[-3.1096,7.04639,234.4553],[-3.09727,7.05405,230.4912],[-3.09659,7.05448,230.4912],[-3.09663,7.05497,230.4912],[-3.09792,7.07342,223.9626],[-3.13947,7.15248,272.9757],[-3.15115,7.16566,262.7737],[-3.16696,7.17964,262.2728],[-3.20055,7.20013,223.8441],[-3.22308,7.21749,228.8136],[-3.23507,7.22465,224.476],[-3.30757,7.247,160.6992],[-3.32891,7.2501,190.1544],[-3.34173,7.24948,213.8306],[-3.34995,7.2362,190.6488],[-3.35589,7.22837,208.517],[-3.35961,7.22519,210.8436],[-3.36457,7.22449,230.5969],[-3.37056,7.2269,237.535],[-3.38684,7.24581,214.5432],[-3.39682,7.25483,209.5199],[-3.40043,7.25901,194.74],[-3.40333,7.26351,187.2873],[-3.40534,7.26777,200.131],[-3.42059,7.31875,181.8962],[-3.42462,7.32387,152.0962],[-3.43072,7.32898,149.3518],[-3.44296,7.33529,151.6929],[-3.44932,7.3394,149.9724],[-3.4549,7.34126,148.9017],[-3.45976,7.33963,149.1922],[-3.46379,7.33932,147.3002],[-3.47257,7.34475,148.1548],[-3.47888,7.34304,150.6016]]]}}