{"type":"Feature","properties":{"GID_3":"CIV.10.2.1_1","GID_0":"CIV","country":"Côted'Ivoire","GID_1":"CIV.10_1","province":"Savanes","NL_NAME_1":"NA","GID_2":"CIV.10.2_1","county":"Poro","NL_NAME_2":"NA","city":"Dikodougou","VARNAME_3":"NA","NL_NAME_3":"NA","TYPE_3":"Département","ENGTYPE_3":"Department","CC_3":"NA","HASC_3":"NA","name":"Dikodougou.city"},
"geometry":{"type": "MultiPolygon","coordinates": [[[[-5.6746,9.1216,326.3381],[-5.6626,9.1267,332.9363],[-5.6587,9.1254,347.8669],[-5.649,9.128,307.7394],[-5.6366,9.1337,314.4647],[-5.6275,9.1552,323.8115],[-5.6118,9.1839,295.535],[-5.6127,9.2021,296.5286],[-5.6184,9.2125,297.0571],[-5.6224,9.2154,297.293],[-5.634,9.2183,301.0948],[-5.6358,9.2254,298.947],[-5.6404,9.2302,298.1618],[-5.6463,9.2306,301.1171],[-5.6529,9.2434,299.7091],[-5.6629,9.2472,300.4305],[-5.6653,9.2505,301.4203],[-5.665,9.2544,301.7484],[-5.6751,9.2546,305.1078],[-5.6767,9.2576,303.451],[-5.6824,9.26,302.6362],[-5.6862,9.264,304.0039],[-5.6901,9.2807,308.8425],[-5.6992,9.281,309.6984],[-5.7039,9.2876,308.9613],[-5.7092,9.2879,310.1316],[-5.7202,9.2948,313.9813],[-5.7247,9.2951,319.0877],[-5.7444,9.3164,321.5],[-5.7545,9.3208,328.4994],[-5.757,9.3239,333.0352],[-5.7739,9.323,343.9428],[-5.7774,9.3268,340.9931],[-5.7825,9.3257,337.0184],[-5.7878,9.3318,344.1109],[-5.7962,9.3328,340.9815],[-5.8031,9.33,341.4406],[-5.8074,9.3346,337.6283],[-5.8294,9.3442,348.5818],[-5.8366,9.3501,346.9408],[-5.8421,9.3496,351.8049],[-5.8456,9.3577,353.0562],[-5.848,9.3592,345.7161],[-5.8584,9.3526,350.1487],[-5.8731,9.3391,374.0293],[-5.8865,9.3296,359.8186],[-5.8902,9.3238,367.0817],[-5.9129,9.3014,367.1528],[-5.9236,9.2957,401.3416],[-5.9399,9.2908,375.9934],[-5.9195,9.2463,377.3908],[-5.9258,9.204,376.5295],[-5.9075,9.1889,373.2097],[-5.903,9.1806,369.3577],[-5.904,9.1695,364.6442],[-5.9064,9.1661,363.4546],[-5.913,9.1621,360.239],[-5.916,9.1547,362.8576],[-5.9267,9.144,350.7952],[-5.9316,9.1296,347.7312],[-5.9309,9.1249,348.6807],[-5.9267,9.1188,344.3425],[-5.9157,9.1087,359.6169],[-5.9148,9.1057,356.0031],[-5.9225,9.0974,353.938],[-5.9284,9.0845,337.6328],[-5.9373,9.0708,342.9009],[-5.9463,9.065,333.2719],[-5.9534,9.0568,333.5209],[-5.9555,9.0567,334.1188],[-5.9606,9.0611,338.5339],[-5.9632,9.0608,340.5439],[-5.9683,9.049,345.3238],[-5.9655,9.0454,333.2679],[-5.9685,9.0452,341.2085],[-5.9716,9.0407,332.6943],[-5.9737,9.0417,332.8785],[-5.9752,9.0392,331.375],[-5.9742,9.035,333.071],[-5.9796,9.031,330.3172],[-5.9795,9.0234,333.2689],[-5.9823,9.0256,333.8448],[-5.9845,9.0228,334.5955],[-5.9894,9.0242,347.2555],[-5.9924,9.0234,337.4138],[-5.9955,9.013,328.0036],[-5.9936,9.0099,329.6099],[-5.9961,9.0073,330.9385],[-5.9971,8.9963,334.5753],[-5.9991,8.994,341.8375],[-6.0054,8.9993,330.0079],[-6.0113,9.0006,328.7712],[-6.0136,8.9854,330.1971],[-6.0134,8.973,327.3437],[-6.017,8.9682,329.0432],[-6.0152,8.9661,328.9868],[-6.0214,8.9539,329.3212],[-6.02,8.9492,329.771],[-6.0147,8.946,328.5504],[-6.0081,8.9446,331.4982],[-6.0065,8.9422,331.1215],[-6.0131,8.9413,336.2603],[-6.0147,8.9386,336.4053],[-6.0148,8.9348,330.069],[-6.0104,8.9254,326.1537],[-6.0111,8.9209,331.9835],[-6.0062,8.919,331.8706],[-5.9993,8.9196,328.6919],[-5.9999,8.923,333.0443],[-5.9953,8.92,326.9007],[-5.9925,8.9122,330.1758],[-5.9893,8.914,322.8715],[-5.9822,8.9078,321.3208],[-5.9803,8.9051,328.3762],[-5.9816,8.9002,324.8741],[-5.9781,8.895,328.4802],[-5.9816,8.89,328.5169],[-5.9821,8.8817,330.5377],[-5.9783,8.8778,336.7003],[-5.9748,8.8819,327.1714],[-5.962,8.8719,324.5927],[-5.9614,8.8695,328.5395],[-5.9662,8.8652,324.006],[-5.9548,8.8516,326.3341],[-5.9513,8.8503,325.1861],[-5.9505,8.8431,327.2908],[-5.9441,8.8364,324.624],[-5.9331,8.8331,324.0163],[-5.9255,8.8391,329.0508],[-5.922,8.8378,326.9417],[-5.9216,8.8238,319.2357],[-5.9198,8.8216,319.7327],[-5.8919,8.8138,315.0394],[-5.8894,8.807,317.4957],[-5.9004,8.8085,315.1182],[-5.9093,8.803,315.0166],[-5.9155,8.803,321.307],[-5.9333,8.8088,327.3061],[-5.9525,8.803,327.4572],[-5.9719,8.8009,334.3552],[-5.9774,8.8033,331.3415],[-5.9852,8.8121,334.1935],[-5.9882,8.813,334.1382],[-6.0039,8.8125,332.4137],[-6.0073,8.8085,338.4515],[-6.0135,8.8103,331.7341],[-6.0147,8.8085,333.8709],[-6.0198,8.8131,331.2924],[-6.0205,8.8183,332.1588],[-6.0339,8.8143,335.0105],[-6.0358,8.811,342.2633],[-6.0434,8.8113,335.1618],[-6.0515,8.8038,333.2934],[-6.0643,8.806,341.886],[-6.0232,8.7329,379.162],[-5.9996,8.6951,383.8437],[-5.9987,8.6849,398.3462],[-5.9935,8.675,393.7711],[-5.9602,8.6537,346.4122],[-5.9199,8.6442,339.1888],[-5.9145,8.6399,339.178],[-5.9082,8.6466,343.5562],[-5.9047,8.6456,337.7533],[-5.8809,8.6337,346.8262],[-5.8584,8.6196,369.6542],[-5.8508,8.6171,349.1657],[-5.8254,8.6039,342.6702],[-5.8069,8.5918,373.7842],[-5.7129,8.5415,333.5706],[-5.6519,8.5368,284.1519],[-5.6119,8.537,269.2143],[-5.6118,8.5498,271.0412],[-5.6223,8.5532,271.9716],[-5.6252,8.5528,268.1714],[-5.6226,8.5465,259.8994],[-5.6245,8.5445,265.1665],[-5.6335,8.5493,262.5833],[-5.6423,8.55,260.6246],[-5.6443,8.5529,261.3391],[-5.6428,8.5556,264.301],[-5.6342,8.5605,274.2929],[-5.6335,8.5645,265.1574],[-5.6432,8.5711,262.5284],[-5.6374,8.5724,268.2682],[-5.637,8.5759,262.1551],[-5.6426,8.5811,261.4956],[-5.646,8.5902,263.372],[-5.6439,8.5917,262.7578],[-5.6374,8.5887,264.5541],[-5.6324,8.5887,269.3877],[-5.6275,8.5916,274.0451],[-5.6277,8.5981,265.71],[-5.6319,8.6053,269.8444],[-5.6316,8.6107,274.1273],[-5.6396,8.6167,278.3973],[-5.652,8.6183,266.4243],[-5.6568,8.6171,264.7572],[-5.6589,8.6206,282.0027],[-5.6638,8.622,276.1475],[-5.6674,8.6213,285.6874],[-5.6786,8.6124,295.1706],[-5.681,8.6053,285.0332],[-5.6901,8.617,295.0324],[-5.6966,8.62,302.4045],[-5.7012,8.6248,303.6741],[-5.6954,8.6302,321.318],[-5.6969,8.6355,308.608],[-5.7075,8.6507,303.9541],[-5.706,8.6538,302.0209],[-5.6919,8.6528,318.8029],[-5.6875,8.6571,319.4552],[-5.6871,8.6679,312.3586],[-5.6897,8.6715,307.6677],[-5.6849,8.673,311.1291],[-5.6827,8.6759,319.4092],[-5.6832,8.6847,319.2645],[-5.68,8.6874,323.5233],[-5.6804,8.6954,312.0414],[-5.6741,8.7029,328.5399],[-5.6754,8.7078,320.1409],[-5.6921,8.7169,315.0398],[-5.7011,8.7189,307.4854],[-5.6994,8.7222,306.3908],[-5.6953,8.7243,306.136],[-5.6897,8.7254,310.0275],[-5.6732,8.7245,306.0253],[-5.6647,8.7297,322.002],[-5.6651,8.7344,324.3397],[-5.6694,8.7381,319.5547],[-5.6936,8.7498,304.9745],[-5.6811,8.7586,307.4836],[-5.7033,8.7761,324.7438],[-5.7093,8.7763,320.0135],[-5.7129,8.7672,304.8741],[-5.7173,8.7658,307.3687],[-5.728,8.7734,314.2277],[-5.7353,8.7835,315.0835],[-5.7399,8.803,322.2286],[-5.7512,8.8178,318.9925],[-5.7572,8.8361,326.1921],[-5.7526,8.8499,331.0801],[-5.7197,8.8633,337.6644],[-5.7122,8.8758,370.0685],[-5.7078,8.8886,371.606],[-5.7039,8.9129,364.1761],[-5.7006,8.958,389.6203],[-5.7043,8.9949,369.9644],[-5.7166,9.0005,373.9937],[-5.7174,9.0042,384.5459],[-5.7175,9.0259,388.4222],[-5.7205,9.0455,341.1362],[-5.719,9.0599,335.6555],[-5.6932,9.083,336.6251],[-5.6905,9.0872,324.0063],[-5.6863,9.1144,337.9848],[-5.6746,9.1216,326.3381]]]]}}