{"type":"Feature","properties":{"GID_3":"CIV.3.2.3_1","GID_0":"CIV","country":"Côted'Ivoire","GID_1":"CIV.3_1","province":"Comoé","NL_NAME_1":"NA","GID_2":"CIV.3.2_1","county":"SudComoé","NL_NAME_2":"NA","city":"Ayame","VARNAME_3":"NA","NL_NAME_3":"NA","TYPE_3":"Département","ENGTYPE_3":"Department","CC_3":"NA","HASC_3":"NA","name":"Ayame.city"},
"geometry":{"type": "MultiPolygon","coordinates": [[[[-3.1548,6.2522,137.4705],[-3.1743,6.252,134.3792],[-3.1773,6.2435,132.842],[-3.1798,6.242,130.6684],[-3.1823,6.2312,126.5022],[-3.1809,6.217,126.2988],[-3.1825,6.2132,130.1315],[-3.1936,6.2049,122.0878],[-3.1989,6.198,123.5438],[-3.2031,6.1821,126.0009],[-3.203,6.1773,125.4908],[-3.1971,6.1634,118.1262],[-3.1953,6.1535,117.6996],[-3.1965,6.1468,123.6307],[-3.204,6.1376,118.1817],[-3.2038,6.1336,128.2565],[-3.2094,6.121,115.4269],[-3.2124,6.1086,111.3151],[-3.2234,6.0922,115.7644],[-3.222,6.0557,114.9523],[-3.2324,6.0346,117.8648],[-3.2287,6.0198,109.083],[-3.2354,6.0065,110.4667],[-3.2412,6.0042,105.6259],[-3.2436,5.9928,114.5336],[-3.2465,5.9871,105.3073],[-3.2552,5.9821,112.9747],[-3.2643,5.9807,101.3631],[-3.2738,5.9716,126.4843],[-3.2804,5.9621,123.6043],[-3.304,5.9123,134.9526],[-3.3095,5.9216,146.7919],[-3.3135,5.8939,141.8377],[-3.3174,5.8939,143.0471],[-3.3331,5.8756,154.9137],[-3.3542,5.8431,146.23],[-3.3659,5.8287,124.0058],[-3.3722,5.8189,123.6155],[-3.3726,5.8096,118.4236],[-3.3867,5.7868,107.1569],[-3.3944,5.7845,126.0307],[-3.4072,5.7967,110.0716],[-3.4156,5.7966,111.3537],[-3.4208,5.7995,111.1238],[-3.4241,5.7981,114.6453],[-3.4168,5.7874,117.5709],[-3.4165,5.7821,92.9983],[-3.4192,5.7745,84.2921],[-3.425,5.772,77.9882],[-3.4314,5.7648,81.2859],[-3.4338,5.6467,131.1264],[-3.4188,5.6419,108.2127],[-3.3728,5.6335,113.4973],[-3.3584,5.6291,125.0601],[-3.3133,5.6221,104.2541],[-3.2741,5.6116,99.0431],[-3.1876,5.5936,142.3465],[-3.1339,5.5769,74.0599],[-3.0965,5.5764,84.5454],[-3.0787,5.578,89.0185],[-3.0708,5.5814,79.3928],[-3.0594,5.5896,115.1265],[-3.0498,5.5998,129.9044],[-3.0433,5.6099,145.586],[-3.0383,5.6445,201.1078],[-3.0327,5.7061,170.2949],[-3.0261,5.7106,188.6267],[-3.0205,5.8571,143.0987],[-3.074,5.9853,144.241],[-3.1023,6.1519,121.0753],[-3.1077,6.1651,120.7726],[-3.1548,6.2522,137.4705]]]]}}