{"type": "Feature","bbox": [-6.3061,9.7027,-5.6284,10.423],"geometry": {"type": "MultiPolygon","coordinates": [[[[-6.0557,9.8561,331.5417],[-6.055,9.8597,335.4432],[-6.0483,9.8678,335.2345],[-6.0472,9.8752,334.8418],[-6.043,9.8858,327.3847],[-6.0346,9.8908,328.1066],[-6.03,9.8921,327.066],[-6.0261,9.8894,333.984],[-6.0204,9.8897,332.8789],[-6.0118,9.8943,326.3026],[-6.0016,9.8890999999999991,327.3274],[-5.9854,9.8771,325.1028],[-5.98,9.8744,323.8399],[-5.9673,9.8721,324.187],[-5.953,9.8635,330.9197],[-5.9385,9.8663,323.9743],[-5.9366,9.8685,320.535],[-5.9316,9.8642,324.5479],[-5.923,9.8729,320.3641],[-5.9198,9.8719,324.4727],[-5.9168,9.8733,330.7891],[-5.9147,9.8774,320.5672],[-5.9034,9.8719,323.0786],[-5.9012,9.8759,323.5408],[-5.8959,9.876,329.8564],[-5.8931,9.88,321.895],[-5.8901,9.8797,329.3634],[-5.8865,9.8817,325.0186],[-5.8822,9.888,320.303],[-5.8829,9.8946,317.7847],[-5.8764,9.8957,323.6109],[-5.8759,9.8986,323.9219],[-5.8782,9.9032,317.7479],[-5.8679,9.9097,314.3434],[-5.8663,9.9023,316.858],[-5.8638,9.9015,316.9683],[-5.8612,9.9033,315.2656],[-5.8556,9.8979,323.7761],[-5.8513,9.8795,321.5461],[-5.8288,9.8138,348.3219],[-5.8301,9.7914,351.6389],[-5.8238,9.77,350.7365],[-5.8271,9.7562,365.8166],[-5.8318,9.7479,350.8208],[-5.8298,9.7354,341.0523],[-5.8317,9.724,338.6256],[-5.8227,9.7256,335.5908],[-5.8159,9.7241,327.9128],[-5.8064,9.7184,333.4861],[-5.7972,9.7062,314.7168],[-5.7877,9.7027,321.3466],[-5.7849,9.7065,318.1842],[-5.7795,9.7208,313.9536],[-5.7808,9.7243,315.6022],[-5.7784,9.7296,315.2495],[-5.7711,9.7387,315.4242],[-5.7694,9.743,311.9221],[-5.7621,9.7416,316.522],[-5.7574,9.7465,316.6164],[-5.758,9.7497,313.3206],[-5.7538,9.7511,318.7252],[-5.7503,9.7546,334.834],[-5.7507,9.7658,310.4892],[-5.7347,9.7808,308.9209],[-5.7327,9.7696,316.2878],[-5.7293,9.7667,331.5579],[-5.7267,9.7664,328.9152],[-5.7187,9.7754,316.5718],[-5.7125,9.7724,315.1487],[-5.7105,9.7744,310.1786],[-5.7105,9.7777,309.1142],[-5.7127,9.7909,307.9954],[-5.706,9.7873,308.1302],[-5.7082,9.7731,310.1943],[-5.7034,9.7675,311.6434],[-5.6886,9.7628,310.1586],[-5.6794,9.7634,310.3389],[-5.6767,9.7617,309.9924],[-5.67,9.7482,308.711],[-5.6713,9.7402,312.9958],[-5.6683,9.7373,313.3202],[-5.6646,9.7367,331.054],[-5.6601,9.7409,319.3881],[-5.6596,9.75,308.1642],[-5.6525,9.7514,316.7896],[-5.6488,9.755,324.9847],[-5.652,9.7717,308.4836],[-5.6494,9.7778,308.9844],[-5.6522,9.7816,319.1876],[-5.6521,9.7847,322.3021],[-5.6463,9.787,310.6854],[-5.6441,9.7911,315.4746],[-5.6376,9.793,313.2593],[-5.6326,9.7981,313.6442],[-5.6284,9.8146,312.9765],[-5.6339,9.8212,322.5363],[-5.6301,9.8245,313.3564],[-5.6509,9.833,320.4428],[-5.664,9.8418,314.6353],[-5.668,9.8605,319.8812],[-5.6749,9.8607,316.1873],[-5.6875,9.8696,316.2664],[-5.6892,9.8833,319.4249],[-5.6811,9.8924,317.3421],[-5.6816,9.8962,316.9065],[-5.6849,9.8999,319.9216],[-5.6914,9.8989,326.2392],[-5.7014,9.9059,318.0092],[-5.7035,9.9056,315.804],[-5.7106,9.9119,316.6928],[-5.716,9.9209,311.7611],[-5.7161,9.9287,324.9458],[-5.7194,9.9345,317.2343],[-5.7196,9.9533,325.4085],[-5.7223,9.9616,320.5],[-5.7288,9.963,321.4838],[-5.7298,9.9677,336.8868],[-5.7262,9.9722,320.5],[-5.7257,9.9788,320.5],[-5.7328,9.9853,321.7294],[-5.7305,9.9908,322.2177],[-5.7328,9.9997,321.5693],[-5.728,10.0065,321.7543],[-5.7238,10.0165,323.0269],[-5.7255,10.0235,323.4742],[-5.7243,10.0307,324.7896],[-5.7283,10.0336,332.5712],[-5.7304,10.0383,322.7446],[-5.7334,10.0556,327.6032],[-5.728,10.0699,327.9068],[-5.7283,10.0869,334.505],[-5.742,10.1125,327.7065],[-5.7395,10.121,335.491],[-5.7413,10.1294,338.8637],[-5.7604,10.1486,334.8453],[-5.7668,10.1618,339.8777],[-5.7805,10.174,343.063],[-5.7821,10.1925,353.8284],[-5.7978,10.2056,361.7614],[-5.7991,10.2113,365.2531],[-5.7968,10.2164,379.265],[-5.7904,10.2237,373.1848],[-5.7857,10.234,360.5192],[-5.7835,10.2453,358.9579],[-5.7863,10.2525,357.2401],[-5.7926,10.2577,353.4981],[-5.7913,10.2738,348.3504],[-5.7868,10.2883,346.0233],[-5.7959,10.3007,349.3607],[-5.8079,10.3078,343.5223],[-5.8074,10.3178,340.2928],[-5.814,10.3351,335.1449],[-5.8245,10.3515,335.657],[-5.8295,10.364,332.183],[-5.8247,10.3685,334.4105],[-5.8007,10.3784,345.3785],[-5.7846,10.3808,359.6939],[-5.778,10.4001,356.3444],[-5.785,10.4051,347.7362],[-5.7995,10.4061,343.5663],[-5.8113,10.423,341.4826],[-5.8142,10.4229,340.3378],[-5.8203,10.4192,348.6599],[-5.8251,10.4128,339.7659],[-5.8295,10.4032,338.8434],[-5.8289,10.3977,336.7374],[-5.8483,10.3827,339.2904],[-5.8649,10.3787,329.8072],[-5.8708,10.3807,333.8883],[-5.8843,10.3733,335.6132],[-5.8889,10.3676,342.6277],[-5.8883,10.3582,346.747],[-5.8934,10.3479,337.0829],[-5.8964,10.3365,343.5478],[-5.8955,10.3263,348.826],[-5.9061,10.3196,352.9894],[-5.9097,10.3114,362.5737],[-5.9111,10.3011,357.7333],[-5.9058,10.2844,365.1571],[-5.9092,10.2799,364.3934],[-5.9125,10.2774,366.2672],[-5.9246,10.2756,349.1471],[-5.9407,10.2835,352.4785],[-5.9573,10.2783,336.3156],[-5.964,10.2775,347.3365],[-5.971,10.2795,353.0399],[-5.9761,10.2778,341.5946],[-5.9745,10.2635,344.1023],[-5.9764,10.2532,358.18],[-5.9836,10.2395,350.4647],[-5.9871,10.2274,362.4193],[-5.9907,10.221,365.1884],[-6.0115,10.2037,364.6572],[-6.0232,10.1989,360.9802],[-6.0459,10.2014,347.8943],[-6.0512,10.2038,355.306],[-6.0607,10.2037,345.4176],[-6.0801,10.1986,375.6578],[-6.1009,10.1992,368.5978],[-6.1213,10.2051,347.6938],[-6.1495,10.221,349.4284],[-6.1581,10.2237,338.5035],[-6.1727,10.2226,335.3544],[-6.1835,10.2286,332.3331],[-6.192,10.2358,325.174],[-6.1978,10.2314,332.8269],[-6.2025,10.2315,326.7178],[-6.2108,10.2368,322.919],[-6.214,10.233,323.5484],[-6.215,10.2288,324.0912],[-6.2138,10.2245,328.4069],[-6.2165,10.2214,328.7498],[-6.2219,10.223,325.3375],[-6.2253,10.2209,324.6326],[-6.2273,10.217,321.3247],[-6.2276,10.2094,323.4465],[-6.2253,10.2037,324.3884],[-6.2156,10.1996,327.8062],[-6.208,10.1929,343.8769],[-6.2035,10.192,344.9215],[-6.2037,10.1854,333.375],[-6.2064,10.1817,322.6862],[-6.2065,10.1758,323.9103],[-6.2288,10.1617,325.47],[-6.2343,10.1547,325.6458],[-6.2354,10.1502,325.8801],[-6.2335,10.1446,326.4525],[-6.2231,10.1455,329.9505],[-6.2199,10.1397,325.88],[-6.2217,10.136,326.2037],[-6.22,10.131,324.7205],[-6.223,10.1121,334.4383],[-6.2262,10.1095,330.2265],[-6.2335,10.1102,330.3454],[-6.2383,10.1164,327.2985],[-6.2358,10.1228,328.6493],[-6.2378,10.1324,329.6635],[-6.2447,10.1353,326.1449],[-6.2582,10.1255,326.5493],[-6.2642,10.115,331.0082],[-6.2564,10.1167,332.0576],[-6.2517,10.1116,335.3913],[-6.2582,10.0987,327.2197],[-6.2568,10.0932,328.772],[-6.2598,10.0793,336.6722],[-6.2645,10.076,332.7828],[-6.2765,10.0826,328.2146],[-6.2863,10.0957,329.5776],[-6.2842,10.1056,330.3055],[-6.2909,10.0956,329.4756],[-6.2922,10.0887,330.2202],[-6.2984,10.0912,328.4279],[-6.3041,10.0903,329.6395],[-6.3061,10.0867,329.2958],[-6.3045,10.0831,328.5312],[-6.2922,10.0838,332.9968],[-6.2882,10.0823,332.4877],[-6.2805,10.069,332.8045],[-6.2718,10.0583,338.4995],[-6.2323,10.0432,359.9835],[-6.1698,10.0389,385.8538],[-6.105,10.0,348.1825],[-6.1037,9.9912,343.9456],[-6.1581,9.9892,353.9865],[-6.1772,9.9452,351.3535],[-6.1767,9.9333,345.6601],[-6.1606,9.9175,340.8749],[-6.1515,9.9145,342.3898],[-6.1456,9.9062,341.0583],[-6.0557,9.8561,331.5417]]]]}
,"properties": {"GID_3": "CIV.10.2.3_1","GID_0": "CIV","country": "Côted'Ivoire","GID_1": "CIV.10_1","province": "Savanes","NL_NAME_1": "NA","GID_2": "CIV.10.2_1","county": "Poro","NL_NAME_2": "NA","city": "M'bengue","VARNAME_3": "NA","NL_NAME_3": "NA","TYPE_3": "Département","ENGTYPE_3": "Department","CC_3": "NA","HASC_3": "NA","name": "M'bengue.city","area_km2": 2446.991,"hist_schema_id": "Elevation0-9000","hist_area_km2": {"300": 20.643,"325": 537.531,"350": 1467.583,"375": 409.024,"400": 11.772,"425": 0.438}}}