{"type":"Feature","properties":{"GID_3":"CIV.7.1.4_1","GID_0":"CIV","country":"Côted'Ivoire","GID_1":"CIV.7_1","province":"Lagunes","NL_NAME_1":"NA","GID_2":"CIV.7.1_1","county":"Agnéby-Tiassa","NL_NAME_2":"NA","city":"Tiassalé","VARNAME_3":"NA","NL_NAME_3":"NA","TYPE_3":"Département","ENGTYPE_3":"Department","CC_3":"NA","HASC_3":"NA","name":"Tiassalé.city"},
"geometry":{"type": "MultiPolygon","coordinates": [[[[-4.9364,5.8117,79.3534],[-4.8897,5.7499,46.5513],[-4.8289,5.7216,15.7254],[-4.8167,5.6938,13.6737],[-4.8056,5.6872,10.3041],[-4.7928,5.6722,5.3314],[-4.8216,5.6319,12.8272],[-4.83,5.6132,2.1695],[-4.8379,5.6099,3.3599],[-4.8517,5.6146,1.8491],[-4.8572,5.5504,19.9766],[-4.69,5.5898,55.906],[-4.6487,5.7617,50.8738],[-4.6343,5.7677,49.7303],[-4.6215,5.8332,103.2715],[-4.6276,5.856,101.8567],[-4.6305,5.8911,123.1883],[-4.5716,5.9793,99.3556],[-4.5443,6.0098,97.6606],[-4.4332,6.2457,131.3775],[-4.4592,6.2463,128.3851],[-4.4785,6.2503,157.4496],[-4.4845,6.2449,144.0818],[-4.4914,6.2424,140.3887],[-4.5045,6.2428,144.9525],[-4.5503,6.2608,124.7688],[-4.566,6.2628,105.4318],[-4.5691,6.2609,116.1411],[-4.5773,6.2613,111.688],[-4.684,6.2833,52.1942],[-4.6907,6.2816,60.1192],[-4.7022,6.2825,52.9809],[-4.7016,6.2746,60.5946],[-4.7112,6.2641,63.3123],[-4.7217,6.2589,60.0438],[-4.7294,6.2514,55.9077],[-4.7379,6.2522,52.1604],[-4.7446,6.246,65.1682],[-4.7857,6.2381,66.1036],[-4.7925,6.2412,55.8618],[-4.8011,6.2401,75.4808],[-4.8081,6.2415,63.6883],[-4.8155,6.2516,54.1759],[-4.819,6.2512,55.5439],[-4.8192,6.2458,44.9256],[-4.8144,6.2407,52.8668],[-4.8175,6.236,52.6353],[-4.8245,6.2338,48.9617],[-4.8286,6.2344,49.2355],[-4.8171,6.2138,47.6119],[-4.8108,6.2071,47.1121],[-4.7822,6.2013,48.4485],[-4.7885,6.1979,43.4258],[-4.7941,6.2004,46.9775],[-4.7989,6.1975,46.7981],[-4.802,6.1933,57.8762],[-4.8023,6.1909,59.8936],[-4.7964,6.1844,50.0639],[-4.7943,6.1794,42.6971],[-4.7962,6.1723,47.5849],[-4.7945,6.1656,43.6669],[-4.7871,6.1622,44.2364],[-4.7815,6.1634,53.9209],[-4.7763,6.1582,45.6502],[-4.7507,6.1461,45.3031],[-4.7466,6.1419,46.5578],[-4.7531,6.1313,39.5566],[-4.7528,6.1265,43.5506],[-4.7479,6.1178,43.7174],[-4.7503,6.1149,43.9956],[-4.7567,6.1129,42.939],[-4.7687,6.1152,41.6656],[-4.7712,6.1141,44.2274],[-4.7651,6.098,43.8506],[-4.7662,6.0949,42.4365],[-4.7709,6.0922,41.5539],[-4.7741,6.0823,51.203],[-4.7727,6.0788,47.4633],[-4.7734,6.0755,56.3986],[-4.7697,6.0711,60.659],[-4.7669,6.07,53.204],[-4.7644,6.0656,42.1827],[-4.7652,6.0634,43.895],[-4.7854,6.0554,43.0563],[-4.7892,6.0451,41.5862],[-4.7945,6.0459,39.102],[-4.801,6.0528,41.1025],[-4.8058,6.051,37.4961],[-4.8069,6.0461,40.0047],[-4.8008,6.036,39.6193],[-4.8011,6.0338,41.3469],[-4.8092,6.0311,40.7398],[-4.8103,6.029,38.1757],[-4.8145,6.0308,37.6715],[-4.8166,6.0347,41.1582],[-4.8184,6.0343,46.5623],[-4.8383,6.0142,61.4553],[-4.8493,6.0061,64.1583],[-4.8581,6.0023,46.584],[-4.8614,5.9977,37.7091],[-4.8676,5.999,37.2781],[-4.8689,6.0037,34.9628],[-4.8765,6.0061,33.0276],[-4.8827,6.004,32.0],[-4.8882,5.9956,38.8538],[-4.8952,5.9964,56.1917],[-4.9025,6.0014,50.9419],[-4.9079,6.0099,40.0314],[-4.9123,6.0262,39.6965],[-4.916,6.0336,37.5468],[-4.9193,6.036,37.7264],[-4.926,6.0364,44.4225],[-4.9296,6.0423,38.3484],[-4.9408,6.036,49.5879],[-4.9455,6.028,64.326],[-4.9481,6.0271,85.0444],[-4.9546,6.0203,79.0795],[-4.9643,6.0179,49.2646],[-4.9754,6.0174,57.2829],[-4.983,6.0145,68.9829],[-4.9982,5.991,65.3532],[-5.0133,5.9818,86.6882],[-5.0155,5.9655,80.0297],[-5.0083,5.9412,83.0955],[-5.01,5.9099,107.3412],[-4.9364,5.8117,79.3534]]]]}}