{"type": "Feature","id": "3444","bbox": [-6.44578,6.48865,-5.40992,7.74392],"geometry": {"type": "Polygon","coordinates": [[[-5.73326,7.49471,181.5],[-5.72339,7.49673,181.5],[-5.71915,7.49913,181.5],[-5.71605,7.50223,181.5],[-5.71404,7.50698,181.5],[-5.71693,7.51931,182.0698],[-5.72375,7.53693,181.9564],[-5.74277,7.57533,240.8763],[-5.75398,7.59,242.7656],[-5.76339,7.5983,259.8203],[-5.76949,7.59961,275.1506],[-5.77481,7.6014,270.1436],[-5.77931,7.60388,272.8685],[-5.78277,7.60721,268.152],[-5.78489,7.61395,289.1627],[-5.78613,7.62398,281.356],[-5.78055,7.69031,267.0206],[-5.78344,7.70715,290.0618],[-5.79574,7.74392,231.7058],[-5.8253,7.74276,259.6996],[-5.83574,7.74082,270.0987],[-5.85,7.73601,277.6076],[-5.86917,7.72312,290.2485],[-5.88793,7.71328,291.6029],[-5.90633,7.70669,283.7427],[-5.98338,7.73671,269.2695],[-5.99717,7.73973,286.6136],[-6.00787,7.73772,261.8016],[-6.04027,7.71436,249.7075],[-6.06828,7.68845,245.4174],[-6.07174,7.67752,244.0411],[-6.07241,7.66961,237.8892],[-6.06993,7.65168,224.4381],[-6.06983,7.64734,235.4288],[-6.07334,7.64088,227.7211],[-6.07655,7.63607,237.4145],[-6.10575,7.6184,202.9005],[-6.30077,7.51125,291.2457],[-6.31442,7.50021,294.3961],[-6.32516,7.47797,297.4356],[-6.33235,7.45267,282.8628],[-6.34485,7.42947,278.8287],[-6.39798,7.34963,247.7775],[-6.44578,7.25483,251.8466],[-6.44355,7.23395,244.4991],[-6.42071,7.24271,262.0926],[-6.40976,7.24871,254.4711],[-6.3972,7.2525,279.3504],[-6.38785,7.25126,257.368],[-6.37839,7.24333,270.6469],[-6.371,7.23519,253.3172],[-6.36485,7.2269,278.8304],[-6.35834,7.22183,264.3976],[-6.3493,7.21796,274.6001],[-6.33441,7.21726,276.3506],[-6.30077,7.21114,292.7084],[-6.27369,7.21083,295.3654],[-6.25318,7.21292,256.4802],[-6.23287,7.21796,267.5215],[-6.22667,7.23209,269.7636],[-6.22445,7.24736,271.7863],[-6.22465,7.27578,280.1427],[-6.22357,7.28129,291.7851],[-6.22052,7.28509,282.6481],[-6.21101,7.28888,258.1797],[-6.20491,7.28981,261.3417],[-6.19137,7.29012,263.5728],[-6.17184,7.28811,240.6687],[-6.12724,7.27692,188.025],[-6.11944,7.26669,200.4639],[-6.11458,7.2532,185.6739],[-6.11221,7.24902,181.8571],[-6.10869,7.24573,183.0889],[-6.10239,7.24248,184.719],[-6.07603,7.23287,183.7404],[-6.03035,7.2085,177.5827],[-6.01846,7.20369,176.0485],[-5.99965,7.1891,189.2383],[-5.99635,7.18762,186.1497],[-5.97144,7.18421,176.7788],[-5.93185,7.16535,178.1125],[-5.94255,7.1531,176.2567],[-5.94519,7.14892,176.44],[-5.9472,7.14124,177.1328],[-5.9547,7.13814,196.501],[-5.96792,7.13559,208.5958],[-5.9964,7.13316,240.3143],[-6.01836,7.12936,222.8854],[-6.1984,7.01376,258.3891],[-6.21111,7.00043,271.459],[-6.21644,6.98342,258.5449],[-6.21866,6.96629,242.1175],[-6.2199,6.93183,232.3288],[-6.21778,6.91183,266.1359],[-6.21204,6.88948,234.0289],[-6.17556,6.81514,245.4899],[-6.17344,6.7984,242.9823],[-6.17303,6.76447,272.0524],[-6.16507,6.72763,250.0945],[-6.12631,6.67618,243.4126],[-6.09159,6.62838,257.4795],[-6.09541,6.60404,250.0933],[-6.0888,6.56973,246.3003],[-6.04079,6.51976,207.4053],[-5.73993,6.48865,237.0724],[-5.71037,6.49503,200.5185],[-5.51214,6.62923,203.8257],[-5.4817,6.64073,231.6596],[-5.41519,6.64011,144.615],[-5.4134,6.6401,143.4133],[-5.41333,6.64127,146.2636],[-5.40992,6.69148,144.7058],[-5.4138,6.7121,143.9015],[-5.42408,6.7346,145.1708],[-5.43488,6.75814,148.539],[-5.4371,6.76672,144.826],[-5.48604,6.81312,148.7685],[-5.49571,6.82475,155.0883],[-5.50149,6.84656,177.5737],[-5.52878,6.8779,153.7298],[-5.53736,6.89645,156.4841],[-5.5355,6.91485,159.6098],[-5.51462,6.93133,156.8759],[-5.5094,6.94828,159.3185],[-5.50769,6.96448,164.7281],[-5.49896,6.99286,158.093],[-5.49581,7.00061,161.0139],[-5.48878,7.01229,170.8552],[-5.47855,7.01608,201.9218],[-5.4664,7.02205,277.7798],[-5.46232,7.02515,218.6059],[-5.45922,7.02898,181.5],[-5.45871,7.03316,181.5],[-5.46108,7.03719,181.5],[-5.48072,7.04293,223.9564],[-5.48558,7.04502,226.3799],[-5.48981,7.0475,213.9429],[-5.4941,7.05078,181.5],[-5.4986,7.05567,181.5],[-5.50351,7.06303,181.5],[-5.50661,7.07381,181.5],[-5.50718,7.08143,181.5],[-5.50599,7.08755,181.5],[-5.50046,7.10065,181.5],[-5.49281,7.12936,181.5],[-5.49395,7.13533,181.5],[-5.49726,7.14031,181.5],[-5.52428,7.1507,181.5],[-5.53121,7.15248,183.6231],[-5.53767,7.15318,206.7686],[-5.54702,7.15163,181.5],[-5.55229,7.14962,181.5],[-5.55539,7.14714,181.5],[-5.55958,7.1445,181.5],[-5.56413,7.14233,181.5],[-5.56945,7.14093,181.5],[-5.57477,7.14101,181.5],[-5.58107,7.14225,181.5],[-5.58722,7.14496,181.5],[-5.59575,7.15101,181.5],[-5.60087,7.15667,181.5],[-5.60397,7.16716,181.5],[-5.60433,7.17344,181.5],[-5.60578,7.17941,181.5],[-5.61766,7.18724,181.5],[-5.63482,7.20114,181.5],[-5.64236,7.20377,181.5],[-5.64887,7.20439,181.5],[-5.65466,7.20416,181.5],[-5.65973,7.20501,181.5],[-5.66448,7.20749,181.5],[-5.6683,7.21176,181.5],[-5.67471,7.22364,181.5],[-5.67616,7.22853,181.5],[-5.67502,7.23271,181.5],[-5.66944,7.23573,181.5],[-5.66557,7.23876,181.5],[-5.66293,7.2431,181.5],[-5.66489,7.24809,181.5],[-5.66216,7.257,181.5],[-5.659,7.26312,181.5],[-5.66045,7.26925,181.5],[-5.66717,7.28098,181.5],[-5.67223,7.28726,181.5],[-5.67802,7.29121,181.5],[-5.6929,7.29664,181.5],[-5.69693,7.29943,181.5],[-5.7004,7.30276,181.5],[-5.70365,7.30651,181.5],[-5.71104,7.31302,181.5],[-5.71326,7.31712,181.5],[-5.71404,7.32154,181.5],[-5.71068,7.32666,181.5],[-5.70262,7.33366,184.44],[-5.69962,7.33785,181.5],[-5.6989,7.34358,181.5],[-5.70065,7.34994,185.3679],[-5.7083,7.35831,202.5313],[-5.71812,7.36141,198.5676],[-5.72179,7.36369,191.617],[-5.72773,7.37144,194.6638],[-5.72975,7.39162,181.5],[-5.72215,7.45562,181.5],[-5.73569,7.47236,181.5],[-5.73812,7.47611,181.5],[-5.74215,7.49479,181.5],[-5.73326,7.49471,181.5]]]}
,"properties": {"ISO3166-1-Alpha-3": "CIV","country": "Ivory Coast","fill": "#F00","name": "Marahoué","area_km2": 8642.229,"hist_schema_id": "Elevation0-9000","hist_area_km2": {"150": 142.523,"175": 812.591,"200": 1808.568,"225": 2222.056,"250": 1748.216,"275": 1282.01,"300": 511.604,"325": 41.27,"350": 16.416,"375": 12.607,"400": 10.145,"425": 8.629,"450": 6.735,"475": 4.883,"500": 4.125,"525": 3.199,"550": 2.105,"575": 3.283,"600": 0.863,"625": 0.211,"650": 0.19}}}