{"type":"Feature","properties":{"GID_2":"CIV.9.2_1","GID_0":"CIV","country":"Côted'Ivoire","GID_1":"CIV.9_1","province":"Sassandra-Marahoué","NL_NAME_1":"NA","county":"Marahoué","VARNAME_2":"NA","NL_NAME_2":"NA","TYPE_2":"Région","ENGTYPE_2":"Region","CC_2":"NA","HASC_2":"CI.SM.MH","name":"Marahoué.county"},
"geometry":{"type": "MultiPolygon","coordinates": [[[[-6.0409,6.5305,201.4382],[-5.9317,6.5282,243.4844],[-5.7421,6.5002,216.9924],[-5.5002,6.6541,412.9138],[-5.4047,6.6525,147.3936],[-5.3995,6.6602,150.8753],[-5.3983,6.6714,147.4303],[-5.405,6.6921,152.2368],[-5.405,6.7048,149.7202],[-5.4233,6.741,147.946],[-5.4328,6.7545,149.1152],[-5.4333,6.7705,154.9061],[-5.4358,6.7791,148.5518],[-5.4388,6.7847,148.525],[-5.4629,6.8046,148.6546],[-5.4815,6.8126,146.8269],[-5.4839,6.8206,147.3622],[-5.4815,6.8307,147.4333],[-5.4854,6.845,149.9409],[-5.4837,6.8523,161.6979],[-5.486,6.8577,156.6367],[-5.4929,6.8631,157.1104],[-5.5107,6.867,148.8579],[-5.5174,6.8763,154.9884],[-5.5211,6.885,153.0657],[-5.5189,6.89,153.4042],[-5.5199,6.8947,156.8028],[-5.5273,6.9019,152.606],[-5.5281,6.9072,152.9365],[-5.5263,6.9125,152.7658],[-5.5193,6.9161,160.4525],[-5.513,6.9235,156.7052],[-5.5053,6.9261,156.7643],[-5.5013,6.9309,157.8093],[-5.4981,6.9461,162.8947],[-5.4995,6.9531,162.4655],[-5.499,6.9659,177.8779],[-5.4953,6.984,193.9352],[-5.4964,6.9889,187.9601],[-5.4897,7.0024,167.8193],[-5.484,7.007,168.0319],[-5.4794,7.025,164.2525],[-5.4739,7.0311,187.2115],[-5.4691,7.0331,181.5],[-5.4587,7.0285,181.5],[-5.456,7.0288,181.5],[-5.4475,7.0356,181.5],[-5.4492,7.0408,181.5],[-5.4675,7.0458,181.5],[-5.4843,7.0532,181.5],[-5.4872,7.0569,181.5],[-5.4935,7.1059,181.5],[-5.4921,7.1106,181.5],[-5.4885,7.1134,181.5],[-5.4848,7.1266,181.5],[-5.479,7.1365,181.5],[-5.4802,7.1399,181.5],[-5.5216,7.1593,181.5],[-5.5382,7.1578,181.5],[-5.5504,7.1437,181.9478],[-5.5722,7.1431,181.5],[-5.5849,7.1435,181.5],[-5.6073,7.1597,181.5],[-5.5962,7.1733,181.5],[-5.5959,7.1783,181.5],[-5.5981,7.187,181.5],[-5.6066,7.192,181.5],[-5.6199,7.1945,181.5],[-5.636,7.2023,181.5],[-5.6489,7.2048,181.5],[-5.666,7.2201,181.5],[-5.6688,7.2257,181.5],[-5.6688,7.235,181.5],[-5.6662,7.2372,181.5],[-5.6635,7.2384,181.5],[-5.6534,7.2337,181.5],[-5.6502,7.2344,181.5],[-5.6482,7.2375,181.5],[-5.6468,7.25,181.5],[-5.6471,7.2758,191.8933],[-5.6682,7.295,181.5],[-5.6723,7.2972,181.5],[-5.6795,7.2981,181.5],[-5.6958,7.3066,181.5],[-5.7149,7.3233,181.5],[-5.7137,7.3283,181.5],[-5.6905,7.3414,181.5],[-5.6865,7.3453,186.2599],[-5.6832,7.3546,181.5],[-5.6874,7.3617,181.5],[-5.6949,7.3669,181.5],[-5.7082,7.3656,181.5],[-5.7145,7.3687,181.5],[-5.7227,7.3808,181.5],[-5.7269,7.4066,181.5],[-5.7261,7.4104,181.5],[-5.7204,7.4169,181.5],[-5.718,7.4308,181.5],[-5.7107,7.4433,195.2584],[-5.7107,7.461,184.6572],[-5.7268,7.4716,181.5],[-5.7335,7.4858,189.2963],[-5.734,7.4968,181.5],[-5.7303,7.5019,181.5],[-5.7174,7.506,181.5],[-5.7118,7.5108,181.5],[-5.7112,7.5238,181.5],[-5.7054,7.5283,181.5],[-5.7024,7.529,181.5],[-5.6923,7.5376,181.5],[-5.6818,7.5425,181.5],[-5.6639,7.5473,191.8739],[-5.6624,7.552,181.8418],[-5.6639,7.556,181.5],[-5.6841,7.5654,181.816],[-5.6971,7.5786,181.5],[-5.6964,7.5857,182.08],[-5.659,7.6022,181.5],[-5.6359,7.6082,186.1296],[-5.6322,7.6099,189.4154],[-5.6323,7.6131,181.5],[-5.6372,7.6195,181.5],[-5.6626,7.6237,183.1086],[-5.6883,7.6399,184.9145],[-5.6874,7.6422,181.5],[-5.6675,7.6505,199.9975],[-5.6639,7.6562,198.3591],[-5.6671,7.6605,187.9713],[-5.6705,7.662,182.5673],[-5.6829,7.6627,183.6329],[-5.6952,7.6689,185.4272],[-5.6949,7.6785,185.3271],[-5.689,7.6826,183.9139],[-5.6781,7.6853,199.9035],[-5.6729,7.6934,202.8849],[-5.6733,7.695,197.6364],[-5.6864,7.7023,185.7342],[-5.6873,7.7053,185.8884],[-5.6855,7.7118,186.4595],[-5.6767,7.7177,184.9412],[-5.6823,7.7261,187.7239],[-5.699,7.737,205.2626],[-5.7137,7.7391,203.9511],[-5.7456,7.7471,215.4483],[-5.7662,7.7466,209.7711],[-5.7897,7.7549,225.6768],[-5.8267,7.7564,248.4565],[-5.8279,7.7664,275.2302],[-5.8415,7.7779,286.7469],[-5.8776,7.7619,312.0319],[-5.9779,7.7439,254.6009],[-5.998,7.7514,292.0378],[-6.0033,7.7557,272.98],[-6.0084,7.7572,257.7025],[-6.0347,7.7582,240.5122],[-6.0386,7.7534,236.275],[-6.0363,7.7444,236.6489],[-6.0439,7.732,235.6945],[-6.0518,7.711,238.9861],[-6.0525,7.7144,238.3395],[-6.0596,7.7152,239.7554],[-6.0662,7.6958,233.1376],[-6.0586,7.6911,227.9789],[-6.0583,7.6849,233.1889],[-6.0608,7.6833,233.1793],[-6.0613,7.6771,231.6621],[-6.0667,7.6749,230.4347],[-6.0701,7.6703,230.8166],[-6.0701,7.6664,231.1791],[-6.0779,7.6572,226.7289],[-6.0786,7.6551,230.119],[-6.0766,7.6513,230.1494],[-6.0797,7.6455,229.2806],[-6.079,7.6418,224.0533],[-6.0931,7.6363,222.7639],[-6.1082,7.6374,205.8595],[-6.1123,7.6434,207.8435],[-6.3295,7.5198,288.858],[-6.3265,7.4553,279.2727],[-6.3868,7.4081,245.1544],[-6.4005,7.3841,244.5651],[-6.3965,7.3731,241.1413],[-6.4027,7.3617,242.5629],[-6.4034,7.3454,242.8127],[-6.4011,7.3388,236.2228],[-6.4018,7.3295,248.0078],[-6.3956,7.31,265.93],[-6.4019,7.2934,235.2562],[-6.3989,7.2819,257.2798],[-6.4038,7.265,261.0239],[-6.3997,7.2596,275.2003],[-6.3864,7.2558,254.862],[-6.38,7.252,281.5735],[-6.3721,7.2435,282.8621],[-6.3539,7.2309,270.1396],[-6.3435,7.2153,252.1798],[-6.3387,7.1968,279.4136],[-6.3019,7.1692,288.3796],[-6.2899,7.1902,295.4428],[-6.2526,7.2224,261.4011],[-6.1831,7.2604,230.5109],[-6.0158,7.204,179.5902],[-6.0061,7.2023,178.3296],[-5.9952,7.1978,175.6049],[-5.988,7.1923,180.1416],[-5.9768,7.1908,178.1563],[-5.9387,7.1758,173.6442],[-5.9294,7.174,173.2739],[-5.9986,7.165,207.6389],[-6.1963,7.0165,262.5124],[-6.1972,7.0033,276.5345],[-6.1962,6.9953,280.5935],[-6.206,6.8933,234.1675],[-6.1746,6.817,240.0449],[-6.1706,6.7422,248.3253],[-6.1492,6.7063,281.8546],[-6.157,6.6782,261.4852],[-6.1357,6.6342,265.1743],[-6.1077,6.6152,255.3057],[-6.108,6.5742,240.5728],[-6.0409,6.5305,201.4382]]]]}}