{"type":"Feature","properties":{"GID_3":"CIV.6.3.2_1","GID_0":"CIV","country":"Côted'Ivoire","GID_1":"CIV.6_1","province":"Lacs","NL_NAME_1":"NA","GID_2":"CIV.6.3_1","county":"Moronou","NL_NAME_2":"NA","city":"Bongouanou","VARNAME_3":"NA","NL_NAME_3":"NA","TYPE_3":"Département","ENGTYPE_3":"Department","CC_3":"NA","HASC_3":"NA","name":"Bongouanou.city"},
"geometry":{"type": "MultiPolygon","coordinates": [[[[-4.0335,6.9985,227.027],[-4.3341,6.8297,90.433],[-4.3244,6.822,100.9313],[-4.3239,6.8189,99.1078],[-4.3335,6.8076,92.7095],[-4.3417,6.7946,94.2699],[-4.3478,6.7925,93.9655],[-4.3544,6.7957,91.8514],[-4.3555,6.7981,93.0658],[-4.3643,6.7998,96.2203],[-4.3687,6.7975,94.2065],[-4.3731,6.7884,91.6103],[-4.3764,6.7852,103.3042],[-4.3876,6.7897,90.3249],[-4.3936,6.7995,90.1949],[-4.401,6.8022,87.7565],[-4.4035,6.8029,87.9031],[-4.4073,6.7946,93.5245],[-4.4093,6.7942,92.8548],[-4.4144,6.7986,89.5527],[-4.4239,6.8016,86.2111],[-4.4236,6.7979,90.9888],[-4.4204,6.7945,89.2748],[-4.4226,6.7892,88.5929],[-4.4266,6.7873,91.1548],[-4.4292,6.7831,97.0607],[-4.426,6.7733,89.6777],[-4.4304,6.766,97.2429],[-4.4347,6.7659,112.8284],[-4.4488,6.7721,94.0839],[-4.4529,6.7672,90.3396],[-4.4565,6.767,92.3677],[-4.464,6.7704,90.9597],[-4.4681,6.7774,88.8268],[-4.4692,6.7768,89.9622],[-4.4703,6.7711,87.9895],[-4.4648,6.7609,87.5617],[-4.4559,6.7549,91.1303],[-4.4521,6.754,93.2147],[-4.433,6.754,88.6492],[-4.4234,6.7456,87.5517],[-4.4242,6.7413,92.1893],[-4.4332,6.7377,86.9743],[-4.4369,6.7386,86.345],[-4.4378,6.7354,86.3505],[-4.4297,6.7233,83.4536],[-4.4296,6.7167,85.4685],[-4.4311,6.7146,110.8908],[-4.3122,6.4992,152.719],[-4.1418,6.4688,112.913],[-4.1135,6.455,84.5008],[-4.108,6.4648,84.1882],[-4.1054,6.4777,82.8554],[-4.1071,6.4854,87.7462],[-4.1043,6.4942,94.8809],[-4.1064,6.5021,107.9047],[-4.1055,6.5047,87.3039],[-4.0914,6.5116,89.0046],[-4.0784,6.5248,89.3444],[-4.0576,6.5551,93.5137],[-4.0509,6.5587,95.0383],[-4.0429,6.5596,95.6044],[-4.0281,6.5555,104.7209],[-4.0247,6.5572,106.9851],[-4.0725,6.6147,142.5789],[-4.1012,6.6359,151.2101],[-4.1096,6.6477,254.5301],[-4.1205,6.6682,179.0725],[-4.1329,6.6842,181.3684],[-4.1369,6.6959,168.5669],[-4.1356,6.7037,166.4551],[-4.088,6.7474,171.4303],[-4.0816,6.7731,160.6572],[-4.081,6.782,178.7815],[-4.0834,6.7898,163.2794],[-4.0843,6.8025,168.5541],[-4.0726,6.825,182.3041],[-4.0536,6.8423,186.6231],[-4.0482,6.8931,234.9335],[-4.008,6.9633,198.1093],[-4.0065,6.9703,213.9533],[-4.0089,6.9805,200.0574],[-4.0113,6.9836,193.4604],[-4.0335,6.9985,227.027]]]]}}