{"type": "Feature","bbox": [-5.6333,7.9551,-4.7536,8.4651],"geometry": {"type": "MultiPolygon","coordinates": [[[[-5.3111,8.0996,241.7465],[-5.3038,8.0896,255.1157],[-5.2866,8.0719,268.8874],[-5.2823,8.0627,282.857],[-5.2756,8.0594,277.6202],[-5.2626,8.0588,282.2129],[-5.2543,8.0562,288.6395],[-5.2494,8.063,290.4416],[-5.2464,8.0638,289.9643],[-5.2436,8.0623,303.6039],[-5.2419,8.051,299.4472],[-5.2377,8.046,288.1083],[-5.2369,8.0424,281.6722],[-5.2393,8.0196,268.7948],[-5.2373,8.017,284.2092],[-5.2277,8.0149,290.0867],[-5.2192,8.0103,291.3208],[-5.2128,8.0104,297.1547],[-5.2064,8.0133,310.2213],[-5.1491,7.9551,333.2482],[-5.1381,7.963,325.2057],[-5.1221,7.9642,311.5827],[-5.1004,7.9697,285.6006],[-5.0886,7.9704,280.8018],[-5.0826,7.9662,274.6789],[-5.0657,7.9651,266.5286],[-5.0462,7.9734,259.4426],[-5.036,7.9828,263.3387],[-5.025,7.9873,263.8702],[-5.0162,7.9858,258.1355],[-5.0057,7.9883,249.202],[-5.0023,7.984,245.8809],[-5.0004,7.9838,245.4845],[-4.9982,7.9856,251.295],[-4.9959,7.9961,266.5294],[-4.9885,7.9952,270.0558],[-4.9817,7.9979,279.7611],[-4.9769,7.9939,277.3748],[-4.97,7.9915,268.3509],[-4.9528,7.9891,262.5193],[-4.9391,7.977,252.1094],[-4.9294,7.9708,249.6246],[-4.7804,8.0167,267.7694],[-4.767,8.0168,273.1235],[-4.7587,8.0271,189.8282],[-4.7536,8.0304,185.1808],[-4.7544,8.0339,193.5973],[-4.7619,8.0381,185.632],[-4.761,8.0451,182.5864],[-4.7631,8.0491,184.4419],[-4.7768,8.0563,193.823],[-4.7771,8.0603,193.2172],[-4.7744,8.0638,185.8986],[-4.7692,8.0648,194.6841],[-4.7706,8.0686,187.5171],[-4.7792,8.069,189.4352],[-4.7853,8.072,192.0167],[-4.7887,8.0799,192.878],[-4.7878,8.0842,187.4957],[-4.7892,8.087,187.6825],[-4.7922,8.0879,196.6552],[-4.7966,8.0857,205.4425],[-4.813,8.0937,191.1845],[-4.8185,8.1052,197.1648],[-4.8181,8.117,189.205],[-4.83,8.1247,190.5325],[-4.833,8.1291,189.2741],[-4.836,8.1397,203.3665],[-4.836,8.1508,198.4444],[-4.8427,8.1675,193.5168],[-4.8377,8.1743,193.9455],[-4.8401,8.1787,191.6877],[-4.8464,8.1838,199.8053],[-4.846,8.189,197.114],[-4.8417,8.1908,200.4689],[-4.8429,8.194,195.734],[-4.8495,8.1975,199.5097],[-4.8503,8.2024,197.5067],[-4.8406,8.207,198.3668],[-4.8426,8.2096,197.8802],[-4.8518,8.2125,202.507],[-4.8516,8.2169,198.7501],[-4.8488,8.2186,199.8079],[-4.8479,8.2214,198.1339],[-4.8539,8.2264,205.4556],[-4.8541,8.2306,195.8212],[-4.8505,8.2376,199.6968],[-4.8511,8.2416,200.8135],[-4.8618,8.2463,200.3325],[-4.8612,8.2498,202.6833],[-4.8507,8.2547,202.2816],[-4.8505,8.2635,201.2923],[-4.8599,8.2645,200.373],[-4.864,8.2671,203.1675],[-4.8656,8.2727,201.752],[-4.8693,8.2737,201.9264],[-4.8777,8.2705,203.3609],[-4.8805,8.272,209.1736],[-4.8822,8.2823,205.5005],[-4.8936,8.2836,207.6776],[-4.8969,8.2854,209.3609],[-4.8981,8.2898,205.237],[-4.897,8.2937,206.7101],[-4.8943,8.2958,204.4223],[-4.8872,8.2951,206.3828],[-4.8817,8.3027,210.8374],[-4.8899,8.301,216.9333],[-4.8927,8.3029,219.7839],[-4.8939,8.3062,204.5481],[-4.8933,8.3132,206.5602],[-4.899,8.3228,207.2121],[-4.9077,8.331,207.2916],[-4.9079,8.3348,207.0615],[-4.9275,8.33,218.0164],[-4.9383,8.3326,210.4984],[-4.9447,8.3308,217.573],[-4.9505,8.3359,217.012],[-4.9538,8.3328,220.8439],[-4.9566,8.3329,217.2237],[-4.9698,8.3375,218.3421],[-4.9797,8.3384,222.3263],[-4.9872,8.3428,220.9604],[-4.9874,8.3485,222.953],[-4.991,8.352,221.9743],[-5.002,8.358,225.0768],[-5.0051,8.3577,226.8276],[-5.0132,8.3649,228.0653],[-5.019,8.3666,226.7842],[-5.0282,8.3646,232.215],[-5.0388,8.3678,230.407],[-5.0469,8.3641,234.3519],[-5.0513,8.3638,238.1585],[-5.0622,8.3706,237.555],[-5.0666,8.3703,242.2147],[-5.0677,8.3757,239.9578],[-5.0722,8.3756,242.8702],[-5.0786,8.3874,243.8796],[-5.0792,8.3932,245.6238],[-5.0818,8.3963,249.0502],[-5.0906,8.3922,247.4268],[-5.0928,8.3941,249.1199],[-5.0922,8.3972,250.0257],[-5.1009,8.3994,259.109],[-5.1029,8.4026,256.7133],[-5.2762,8.4518,285.1243],[-5.5358,8.4482,257.08],[-5.5416,8.4464,256.2315],[-5.5537,8.4459,256.7647],[-5.5598,8.4479,253.0878],[-5.5692,8.4588,256.5572],[-5.5908,8.4651,266.3823],[-5.5951,8.4613,266.4777],[-5.6019,8.4592,252.1766],[-5.6056,8.4599,250.6493],[-5.6102,8.4525,257.3436],[-5.6272,8.4521,255.2891],[-5.6306,8.4505,256.1235],[-5.6333,8.4397,260.4861],[-5.6309,8.4366,265.0709],[-5.6166,8.4264,263.8338],[-5.6102,8.4251,253.4197],[-5.6007,8.419,255.2737],[-5.581,8.412,251.8576],[-5.5682,8.3973,248.0],[-5.5657,8.3925,251.6102],[-5.5549,8.3825,251.7283],[-5.5367,8.3749,264.885],[-5.5312,8.3774,250.0142],[-5.5198,8.3746,252.9633],[-5.509,8.3778,263.9901],[-5.5067,8.3798,251.3244],[-5.5032,8.3767,251.1609],[-5.503,8.3658,246.2427],[-5.492,8.3551,250.2643],[-5.4818,8.3585,242.0566],[-5.4732,8.3512,232.4784],[-5.4643,8.3482,229.7998],[-5.4619,8.3505,226.721],[-5.4501,8.3414,230.8743],[-5.4369,8.3358,224.763],[-5.4197,8.313,231.837],[-5.4128,8.3087,232.4644],[-5.3921,8.3016,222.8368],[-5.3919,8.2763,236.7429],[-5.3868,8.2723,239.4672],[-5.3711,8.2717,229.3404],[-5.3617,8.2682,224.6034],[-5.3494,8.2618,225.3808],[-5.3385,8.2515,228.5228],[-5.3372,8.2484,219.6919],[-5.3485,8.2472,225.5447],[-5.3556,8.2499,216.4792],[-5.3683,8.259,225.5376],[-5.3719,8.2588,224.7567],[-5.3731,8.2448,223.8307],[-5.37,8.2416,223.2782],[-5.3666,8.2329,224.9786],[-5.358,8.2274,222.8002],[-5.3534,8.2213,222.7877],[-5.349,8.2202,221.318],[-5.3466,8.2175,220.3803],[-5.3472,8.2127,221.7966],[-5.3549,8.2029,223.0881],[-5.3569,8.1927,216.9122],[-5.3548,8.1843,212.6884],[-5.3507,8.18,209.5694],[-5.3494,8.1745,214.1507],[-5.3578,8.1623,209.0124],[-5.3554,8.1587,214.7038],[-5.3481,8.1534,227.3161],[-5.3391,8.1403,265.9456],[-5.3367,8.134,249.827],[-5.3321,8.1301,257.7618],[-5.3111,8.0996,241.7465]]]]}
,"properties": {"GID_3": "CIV.11.2.2_1","GID_0": "CIV","country": "Côted'Ivoire","GID_1": "CIV.11_1","province": "ValléeduBandama","NL_NAME_1": "NA","GID_2": "CIV.11.2_1","county": "Hambol","NL_NAME_2": "NA","city": "Katiola","VARNAME_3": "NA","NL_NAME_3": "NA","TYPE_3": "Département","ENGTYPE_3": "Department","CC_3": "NA","HASC_3": "NA","name": "Katiola.city","area_km2": 2770.298,"hist_schema_id": "Elevation0-9000","hist_area_km2": {"175": 1.407,"200": 85.777,"225": 372.086,"250": 659.651,"275": 783.718,"300": 583.764,"325": 227.058,"350": 47.459,"375": 6.169,"400": 2.098,"425": 0.692,"450": 0.273,"475": 0.147}}}