{"type":"Feature","properties":{"ISO3166-1-Alpha-3":"CIV","country":"Ivory Coast","fill":"#000","id":"3443","name":"Worodougou"},
"geometry":{"type": "Polygon","coordinates": [[[-6.28946,9.20579,379.8214],[-6.30909,9.21091,382.9479],[-6.33653,9.20564,391.9794],[-6.34661,9.19828,375.7592],[-6.34919,9.19409,389.1056],[-6.35348,9.18399,385.2452],[-6.35912,9.16182,431.2823],[-6.36501,9.15102,396.2623],[-6.37059,9.14706,401.2835],[-6.37772,9.14559,405.0545],[-6.38526,9.14505,428.3483],[-6.39653,9.1404,423.7278],[-6.40211,9.1359,422.8206],[-6.42025,9.11099,413.0745],[-6.44035,9.0881,395.2387],[-6.45136,9.0795,375.7665],[-6.46025,9.07547,363.0029],[-6.46567,9.07686,356.8524],[-6.47037,9.07919,369.0277],[-6.47456,9.08221,353.0683],[-6.48169,9.0895,369.0431],[-6.48738,9.09743,404.9995],[-6.49234,9.10603,415.7407],[-6.5005,9.12751,401.7544],[-6.50402,9.13466,401.8809],[-6.5097,9.14303,420.8946],[-6.52024,9.15288,407.614],[-6.52613,9.15551,407.2786],[-6.53399,9.15701,394.7947],[-6.54784,9.15701,417.3004],[-6.55554,9.15536,415.669],[-6.56153,9.15296,417.4077],[-6.5652,9.15001,413.395],[-6.5682,9.14629,442.987],[-6.57047,9.14164,435.5939],[-6.57182,9.13652,415.1578],[-6.57161,9.13102,431.0745],[-6.57032,9.1259,445.2225],[-6.56158,9.10727,441.0836],[-6.56324,9.10012,427.3637],[-6.56913,9.09105,431.7885],[-6.5867,9.07616,404.8776],[-6.59698,9.07035,398.5148],[-6.60603,9.0673,402.537],[-6.69114,9.07337,365.3782],[-6.69677,9.07523,358.8116],[-6.70059,9.0774,356.319],[-6.70803,9.08423,367.1961],[-6.71966,9.09709,383.2897],[-6.71858,9.10665,355.1329],[-6.71072,9.11309,356.9149],[-6.74659,9.11782,404.4444],[-6.78312,9.09616,423.1714],[-6.80772,9.0895,485.5669],[-6.81676,9.08516,560.2461],[-6.82922,9.07678,455.208],[-6.84136,9.07257,450.7861],[-6.88105,9.06327,419.6038],[-6.89138,9.05823,395.6798],[-6.89733,9.05226,390.4694],[-6.89882,9.04591,390.1097],[-6.90167,9.0386,390.0895],[-6.90797,9.02898,388.963],[-6.91014,9.02162,379.1749],[-6.91086,9.01485,379.7144],[-6.91009,9.00051,379.8745],[-6.90999,9.00012,379.834],[-6.90999,8.99989,379.834],[-6.90523,8.95496,376.0565],[-6.90554,8.94891,375.9084],[-6.9074,8.94271,380.5718],[-6.91076,8.94263,387.8823],[-6.91448,8.94426,391.2562],[-6.92167,8.95116,390.4616],[-6.92657,8.95387,388.4027],[-6.93288,8.95558,397.7338],[-6.94409,8.95496,418.8166],[-6.95164,8.95566,412.9026],[-6.95727,8.95806,401.2486],[-6.96104,8.96134,404.7933],[-6.96652,8.96382,399.9823],[-6.97329,8.96529,411.5425],[-7.00166,8.95961,404.0393],[-7.01799,8.95801,411.9586],[-7.02429,8.95832,396.8411],[-7.02993,8.9593,396.0087],[-7.03525,8.96103,405.7929],[-7.0399,8.96351,409.0927],[-7.04393,8.96669,405.2643],[-7.04724,8.97049,393.6852],[-7.0583,8.98684,388.6272],[-7.06155,8.99051,377.1456],[-7.06595,8.99276,389.5743],[-7.07153,8.99346,386.9681],[-7.08904,8.99214,365.0019],[-7.09494,8.99315,373.7931],[-7.09959,8.99539,372.3862],[-7.10315,8.99772,365.8978],[-7.10543,8.99997,367.8911],[-7.10558,9.00012,367.8911],[-7.10568,9.00036,367.8911],[-7.1063,9.00105,361.2501],[-7.10899,9.00291,359.2336],[-7.11411,9.00555,352.8401],[-7.12325,9.0078,352.7723],[-7.12951,9.00725,349.1416],[-7.13447,9.00508,352.2333],[-7.13731,9.00268,348.4007],[-7.13917,9.00036,339.6775],[-7.13922,9.0002,339.6775],[-7.14088,8.99648,335.1919],[-7.15002,8.9854,356.8363],[-7.16227,8.9777,354.9402],[-7.17829,8.96312,352.237],[-7.19209,8.95271,342.7062],[-7.21736,8.94542,337.0471],[-7.23079,8.94496,309.6693],[-7.23271,8.94302,308.7242],[-7.23358,8.93871,325.0713],[-7.2311,8.93452,323.3809],[-7.22687,8.93232,312.674],[-7.21911,8.9317,329.9799],[-7.2095,8.92922,335.722],[-7.2094,8.92338,322.7088],[-7.2157,8.91183,312.9896],[-7.21586,8.89845,310.8738],[-7.21798,8.88788,314.8079],[-7.22258,8.87889,312.0741],[-7.22997,8.87023,340.5987],[-7.21586,8.8645,317.9976],[-7.20733,8.85297,319.6636],[-7.20315,8.83726,309.1423],[-7.20201,8.81905,319.0163],[-7.19989,8.81334,303.7332],[-7.19085,8.796,307.9005],[-7.18899,8.7883,313.045],[-7.19131,8.78099,309.5589],[-7.2001,8.77264,307.0349],[-7.20201,8.76412,303.677],[-7.20382,8.74691,311.2943],[-7.2157,8.69893,313.5746],[-7.21679,8.66164,305.0338],[-7.22025,8.64226,307.4326],[-7.22997,8.62382,324.5781],[-7.21632,8.62345,299.7629],[-7.20909,8.61955,301.2207],[-7.21038,8.61441,295.6966],[-7.22253,8.61017,310.7958],[-7.20966,8.60056,295.8537],[-7.19896,8.58196,291.7276],[-7.19173,8.56121,296.5356],[-7.18646,8.52361,288.7714],[-7.17333,8.49576,285.4918],[-7.16723,8.473,285.8181],[-7.16723,8.43204,278.8742],[-7.15741,8.37055,284.7765],[-7.14728,8.35089,282.9659],[-7.13199,8.33502,280.7906],[-7.11266,8.3228,273.0625],[-7.12413,8.31494,281.4783],[-7.12729,8.30942,279.0592],[-7.12651,8.3036,280.8097],[-7.12636,8.25919,274.6663],[-7.13679,8.24275,273.187],[-7.13044,8.21787,274.9413],[-7.11783,8.19206,273.1292],[-7.10584,8.17818,270.8419],[-7.11214,8.15924,265.4476],[-7.10739,8.14545,270.7378],[-7.09861,8.13248,265.6468],[-7.09277,8.11609,262.3599],[-7.09426,8.10816,269.3731],[-7.10357,8.09488,260.3886],[-7.10584,8.0863,267.1748],[-7.10584,8.05155,255.4987],[-7.10098,8.03111,261.4453],[-7.08383,7.98925,261.3309],[-7.07163,7.95846,253.8453],[-7.07173,7.93797,252.0426],[-7.07855,7.92611,254.8492],[-7.08868,7.9167,250.6478],[-7.09897,7.90383,260.8188],[-7.10274,7.89639,256.8066],[-7.1047,7.88985,249.9859],[-7.10584,7.87373,251.1755],[-7.10377,7.86355,253.8779],[-7.09483,7.85285,248.9745],[-7.09277,7.8458,250.8123],[-7.08904,7.78046,245.7717],[-7.08264,7.74578,240.9291],[-7.07163,7.71948,244.1485],[-7.04765,7.74446,273.0529],[-7.02564,7.75767,277.2444],[-6.99722,7.7641,273.884],[-6.63042,7.7856,317.6601],[-6.48169,7.74268,318.6469],[-6.45885,7.74097,313.2815],[-6.42872,7.74237,308.6919],[-6.27959,7.77798,250.1739],[-6.24884,7.77673,235.4344],[-6.23675,7.7502,228.8814],[-6.22538,7.73129,242.3936],[-6.22341,7.72645,248.0748],[-6.22191,7.72103,238.305],[-6.21835,7.69015,210.1523],[-6.2139,7.68441,213.2981],[-6.20481,7.67821,219.5585],[-6.16693,7.66253,208.3776],[-6.14037,7.65431,204.3918],[-6.12357,7.64346,214.3766],[-6.10575,7.6184,202.9005],[-6.07655,7.63607,237.4145],[-6.07334,7.64088,227.7211],[-6.06983,7.64734,235.4288],[-6.06993,7.65168,224.4381],[-6.07241,7.66961,237.8892],[-6.07174,7.67752,244.0411],[-6.06828,7.68845,245.4174],[-6.04027,7.71436,249.7075],[-6.00787,7.73772,261.8016],[-5.99717,7.73973,286.6136],[-5.98338,7.73671,269.2695],[-5.90633,7.70669,283.7427],[-5.88793,7.71328,291.6029],[-5.86917,7.72312,290.2485],[-5.85,7.73601,277.6076],[-5.83574,7.74082,270.0987],[-5.8253,7.74276,259.6996],[-5.79574,7.74392,231.7058],[-5.7791,7.75384,226.7583],[-5.77362,7.7603,236.6539],[-5.7638,7.77487,254.3126],[-5.76086,7.78381,251.0634],[-5.76008,7.79149,237.9119],[-5.76535,7.80684,232.5157],[-5.76794,7.81771,250.1848],[-5.76871,7.83019,270.1107],[-5.7683,7.83627,272.0104],[-5.76391,7.85293,278.9765],[-5.76184,7.85758,279.2211],[-5.74737,7.8773,260.7199],[-5.74329,7.88699,214.3218],[-5.74029,7.89779,240.4216],[-5.73951,7.90352,264.7332],[-5.73972,7.90965,270.9408],[-5.74096,7.91531,273.0523],[-5.74448,7.92549,279.5345],[-5.74882,7.94347,297.0079],[-5.74913,7.95303,286.7778],[-5.74014,8.00003,307.8581],[-5.74003,8.00018,310.8263],[-5.73993,8.00049,309.8536],[-5.73094,8.00344,311.4792],[-5.71585,8.00525,323.6196],[-5.70639,8.00556,324.1581],[-5.6728,8.00313,287.3817],[-5.62986,8.00998,240.0887],[-5.60392,8.02114,224.3135],[-5.54573,8.05915,205.5955],[-5.53989,8.06553,209.2099],[-5.53679,8.07126,211.667],[-5.53622,8.07956,209.1612],[-5.53746,8.09501,203.3897],[-5.53188,8.09726,202.6906],[-5.52072,8.10044,202.3352],[-5.4909,8.09974,224.313],[-5.47462,8.09563,216.5554],[-5.46646,8.11087,227.3366],[-5.45194,8.11367,197.3826],[-5.43524,8.10932,201.5886],[-5.42139,8.10245,201.6444],[-5.4138,8.11609,210.3843],[-5.40119,8.11284,208.2055],[-5.39328,8.12186,213.9378],[-5.39122,8.13573,218.087],[-5.40238,8.15924,210.4948],[-5.38879,8.16379,210.1974],[-5.37416,8.16451,210.9028],[-5.35918,8.16451,209.6038],[-5.34553,8.18593,214.2639],[-5.34739,8.21149,216.0614],[-5.366,8.26012,223.1824],[-5.34553,8.26012,227.0424],[-5.35406,8.27748,240.9721],[-5.36734,8.28536,227.5688],[-5.3815,8.28929,232.0558],[-5.39271,8.29487,231.9849],[-5.39675,8.30089,234.5748],[-5.40698,8.3228,235.6141],[-5.41116,8.3273,242.941],[-5.41612,8.33047,246.7314],[-5.42749,8.33582,237.5687],[-5.44796,8.35011,231.6246],[-5.45436,8.35251,236.2924],[-5.50258,8.36375,263.7844],[-5.50459,8.36778,253.8457],[-5.50568,8.37455,278.8856],[-5.50764,8.38083,241.2692],[-5.5125,8.38362,249.8057],[-5.54697,8.38362,252.5371],[-5.55493,8.38574,250.4771],[-5.55947,8.39044,250.3816],[-5.56304,8.39515,254.7963],[-5.56774,8.39727,248.0],[-5.5787,8.40484,251.4385],[-5.60676,8.43812,256.411],[-5.61585,8.44569,255.0721],[-5.61906,8.44783,253.4937],[-5.61373,8.45251,254.9284],[-5.60433,8.45721,255.0207],[-5.59534,8.45935,266.0094],[-5.58635,8.45819,253.2237],[-5.56774,8.45189,253.3535],[-5.54309,8.45008,255.3349],[-5.53415,8.45388,259.8456],[-5.52304,8.46618,260.4102],[-5.60505,8.51276,264.1986],[-5.61043,8.52925,260.7993],[-5.74231,8.5609,338.4881],[-5.94839,8.63601,334.2803],[-5.95635,8.64058,344.5138],[-6.10869,8.877,354.2376],[-6.12636,8.91315,369.131],[-6.12781,8.91842,385.9565],[-6.12931,8.93139,372.2747],[-6.13153,8.94015,358.9903],[-6.13515,8.94519,360.9898],[-6.1399,8.94876,374.6352],[-6.15933,8.95821,377.6046],[-6.2245,8.99997,379.6764],[-6.22465,9.0002,379.6764],[-6.22486,9.00043,377.923],[-6.22713,9.00353,371.4092],[-6.2291,9.00725,366.9403],[-6.23458,9.02247,385.8499],[-6.23737,9.02782,381.4952],[-6.2477,9.04286,365.7161],[-6.25225,9.05219,397.3616],[-6.25395,9.05738,399.1568],[-6.25483,9.0625,376.8769],[-6.25499,9.06846,368.7369],[-6.25421,9.07423,383.6463],[-6.25266,9.07996,402.7987],[-6.23799,9.10743,437.2386],[-6.23184,9.1151,439.7015],[-6.22083,9.1251,436.0095],[-6.21763,9.12924,429.4295],[-6.2153,9.13404,417.2691],[-6.21421,9.1397,426.1331],[-6.21427,9.14559,418.4952],[-6.21504,9.15148,416.9943],[-6.21923,9.15996,411.4019],[-6.24326,9.18998,380.9232],[-6.26444,9.20254,365.4757],[-6.27617,9.20494,377.5158],[-6.28377,9.20579,368.1628],[-6.28946,9.20579,379.8214]]]}}