{"type": "Feature","bbox": [-7.2236,7.6873,-6.2413,9.1096],"geometry": {"type": "MultiPolygon","coordinates": [[[[-6.3032,7.7895,267.1772],[-6.2961,7.7935,260.4827],[-6.2866,7.7905,265.2341],[-6.2732,7.7766,249.3071],[-6.2657,7.7834,235.8626],[-6.2622,7.7903,235.5027],[-6.2551,7.7985,233.3591],[-6.2585,7.8136,237.6881],[-6.2578,7.8179,239.502],[-6.2522,7.8258,234.6055],[-6.2534,7.8355,235.6507],[-6.2576,7.8455,232.9219],[-6.2573,7.8494,236.6786],[-6.252,7.86,236.1085],[-6.2537,7.867,237.3202],[-6.2512,7.8745,236.2511],[-6.2533,7.8816,236.2851],[-6.2483,7.8861,236.2036],[-6.2456,7.8942,241.7189],[-6.2491,7.9076,239.7571],[-6.2556,7.9152,240.7386],[-6.2575,7.9335,240.2273],[-6.2538,7.9428,239.0508],[-6.2557,7.9499,241.9031],[-6.2457,7.9624,243.6915],[-6.2414,7.9725,243.1518],[-6.2413,7.9761,243.706],[-6.2423,7.9806,245.0963],[-6.253,7.9889,246.1568],[-6.2646,8.0066,246.2612],[-6.2687,8.0101,251.0499],[-6.2716,8.0107,249.3417],[-6.2789,8.0064,246.8842],[-6.2818,8.0067,247.6382],[-6.2923,8.0251,250.4107],[-6.2971,8.0428,254.8647],[-6.2943,8.0513,270.8952],[-6.2943,8.0563,259.3962],[-6.2977,8.0655,253.0224],[-6.2967,8.0725,263.3636],[-6.3011,8.1033,258.1572],[-6.3044,8.1128,252.7731],[-6.3096,8.12,261.8275],[-6.3105,8.1426,255.0035],[-6.3206,8.1776,265.3414],[-6.3238,8.197,261.115],[-6.3363,8.2206,271.2054],[-6.3353,8.2237,268.6118],[-6.3481,8.2342,270.1745],[-6.3474,8.242,268.4653],[-6.3516,8.2568,267.8899],[-6.3496,8.2661,267.0157],[-6.355,8.2848,274.426],[-6.3541,8.2876,280.9798],[-6.3485,8.2911,267.9886],[-6.3482,8.2972,271.6231],[-6.3521,8.3107,275.5422],[-6.3534,8.3244,278.687],[-6.3518,8.3301,285.5876],[-6.3535,8.3342,275.561],[-6.3492,8.3463,273.2109],[-6.3496,8.3484,274.2264],[-6.3586,8.3561,268.7893],[-6.3482,8.3668,277.521],[-6.364,8.3702,278.4167],[-6.3664,8.3727,273.2761],[-6.3668,8.3772,269.8248],[-6.3584,8.3817,272.8771],[-6.3576,8.385,280.6596],[-6.3661,8.4038,282.1909],[-6.3698,8.4076,286.8897],[-6.3762,8.4071,285.9267],[-6.381,8.4143,291.4107],[-6.3797,8.4156,283.0305],[-6.3976,8.4209,279.5303],[-6.4073,8.4194,277.4421],[-6.4123,8.4157,281.467],[-6.4145,8.417,287.3685],[-6.4159,8.4285,281.9794],[-6.4189,8.4344,285.8583],[-6.4178,8.4426,282.2567],[-6.4194,8.4451,282.6951],[-6.4248,8.4446,284.0292],[-6.4339,8.4523,290.0695],[-6.4318,8.4562,281.5373],[-6.4324,8.4687,295.7349],[-6.4296,8.4776,283.8036],[-6.4347,8.4804,288.2381],[-6.4524,8.4815,303.1878],[-6.4597,8.4906,285.2404],[-6.4623,8.502,288.3437],[-6.4588,8.5047,287.1965],[-6.459,8.511,293.2114],[-6.4496,8.5181,283.8157],[-6.4457,8.5169,285.7159],[-6.4423,8.5135,285.2174],[-6.4398,8.5061,288.7633],[-6.4355,8.5136,289.0678],[-6.432,8.5124,286.2722],[-6.4278,8.5181,288.3892],[-6.4257,8.5244,287.3217],[-6.4331,8.534,290.6948],[-6.4337,8.5479,287.3304],[-6.4391,8.568,290.4428],[-6.4433,8.5617,299.419],[-6.4482,8.5608,300.6805],[-6.4573,8.5731,299.2297],[-6.4537,8.5771,295.5144],[-6.4432,8.581,291.1089],[-6.4487,8.5892,307.4411],[-6.4484,8.5922,304.4869],[-6.4472,8.5946,286.2149],[-6.4373,8.5977,296.5959],[-6.4384,8.6002,297.5429],[-6.4441,8.6048,292.8237],[-6.4462,8.6225,300.6185],[-6.4546,8.6104,306.9357],[-6.468,8.6062,301.1372],[-6.4763,8.6077,302.704],[-6.4784,8.6119,302.877],[-6.4737,8.6191,296.8549],[-6.4734,8.6229,297.3845],[-6.4682,8.627,292.9962],[-6.4654,8.6319,294.2255],[-6.459,8.6318,291.5125],[-6.4519,8.6362,297.4244],[-6.4463,8.6359,295.6595],[-6.446,8.6387,295.3517],[-6.4476,8.6429,302.5861],[-6.456,8.6509,294.1238],[-6.4601,8.6643,299.478],[-6.4637,8.6665,298.3236],[-6.4616,8.6611,301.4582],[-6.4622,8.6585,316.067],[-6.4654,8.6565,311.272],[-6.4789,8.6742,302.5368],[-6.4762,8.6776,296.7906],[-6.4643,8.6755,297.4],[-6.4472,8.6841,299.443],[-6.4611,8.6872,307.0439],[-6.4662,8.6908,302.2321],[-6.4669,8.6997,303.8425],[-6.4608,8.7153,305.4218],[-6.4565,8.7181,313.0825],[-6.4506,8.7185,309.9305],[-6.4452,8.7166,302.1407],[-6.4457,8.7234,300.4745],[-6.4435,8.7248,304.8341],[-6.4391,8.7238,306.9263],[-6.4346,8.7129,303.4376],[-6.4261,8.7128,301.4756],[-6.4227,8.7102,300.419],[-6.4193,8.7118,301.5357],[-6.4195,8.7141,302.8762],[-6.4334,8.7164,310.4372],[-6.4338,8.7191,305.877],[-6.4328,8.7213,312.8342],[-6.4216,8.7267,299.2505],[-6.4196,8.7304,308.0911],[-6.4195,8.7345,311.5595],[-6.4236,8.7469,310.1334],[-6.4143,8.7591,304.0654],[-6.4048,8.7628,306.7233],[-6.4139,8.7682,312.186],[-6.4148,8.7764,307.3685],[-6.4126,8.7812,305.4402],[-6.4048,8.7863,302.8205],[-6.4035,8.7909,306.5805],[-6.4087,8.7957,310.4393],[-6.4187,8.7975,306.7428],[-6.4219,8.8008,305.4313],[-6.4206,8.8053,308.455],[-6.422,8.8098,306.8769],[-6.4276,8.8153,310.0046],[-6.4353,8.8132,308.3185],[-6.4361,8.8116,311.6777],[-6.4342,8.8047,315.0481],[-6.4403,8.7981,316.4295],[-6.4496,8.7939,312.3034],[-6.452,8.7955,314.6121],[-6.4527,8.7987,317.5544],[-6.4613,8.8031,315.3938],[-6.4628,8.8084,313.459],[-6.4677,8.813,314.7901],[-6.4693,8.818,311.8645],[-6.4784,8.8176,315.9127],[-6.4826,8.82,316.5023],[-6.4803,8.8266,315.0852],[-6.4768,8.8293,315.4756],[-6.4652,8.8281,311.8013],[-6.4644,8.8314,312.4778],[-6.4644,8.8348,317.8442],[-6.4726,8.8399,310.5409],[-6.4782,8.8549,314.1418],[-6.4808,8.8525,312.6427],[-6.4849,8.8524,314.9736],[-6.4875,8.8557,315.7959],[-6.487,8.8603,315.6995],[-6.4896,8.8635,315.5898],[-6.5026,8.8759,320.2809],[-6.5198,8.8825,317.7469],[-6.5227,8.8896,319.3989],[-6.5295,8.8909,325.2576],[-6.5347,8.8891,330.5281],[-6.5446,8.894,319.682],[-6.5485,8.9017,319.1175],[-6.5545,8.9049,321.1204],[-6.5578,8.909,319.8999],[-6.5503,8.9215,320.7254],[-6.5508,8.9263,326.8741],[-6.5574,8.9351,320.5737],[-6.5634,8.9366,324.4809],[-6.5696,8.9413,321.8537],[-6.576,8.9356,320.2736],[-6.5775,8.9257,340.0507],[-6.5812,8.9254,331.1008],[-6.5838,8.9278,326.2195],[-6.5849,8.9312,329.1134],[-6.5836,8.937,324.8417],[-6.5876,8.9354,324.6184],[-6.5911,8.9378,331.3667],[-6.5932,8.9349,324.7189],[-6.6025,8.9302,326.9555],[-6.6057,8.9214,330.5465],[-6.6143,8.9228,324.0603],[-6.6174,8.9193,331.3051],[-6.6213,8.9192,327.3671],[-6.6251,8.9225,330.8006],[-6.6289,8.9313,333.2939],[-6.6411,8.9353,332.3909],[-6.6535,8.9309,328.4552],[-6.6641,8.9325,331.3615],[-6.6666,8.9262,339.8161],[-6.6695,8.9246,342.0798],[-6.6745,8.9242,331.3658],[-6.6785,8.9266,334.1706],[-6.6786,8.9189,334.6877],[-6.6807,8.9174,330.5612],[-6.6919,8.9186,336.6419],[-6.6989,8.9334,336.9799],[-6.7052,8.9354,337.9706],[-6.706,8.9385,335.9412],[-6.7018,8.9479,336.1754],[-6.7033,8.9532,337.2311],[-6.7082,8.956,346.1278],[-6.7151,8.9668,341.0178],[-6.7133,8.9704,338.1078],[-6.7054,8.9729,343.6868],[-6.7003,8.9773,344.8454],[-6.7001,8.9794,341.8409],[-6.7097,8.9845,346.7415],[-6.7057,8.9907,343.6051],[-6.7099,8.995,344.9632],[-6.7113,8.9993,344.0016],[-6.7083,9.0034,345.1295],[-6.7089,9.0105,345.7914],[-6.7007,9.037,351.0799],[-6.7073,9.0471,353.0251],[-6.7025,9.0574,345.4231],[-6.7016,9.0827,346.5841],[-6.6995,9.0861,347.5629],[-6.724,9.1096,366.097],[-6.7678,9.1013,402.1954],[-6.7816,9.0965,423.1714],[-6.8329,9.072,598.1808],[-6.8416,9.0652,604.0079],[-6.848,9.0647,386.7771],[-6.8613,9.068,420.9294],[-6.8873,9.0492,406.6601],[-6.897,9.0524,390.4694],[-6.9011,9.052,382.9323],[-6.9037,9.0468,384.4724],[-6.9049,9.0381,390.2731],[-6.9075,9.0337,392.9644],[-6.9107,9.0141,379.7144],[-6.908,9.008,378.8347],[-6.9102,9.0004,379.834],[-6.9109,8.984,378.5277],[-6.9085,8.9739,378.0235],[-6.9058,8.9344,376.9254],[-6.9146,8.9375,389.885],[-6.9204,8.9418,386.1968],[-6.9266,8.9525,391.5539],[-6.9451,8.9702,397.7095],[-6.9547,8.9645,401.3619],[-6.9671,8.9617,405.8719],[-6.9724,8.9631,405.6958],[-6.9756,8.9667,419.1484],[-6.9866,8.9702,424.4679],[-6.9932,8.9705,421.0206],[-7.0202,8.9653,402.6727],[-7.0264,8.9708,388.2165],[-7.0379,8.9744,384.2553],[-7.0472,8.9873,363.2383],[-7.0509,9.0034,363.0297],[-7.0556,9.0122,358.6051],[-7.0672,9.0284,355.5766],[-7.1021,9.047,343.8696],[-7.1111,9.0469,346.4609],[-7.119,9.0376,344.7849],[-7.1264,9.0253,338.4182],[-7.1417,9.008,347.9633],[-7.1448,8.9994,332.7103],[-7.1422,8.9956,342.585],[-7.1469,8.995,343.5266],[-7.1511,8.9972,329.2197],[-7.1667,8.9881,340.3404],[-7.1732,8.9491,366.524],[-7.1765,8.9461,357.489],[-7.2042,8.9497,339.8024],[-7.2171,8.9498,330.2109],[-7.2209,8.9474,323.7748],[-7.2236,8.9363,317.1245],[-7.2229,8.9292,324.8525],[-7.2196,8.9227,313.0218],[-7.2085,8.918,333.2943],[-7.207,8.9136,318.5521],[-7.2124,8.8935,310.6514],[-7.2119,8.8882,316.5015],[-7.208,8.8852,320.3318],[-7.2079,8.8766,325.0497],[-7.21,8.8736,315.9177],[-7.2138,8.8733,312.9392],[-7.2171,8.8781,309.6696],[-7.2179,8.8745,311.2695],[-7.2163,8.8704,308.8852],[-7.21,8.8669,306.9239],[-7.2053,8.8667,315.8931],[-7.2035,8.8635,315.2603],[-7.2055,8.8547,312.4062],[-7.2038,8.8424,307.726],[-7.1941,8.8434,315.7997],[-7.1909,8.8417,313.7898],[-7.19,8.8372,314.8473],[-7.1918,8.832,316.3448],[-7.1963,8.8274,311.9249],[-7.2039,8.8246,305.6321],[-7.2048,8.8227,304.5609],[-7.1977,8.8191,305.2323],[-7.1919,8.8063,307.6511],[-7.1888,8.8052,315.0756],[-7.1881,8.8022,312.858],[-7.1968,8.7945,306.0309],[-7.1974,8.7898,305.535],[-7.1896,8.7827,304.5926],[-7.1825,8.7819,308.6556],[-7.1797,8.7791,311.8845],[-7.1869,8.7709,305.1999],[-7.1911,8.7691,300.7921],[-7.1955,8.7628,305.4102],[-7.1977,8.7551,301.0806],[-7.1879,8.7409,302.6458],[-7.1883,8.7382,300.6214],[-7.1922,8.7375,303.0831],[-7.1927,8.7345,315.6548],[-7.1993,8.7332,305.5227],[-7.1997,8.7198,302.9744],[-7.1942,8.7113,312.2571],[-7.2012,8.6941,310.4725],[-7.2071,8.6877,300.6385],[-7.208,8.6841,300.088],[-7.2033,8.6783,305.8985],[-7.2027,8.6746,315.2821],[-7.2102,8.6577,299.5111],[-7.2034,8.653,311.0592],[-7.2029,8.6462,298.1062],[-7.2129,8.6293,300.4739],[-7.2124,8.6262,296.434],[-7.2092,8.6288,301.0602],[-7.2062,8.6291,296.7303],[-7.2027,8.6266,295.9012],[-7.1981,8.618,310.8092],[-7.1965,8.6044,314.2172],[-7.1981,8.5994,297.1389],[-7.1941,8.5958,291.1998],[-7.1934,8.5912,302.1958],[-7.2008,8.5765,296.6942],[-7.1981,8.5687,289.9016],[-7.1882,8.5506,290.3475],[-7.1801,8.5432,303.1403],[-7.1862,8.5362,298.8087],[-7.1783,8.5309,303.106],[-7.1775,8.5265,302.4099],[-7.1852,8.5205,289.3452],[-7.1739,8.5019,290.0028],[-7.164,8.4957,309.2258],[-7.1615,8.4685,296.7148],[-7.1703,8.4645,285.7455],[-7.1734,8.46,285.3963],[-7.1707,8.4521,284.2233],[-7.1608,8.4476,286.9954],[-7.158,8.4325,290.2209],[-7.16,8.4304,285.8733],[-7.1646,8.4297,283.4363],[-7.1645,8.4282,278.1524],[-7.158,8.4269,280.5872],[-7.1562,8.425,280.4848],[-7.1495,8.4065,288.7702],[-7.1496,8.4003,301.6556],[-7.1548,8.3916,280.6143],[-7.1534,8.3841,282.3536],[-7.1482,8.3779,279.7624],[-7.1344,8.3711,295.6653],[-7.1342,8.3649,293.1068],[-7.1462,8.3592,285.5081],[-7.1464,8.3491,287.6801],[-7.145,8.3464,287.5237],[-7.134,8.345,277.5316],[-7.126,8.3395,275.7023],[-7.1197,8.3376,275.4266],[-7.1034,8.3212,284.4016],[-7.1045,8.3097,279.4343],[-7.1213,8.305,287.3224],[-7.1342,8.3045,279.1053],[-7.1385,8.3019,276.8878],[-7.1378,8.2988,276.156],[-7.1209,8.286,294.594],[-7.118,8.2679,283.195],[-7.112,8.2555,292.57],[-7.1115,8.2504,284.9535],[-7.1172,8.2442,278.697],[-7.1339,8.2383,277.4799],[-7.1355,8.2367,275.5501],[-7.136,8.2326,274.097],[-7.1208,8.2197,272.3564],[-7.1039,8.1983,299.7708],[-7.1019,8.1941,285.2855],[-7.1015,8.1882,283.6946],[-7.0984,8.1843,280.6174],[-7.0924,8.1808,265.8434],[-7.0911,8.176,280.7815],[-7.0921,8.1714,270.6067],[-7.1035,8.1674,264.6746],[-7.1068,8.164,270.3745],[-7.1093,8.1504,264.5621],[-7.1069,8.144,265.0984],[-7.0897,8.1233,271.0327],[-7.0838,8.108,262.6331],[-7.0882,8.0983,263.2778],[-7.1077,8.0866,265.4016],[-7.1058,8.0785,259.3275],[-7.1018,8.0731,275.3429],[-7.0992,8.053,270.4016],[-7.0877,8.0452,266.8136],[-7.0852,8.0348,275.8339],[-7.0903,8.0256,261.111],[-7.0898,8.021,260.3286],[-7.0793,8.0111,268.0047],[-7.0701,8.0066,266.3783],[-7.0612,8.0,257.9727],[-7.0585,7.9947,263.7831],[-7.0605,7.9845,286.4349],[-7.0667,7.969,253.5152],[-7.0601,7.9506,269.8515],[-7.0638,7.9318,251.645],[-7.0683,7.9241,252.9553],[-7.0784,7.919,256.3274],[-7.0812,7.9143,253.7063],[-7.0868,7.9134,254.6801],[-7.0892,7.9112,252.2899],[-7.0922,7.9013,253.8522],[-7.0929,7.8867,252.6879],[-7.0967,7.8842,255.2751],[-7.1075,7.8816,256.4622],[-7.1123,7.8715,249.9491],[-7.1095,7.8644,252.4322],[-7.0956,7.8611,249.3756],[-7.0912,7.8628,246.6339],[-7.0816,7.8604,254.4339],[-7.0776,7.8577,256.3595],[-7.0742,7.8525,250.7924],[-7.0739,7.8191,249.0891],[-7.0782,7.8123,247.969],[-7.0787,7.8068,245.6362],[-7.0763,7.7966,248.059],[-7.0779,7.7901,245.761],[-7.0771,7.7638,242.6009],[-7.0727,7.7308,244.1232],[-7.0756,7.7232,243.8054],[-7.0723,7.7192,244.1485],[-7.0774,7.6886,234.6292],[-7.0697,7.6873,241.7364],[-7.05,7.6938,285.8951],[-7.0136,7.7993,310.7653],[-7.0021,7.7914,306.7065],[-6.983,7.8008,297.1052],[-6.9633,7.8064,301.103],[-6.9537,7.8017,292.7956],[-6.9441,7.8006,286.2707],[-6.9362,7.7954,277.6076],[-6.9244,7.7929,293.0822],[-6.8994,7.7919,280.3987],[-6.8743,7.7933,274.8144],[-6.8681,7.7892,284.7751],[-6.8599,7.7881,283.1317],[-6.8502,7.7976,293.8174],[-6.8326,7.7918,298.2537],[-6.8219,7.7907,320.5724],[-6.8111,7.7921,338.6992],[-6.795,7.7886,505.7348],[-6.7884,7.7827,359.3592],[-6.7729,7.7859,303.2175],[-6.7559,7.7829,288.1441],[-6.7465,7.7791,315.2705],[-6.7122,7.7711,285.001],[-6.6961,7.781,297.2488],[-6.687,7.7894,315.9659],[-6.6831,7.7961,318.0148],[-6.677,7.7977,318.895],[-6.6612,7.7962,331.7394],[-6.6446,7.7975,344.1277],[-6.6231,7.7892,325.3598],[-6.6207,7.7859,318.8276],[-6.617,7.7892,321.8625],[-6.6005,7.7917,344.747],[-6.5857,7.7894,339.4144],[-6.5787,7.7857,333.0057],[-6.5543,7.7849,302.1107],[-6.5468,7.7771,312.3069],[-6.5333,7.7731,298.0719],[-6.5297,7.7655,302.7593],[-6.5289,7.7574,292.5636],[-6.5255,7.7536,297.3756],[-6.5258,7.7488,291.1673],[-6.4903,7.7397,314.5229],[-6.4667,7.736,301.1874],[-6.4194,7.7712,321.2504],[-6.4117,7.7724,316.9583],[-6.4086,7.7785,317.5859],[-6.4026,7.7815,313.7332],[-6.3895,7.782,293.7907],[-6.3714,7.7789,297.5429],[-6.36,7.7761,297.7126],[-6.3552,7.7725,297.8795],[-6.3469,7.7826,300.5311],[-6.3347,7.7874,281.9685],[-6.3282,7.7933,277.3636],[-6.3172,7.7932,272.5485],[-6.3032,7.7895,267.1772]]]]}
,"properties": {"GID_2": "CIV.12.3_1","GID_0": "CIV","country": "Côted'Ivoire","GID_1": "CIV.12_1","province": "Woroba","NL_NAME_1": "NA","county": "Worodougou","VARNAME_2": "NA","NL_NAME_2": "NA","TYPE_2": "Région","ENGTYPE_2": "Region","CC_2": "NA","HASC_2": "CI.WB.WR","name": "Worodougou.county","area_km2": 11439.936,"hist_schema_id": "Elevation0-9000","hist_area_km2": {"225": 4.117,"250": 215.609,"275": 912.561,"300": 1839.44,"325": 2388.693,"350": 2203.256,"375": 1787.562,"400": 1399.266,"425": 539.457,"450": 67.461,"475": 25.626,"500": 17.721,"525": 13.923,"550": 9.521,"575": 5.871,"600": 2.872,"625": 2.432,"650": 2.18,"675": 1.111,"700": 0.566,"725": 0.524}}}