{"type": "Feature","bbox": [-6.0285,5.1474,-4.9364,6.2544],"geometry": {"type": "MultiPolygon","coordinates": [[[[-5.4904,5.4323,65.7785],[-5.4715,5.4351,49.6999],[-5.4578,5.2175,27.5873],[-5.3355,5.1474,0.0],[-5.2465,5.207,0.7344],[-5.243,5.2125,0.0],[-5.217,5.2041,6.1735],[-5.2113,5.2058,0.0],[-5.1097,5.1715,0.0],[-5.0696,5.1953,0.0],[-5.0689,5.3196,6.4871],[-5.0663,5.3247,7.3643],[-5.061,5.3277,12.7731],[-5.0578,5.3323,14.1279],[-5.0579,5.3376,8.9223],[-5.0603,5.3397,12.4604],[-5.0592,5.3416,8.4588],[-5.0621,5.3499,11.2689],[-5.0629,5.3596,13.6615],[-5.0592,5.3632,11.1741],[-5.0548,5.3766,14.0824],[-5.0538,5.3805,13.5305],[-5.0554,5.3863,12.4576],[-5.0465,5.3973,14.7935],[-5.0468,5.4044,19.1082],[-5.0442,5.4101,9.6444],[-5.0448,5.4173,14.4487],[-5.0373,5.4302,13.2025],[-5.0311,5.4373,12.9749],[-5.0313,5.4412,16.7187],[-5.0286,5.4453,15.8906],[-5.0267,5.4549,12.795],[-5.0223,5.46,15.0961],[-5.0207,5.4796,15.8435],[-5.0175,5.4862,15.207],[-5.0101,5.4941,16.8576],[-5.006,5.5035,29.4059],[-5.0107,5.5261,22.795],[-5.0126,5.5291,20.6936],[-5.0101,5.5316,24.8468],[-5.0092,5.5389,33.8911],[-5.0122,5.5444,25.5717],[-5.0159,5.5585,23.0542],[-5.0238,5.5643,19.4861],[-5.0016,5.615,50.5874],[-4.9983,5.6197,44.3871],[-4.9992,5.6751,54.4203],[-4.9364,5.8117,79.3534],[-5.01,5.9099,107.3412],[-5.0083,5.9412,83.0955],[-5.0155,5.9655,80.0297],[-5.0133,5.9818,86.6882],[-5.0308,6.0374,79.4159],[-5.0063,6.0605,74.7211],[-4.9863,6.089,63.3075],[-5.002,6.128,96.2274],[-5.1947,6.1684,187.7621],[-5.2844,6.2544,179.9795],[-5.4805,6.1657,202.7988],[-5.6763,6.1871,246.4898],[-5.6981,6.1869,259.077],[-5.7406,6.2015,266.1038],[-5.7948,6.0057,268.6871],[-5.7916,5.9391,264.2325],[-5.8356,5.9133,254.986],[-5.9468,5.7731,196.2817],[-5.9822,5.7806,206.6639],[-5.9968,5.7377,177.6699],[-5.9988,5.714,193.6926],[-6.0259,5.656,149.847],[-6.0218,5.6474,149.789],[-6.0151,5.6455,158.1228],[-6.0109,5.6385,167.0957],[-6.0167,5.6309,157.1367],[-6.0159,5.6231,168.1125],[-6.0175,5.6171,180.2493],[-6.016,5.6131,152.3966],[-6.0173,5.6109,165.5656],[-6.0285,5.6089,158.9412],[-6.0282,5.6072,150.8093],[-6.0204,5.6052,168.1142],[-6.0194,5.6019,152.2421],[-6.0232,5.5965,147.5036],[-6.0194,5.586,187.9579],[-6.0195,5.5796,144.982],[-6.0145,5.5719,152.1906],[-6.0115,5.5625,149.7427],[-6.008,5.5581,145.8636],[-6.0069,5.5521,145.2562],[-6.0034,5.5502,143.7581],[-5.9988,5.5514,155.3535],[-5.9996,5.543,141.3822],[-5.9942,5.5346,140.7839],[-5.992,5.5271,143.2596],[-5.9808,5.5248,149.4303],[-5.9774,5.5269,141.2839],[-5.9745,5.5248,142.1245],[-5.8295,5.5697,196.864],[-5.7446,5.6268,158.1122],[-5.6504,5.5624,166.5738],[-5.6129,5.574,165.5522],[-5.6114,5.5515,161.8685],[-5.516,5.4286,78.4135],[-5.4904,5.4323,65.7785]]]]}
,"properties": {"GID_2": "CIV.5.2_1","GID_0": "CIV","country": "Côted'Ivoire","GID_1": "CIV.5_1","province": "Gôh-Djiboua","NL_NAME_1": "NA","county": "Lôh-Djiboua","VARNAME_2": "NA","NL_NAME_2": "NA","TYPE_2": "Région","ENGTYPE_2": "Region","CC_2": "NA","HASC_2": "CI.GD.LD","name": "Lôh-Djiboua.county","area_km2": 8865.721,"hist_schema_id": "Elevation0-9000","hist_area_km2": {"0": 279.297,"25": 981.584,"50": 1045.325,"75": 687.905,"100": 520.084,"125": 511.652,"150": 846.578,"175": 1385.758,"200": 1206.703,"225": 779.071,"250": 377.908,"275": 94.022,"300": 36.92,"325": 26.503,"350": 19.883,"375": 14.76,"400": 13.01,"425": 13.854,"450": 15.288,"475": 8.519,"500": 1.096}}}