{"type":"Feature","properties":{"GID_3":"CIV.11.1.3_1","GID_0":"CIV","country":"Côted'Ivoire","GID_1":"CIV.11_1","province":"ValléeduBandama","NL_NAME_1":"NA","GID_2":"CIV.11.1_1","county":"Gbeke","NL_NAME_2":"NA","city":"Bouaké","VARNAME_3":"NA","NL_NAME_3":"NA","TYPE_3":"Département","ENGTYPE_3":"Department","CC_3":"NA","HASC_3":"NA","name":"Bouaké.city"},
"geometry":{"type": "MultiPolygon","coordinates": [[[[-4.935,7.4857,212.0981],[-4.9296,7.487,205.4164],[-4.9316,7.4983,211.9173],[-4.9275,7.5033,206.379],[-4.9268,7.5085,208.417],[-4.9294,7.5163,211.1907],[-4.9215,7.5228,222.7513],[-4.9124,7.535,245.6125],[-4.9006,7.5471,251.1998],[-4.8907,7.5669,234.4903],[-4.8858,7.5728,211.639],[-4.8797,7.5727,206.6389],[-4.8766,7.571,206.2793],[-4.8659,7.5602,208.0786],[-4.8603,7.558,208.5261],[-4.8433,7.5577,206.7845],[-4.8386,7.5585,197.6153],[-4.8366,7.5605,190.1521],[-4.8315,7.5602,186.6687],[-4.8264,7.5696,211.661],[-4.8204,7.5739,218.0477],[-4.8165,7.5745,209.192],[-4.8069,7.5709,187.7957],[-4.7942,7.5688,183.1061],[-4.7892,7.5661,182.7616],[-4.7751,7.5834,278.576],[-4.7553,7.5584,196.3069],[-4.7495,7.5562,193.0961],[-4.7457,7.5523,174.4363],[-4.7427,7.5467,175.823],[-4.7398,7.5321,167.9771],[-4.7361,7.5289,170.5793],[-4.7293,7.5274,172.5302],[-4.7242,7.5313,168.0498],[-4.7112,7.5264,172.163],[-4.7063,7.5227,169.5667],[-4.6874,7.5187,172.3775],[-4.6791,7.5226,160.7133],[-4.6593,7.5399,158.0488],[-4.6557,7.5465,157.6562],[-4.6597,7.5548,156.1356],[-4.651,7.5654,156.195],[-4.6447,7.5665,156.0212],[-4.6364,7.5649,155.7281],[-4.6325,7.5674,155.2234],[-4.6286,7.5677,152.6328],[-4.626,7.5707,152.6864],[-4.6105,7.5755,151.6958],[-4.6084,7.5819,151.2095],[-4.6025,7.5855,153.8911],[-4.6025,7.5907,150.8691],[-4.5998,7.5948,151.4496],[-4.5971,7.6045,150.195],[-4.5835,7.6137,147.2656],[-4.5758,7.6219,144.0533],[-4.5704,7.6221,146.5175],[-4.562,7.6193,150.4349],[-4.5581,7.6213,142.349],[-4.5439,7.6185,145.0947],[-4.538,7.6087,142.5518],[-4.5313,7.605,140.3317],[-4.5216,7.6069,140.6225],[-4.5164,7.6121,148.0081],[-4.5095,7.6152,149.6089],[-4.5051,7.6152,151.7876],[-4.5002,7.62,153.5887],[-4.4984,7.6233,155.8439],[-4.4979,7.6329,161.4395],[-4.4992,7.6399,160.3896],[-4.4972,7.6441,163.2517],[-4.5033,7.6694,177.2461],[-4.5104,7.6784,167.0917],[-4.5125,7.6983,170.344],[-4.5158,7.7081,174.4281],[-4.5193,7.7306,180.1233],[-4.5184,7.7369,180.7172],[-4.5231,7.7448,186.3628],[-4.5252,7.7554,185.8751],[-4.5428,7.7796,212.5793],[-4.5426,7.7863,217.2273],[-4.5496,7.7996,222.711],[-4.5495,7.8029,231.2321],[-4.5392,7.8186,240.253],[-4.5339,7.8307,246.6082],[-4.5425,7.8277,219.7758],[-4.5495,7.8276,200.1722],[-4.5574,7.8343,185.1311],[-4.5702,7.831,176.8037],[-4.5715,7.8283,179.5434],[-4.5736,7.8369,183.6507],[-4.5708,7.8447,183.8447],[-4.5678,7.8473,183.9574],[-4.5688,7.8499,181.9846],[-4.5731,7.8526,189.0347],[-4.5852,7.8545,194.6811],[-4.5978,7.8632,206.2049],[-4.6021,7.8689,197.1724],[-4.6097,7.8747,219.5407],[-4.6125,7.8805,226.1274],[-4.6008,7.9149,270.0605],[-4.5928,7.9477,243.1949],[-4.6214,7.9704,294.2419],[-4.6301,7.9814,328.0356],[-4.6356,7.9922,300.9191],[-4.6364,7.999,305.7216],[-4.6188,8.0176,357.5252],[-4.6196,8.0257,317.5528],[-4.6239,8.031,297.1768],[-4.6269,8.0308,299.119],[-4.6389,8.0228,319.1253],[-4.6489,8.0209,305.7357],[-4.6575,8.0121,299.7579],[-4.6644,8.0119,330.777],[-4.6743,8.0136,274.9743],[-4.6782,8.0178,260.9246],[-4.6842,8.0209,235.8786],[-4.6914,8.0209,258.6916],[-4.6934,8.0195,285.3848],[-4.7022,8.0231,370.8401],[-4.7078,8.0221,388.2975],[-4.7183,8.0245,352.8646],[-4.7336,8.0214,182.2312],[-4.7352,8.0261,179.038],[-4.7391,8.0287,187.9409],[-4.7452,8.0252,201.3319],[-4.7587,8.0271,189.8282],[-4.767,8.0168,273.1235],[-4.7804,8.0167,267.7694],[-4.9294,7.9708,249.6246],[-4.9391,7.977,252.1094],[-4.9528,7.9891,262.5193],[-4.97,7.9915,268.3509],[-4.9769,7.9939,277.3748],[-4.9817,7.9979,279.7611],[-4.9885,7.9952,270.0558],[-4.9959,7.9961,266.5294],[-4.9982,7.9856,251.295],[-5.0004,7.9838,245.4845],[-5.0023,7.984,245.8809],[-5.0057,7.9883,249.202],[-5.0162,7.9858,258.1355],[-5.025,7.9873,263.8702],[-5.036,7.9828,263.3387],[-5.0462,7.9734,259.4426],[-5.0657,7.9651,266.5286],[-5.0826,7.9662,274.6789],[-5.0886,7.9704,280.8018],[-5.1031,7.9691,288.733],[-5.1028,7.9616,301.6609],[-5.0973,7.9503,283.4872],[-5.104,7.9334,304.7368],[-5.1053,7.9169,296.9666],[-5.1024,7.8802,270.994],[-5.1151,7.859,295.7671],[-5.1208,7.844,283.8586],[-5.1206,7.8292,297.3211],[-5.1238,7.8134,314.8679],[-5.123,7.7932,352.1439],[-5.1263,7.7871,357.6992],[-5.1303,7.7694,368.0305],[-5.1767,7.6984,321.1923],[-5.1901,7.6741,324.1372],[-5.1926,7.6682,311.8968],[-5.1938,7.6354,287.0502],[-5.193,7.6282,271.1549],[-5.1876,7.6288,282.1263],[-5.1792,7.6269,304.083],[-5.1605,7.6158,309.3532],[-5.1529,7.6096,301.8729],[-5.1442,7.5962,294.7125],[-5.1296,7.5962,290.7963],[-5.1203,7.6,302.6024],[-5.1148,7.6057,309.6556],[-5.1073,7.6067,308.5725],[-5.105,7.5986,293.7779],[-5.1024,7.5979,289.7303],[-5.0991,7.5938,273.8481],[-5.0981,7.5873,259.9359],[-5.102,7.5773,257.1432],[-5.1093,7.5699,249.1458],[-5.1081,7.5574,244.5775],[-5.111,7.5456,234.7025],[-5.1178,7.5413,233.4306],[-5.1175,7.5377,232.5975],[-5.1241,7.5323,231.8103],[-5.1269,7.5273,229.4113],[-5.1323,7.5263,227.7529],[-5.1353,7.5288,231.3988],[-5.1388,7.5225,222.4813],[-5.1422,7.5198,224.1523],[-5.1445,7.512,227.4064],[-5.1499,7.5058,230.2289],[-5.1496,7.5024,220.0788],[-5.1437,7.4936,216.4114],[-5.1424,7.4873,217.1583],[-5.1455,7.4704,215.5316],[-5.1489,7.4653,219.5231],[-5.1512,7.4523,209.615],[-5.158,7.449,207.3745],[-5.1636,7.4426,205.029],[-5.1627,7.4373,208.2254],[-5.1665,7.4284,204.4848],[-5.1825,7.4213,201.3833],[-5.1896,7.414,199.8095],[-5.1928,7.4053,203.5243],[-5.2011,7.3938,205.8406],[-5.207,7.3801,201.8794],[-5.1997,7.3707,201.377],[-5.1952,7.3586,197.1928],[-5.1966,7.3547,194.5215],[-5.2085,7.3424,191.0598],[-5.209,7.3305,187.1383],[-5.2011,7.3158,189.6184],[-5.1909,7.3307,192.5801],[-5.1865,7.3352,197.9753],[-5.1796,7.3376,196.9038],[-5.174,7.346,203.7349],[-5.1698,7.3487,204.668],[-5.157,7.3482,208.6482],[-5.1496,7.3528,208.5939],[-5.1462,7.3516,217.9017],[-5.1383,7.3552,228.1149],[-5.1052,7.3573,259.4053],[-5.0626,7.3791,288.007],[-5.0565,7.3849,297.2569],[-5.0546,7.3895,312.7739],[-5.06,7.4083,270.8011],[-5.0569,7.4137,270.6019],[-5.0384,7.4147,298.2332],[-5.0327,7.418,282.3648],[-5.0126,7.4168,256.6985],[-5.0087,7.419,264.1838],[-5.0076,7.421,265.3734],[-5.0101,7.4244,271.39],[-5.0263,7.4308,284.0745],[-5.0382,7.43,284.2587],[-5.0436,7.436,292.6939],[-5.043,7.4388,286.1562],[-5.0341,7.4489,276.0081],[-5.0145,7.4649,262.4766],[-5.0121,7.4695,264.7402],[-5.0013,7.4786,259.4728],[-4.9915,7.4685,235.8696],[-4.9733,7.4911,248.6547],[-4.9689,7.4941,237.6764],[-4.9598,7.4929,246.303],[-4.9575,7.4888,235.791],[-4.9534,7.4861,221.3581],[-4.9453,7.4895,218.0601],[-4.935,7.4857,212.0981]]]]}}