{"type":"Feature","properties":{"GID_3":"CIV.14.1.3_1","GID_0":"CIV","country":"Côted'Ivoire","GID_1":"CIV.14_1","province":"Zanzan","NL_NAME_1":"NA","GID_2":"CIV.14.1_1","county":"Bounkani","NL_NAME_2":"NA","city":"Nassian","VARNAME_3":"NA","NL_NAME_3":"NA","TYPE_3":"Département","ENGTYPE_3":"Department","CC_3":"NA","HASC_3":"NA","name":"Nassian.city"},
"geometry":{"type": "MultiPolygon","coordinates": [[[[-3.9379,8.4479,181.6433],[-3.919,8.4453,181.1102],[-3.898,8.4465,195.4215],[-3.8867,8.4448,212.3397],[-3.8822,8.4405,204.897],[-3.8786,8.4285,216.8957],[-3.8658,8.4165,238.7837],[-3.8621,8.4146,237.6407],[-3.8571,8.4089,242.7872],[-3.8513,8.4073,250.4531],[-3.846,8.4007,222.1261],[-3.8364,8.3932,239.5582],[-3.8279,8.3907,267.5923],[-3.8248,8.3882,253.1575],[-3.8212,8.3838,256.2231],[-3.8197,8.3722,249.0965],[-3.823,8.3597,229.3601],[-3.8295,8.3462,210.6588],[-3.8299,8.3324,208.6147],[-3.8275,8.3296,209.7283],[-3.8149,8.3243,205.0493],[-3.8099,8.3205,209.5162],[-3.7974,8.3032,210.7727],[-3.7929,8.289,222.8539],[-3.7848,8.2816,223.953],[-3.7619,8.2761,230.1802],[-3.742,8.2734,239.7809],[-3.7396,8.2706,236.6694],[-3.7259,8.2705,241.8761],[-3.7145,8.2624,251.0571],[-3.6801,8.2761,299.3038],[-3.6751,8.2801,292.7834],[-3.6669,8.3077,282.2147],[-3.661,8.3094,293.6729],[-3.6067,8.3083,272.6488],[-3.5952,8.3047,286.9452],[-3.5895,8.2922,257.7717],[-3.5893,8.2786,279.1216],[-3.5968,8.2596,251.7645],[-3.5999,8.2453,234.1961],[-3.6001,8.2287,238.6459],[-3.597,8.2204,235.3666],[-3.5898,8.2104,228.2111],[-3.5856,8.2089,222.381],[-3.5793,8.2011,227.1369],[-3.5763,8.2012,223.8204],[-3.5623,8.2088,225.7809],[-3.5578,8.2177,223.3232],[-3.5541,8.2213,222.0255],[-3.5427,8.2228,232.4663],[-3.5341,8.2285,234.6931],[-3.5224,8.2279,240.6267],[-3.5086,8.2351,244.6049],[-3.5023,8.2356,242.5811],[-3.5,8.2404,237.5423],[-3.4967,8.2426,236.035],[-3.4985,8.2545,244.1417],[-3.4922,8.2589,245.7808],[-3.4873,8.2592,254.6148],[-3.4828,8.2506,253.7133],[-3.4765,8.2454,245.8535],[-3.4605,8.2495,251.8965],[-3.4513,8.2577,253.0626],[-3.4472,8.2588,256.1362],[-3.4399,8.2573,255.9222],[-3.4333,8.2604,252.2785],[-3.4287,8.2678,255.6911],[-3.4274,8.2751,265.2397],[-3.4244,8.2769,261.2261],[-3.4243,8.2814,263.9012],[-3.4211,8.287,268.4496],[-3.4152,8.2906,271.9525],[-3.411,8.2973,284.6255],[-3.4021,8.3003,294.6905],[-3.3914,8.3014,293.583],[-3.3645,8.3004,308.3107],[-3.3549,8.3043,310.8887],[-3.3526,8.308,316.0377],[-3.3576,8.3203,348.3686],[-3.3522,8.3458,368.1505],[-3.3534,8.3511,359.575],[-3.3459,8.3587,371.398],[-3.3344,8.3782,369.046],[-3.3294,8.3905,366.1893],[-3.331,8.3948,360.1118],[-3.3302,8.4019,344.8838],[-3.3271,8.4077,333.8566],[-3.3113,8.4217,299.0521],[-3.3027,8.4364,313.9592],[-3.2987,8.4395,293.9143],[-3.2886,8.4693,315.8176],[-3.2825,8.4798,342.3909],[-3.2761,8.4853,363.2691],[-3.2645,8.4851,396.229],[-3.2593,8.4888,383.8274],[-3.2412,8.4947,371.0106],[-3.2303,8.5033,364.1777],[-3.2066,8.513,399.1746],[-3.196,8.5206,371.7381],[-3.1868,8.5337,405.8333],[-3.1803,8.54,394.6705],[-3.1747,8.5513,389.175],[-3.1681,8.5579,377.8916],[-3.1656,8.5627,376.2635],[-3.1646,8.5738,368.4742],[-3.1623,8.5742,373.4462],[-3.146,8.6001,362.1698],[-3.1384,8.606,353.8008],[-3.1316,8.6063,355.7974],[-3.1355,8.6108,361.0647],[-3.1449,8.617,370.2352],[-3.1587,8.6217,390.0908],[-3.164,8.6259,406.5161],[-3.1694,8.6335,400.6194],[-3.1779,8.668,376.4034],[-3.1812,8.6721,383.5031],[-3.1903,8.6983,355.468],[-3.1939,8.7025,375.6658],[-3.1972,8.7035,386.7775],[-3.1999,8.7001,383.9851],[-3.1999,8.6925,371.9175],[-3.1982,8.6876,348.8139],[-3.1996,8.6798,348.418],[-3.2105,8.6565,352.3837],[-3.211,8.6412,352.4863],[-3.2167,8.6187,352.1555],[-3.2221,8.6117,334.8494],[-3.2387,8.5961,315.4427],[-3.2563,8.5904,310.703],[-3.2791,8.5884,319.556],[-3.2837,8.5891,319.4698],[-3.2938,8.6005,314.7409],[-3.3337,8.6066,271.5995],[-3.3474,8.6029,290.5233],[-3.3621,8.5966,294.4474],[-3.3945,8.5934,252.2763],[-3.4024,8.5882,254.9899],[-3.409,8.5813,246.9989],[-3.4222,8.5573,266.8749],[-3.4318,8.5496,271.8134],[-3.4441,8.5474,245.3333],[-3.4611,8.55,259.1461],[-3.4823,8.5448,269.0109],[-3.4958,8.5452,278.2836],[-3.5043,8.5421,297.9102],[-3.5236,8.5197,313.3636],[-3.5326,8.5134,294.5576],[-3.541,8.5101,320.1161],[-3.5438,8.5103,312.0609],[-3.5498,8.5235,265.967],[-3.56,8.5351,267.1975],[-3.5662,8.5501,287.03],[-3.5785,8.5623,250.0059],[-3.5982,8.5759,277.0808],[-3.6109,8.5768,275.5265],[-3.623,8.5817,259.4828],[-3.652,8.5996,281.7705],[-3.6701,8.6228,272.3011],[-3.6764,8.6268,272.1772],[-3.6969,8.6258,257.7646],[-3.7247,8.6357,247.8416],[-3.7356,8.6376,247.4515],[-3.7464,8.6365,266.2358],[-3.7539,8.6328,259.2617],[-3.7862,8.6619,251.221],[-3.801,8.6617,245.3669],[-3.8289,8.6482,217.0306],[-3.8387,8.648,209.3216],[-3.8458,8.6497,224.1672],[-3.8569,8.6483,248.1071],[-3.8756,8.64,229.3716],[-3.8859,8.6383,210.875],[-3.8887,8.636,207.5754],[-3.9042,8.632,210.7101],[-3.9077,8.6292,206.327],[-3.915,8.6287,204.3059],[-3.9183,8.6259,200.8198],[-3.931,8.6394,201.0955],[-3.9316,8.6342,193.2028],[-3.9289,8.6278,196.3691],[-3.9295,8.6213,183.1237],[-3.9186,8.6109,184.9375],[-3.9109,8.5905,184.7318],[-3.905,8.5842,187.7309],[-3.9034,8.5784,185.4131],[-3.9203,8.5715,195.2581],[-3.9257,8.5661,192.8692],[-3.9322,8.5632,195.6295],[-3.9359,8.5578,187.873],[-3.9428,8.552,184.9937],[-3.9526,8.549,179.6921],[-3.9655,8.5489,183.394],[-3.9721,8.5453,181.6926],[-3.9771,8.5396,188.4481],[-3.9806,8.5243,181.977],[-3.979,8.5166,179.9637],[-3.9746,8.5112,190.377],[-3.9663,8.5083,182.5461],[-3.9572,8.5097,187.9464],[-3.9502,8.5076,186.6702],[-3.9265,8.4957,180.489],[-3.9274,8.486,183.8689],[-3.9358,8.4709,187.3947],[-3.9363,8.4539,188.9425],[-3.9379,8.4479,181.6433]]]]}}