{"type":"Feature","properties":{"GID_2":"CIV.8.3_1","GID_0":"CIV","country":"Côted'Ivoire","GID_1":"CIV.8_1","province":"Montagnes","NL_NAME_1":"NA","county":"Tonkpi","VARNAME_2":"NA","NL_NAME_2":"NA","TYPE_2":"Région","ENGTYPE_2":"Region","CC_2":"NA","HASC_2":"CI.MN.TP","name":"Tonkpi.county"},
"geometry":{"type": "MultiPolygon","coordinates": [[[[-8.148,6.7688,266.8234],[-8.1506,6.7753,267.6516],[-8.1365,6.7885,260.5499],[-8.1353,6.7891,266.1697],[-8.1299,6.7858,272.8954],[-8.1271,6.7908,276.0785],[-8.1214,6.7943,265.4944],[-8.1216,6.8015,266.3258],[-8.1179,6.8029,267.1041],[-8.1108,6.7976,266.8586],[-8.1063,6.8083,263.1617],[-8.0986,6.8079,263.7331],[-8.0982,6.8113,263.5123],[-8.0935,6.8145,262.3475],[-8.0959,6.8171,280.7335],[-8.0956,6.8228,264.4727],[-8.0974,6.8254,262.7147],[-8.1041,6.8248,275.7776],[-8.1066,6.8302,287.7018],[-8.1005,6.835,263.8307],[-8.1005,6.8411,273.2186],[-8.104,6.8448,270.2411],[-8.1075,6.834,282.4965],[-8.1109,6.8324,297.304],[-8.1149,6.8343,271.7439],[-8.1163,6.8383,268.1332],[-8.1141,6.8444,276.7972],[-8.1154,6.855,298.6955],[-8.1074,6.8552,269.919],[-8.1032,6.8624,266.3879],[-8.1024,6.8774,267.5323],[-8.0952,6.88,263.0218],[-8.1084,6.8868,271.3542],[-8.1093,6.891,321.7221],[-8.1069,6.8964,276.2479],[-8.0864,6.9008,265.3627],[-8.0804,6.912,272.2565],[-8.0796,6.9213,268.9002],[-8.0776,6.9223,271.1203],[-8.0726,6.9202,270.3191],[-8.0513,6.9246,269.073],[-8.0529,6.9296,271.5186],[-8.0509,6.9327,272.9403],[-8.0408,6.9334,272.1871],[-8.0422,6.9386,266.1143],[-8.0356,6.9424,272.4969],[-8.0339,6.941,273.4406],[-8.0251,6.9497,275.0246],[-8.0263,6.9542,267.3067],[-8.0228,6.9592,268.2306],[-8.018,6.9629,270.7131],[-8.0153,6.959,273.7198],[-8.0115,6.9663,273.2991],[-8.0111,6.983,270.2354],[-8.0059,6.9845,275.6239],[-7.9977,6.9933,271.1918],[-7.9879,6.9945,269.8385],[-7.9787,7.009,268.7394],[-7.9676,7.0209,274.9154],[-7.9665,7.0261,273.2373],[-7.9447,7.0396,270.8523],[-7.942,7.0449,273.1476],[-7.924,7.0626,275.6166],[-7.9234,7.072,274.4793],[-7.9221,7.0734,278.0091],[-7.9129,7.0745,279.5617],[-7.9087,7.0773,275.8782],[-7.9015,7.0759,277.1503],[-7.8985,7.0771,290.688],[-7.8945,7.0801,284.3564],[-7.8858,7.0922,291.5632],[-7.8758,7.0866,291.6625],[-7.8555,7.0832,300.3742],[-7.842,7.0755,307.4077],[-7.7775,7.0341,279.8197],[-7.7409,7.0068,252.8562],[-7.7376,7.0054,258.4544],[-7.7059,7.005,249.3572],[-7.6926,6.9943,249.8774],[-7.6764,6.9883,279.8635],[-7.6659,6.9817,256.1724],[-7.5895,7.0273,241.7714],[-7.5896,7.0298,243.5535],[-7.5136,7.0582,295.5936],[-7.51,7.0893,269.2907],[-7.5229,7.1023,268.7375],[-7.5279,7.1137,249.1241],[-7.503,7.132,254.2926],[-7.4869,7.1536,252.0585],[-7.4884,7.1561,253.8788],[-7.4817,7.1614,253.5871],[-7.479,7.1618,251.626],[-7.4798,7.166,253.797],[-7.4817,7.1658,255.1008],[-7.4818,7.1674,254.4445],[-7.4789,7.1721,266.6277],[-7.4739,7.1715,255.4811],[-7.4688,7.1683,257.1999],[-7.4682,7.1706,256.5012],[-7.4728,7.1752,258.2676],[-7.4767,7.1862,257.4199],[-7.486,7.1925,256.6165],[-7.4888,7.1972,261.861],[-7.489,7.2126,270.6535],[-7.4955,7.2193,271.7697],[-7.496,7.226,281.5753],[-7.4948,7.2292,276.8498],[-7.4978,7.2348,280.8544],[-7.4984,7.2403,282.1965],[-7.5028,7.242,286.8188],[-7.5053,7.2411,299.6924],[-7.5156,7.2448,290.1314],[-7.5165,7.2573,292.0573],[-7.5201,7.263,293.9434],[-7.5192,7.2648,293.9303],[-7.5214,7.2655,295.6266],[-7.5239,7.2709,294.6708],[-7.5026,7.2874,299.4786],[-7.5003,7.2928,316.2848],[-7.4953,7.3245,325.1095],[-7.4968,7.3263,333.2076],[-7.4958,7.3333,315.9147],[-7.4987,7.3363,331.9113],[-7.4927,7.3575,325.8511],[-7.4929,7.3651,344.3194],[-7.4881,7.3853,332.8613],[-7.4726,7.3997,356.9665],[-7.4565,7.41,321.9192],[-7.4485,7.4176,320.3809],[-7.438,7.4206,303.5197],[-7.427,7.4209,307.6303],[-7.4189,7.4288,298.8219],[-7.4104,7.4314,312.4062],[-7.3954,7.4397,322.0454],[-7.3882,7.4476,305.6165],[-7.3814,7.4482,306.371],[-7.3813,7.4542,286.6578],[-7.3791,7.4599,293.4072],[-7.3798,7.4631,287.0381],[-7.3764,7.4684,285.2451],[-7.3612,7.4755,280.6069],[-7.3535,7.4765,276.3841],[-7.3463,7.4814,273.7656],[-7.3437,7.4867,274.9651],[-7.3051,7.4925,266.5648],[-7.2804,7.51,265.4311],[-7.2801,7.5125,264.7044],[-7.2849,7.5204,270.7731],[-7.2826,7.5283,278.8882],[-7.2884,7.5411,271.0892],[-7.2855,7.5473,273.9865],[-7.2868,7.5523,285.2241],[-7.2822,7.5619,296.3436],[-7.2824,7.5659,274.9665],[-7.2796,7.5729,278.7116],[-7.2798,7.5817,276.9024],[-7.2657,7.5956,283.998],[-7.2512,7.6174,287.6031],[-7.2345,7.6582,297.8324],[-7.2219,7.6598,306.7733],[-7.2139,7.6574,314.3357],[-7.1988,7.66,338.1933],[-7.1923,7.6572,359.0923],[-7.175,7.6736,355.5464],[-7.17,7.6859,325.012],[-7.1542,7.7112,309.9314],[-7.1493,7.7218,311.5341],[-7.145,7.7231,314.7358],[-7.1341,7.7219,315.239],[-7.1037,7.7155,269.4978],[-7.0732,7.7175,240.4476],[-7.0723,7.7192,244.1485],[-7.0756,7.7232,243.8054],[-7.0727,7.7308,244.1232],[-7.0771,7.7638,242.6009],[-7.0779,7.7901,245.761],[-7.0763,7.7966,248.059],[-7.0787,7.8068,245.6362],[-7.0782,7.8123,247.969],[-7.0739,7.8191,249.0891],[-7.0742,7.8525,250.7924],[-7.0776,7.8577,256.3595],[-7.088,7.8623,250.1097],[-7.0956,7.8611,249.3756],[-7.1095,7.8644,252.4322],[-7.1108,7.8596,258.2261],[-7.1135,7.8585,249.7007],[-7.1202,7.8644,260.1797],[-7.126,7.8657,258.4398],[-7.1299,7.8732,260.0819],[-7.139,7.875,254.135],[-7.1471,7.873,256.5267],[-7.1501,7.87,268.369],[-7.1588,7.8676,260.937],[-7.1623,7.8645,275.4377],[-7.1731,7.8634,263.6],[-7.1807,7.8608,265.1161],[-7.188,7.8689,263.8382],[-7.1985,7.8765,269.9636],[-7.202,7.8767,270.8222],[-7.206,7.8834,268.3656],[-7.2031,7.8878,270.1151],[-7.2004,7.9064,276.7046],[-7.2017,7.9102,282.5517],[-7.2075,7.911,280.5937],[-7.2077,7.9145,280.1878],[-7.21,7.915,279.899],[-7.2125,7.9225,285.1088],[-7.2111,7.9329,286.7331],[-7.2148,7.9443,284.819],[-7.2148,7.9544,292.3702],[-7.2181,7.963,294.4089],[-7.2238,7.9681,299.6248],[-7.2262,7.9728,299.4001],[-7.2283,7.9717,297.3488],[-7.2349,7.9774,301.9232],[-7.2386,7.9789,306.4335],[-7.243,7.9784,307.0692],[-7.2458,7.9805,309.9671],[-7.249,7.9914,311.6331],[-7.2527,7.9908,312.7225],[-7.2552,8.0105,321.9279],[-7.2578,8.018,324.4607],[-7.2657,8.0262,326.7035],[-7.2695,8.0364,333.2846],[-7.2726,8.0401,329.264],[-7.2845,8.0483,337.5683],[-7.2877,8.0572,344.3325],[-7.2922,8.0622,349.0569],[-7.2931,8.0658,346.6384],[-7.3053,8.0675,351.416],[-7.3092,8.0688,353.3508],[-7.3117,8.0724,359.3318],[-7.3156,8.0716,357.4117],[-7.3189,8.0729,358.2014],[-7.3245,8.08,360.4661],[-7.333,8.0868,364.7483],[-7.3393,8.086,368.4581],[-7.3423,8.0871,367.4606],[-7.3536,8.0961,382.3684],[-7.3855,8.1138,398.7009],[-7.3976,8.1241,410.4998],[-7.4097,8.1298,435.159],[-7.4226,8.1295,428.3867],[-7.4284,8.1382,403.8521],[-7.4328,8.1558,384.2545],[-7.4482,8.157,392.8212],[-7.4541,8.1559,399.5836],[-7.463,8.1491,405.7066],[-7.4691,8.1465,414.4183],[-7.4798,8.1315,410.8965],[-7.4846,8.1289,408.8256],[-7.516,8.0579,446.585],[-7.509,8.0519,450.8355],[-7.5077,8.0472,440.0856],[-7.5029,8.044,448.0822],[-7.5049,8.0258,461.3611],[-7.5083,8.0228,430.7099],[-7.5088,8.0198,437.3997],[-7.506,8.0149,436.1974],[-7.5083,8.0013,455.3964],[-7.5135,7.9896,427.8935],[-7.5135,7.982,425.3742],[-7.5106,7.9769,405.1399],[-7.5132,7.9582,408.4265],[-7.5184,7.9421,394.4088],[-7.5134,7.9381,383.0642],[-7.5091,7.9377,382.7163],[-7.5024,7.9322,393.6604],[-7.5012,7.9267,364.8961],[-7.5045,7.9229,366.9197],[-7.5067,7.922,374.9805],[-7.5113,7.9233,362.9686],[-7.5209,7.9172,369.3049],[-7.5109,7.9081,372.8798],[-7.5129,7.8983,389.4288],[-7.5146,7.8961,381.5072],[-7.5186,7.8964,380.9507],[-7.5206,7.8951,378.6862],[-7.5186,7.8835,377.7116],[-7.5211,7.8809,383.6713],[-7.53,7.8829,377.7793],[-7.5337,7.8806,377.3784],[-7.5432,7.8837,379.6811],[-7.5452,7.8779,388.9004],[-7.5493,7.8743,385.8392],[-7.55,7.8707,389.4286],[-7.5545,7.8656,388.9003],[-7.5599,7.8671,381.4413],[-7.5644,7.8617,395.0276],[-7.568,7.8609,381.1116],[-7.5728,7.8701,384.0768],[-7.5734,7.8672,391.5925],[-7.5808,7.8669,386.2458],[-7.5874,7.8595,386.7126],[-7.5966,7.8595,393.3552],[-7.6058,7.8649,387.5535],[-7.6094,7.8703,404.0642],[-7.626,7.8706,414.3093],[-7.6292,7.859,411.1149],[-7.6285,7.8525,428.3073],[-7.6305,7.8499,412.8765],[-7.6419,7.8486,405.3353],[-7.6474,7.8414,418.5167],[-7.6619,7.8415,416.114],[-7.67,7.8442,404.5312],[-7.6804,7.8542,406.0399],[-7.6924,7.8467,415.9632],[-7.7016,7.8541,423.9529],[-7.7039,7.8641,439.0411],[-7.7116,7.8633,439.7159],[-7.714,7.8647,436.2901],[-7.7198,7.8751,434.9165],[-7.7202,7.8788,433.2776],[-7.7176,7.882,432.6274],[-7.7207,7.8865,432.4197],[-7.7227,7.8874,435.9821],[-7.7322,7.8829,437.2689],[-7.7544,7.8953,434.7329],[-7.7587,7.8956,436.6042],[-7.7615,7.8885,439.6459],[-7.7644,7.8873,435.0657],[-7.773,7.8905,429.7467],[-7.7839,7.9026,435.3763],[-7.7851,7.9088,430.9258],[-7.7878,7.9134,437.9119],[-7.7954,7.9168,429.8711],[-7.8021,7.9141,442.1978],[-7.8034,7.9166,434.4406],[-7.8025,7.9245,434.0906],[-7.8012,7.9337,439.9783],[-7.7992,7.9367,437.012],[-7.8007,7.9392,436.6703],[-7.815,7.941,437.1055],[-7.8177,7.9435,445.3377],[-7.8216,7.9538,434.3664],[-7.8243,7.9552,440.5304],[-7.8281,7.954,434.7698],[-7.8328,7.9552,439.8347],[-7.839,7.9591,436.4199],[-7.8431,7.9555,431.3809],[-7.8466,7.9548,441.545],[-7.8451,7.956,431.3809],[-7.8484,7.9725,441.3754],[-7.844,7.9799,434.5636],[-7.8475,7.9866,433.2509],[-7.8531,7.9898,434.7998],[-7.8495,7.9961,440.4875],[-7.85,7.9979,435.8639],[-7.8585,8.0011,434.8675],[-7.8577,8.0146,448.6353],[-7.8592,8.0173,441.018],[-7.8673,8.02,440.3182],[-7.8835,8.0208,446.9176],[-7.8859,8.0227,438.3837],[-7.8885,8.0117,435.9],[-7.897,8.0081,441.0906],[-7.9083,8.007,441.0883],[-7.9106,8.0106,443.6687],[-7.9144,8.0109,443.4539],[-7.9154,8.0131,440.6612],[-7.9249,8.012,442.2018],[-7.9284,8.0132,438.3179],[-7.9346,8.0199,441.8944],[-7.9394,8.0171,443.2256],[-7.9465,8.023,447.3309],[-7.9469,8.0158,443.0286],[-7.9456,8.013,454.4893],[-7.9482,8.0073,471.122],[-7.9537,8.0071,457.8444],[-7.9596,8.0129,448.0902],[-7.9727,8.017,442.9613],[-7.9822,8.0105,462.4643],[-7.9843,8.011,466.015],[-7.986,8.0181,458.736],[-7.9907,8.0168,460.5839],[-7.9918,8.0182,462.7991],[-7.9873,8.0312,447.9808],[-7.9891,8.0349,461.1579],[-8.0003,8.0392,461.9373],[-8.0033,8.0385,464.0114],[-8.0098,8.032,463.1455],[-8.0243,8.0331,454.3198],[-8.0297,8.0297,483.0645],[-8.0407,8.0328,467.7473],[-8.0474,8.0299,480.7968],[-8.0576,8.0227,475.2789],[-8.0635,8.0111,483.0432],[-8.0534,8.0,513.7914],[-8.0658,7.9583,512.6216],[-8.0752,7.9387,542.7903],[-8.0826,7.916,518.7702],[-8.0941,7.8985,549.3779],[-8.1072,7.8846,500.4865],[-8.1156,7.8691,542.1998],[-8.1172,7.8588,558.3548],[-8.1147,7.8448,550.2146],[-8.0831,7.8198,529.0477],[-8.0718,7.8083,594.4813],[-8.0703,7.7995,568.0728],[-8.0714,7.7902,590.694],[-8.086,7.7686,557.0466],[-8.0913,7.751,570.843],[-8.094,7.722,568.9855],[-8.1013,7.7159,579.1604],[-8.1237,7.7108,526.674],[-8.1399,7.6933,572.6501],[-8.1437,7.6555,557.1011],[-8.1489,7.6493,509.8687],[-8.1572,7.6442,490.1064],[-8.1719,7.62,499.0989],[-8.1726,7.5817,683.3112],[-8.18,7.5667,503.8682],[-8.1936,7.545,597.8718],[-8.205,7.5358,429.3849],[-8.2149,7.5337,370.6569],[-8.2299,7.5498,406.8843],[-8.2356,7.5519,348.6071],[-8.2573,7.5676,475.4529],[-8.2894,7.577,549.9385],[-8.2977,7.5848,474.3252],[-8.2997,7.5916,434.076],[-8.2986,7.5967,424.6054],[-8.3028,7.6014,461.8885],[-8.3225,7.5994,500.6119],[-8.3465,7.5789,464.1211],[-8.3569,7.5748,511.5075],[-8.3693,7.5727,515.739],[-8.3797,7.579,465.1685],[-8.3817,7.5976,570.4763],[-8.3847,7.607,597.9626],[-8.393,7.6122,910.3134],[-8.4055,7.6112,1098.3119],[-8.4174,7.6082,1341.1746],[-8.4722,7.5546,1168.2312],[-8.4645,7.5364,474.9705],[-8.4568,7.5266,482.0469],[-8.434,7.5171,436.2855],[-8.4141,7.4938,365.5715],[-8.4137,7.4857,355.8112],[-8.408,7.476,368.6562],[-8.4096,7.4691,359.1686],[-8.4055,7.4563,355.8703],[-8.4044,7.4457,356.9781],[-8.4098,7.429,360.1868],[-8.3989,7.4092,353.4278],[-8.3939,7.3938,391.0439],[-8.3959,7.3724,353.893],[-8.3899,7.3288,355.5027],[-8.386,7.3196,350.6739],[-8.3728,7.3021,349.2892],[-8.3605,7.2813,335.3284],[-8.36,7.2744,328.7074],[-8.3534,7.2733,339.8469],[-8.3518,7.271,365.5285],[-8.3523,7.2572,333.1678],[-8.3562,7.2519,330.9468],[-8.3565,7.2478,329.288],[-8.3609,7.2428,320.226],[-8.3573,7.2342,322.8886],[-8.346,7.2296,330.8591],[-8.3357,7.2192,325.6553],[-8.3314,7.2137,331.708],[-8.3305,7.2056,318.8737],[-8.325,7.2006,335.0202],[-8.3181,7.2026,321.5977],[-8.3142,7.201,330.907],[-8.3076,7.1943,314.7286],[-8.3036,7.1945,323.5301],[-8.3018,7.1873,327.757],[-8.2942,7.1868,321.7216],[-8.2906,7.1818,311.2098],[-8.2871,7.1813,312.0066],[-8.2841,7.1852,310.5032],[-8.2784,7.1852,324.6453],[-8.2761,7.1808,329.0125],[-8.2785,7.1702,301.1929],[-8.2758,7.1562,296.7652],[-8.2779,7.1514,303.5652],[-8.2929,7.1393,301.4055],[-8.2943,7.135,304.6355],[-8.2916,7.1177,307.3844],[-8.2994,7.0888,290.2772],[-8.2994,7.0824,271.4432],[-8.2949,7.072,263.2015],[-8.2956,7.0617,262.309],[-8.2877,7.0392,260.6865],[-8.2871,7.024,258.1981],[-8.285,7.0205,247.7254],[-8.2786,7.0189,246.7727],[-8.2761,7.0166,246.0857],[-8.2782,7.0134,256.6955],[-8.2747,7.0106,244.5334],[-8.2736,7.0067,244.5601],[-8.2764,7.0021,245.0525],[-8.2836,6.9978,245.7915],[-8.2848,6.9879,243.4843],[-8.2931,6.9838,244.9347],[-8.3025,6.9733,252.0471],[-8.3097,6.9743,242.1852],[-8.3134,6.9709,239.9942],[-8.3216,6.9698,248.2425],[-8.3249,6.9661,238.6054],[-8.3215,6.9594,241.8298],[-8.3222,6.9546,241.9857],[-8.3183,6.9459,245.1118],[-8.3179,6.9351,245.7122],[-8.3152,6.9222,241.0464],[-8.3091,6.9116,238.1659],[-8.3089,6.9063,241.2448],[-8.3107,6.9024,253.2248],[-8.3147,6.8995,245.8164],[-8.3246,6.899,237.0594],[-8.3262,6.8968,234.7896],[-8.323,6.8912,246.6676],[-8.3299,6.8871,233.1124],[-8.332,6.8796,236.8544],[-8.3181,6.8554,234.8947],[-8.316,6.8543,233.7864],[-8.3117,6.8611,233.9413],[-8.3084,6.8622,232.1659],[-8.3074,6.8482,242.9922],[-8.3215,6.8317,235.1458],[-8.3238,6.8265,234.5556],[-8.3168,6.811,235.5675],[-8.3181,6.8097,234.1944],[-8.3241,6.8099,231.6097],[-8.3272,6.7994,234.7141],[-8.3406,6.7907,251.7451],[-8.3429,6.7852,232.4389],[-8.3429,6.7799,235.9551],[-8.3384,6.7606,247.8431],[-8.3401,6.756,248.9733],[-8.3428,6.7579,249.9999],[-8.3437,6.762,235.1676],[-8.3495,6.7609,238.448],[-8.3531,6.7618,236.6273],[-8.3559,6.7596,233.2588],[-8.3568,6.7545,231.9168],[-8.3557,6.7465,244.3993],[-8.3608,6.7401,240.9293],[-8.3645,6.7444,237.6664],[-8.3677,6.744,229.3948],[-8.3698,6.7362,240.8991],[-8.3793,6.7319,228.0464],[-8.3832,6.7282,231.9365],[-8.38,6.7248,233.5135],[-8.3747,6.7243,234.1056],[-8.3782,6.7176,249.0712],[-8.3858,6.7221,227.4777],[-8.389,6.7218,231.5872],[-8.3911,6.7182,232.0169],[-8.3881,6.7131,247.0124],[-8.4058,6.707,226.9695],[-8.4075,6.7026,228.3436],[-8.4025,6.6946,227.7274],[-8.4046,6.69,229.9233],[-8.4018,6.6824,235.622],[-8.4044,6.6794,241.093],[-8.409,6.6778,236.7633],[-8.415,6.6696,233.9385],[-8.4182,6.6689,231.2328],[-8.423,6.6722,229.4183],[-8.4256,6.6699,225.352],[-8.4293,6.6595,248.0267],[-8.3187,6.5869,256.8018],[-8.3074,6.5952,252.6283],[-8.3024,6.6073,279.611],[-8.2866,6.6089,262.2904],[-8.2823,6.6028,254.5802],[-8.2789,6.6157,256.9332],[-8.2691,6.6195,278.4695],[-8.2662,6.6279,264.7774],[-8.2623,6.632,253.0682],[-8.2558,6.6275,255.8398],[-8.2518,6.629,255.236],[-8.2451,6.6254,259.3819],[-8.242,6.6325,254.3362],[-8.2468,6.6435,296.6169],[-8.2506,6.6455,265.5863],[-8.2499,6.6515,268.4417],[-8.2366,6.6569,257.6283],[-8.2404,6.6655,254.1956],[-8.2464,6.669,260.3352],[-8.2511,6.6752,257.5322],[-8.2473,6.6774,259.6216],[-8.2407,6.6772,256.9157],[-8.2364,6.6745,256.006],[-8.2357,6.6696,259.4437],[-8.2341,6.6698,259.4437],[-8.2334,6.6717,254.8423],[-8.2356,6.6776,256.4025],[-8.2208,6.6793,267.3085],[-8.2194,6.6809,272.5905],[-8.2198,6.6932,267.7719],[-8.2307,6.6975,255.854],[-8.2306,6.6995,259.736],[-8.2279,6.7065,263.7856],[-8.2177,6.7085,263.8337],[-8.2167,6.7106,258.2339],[-8.2184,6.7166,257.7884],[-8.2171,6.7197,259.9088],[-8.2109,6.7194,258.1276],[-8.2095,6.721,260.8567],[-8.2099,6.7324,255.5494],[-8.2067,6.7339,261.8665],[-8.1905,6.7314,275.4557],[-8.1851,6.7192,269.2164],[-8.1917,6.7152,277.1484],[-8.1924,6.7132,274.9816],[-8.1893,6.7105,267.5012],[-8.1752,6.7147,265.6564],[-8.1721,6.7222,271.0172],[-8.1658,6.723,273.7974],[-8.164,6.7286,269.2654],[-8.1591,6.7303,271.7663],[-8.1579,6.7334,264.9742],[-8.1619,6.7375,269.3965],[-8.1632,6.7486,286.4121],[-8.1597,6.7552,262.5741],[-8.1613,6.7618,269.4026],[-8.1642,6.7642,269.5461],[-8.1592,6.7702,268.1826],[-8.1555,6.7709,263.3047],[-8.148,6.7688,266.8234]]]]}}