{"type": "Feature","bbox": [-5.5281,6.5542,-5.1565,7.0686],"geometry": {"type": "MultiPolygon","coordinates": [[[[-5.3048,6.5542,152.6199],[-5.2943,6.5563,148.5629],[-5.2847,6.5697,175.9576],[-5.2834,6.574,154.2753],[-5.2869,6.5792,159.1198],[-5.2854,6.5884,155.593],[-5.2874,6.5984,154.6788],[-5.2859,6.6093,156.1934],[-5.2716,6.627,162.6284],[-5.2639,6.6457,167.3967],[-5.261,6.6481,170.6068],[-5.2158,6.6574,189.1479],[-5.2167,6.6603,194.5165],[-5.1685,6.7064,184.0536],[-5.1671,6.7683,202.069],[-5.1565,6.812,206.0505],[-5.1694,6.8368,196.9756],[-5.2048,6.8639,226.3276],[-5.2426,6.9017,200.7184],[-5.2497,6.9324,234.7674],[-5.3347,6.9796,217.1794],[-5.3642,7.0162,197.4749],[-5.3698,7.0686,200.2091],[-5.3945,7.0541,183.0656],[-5.4133,7.0476,181.5],[-5.4199,7.0463,181.5],[-5.4526,7.0474,181.5],[-5.4596,7.0493,181.5],[-5.4646,7.0485,181.5],[-5.4675,7.0458,181.5],[-5.4492,7.0408,181.5],[-5.4475,7.0356,181.5],[-5.456,7.0288,181.5],[-5.4587,7.0285,181.5],[-5.4691,7.0331,181.5],[-5.4739,7.0311,187.2115],[-5.4794,7.025,164.2525],[-5.484,7.007,168.0319],[-5.4897,7.0024,167.8193],[-5.4964,6.9889,187.9601],[-5.4953,6.984,193.9352],[-5.499,6.9659,177.8779],[-5.4995,6.9531,162.4655],[-5.4981,6.9461,162.8947],[-5.5013,6.9309,157.8093],[-5.5053,6.9261,156.7643],[-5.513,6.9235,156.7052],[-5.5193,6.9161,160.4525],[-5.5263,6.9125,152.7658],[-5.5281,6.9072,152.9365],[-5.5273,6.9019,152.606],[-5.5199,6.8947,156.8028],[-5.5189,6.89,153.4042],[-5.5211,6.885,153.0657],[-5.5174,6.8763,154.9884],[-5.5107,6.867,148.8579],[-5.4929,6.8631,157.1104],[-5.486,6.8577,156.6367],[-5.4837,6.8523,161.6979],[-5.4854,6.845,149.9409],[-5.4815,6.8307,147.4333],[-5.4839,6.8206,147.3622],[-5.4815,6.8126,146.8269],[-5.4629,6.8046,148.6546],[-5.4388,6.7847,148.525],[-5.4333,6.7705,154.9061],[-5.4328,6.7545,149.1152],[-5.4233,6.741,147.946],[-5.405,6.7048,149.7202],[-5.405,6.6921,152.2368],[-5.3985,6.6683,150.6462],[-5.3995,6.6602,150.8753],[-5.4047,6.6525,147.3936],[-5.4107,6.6334,148.8723],[-5.4122,6.6221,147.651],[-5.4103,6.6124,147.226],[-5.4049,6.6064,152.0583],[-5.3973,6.6021,154.251],[-5.3645,6.6038,145.1555],[-5.3412,6.6018,141.5807],[-5.3252,6.5982,145.2563],[-5.306,6.591,144.1804],[-5.3009,6.5842,148.1655],[-5.298,6.576,150.6024],[-5.2986,6.5691,159.331],[-5.3066,6.5579,153.0646],[-5.3048,6.5542,152.6199]]]]}
,"properties": {"GID_3": "CIV.13.1.2_1","GID_0": "CIV","country": "Côted'Ivoire","GID_1": "CIV.13_1","province": "Yamoussoukro","NL_NAME_1": "NA","GID_2": "CIV.13.1_1","county": "Yamoussoukro","NL_NAME_2": "NA","city": "Yamoussoukro","VARNAME_3": "NA","NL_NAME_3": "NA","TYPE_3": "Département","ENGTYPE_3": "Department","CC_3": "NA","HASC_3": "NA","name": "Yamoussoukro.city","area_km2": 1238.833,"hist_schema_id": "Elevation0-9000","hist_area_km2": {"150": 119.7058,"175": 367.1583,"200": 395.2857,"225": 265.6315,"250": 60.7676,"275": 10.1861,"300": 6.1452,"325": 4.1248,"350": 3.9986,"375": 2.7779,"400": 1.873,"425": 0.9049,"450": 0.2525,"475": 0.021}}}