{"type":"Feature","properties":{"GID_3":"CIV.4.1.2_1","GID_0":"CIV","country":"Côted'Ivoire","GID_1":"CIV.4_1","province":"Denguélé","NL_NAME_1":"NA","GID_2":"CIV.4.1_1","county":"Folon","NL_NAME_2":"NA","city":"Minignan","VARNAME_3":"NA","NL_NAME_3":"NA","TYPE_3":"Département","ENGTYPE_3":"Department","CC_3":"NA","HASC_3":"NA","name":"Minignan.city"},
"geometry":{"type": "MultiPolygon","coordinates": [[[[-7.5872,10.095,363.6706],[-7.583,10.1002,363.2809],[-7.5798,10.096,361.8452],[-7.574,10.0926,373.6119],[-7.5613,10.0889,379.4978],[-7.5361,10.097,397.0887],[-7.5319,10.1003,412.8066],[-7.5254,10.0935,418.9413],[-7.5225,10.0636,388.7318],[-7.5175,10.0585,368.5908],[-7.5037,10.0659,368.9156],[-7.5018,10.0535,368.1982],[-7.4939,10.0499,368.6855],[-7.488,10.0439,373.4026],[-7.4832,10.0314,376.2294],[-7.4741,10.0284,376.9215],[-7.4762,10.0241,369.6439],[-7.4708,10.0277,377.8299],[-7.4641,10.0231,377.3783],[-7.4526,10.0278,381.1201],[-7.4438,10.0284,383.4953],[-7.4379,10.0328,383.5378],[-7.4251,10.0277,386.7998],[-7.4087,10.0312,401.9504],[-7.403,10.0296,408.5273],[-7.3625,10.0435,416.8582],[-7.3475,10.0607,398.22],[-7.3464,10.075,391.1509],[-7.3375,10.0773,387.9504],[-7.3197,10.101,377.641],[-7.3108,10.1037,381.5837],[-7.3158,10.1178,397.1459],[-7.3201,10.1373,388.8207],[-7.3184,10.1457,385.0003],[-7.3239,10.1502,390.15],[-7.3274,10.1609,375.2482],[-7.3231,10.1709,386.8868],[-7.3323,10.2209,386.0424],[-7.3349,10.2242,374.2922],[-7.3342,10.2292,375.5717],[-7.3289,10.2322,385.7981],[-7.3332,10.269,384.1585],[-7.3451,10.2706,403.3082],[-7.357,10.2763,388.4194],[-7.3789,10.2745,392.625],[-7.3844,10.2826,402.0003],[-7.3708,10.3066,396.1838],[-7.3634,10.338,382.8146],[-7.3651,10.3624,399.0229],[-7.3738,10.3683,387.4195],[-7.3847,10.3716,373.7519],[-7.3926,10.3759,391.0544],[-7.4021,10.3767,403.42],[-7.4196,10.3875,375.2378],[-7.4254,10.3895,367.3444],[-7.432,10.3976,379.2735],[-7.4374,10.4092,382.5949],[-7.449,10.4636,361.566],[-7.4582,10.4704,366.8173],[-7.4802,10.4749,364.9516],[-7.4862,10.4777,376.4358],[-7.5085,10.4794,366.908],[-7.5269,10.4721,395.0603],[-7.5335,10.4662,377.1551],[-7.5513,10.4444,389.2417],[-7.5585,10.4419,383.503],[-7.5652,10.4418,391.262],[-7.5841,10.4533,402.4478],[-7.5902,10.4536,395.5685],[-7.607,10.449,405.3586],[-7.6156,10.4491,417.0934],[-7.6202,10.4526,414.6734],[-7.6217,10.4738,391.0298],[-7.627,10.4801,402.8327],[-7.6416,10.4881,414.4317],[-7.6465,10.4868,407.7223],[-7.6512,10.4797,400.014],[-7.6548,10.4678,385.4717],[-7.6641,10.4532,373.6138],[-7.6763,10.4414,368.1955],[-7.6864,10.4363,378.4304],[-7.7283,10.4258,347.6403],[-7.731,10.4198,353.2289],[-7.7359,10.4179,355.957],[-7.7434,10.4003,378.3322],[-7.7434,10.396,364.5764],[-7.7414,10.3937,351.2712],[-7.7323,10.3938,348.6256],[-7.7289,10.3889,358.1674],[-7.7285,10.3831,350.4606],[-7.7302,10.3788,349.5186],[-7.7393,10.3757,378.5743],[-7.7382,10.3722,354.5242],[-7.7297,10.3675,349.3479],[-7.7273,10.3555,357.2542],[-7.7318,10.3471,354.9158],[-7.7374,10.3451,349.9474],[-7.7516,10.3448,351.6335],[-7.7567,10.3419,348.7003],[-7.7593,10.338,361.1165],[-7.7569,10.3269,358.678],[-7.7586,10.3224,352.7425],[-7.761,10.321,351.935],[-7.7714,10.3214,395.5461],[-7.7742,10.3187,385.7571],[-7.7757,10.3129,377.5358],[-7.7737,10.3088,358.1482],[-7.7588,10.3074,350.7896],[-7.7566,10.303,350.9853],[-7.7624,10.2992,352.5641],[-7.7648,10.2928,357.027],[-7.7773,10.2847,358.0157],[-7.7821,10.2834,358.9781],[-7.7864,10.2795,358.6297],[-7.7917,10.2777,365.0902],[-7.7974,10.2695,380.2808],[-7.8009,10.2675,382.1039],[-7.8101,10.243,368.1877],[-7.816,10.2364,360.1608],[-7.8267,10.2334,374.4333],[-7.8398,10.2234,370.3388],[-7.8559,10.2048,374.6248],[-7.8873,10.1999,369.3658],[-7.895,10.197,373.9221],[-7.9113,10.1804,391.3656],[-7.9265,10.171,401.0418],[-7.9372,10.1676,403.7858],[-7.9483,10.1678,436.7027],[-7.9663,10.1756,440.8754],[-7.9805,10.1746,410.2839],[-7.986,10.1641,430.193],[-7.9882,10.1559,449.1132],[-8.006,10.1223,433.9379],[-8.0165,10.0971,479.6848],[-8.0245,10.0887,457.4449],[-8.0451,10.0733,458.6827],[-8.0792,10.0588,442.5856],[-8.0989,10.053,426.2691],[-8.1067,10.0469,429.37],[-8.1314,10.0139,388.4205],[-8.131,10.0097,384.3849],[-8.135,10.0077,385.1357],[-8.1373,9.9922,385.4168],[-8.1478,9.9864,408.7442],[-8.1518,9.9797,425.5799],[-8.1503,9.9749,425.7544],[-8.1436,9.97,389.3829],[-8.1385,9.9685,403.7867],[-8.1273,9.9764,386.7631],[-8.1215,9.9761,388.537],[-8.1174,9.971,388.1008],[-8.1178,9.9577,386.2221],[-8.1206,9.9543,390.2794],[-8.1236,9.9536,397.9564],[-8.1301,9.9565,386.4747],[-8.1483,9.9488,386.335],[-8.164,9.9511,396.6059],[-8.1668,9.9473,419.5343],[-8.1659,9.9447,414.6633],[-8.153,9.939,388.0504],[-8.1524,9.9372,387.1262],[-8.1631,9.9314,392.9796],[-8.1655,9.9268,402.8344],[-8.1608,9.9122,417.8721],[-8.1564,9.909,397.5182],[-8.1529,9.9092,391.5624],[-8.1422,9.9168,394.2694],[-8.1334,9.9174,396.2198],[-8.1322,9.914,392.3229],[-8.1351,9.9096,391.284],[-8.1279,9.9061,388.4577],[-8.1245,9.901,388.1739],[-8.1248,9.8971,389.6327],[-8.1287,9.8824,388.9476],[-8.1308,9.8811,389.0743],[-8.134,9.8823,389.5804],[-8.1386,9.8869,391.1075],[-8.1407,9.8856,407.9418],[-8.1441,9.8739,415.6574],[-8.1434,9.8697,417.3147],[-8.1379,9.866,388.6896],[-8.1303,9.8657,389.8226],[-8.1231,9.8685,389.4139],[-8.1175,9.8689,390.2964],[-8.1133,9.8673,393.3812],[-8.1094,9.8633,396.5084],[-8.1077,9.8557,408.2587],[-8.1087,9.852,414.0468],[-8.0799,9.86,406.0029],[-8.0725,9.8683,406.5461],[-8.0616,9.8747,409.6461],[-8.0512,9.8765,419.1533],[-8.0441,9.8724,423.5281],[-8.0358,9.8781,432.3693],[-8.006,9.8777,446.2314],[-7.9679,9.8807,441.4035],[-7.8391,9.8937,440.8044],[-7.8277,9.896,438.9132],[-7.8177,9.9015,423.0576],[-7.8093,9.9089,407.6036],[-7.7993,9.9104,430.9716],[-7.7812,9.9074,436.0629],[-7.7382,9.9106,413.0753],[-7.7357,9.9178,404.4279],[-7.7271,9.9257,400.076],[-7.7117,9.9307,404.9618],[-7.7036,9.9385,394.1776],[-7.6864,9.939,390.7786],[-7.6787,9.9381,385.7546],[-7.6778,9.9358,384.8062],[-7.6666,9.9402,381.7859],[-7.651,9.942,381.9037],[-7.6482,9.9522,377.6708],[-7.6383,9.9624,377.8595],[-7.6287,9.9666,377.5984],[-7.6153,9.9676,374.8629],[-7.5949,9.9658,368.4625],[-7.5869,9.9617,366.9251],[-7.581,9.9708,366.2426],[-7.5844,9.9763,366.2475],[-7.5816,9.9839,365.8257],[-7.5743,9.9847,365.7495],[-7.5711,9.9915,374.3815],[-7.579,10.0077,370.2482],[-7.5749,10.0137,369.4285],[-7.5678,10.0125,367.9841],[-7.5653,10.0161,368.6717],[-7.581,10.0206,363.933],[-7.5767,10.0212,364.8573],[-7.5659,10.0268,373.9115],[-7.5734,10.0321,363.3726],[-7.5693,10.033,374.3915],[-7.5669,10.0404,373.7588],[-7.5686,10.0495,362.6655],[-7.5757,10.0562,364.0795],[-7.5712,10.0591,373.1731],[-7.5724,10.0629,363.2939],[-7.577,10.0692,366.4637],[-7.5833,10.0706,362.8992],[-7.5793,10.0748,370.5788],[-7.59,10.085,362.7788],[-7.5907,10.0904,363.2978],[-7.5872,10.095,363.6706]]]]}}