{"type":"Feature","properties":{"featurecla":"Reservoir","scalerank":7,"name":"Lac de Buyo","name_abb":"Lac de Buyo","name_alt":null,"note":null,"delta":null,"dam_name":null,"year":1980,"admin":null,"min_zoom":5.7,"min_label":6.7},
"geometry":{"type": "Polygon","coordinates": [[[-6.9293275408027171,6.5170411886400927,192.6232],[-6.90739741333141,6.5270495689625534,215.1796],[-6.9084276877763671,6.5361748569036422,224.8254],[-6.91151851111124,6.5379410416664427,208.4746],[-6.9159339730182134,6.5370579492850416,198.9225],[-6.9315352717561893,6.5467719654803886,219.4421],[-6.9419851982693794,6.5491268784974466,194.384],[-6.9472837525577518,6.5556028892943354,210.6655],[-6.9421323803329358,6.5750309216850269,200.6933],[-6.9668589670120014,6.5729703727951119,214.1232],[-6.9681836055841018,6.60446733439818,222.2064],[-6.9509633041468817,6.64302903505245,222.1456],[-6.9209381631794713,6.6636345239516572,226.308],[-6.9269726277856591,6.6768809096725761,200.4081],[-6.9363922798538624,6.681296371579549,211.8057],[-6.9475781166848662,6.6827681922152067,198.0302],[-6.9589111355794557,6.687772382376437,213.964],[-6.9640625078042433,6.6966033061904113,224.6134],[-6.9621491409778864,6.7057285941314717,221.0025],[-6.9577336790709126,6.7142651538183031,222.3459],[-6.95508440192674,6.7216242569965914,227.8839],[-6.9586167714523128,6.7434072024043417,209.7355],[-6.9645040539949434,6.7610690500322326,199.6166],[-6.9656815105034866,6.7769647128973531,196.9663],[-6.95508440192674,6.7940378322709876,214.3249],[-6.9625906871685856,6.8081673103733067,214.725],[-6.9839320863856358,6.7963927452880446,208.8452],[-6.9926158281360236,6.8058123973562488,194.7885],[-6.99644256178874,6.8246517014926837,207.7842],[-7.0035073008398854,6.8417248208663182,208.0901],[-7.0188142354507477,6.8511444729345214,218.7116],[-7.0323549852988094,6.85526557071438,205.1007],[-7.0417746373670127,6.86439085865544,228.8867],[-7.0445710965747708,6.890294901843049,205.2384],[-7.03824226784144,6.9197313145562021,200.7294],[-7.0383894499049973,6.9312115155143488,217.5934],[-7.04059718085847,6.9353326132941788,213.659],[-7.0450126427654709,6.9406311675825521,211.0883],[-7.0494281046724439,6.94799027076084,210.4074],[-7.051930199753059,6.9591761075918441,213.4639],[-7.0501640149902576,6.9788985041096794,217.0282],[-7.0392725422863984,7.0189320253995788,228.813],[-7.0383894499049973,7.0410093349344436,225.3711],[-7.0504583791174014,7.0421867914429868,235.6791],[-7.06238012626622,7.0259967644507242,207.9902],[-7.08239688691117,6.9892012485592829,221.2778],[-7.0871067129452854,6.9715394009313911,223.6567],[-7.0784229711948967,6.9527000967949562,216.8225],[-7.05825902848639,6.924146776463175,200.976],[-7.05914212086779,6.9070736570895406,209.3944],[-7.0751849657964669,6.8882343529531056,201.3564],[-7.079306063576297,6.8726330542151288,226.3607],[-7.0722413245251232,6.8540881142058367,221.1852],[-7.0476619199096433,6.825534793874084,211.3567],[-7.051930199753059,6.81434895704308,230.4965],[-7.0416274553034546,6.8052236691019914,216.6033],[-7.030294436408866,6.8005138430678764,199.7644],[-7.02102196640422,6.7946265605252449,227.7866],[-7.0171952327515044,6.7834407236942411,215.3911],[-7.0149875017980321,6.7696056097190649,226.3876],[-6.99732565417014,6.7251566265221641,202.1794],[-7.00188829814067,6.7272171754121084,207.2999],[-7.0171952327515044,6.7319270014461949,230.8573],[-7.0155762300522886,6.7213298928694476,228.0242],[-7.0111607681453174,6.7074947788942723,217.0507],[-7.010130493700359,6.6954258496818682,189.5],[-7.0107192219546164,6.6704048988756881,207.9193],[-7.0138100452894889,6.6674612576043728,210.0359],[-7.0007108416321273,6.6550979642648258,208.8982],[-6.9954122873437834,6.6468557687051373,193.0594],[-7.0004164775050128,6.64302903505245,197.5652],[-7.0133684990987888,6.6415572144167641,217.1099],[-7.0176367789422054,6.6368473883826766,195.8908],[-7.0192557816414478,6.6300770134586458,205.2823],[-7.0239656076755352,6.6227179102803584,215.1694],[-7.0195501457685623,6.6236010026617578,202.1649],[-7.01690086862439,6.6191855407547848,205.0963],[-7.0161649583065469,6.6130038940850113,209.0159],[-7.0171952327515044,6.6091771604322958,202.1993],[-7.0216106946584773,6.607999703923781,189.5],[-7.0336796238708814,6.6097658886865531,205.6413],[-7.0383894499049973,6.6091771604322958,203.3395],[-7.0469260095918,6.6065278832881233,203.0419],[-7.0556097513421889,6.60623351916098,209.8783],[-7.06238012626622,6.6032898778896651,223.8557],[-7.0650294034104206,6.5915153128044039,207.6508],[-7.0722413245251232,6.5770914705749419,206.6208],[-7.0891672618352,6.57444219343077,225.2285],[-7.109478386607293,6.579446383592,222.7468],[-7.12640432391737,6.5885716715330886,199.2519],[-7.12640432391737,6.5782689270834567,191.2734],[-7.1237550467731694,6.568260546760996,189.5],[-7.1191924028026392,6.5600183512013066,191.8943],[-7.1128635740693076,6.5544254327857914,193.2646],[-7.09961718834839,6.5500099708788184,207.4308],[-7.0916693569158156,6.5529536121501337,203.4838],[-7.0840158896104128,6.5582521664385069,189.5],[-7.0717997783344524,6.5611958077098222,199.6923],[-7.0464844634011294,6.55766343818425,189.5],[-7.0513414714988016,6.549421242624561,190.7444],[-7.079306063576297,6.5332312156323269,204.2166],[-7.0879898053266857,6.5135088191144916,203.4056],[-7.07960042770344,6.5129200908602343,204.9515],[-7.051930199753059,6.5270495689625534,206.7918],[-7.0355929906972392,6.524400291818381,196.1333],[-7.0179311430693474,6.5138031832416354,227.0822],[-7.0118966784631311,6.499084976885058,231.7305],[-7.0308831646631234,6.4849554987827389,214.9669],[-7.0350042624429818,6.4899596889439692,205.7788],[-7.039566906413512,6.4920202378338843,207.3781],[-7.0550210230879324,6.4923146019610272,202.0265],[-7.0617913980119624,6.4893709606897119,216.0111],[-7.056345661660032,6.4831893140199384,222.4974],[-7.0476619199096433,6.4784794879858234,217.4682],[-7.0445710965747708,6.4787738521129654,207.9968],[-7.0388309960956974,6.476124574968793,213.1251],[-7.0320606211716674,6.4778907597315651,209.4601],[-7.02646770275615,6.4778907597315651,208.4148],[-7.0239656076755352,6.4687654717904763,203.2708],[-7.0261733386290359,6.4619950968664446,205.2224],[-7.0355929906972392,6.4528698089253851,199.8343],[-7.0383894499049973,6.4446276133656966,215.0305],[-7.0363289010150822,6.42902631462772,202.2148],[-7.0313247108538226,6.4131306517626,211.9203],[-7.0300000722817506,6.39723498889748,189.5],[-7.0383894499049973,6.3825167825409039,213.2414],[-7.0526661100708736,6.376040771744016,222.0097],[-7.05825902848639,6.3857547879393621,223.2401],[-7.0572287540414322,6.4025335431858537,198.3214],[-7.051930199753059,6.4172517495424586,222.0193],[-7.06149703388482,6.4266714016106619,195.9028],[-7.0617913980119624,6.4431557927300389,215.2716],[-7.0595836670584617,6.4587570914680157,195.0829],[-7.0616442159484052,6.4655274663920466,189.5],[-7.0790116994491541,6.4619950968664446,201.978],[-7.0904919004073008,6.4525754447982422,203.5033],[-7.0971150932677736,6.43815160256878,226.239],[-7.0990284600941322,6.4204897549408884,211.6615],[-7.1013833731111617,6.4125419235083427,194.6452],[-7.1060931991452776,6.4084208257284843,189.5],[-7.1106558431158078,6.4051828203300536,211.6471],[-7.1128635740693076,6.4004729942959386,189.5],[-7.1116861175607937,6.3934082552447933,199.9959],[-7.106681927399535,6.3778069565067881,189.5],[-7.1060931991452776,6.3689760326928422,189.5],[-7.1206642234382969,6.3295312396572,189.5],[-7.12640432391737,6.3209946799703971,189.5],[-7.1526027312320926,6.3112806637750509,196.2503],[-7.16687939139797,6.3224665006060548,189.5],[-7.1720307636227858,6.3398339841068037,189.5],[-7.1711476712413864,6.3489592720478916,189.5],[-7.174532858703401,6.3510198209378066,191.067],[-7.1799785950553314,6.3601451088788963,215.7042],[-7.181744779818132,6.3625000218959542,217.9697],[-7.1883679726785772,6.3613225653874386,214.8499],[-7.1938137090305077,6.3560240110990662,194.5347],[-7.1982291709374806,6.350725456810693,213.3441],[-7.2020559045901962,6.3489592720478916,192.4534],[-7.2123586490398,6.3516085491920933,189.5],[-7.2172156571374728,6.3542578263362657,189.5],[-7.2197177522181164,6.3589676523703824,189.5],[-7.2226613934894317,6.3689760326928422,209.119],[-7.2244275782522038,6.3789844130153313,189.5],[-7.2226613934894317,6.4137193800168566,208.9445],[-7.2272240374599619,6.41813484192383,219.2594],[-7.237232417782451,6.4163686571610583,215.4438],[-7.2537168089018,6.4104813746184277,221.2965],[-7.2635780071607314,6.4119531952540854,189.5],[-7.3069967159126463,6.4310868635176348,195.9459],[-7.31818255274365,6.4446276133656966,189.5],[-7.3161220038537351,6.4478656187641263,189.5],[-7.31229527020102,6.4549303578153,189.5],[-7.3106762675017762,6.4622894609935884,189.5],[-7.3152389114723348,6.4655274663920466,189.5],[-7.3256888379854956,6.4649387381377892,192.2345],[-7.3305458460831687,6.465821830519161,192.2623],[-7.3324592129095274,6.4687654717904763,197.2818],[-7.3329007591002267,6.4790682162401083,221.6432],[-7.3348141259265844,6.49172587370677,218.5635],[-7.3399654981514,6.4996737051393154,216.0428],[-7.3495323322831609,6.4958469714866,221.9587],[-7.3576273457792922,6.4861329552912537,204.0863],[-7.3611597153048649,6.480540036875766,199.0972],[-7.3666054516567954,6.47671330322305,197.718],[-7.3888299432552458,6.4693542000447621,197.3996],[-7.3945700437343191,6.468176743536219,196.1834],[-7.40001578008625,6.4690598359176192,201.8928],[-7.4076692473916808,6.4720034771889354,223.5252],[-7.42547827708313,6.4955526073594569,214.1455],[-7.4388718448676343,6.5338199438865843,219.2761],[-7.458888605512584,6.5667887261253384,226.3574],[-7.4970087599761257,6.5750309216850269,208.3542],[-7.4970087599761257,6.5673774543795957,200.6852],[-7.4817018253652918,6.5591352588199072,201.8543],[-7.4711047167885454,6.5488325143703037,198.6444],[-7.4649230701187719,6.5332312156323269,203.2859],[-7.4628625212288568,6.5096820854617761,207.7589],[-7.46639489075443,6.499084976885058,208.5597],[-7.4730180836149032,6.4884878683083116,208.1829],[-7.4771391813947616,6.478185123858708,237.1987],[-7.4728709015513459,6.4687654717904763,227.901],[-7.4641871598009573,6.4669992870277042,209.1109],[-7.4566808745590833,6.46994292829902,216.3225],[-7.4512351382071529,6.4690598359176192,222.3344],[-7.4491745893172379,6.4549303578153,220.0551],[-7.4410795758211066,6.43491359717035,228.6054],[-7.421798725494,6.43403050478895,204.0708],[-7.3989855056412921,6.4410952438401239,203.214],[-7.3802933835684428,6.4446276133656966,207.1561],[-7.3707265494366538,6.4352079612974649,222.3209],[-7.3668998157839383,6.4193122984323736,241.0612],[-7.3596878946692073,6.40724336921997,244.963],[-7.3399654981514,6.4104813746184277,199.663],[-7.3355500362444266,6.3939969834990507,212.3716],[-7.3240698352862807,6.3786900488881884,201.176],[-7.3094988109932606,6.36720984793007,222.2747],[-7.2950749687637986,6.3625000218959542,217.8728],[-7.2905123247932693,6.3639718425316119,243.6252],[-7.2802095803436657,6.36544366316727,239.3705],[-7.273880751610335,6.3627943860230971,241.7933],[-7.28094549066148,6.3524916415734651,231.1283],[-7.2835947678056812,6.34542690252232,239.8458],[-7.2793264879622646,6.3386565275982889,223.4157],[-7.27182020272042,6.3321805168014009,233.4392],[-7.2637251892242887,6.327765054894428,257.9114],[-7.2507731676304843,6.3357128863269736,220.6482],[-7.2435612465157817,6.329825603784343,190.7867],[-7.2381155101638228,6.3180510386990818,230.6834],[-7.23002049666772,6.3074539301223354,227.7111],[-7.2180987495188731,6.30451028885102,227.5451],[-7.2052939099886544,6.30451028885102,196.1884],[-7.1979348068103661,6.3009779193254474,242.7117],[-7.2020559045901962,6.2868484412231282,242.7033],[-7.2083847333235269,6.2942075444014156,220.6104],[-7.2135361055483429,6.2853766205874706,246.022],[-7.2157438365018152,6.2765456967734963,249.9937],[-7.2172156571374728,6.2371009037378542,233.4473],[-7.2020559045901962,6.2391614526277976,196.8918],[-7.1939608910940933,6.24181072977197,199.4019],[-7.1820391439452456,6.2506416535859159,189.5],[-7.1711476712413864,6.252702202475831,194.6471],[-7.1670265734615271,6.2500529253316586,214.6447],[-7.1539273698041654,6.23680653961074,229.7923],[-7.1475985410708347,6.2315079853223656,208.8742],[-7.1480400872615348,6.24181072977197,189.5],[-7.14553799218092,6.2506416535859159,211.3019],[-7.1396507096382891,6.2541740231114886,210.2525],[-7.123166318518912,6.246226191678943,199.5272],[-7.1184564924847962,6.2500529253316586,209.5191],[-7.1143353947049661,6.2559402078742892,189.5],[-7.109478386607293,6.2588838491456036,189.5],[-7.0719469603980087,6.2630049469254629,189.5],[-7.0569343899142893,6.26182749041692,189.5],[-7.0445710965747708,6.252702202475831,189.5],[-7.0327965314894811,6.2803724304262118,191.0511],[-7.0286754337096511,6.2989173704355039,207.0269],[-7.0380950857778544,6.3115750279021654,189.5],[-7.0392725422863984,6.3212890440975116,189.5],[-7.0379479037142971,6.3310030602928578,189.5],[-7.0345627162522817,6.3354185221998307,189.5],[-7.0035073008398854,6.3416001688696042,189.5],[-6.998503110678655,6.3524916415734651,189.5],[-6.99688410797944,6.3675042120571854,224.9852],[-6.99732565417014,6.4004729942959386,189.5],[-6.99099682543681,6.415485564779658,189.5],[-6.9802525347964766,6.4278488581191766,189.5],[-6.9781919859065624,6.440800879712981,189.5],[-6.99732565417014,6.4581683632137583,189.5],[-6.9862869994026937,6.468176743536219,189.5],[-6.9736293419360322,6.4731809336974493,189.5],[-6.9325655462011468,6.4823062216385381,207.4058],[-6.9284444484213168,6.4849554987827389,245.4263],[-6.9280029022306167,6.49084278132537,212.8128],[-6.93506764128179,6.5049722594276886,201.347],[-6.9347732771546484,6.5129200908602343,194.3077],[-6.9293275408027171,6.5170411886400927,192.6232]]]}}