{"type":"Feature","properties":{"featurecla":"River","scalerank":6,"rivernum":273,"dissolve":"273River","name":"Sassandra6","name_alt":null,"note":null,"min_zoom":5.0,"strokeweig":0.3,"name_en":"Sassandra","min_label":6.0},
"geometry":{"type": "LineString","coordinates": [[-6.3729003906249773,5.4302920593691084,52.0954],[-6.378662109375,5.4174990906191169,48.0],[-6.376708984375,5.40497467655662,57.9036],[-6.3696777343749886,5.3930850281191169,51.3481],[-6.3599121093749886,5.38190338749412,55.11],[-6.35390625,5.3906436218691169,44.5],[-6.3462890624999773,5.39252350468162,49.0014],[-6.3385253906249943,5.3891787781191169,48.6058],[-6.33203125,5.38190338749412,43.6753],[-6.3326171874999773,5.3764834656191169,51.1025],[-6.336669921875,5.36945221561912,52.9762],[-6.3375,5.35932037968162,53.1794],[-6.32861328125,5.34467194218162,50.5648],[-6.3193847656249886,5.3381533874941169,41.7257],[-6.2972167968749773,5.33002350468162,44.3818],[-6.2869628906249773,5.32355377811912,43.571],[-6.2813476562499773,5.31378815311912,52.5062],[-6.275390625,5.2885928406191169,34.0],[-6.2698730468749773,5.28009674686912,33.875],[-6.26025390625,5.27899811405662,34.5907],[-6.2496093749999773,5.28241608280662,36.1449],[-6.2407714843749886,5.28278229374412,36.7464],[-6.2363769531249886,5.27265045780662,35.9775],[-6.266845703125,5.2351260437441169,31.1803],[-6.2683593749999886,5.2278994812441084,28.4362],[-6.2635742187499943,5.22003815311912,28.0],[-6.2554687499999773,5.21381256718162,54.1116],[-6.2466308593749886,5.21124909061912,47.8018],[-6.2294921875,5.2100772156191084,37.1688],[-6.2241699218749886,5.20648834843162,39.9079],[-6.22412109375,5.1999697937441169,25.5],[-6.2227539062499773,5.19013092655662,29.2124],[-6.2176757812499943,5.1701846374941169,29.2413],[-6.21435546875,5.09650299686912,18.9349],[-6.2100585937499773,5.08124420780662,29.6035],[-6.2069824218749829,5.0540713562441084,17.6643],[-6.2010742187499943,5.04865143436912,13.5236],[-6.1924316406249886,5.04804108280662,25.7127],[-6.1817382812499773,5.0461611999941169,21.709],[-6.1438964843749773,5.0281924499941084,4.1501],[-6.12646484375,5.01361725468162,2.3914],[-6.112060546875,4.97943756718162,0.0],[-6.0775634765624886,4.97003815311912,5.0493],[-6.064453125,4.95734284061912,0.0]]}}