{"type":"Feature","properties":{"featurecla":"Lake Centerline","scalerank":6,"rivernum":273,"dissolve":"273Lake Centerline","name":"Sassandra","name_alt":null,"note":null,"min_zoom":5.0,"strokeweig":0.25,"name_en":"Sassandra","min_label":6.0},
"geometry":{"type": "LineString","coordinates": [[-7.0435058593749886,7.04144928593162,235.5453],[-7.060302734375,6.99274323124412,199.5],[-7.06494140625,6.9612002624941169,200.9809],[-7.0589355468749773,6.9454287781191084,225.3785],[-7.0502197265624886,6.9305361999941084,200.1671],[-7.0464843749999773,6.9168643249941084,208.4943],[-7.0481445312499886,6.90741608280662,213.0851],[-7.0499023437499773,6.89728424686912,194.6311],[-7.0538085937499773,6.89227936405662,200.9755],[-7.0576660156249886,6.88617584843162,198.6514],[-7.062255859375,6.87518952030662,192.5],[-7.0621093749999773,6.86725494999412,193.476],[-7.0603515624999886,6.8593936218691169,199.5465],[-7.055908203125,6.8506045593691169,199.8474],[-7.0520996093749773,6.8450869812441084,197.0412],[-7.048095703125,6.8409365906191084,195.9842],[-7.0435546874999773,6.83856842655662,192.7374],[-7.0234863281249886,6.83136627811912,192.5222],[-7.0171386718749886,6.82623932499412,202.8411],[-7.0098632812499773,6.81928131718162,196.7371],[-6.9971679687499773,6.80365631718162,189.5],[-6.9916259765624886,6.7939639343691169,189.5],[-6.9871582031249773,6.78217194218162,204.8581],[-6.9701416015624886,6.69672272343162,197.3048],[-6.970703125,6.69086334843162,207.42],[-6.971923828125,6.6854190124941084,204.2972],[-6.9737304687499773,6.68048737186912,210.4418],[-6.9761230468749886,6.67584869999412,194.8966],[-6.9783203124999886,6.6624697937441084,195.6789],[-6.9753906249999886,6.6339053406191084,195.2045],[-7.0066406249999886,6.5862002624941169,209.2665],[-7.0100585937499886,6.5689639343691084,189.5],[-7.0066894531249773,6.56513092655662,189.5],[-6.9976074218749886,6.55780670780662,189.5],[-6.9940673828124886,6.55670807499412,189.5],[-6.9844726562499773,6.5494326843691084,189.5],[-6.9795898437499773,6.53192780155662,191.5223],[-6.9794189453124886,6.5134463562441169,190.3396],[-6.990234375,6.49420807499412,210.4062],[-7.0093261718749886,6.47492096561912,207.4434],[-7.0154785156249773,6.45429108280662,189.5],[-7.0142578124999773,6.43646881718162,189.5],[-7.0126953125,6.42340729374412,189.5],[-7.0093261718749886,6.40668366093162,189.5],[-7.013671875,6.38507721561912,189.5],[-7.0291503906249773,6.36444733280662,199.9199],[-7.0455810546874886,6.3509463562441084,203.9735],[-7.0601562499999773,6.33466217655662,189.5],[-7.064697265625,6.31122467655662,204.965],[-7.046630859375,6.26337311405662,189.5],[-7.0445312499999773,6.25275299686912,189.5]]}}