{"type":"Feature","properties":{"featurecla":"River","scalerank":6,"rivernum":273,"dissolve":"273River","name":"Sassandra5","name_alt":null,"note":null,"min_zoom":5.0,"strokeweig":0.25,"name_en":"Sassandra","min_label":6.0},
"geometry":{"type": "LineString","coordinates": [[-7.0445312499999773,6.25275299686912,189.5],[-7.0450195312499773,6.2349795593691084,171.6753],[-7.046875,6.22284577030662,173.5211],[-7.0398925781249773,6.2185244812441169,167.4194],[-7.0137695312499773,6.21796295780662,174.688],[-7.0035156249999773,6.21259186405662,172.0379],[-6.971435546875,6.18646881718162,167.1255],[-6.9551269531249886,6.1770205749941169,166.5433],[-6.946533203125,6.1749209656191084,170.8271],[-6.9302734374999773,6.17316315311912,161.5],[-6.9209960937499773,6.1701846374941169,167.6873],[-6.9124023437499886,6.16376373905662,164.9229],[-6.8938964843749773,6.14642975468162,166.4764],[-6.866455078125,6.13556549686912,175.4717],[-6.8549072265624886,6.11823151249412,198.5865],[-6.839111328125,6.0808291687441169,161.0],[-6.814697265625,6.0554385437441169,163.4731],[-6.783935546875,6.0396670593691084,168.0946],[-6.715576171875,6.01312897343162,169.8118],[-6.7029296874999886,6.00385162968162,179.9152],[-6.6861328124999773,5.9874209656191084,161.2377],[-6.6798583984374886,5.97174713749412,193.9225],[-6.7068359374999886,5.9615420593691084,160.593],[-6.7206542968749829,5.94745514530662,161.577],[-6.7329589843749886,5.94428131718162,157.3737],[-6.7430664062499943,5.9403018249941084,156.0],[-6.7460205078124886,5.93085358280662,164.3628],[-6.7449707031249773,5.9195498718691084,162.1249],[-6.7382080078124886,5.89520905155662,160.7026],[-6.7300781249999773,5.88251373905662,173.5359],[-6.7181152343749773,5.87677643436912,156.241],[-6.701904296875,5.8828311218691169,168.9101],[-6.7020019531249773,5.86957428593162,154.0],[-6.6882812499999886,5.83441803593162,156.8368],[-6.6896240234374886,5.8286319031191169,151.625],[-6.693603515625,5.8220401062441169,154.7734],[-6.6957275390624886,5.81671784061912,151.2318],[-6.6919921874999773,5.81452057499412,154.3676],[-6.6899902343749886,5.81268952030662,155.1622],[-6.6770507812499886,5.80512116093162,150.4362],[-6.6739990234374886,5.8039736999941169,148.9394],[-6.6675781249999773,5.8004092468691084,148.7592],[-6.6370605468749773,5.80182526249412,146.8342],[-6.6268066406249773,5.8008975281191084,134.0196],[-6.6173583984374886,5.7901553406191084,117.45],[-6.609130859375,5.76068756718162,107.54],[-6.6028808593749773,5.7490420593691169,105.6187],[-6.5864746093749886,5.7271670593691084,108.1965],[-6.5652832031249773,5.67975494999412,97.8],[-6.5510742187499886,5.6562686218691169,91.1905],[-6.5416015624999773,5.64935944218162,112.4391],[-6.530517578125,5.64508698124412,108.6392],[-6.5213378906249773,5.63861725468162,100.2198],[-6.5115722656249773,5.6003604187441169,76.4134],[-6.5107910156249886,5.58820221561912,76.5396],[-6.517578125,5.5743350281191084,76.0848],[-6.50048828125,5.5566592468691169,74.1041],[-6.4295410156249773,5.50348541874412,59.0327],[-6.42431640625,5.4958682312441169,70.7357],[-6.41455078125,5.4713076843691084,56.6848],[-6.4063476562499773,5.4610537781191084,61.4422],[-6.3835937499999886,5.44428131718162,54.8026],[-6.3729003906249773,5.4302920593691084,52.0954]]}}