{"type":"Feature","properties":{"GID_3":"CIV.8.3.5_1","GID_0":"CIV","country":"Côted'Ivoire","GID_1":"CIV.8_1","province":"Montagnes","NL_NAME_1":"NA","GID_2":"CIV.8.3_1","county":"Tonkpi","NL_NAME_2":"NA","city":"Zouan-Hounien","VARNAME_3":"NA","NL_NAME_3":"NA","TYPE_3":"Département","ENGTYPE_3":"Department","CC_3":"NA","HASC_3":"NA","name":"Zouan-Hounien.city"},
"geometry":{"type": "MultiPolygon","coordinates": [[[[-8.1506,6.7753,267.6516],[-8.1365,6.7885,260.5499],[-8.1353,6.7891,266.1697],[-8.1299,6.7858,272.8954],[-8.1271,6.7908,276.0785],[-8.1214,6.7943,265.4944],[-8.1216,6.8015,266.3258],[-8.1179,6.8029,267.1041],[-8.1108,6.7976,266.8586],[-8.1063,6.8083,263.1617],[-8.0986,6.8079,263.7331],[-8.0982,6.8113,263.5123],[-8.0935,6.8145,262.3475],[-8.0959,6.8171,280.7335],[-8.0956,6.8228,264.4727],[-8.0974,6.8254,262.7147],[-8.1041,6.8248,275.7776],[-8.1066,6.8302,287.7018],[-8.1005,6.835,263.8307],[-8.1005,6.8411,273.2186],[-8.104,6.8448,270.2411],[-8.1075,6.834,282.4965],[-8.1109,6.8324,297.304],[-8.1149,6.8343,271.7439],[-8.1163,6.8383,268.1332],[-8.1141,6.8444,276.7972],[-8.1154,6.855,298.6955],[-8.1074,6.8552,269.919],[-8.1032,6.8624,266.3879],[-8.1024,6.8774,267.5323],[-8.0952,6.88,263.0218],[-8.1084,6.8868,271.3542],[-8.1093,6.891,321.7221],[-8.1069,6.8964,276.2479],[-8.0864,6.9008,265.3627],[-8.0804,6.912,272.2565],[-8.0796,6.9213,268.9002],[-8.0776,6.9223,271.1203],[-8.0726,6.9202,270.3191],[-8.0513,6.9246,269.073],[-8.0529,6.9296,271.5186],[-8.0509,6.9327,272.9403],[-8.0408,6.9334,272.1871],[-8.0422,6.9386,266.1143],[-8.0356,6.9424,272.4969],[-8.0339,6.941,273.4406],[-8.0251,6.9497,275.0246],[-8.0263,6.9542,267.3067],[-8.0228,6.9592,268.2306],[-8.018,6.9629,270.7131],[-8.0153,6.959,273.7198],[-8.0115,6.9663,273.2991],[-8.0108,6.985,273.0078],[-8.0045,6.9884,273.2726],[-8.0099,7.0011,272.3873],[-8.0097,7.0023,270.6706],[-8.0072,7.0016,270.4136],[-8.0039,7.003,270.7108],[-8.0047,7.012,277.7315],[-8.0074,7.0149,274.8257],[-8.0118,7.0138,271.2725],[-8.0129,7.0177,272.0026],[-8.0187,7.0172,274.0739],[-8.0185,7.0188,271.6766],[-8.0151,7.0192,271.5452],[-8.0147,7.0209,271.1537],[-8.0239,7.0305,271.8998],[-8.0153,7.0349,279.2372],[-8.0212,7.0388,280.2629],[-8.0203,7.0449,276.6068],[-8.0257,7.0463,275.3093],[-8.0274,7.0539,273.4979],[-8.0378,7.0564,275.6036],[-8.0403,7.0545,275.2131],[-8.0392,7.049,277.8494],[-8.0467,7.0538,276.8374],[-8.0523,7.0502,274.4413],[-8.0538,7.0585,275.6779],[-8.0583,7.0603,276.4532],[-8.0583,7.0658,278.9672],[-8.0596,7.067,275.3741],[-8.0617,7.0648,278.9079],[-8.0688,7.0724,283.1172],[-8.0751,7.0717,276.8907],[-8.079,7.0764,277.9027],[-8.0831,7.0722,278.3694],[-8.0907,7.0729,281.8797],[-8.0943,7.0686,280.4278],[-8.104,7.0701,278.884],[-8.1075,7.0677,277.0221],[-8.1097,7.0861,280.7409],[-8.1043,7.0874,296.8167],[-8.1017,7.0918,301.1912],[-8.1049,7.0954,290.3413],[-8.1034,7.1015,298.7758],[-8.1079,7.1079,301.6121],[-8.1264,7.1076,346.481],[-8.1409,7.1045,336.477],[-8.1682,7.0866,325.826],[-8.1864,7.0791,298.239],[-8.2196,7.0789,308.7644],[-8.2313,7.0809,268.9612],[-8.2396,7.0863,278.4797],[-8.2474,7.0936,288.4153],[-8.2579,7.1088,313.5236],[-8.2712,7.1233,323.6824],[-8.2801,7.1298,310.5543],[-8.2911,7.1336,302.1814],[-8.2938,7.1318,293.8631],[-8.2916,7.1177,307.3844],[-8.2994,7.0888,290.2772],[-8.2994,7.0824,271.4432],[-8.2949,7.072,263.2015],[-8.2956,7.0617,262.309],[-8.2877,7.0392,260.6865],[-8.2871,7.024,258.1981],[-8.285,7.0205,247.7254],[-8.2786,7.0189,246.7727],[-8.2761,7.0166,246.0857],[-8.2782,7.0134,256.6955],[-8.2747,7.0106,244.5334],[-8.2736,7.0067,244.5601],[-8.2764,7.0021,245.0525],[-8.2836,6.9978,245.7915],[-8.2848,6.9879,243.4843],[-8.2931,6.9838,244.9347],[-8.3025,6.9733,252.0471],[-8.3097,6.9743,242.1852],[-8.3134,6.9709,239.9942],[-8.3216,6.9698,248.2425],[-8.3249,6.9661,238.6054],[-8.3215,6.9594,241.8298],[-8.3222,6.9546,241.9857],[-8.3183,6.9459,245.1118],[-8.3179,6.9351,245.7122],[-8.3152,6.9222,241.0464],[-8.3091,6.9116,238.1659],[-8.3089,6.9063,241.2448],[-8.3107,6.9024,253.2248],[-8.3147,6.8995,245.8164],[-8.3246,6.899,237.0594],[-8.3262,6.8968,234.7896],[-8.323,6.8912,246.6676],[-8.3299,6.8871,233.1124],[-8.332,6.8796,236.8544],[-8.3181,6.8554,234.8947],[-8.316,6.8543,233.7864],[-8.3117,6.8611,233.9413],[-8.3084,6.8622,232.1659],[-8.3074,6.8482,242.9922],[-8.3215,6.8317,235.1458],[-8.3238,6.8265,234.5556],[-8.3168,6.811,235.5675],[-8.3181,6.8097,234.1944],[-8.3241,6.8099,231.6097],[-8.3272,6.7994,234.7141],[-8.3406,6.7907,251.7451],[-8.3429,6.7852,232.4389],[-8.3429,6.7799,235.9551],[-8.3384,6.7606,247.8431],[-8.3401,6.756,248.9733],[-8.3428,6.7579,249.9999],[-8.3437,6.762,235.1676],[-8.3495,6.7609,238.448],[-8.3531,6.7618,236.6273],[-8.3559,6.7596,233.2588],[-8.3568,6.7545,231.9168],[-8.3557,6.7465,244.3993],[-8.3608,6.7401,240.9293],[-8.3645,6.7444,237.6664],[-8.3677,6.744,229.3948],[-8.3698,6.7362,240.8991],[-8.3793,6.7319,228.0464],[-8.3832,6.7282,231.9365],[-8.38,6.7248,233.5135],[-8.3747,6.7243,234.1056],[-8.3782,6.7176,249.0712],[-8.3858,6.7221,227.4777],[-8.389,6.7218,231.5872],[-8.3911,6.7182,232.0169],[-8.3881,6.7131,247.0124],[-8.4058,6.707,226.9695],[-8.4075,6.7026,228.3436],[-8.4025,6.6946,227.7274],[-8.4046,6.69,229.9233],[-8.4018,6.6824,235.622],[-8.4044,6.6794,241.093],[-8.409,6.6778,236.7633],[-8.415,6.6696,233.9385],[-8.4182,6.6689,231.2328],[-8.423,6.6722,229.4183],[-8.4256,6.6699,225.352],[-8.4293,6.6595,248.0267],[-8.3187,6.5869,256.8018],[-8.3074,6.5952,252.6283],[-8.3024,6.6073,279.611],[-8.2866,6.6089,262.2904],[-8.2823,6.6028,254.5802],[-8.2789,6.6157,256.9332],[-8.2691,6.6195,278.4695],[-8.2662,6.6279,264.7774],[-8.2623,6.632,253.0682],[-8.2558,6.6275,255.8398],[-8.2518,6.629,255.236],[-8.2451,6.6254,259.3819],[-8.242,6.6325,254.3362],[-8.2468,6.6435,296.6169],[-8.2506,6.6455,265.5863],[-8.2499,6.6515,268.4417],[-8.2366,6.6569,257.6283],[-8.2404,6.6655,254.1956],[-8.2464,6.669,260.3352],[-8.2511,6.6752,257.5322],[-8.2473,6.6774,259.6216],[-8.2407,6.6772,256.9157],[-8.2364,6.6745,256.006],[-8.2357,6.6696,259.4437],[-8.2341,6.6698,259.4437],[-8.2334,6.6717,254.8423],[-8.2356,6.6776,256.4025],[-8.2208,6.6793,267.3085],[-8.2194,6.6809,272.5905],[-8.2198,6.6932,267.7719],[-8.2307,6.6975,255.854],[-8.2306,6.6995,259.736],[-8.2279,6.7065,263.7856],[-8.2177,6.7085,263.8337],[-8.2167,6.7106,258.2339],[-8.2184,6.7166,257.7884],[-8.2171,6.7197,259.9088],[-8.2109,6.7194,258.1276],[-8.2095,6.721,260.8567],[-8.2099,6.7324,255.5494],[-8.2067,6.7339,261.8665],[-8.1905,6.7314,275.4557],[-8.1851,6.7192,269.2164],[-8.1917,6.7152,277.1484],[-8.1924,6.7132,274.9816],[-8.1893,6.7105,267.5012],[-8.1752,6.7147,265.6564],[-8.1721,6.7222,271.0172],[-8.1658,6.723,273.7974],[-8.164,6.7286,269.2654],[-8.1591,6.7303,271.7663],[-8.1579,6.7334,264.9742],[-8.1619,6.7375,269.3965],[-8.1632,6.7486,286.4121],[-8.1597,6.7552,262.5741],[-8.1613,6.7618,269.4026],[-8.1642,6.7642,269.5461],[-8.1592,6.7702,268.1826],[-8.1555,6.7709,263.3047],[-8.148,6.7688,266.8234],[-8.1506,6.7753,267.6516]]]]}}