{"type": "Feature","bbox": [-4.991,8.6231,-3.7757,9.746],"geometry": {"type": "MultiPolygon","coordinates": [[[[-4.5907,9.6969,234.6692],[-4.5937,9.7052,226.1594],[-4.5993,9.7094,226.5053],[-4.6032,9.7153,224.1299],[-4.6095,9.7161,227.027],[-4.6128,9.7183,228.019],[-4.6147,9.7222,225.8277],[-4.6177,9.7226,225.8627],[-4.6198,9.72,225.4069],[-4.6191,9.7132,226.9667],[-4.623,9.71,227.9581],[-4.6283,9.7016,226.3072],[-4.6314,9.702,227.3402],[-4.6359,9.7065,229.2144],[-4.6445,9.7074,229.4263],[-4.6486,9.7142,237.8162],[-4.6528,9.7141,247.3775],[-4.6573,9.711,233.5912],[-4.6597,9.7062,225.7416],[-4.6591,9.6977,232.2775],[-4.6658,9.6888,230.7294],[-4.6688,9.6882,231.0836],[-4.6747,9.6906,240.343],[-4.6823,9.6792,230.0325],[-4.6924,9.6771,230.0797],[-4.6945,9.6782,230.343],[-4.6961,9.6864,233.2629],[-4.6996,9.6871,229.5675],[-4.6999,9.6836,228.5857],[-4.7053,9.6791,234.3977],[-4.7068,9.6732,233.2465],[-4.7098,9.6707,234.8334],[-4.708,9.6624,236.6365],[-4.713,9.6575,236.3319],[-4.7131,9.653,236.9041],[-4.7102,9.65,238.1103],[-4.7177,9.6489,238.1419],[-4.7229,9.6411,240.7853],[-4.7302,9.6402,242.259],[-4.7344,9.6337,238.9882],[-4.7348,9.6253,240.7283],[-4.7401,9.6256,245.3275],[-4.7428,9.6216,241.1187],[-4.7453,9.6141,241.3478],[-4.7486,9.6106,242.2068],[-4.7525,9.5968,244.0245],[-4.7603,9.5905,245.9475],[-4.7615,9.5756,246.8188],[-4.7701,9.5536,249.3533],[-4.775,9.5481,251.6618],[-4.7825,9.5451,252.318],[-4.8237,9.481,275.6778],[-4.83,9.4631,284.033],[-4.8444,9.446,273.048],[-4.8438,9.4415,274.0543],[-4.8458,9.4352,281.8902],[-4.8533,9.4189,278.5867],[-4.8592,9.4132,285.3707],[-4.8732,9.3901,285.757],[-4.8751,9.3833,291.4201],[-4.882,9.3768,295.5764],[-4.882,9.3642,296.7709],[-4.885,9.3591,299.7793],[-4.8913,9.3559,298.6547],[-4.955,9.2576,356.0233],[-4.9589,9.2551,342.2544],[-4.9616,9.2487,338.5842],[-4.9653,9.2477,336.7104],[-4.968,9.2443,333.5963],[-4.9682,9.2383,324.9908],[-4.9708,9.2324,323.3685],[-4.9783,9.2265,314.6203],[-4.9809,9.2195,318.4877],[-4.986,9.2174,312.8767],[-4.991,9.2111,312.7439],[-4.9809,9.1923,306.2745],[-4.9804,9.1838,303.7876],[-4.9817,9.1794,296.7794],[-4.9859,9.175,295.9871],[-4.9827,9.1698,297.7466],[-4.9742,9.1641,303.6036],[-4.9654,9.1627,292.2307],[-4.9612,9.155,297.8141],[-4.9556,9.1546,291.0999],[-4.9525,9.1441,292.0046],[-4.9475,9.1387,292.9643],[-4.9401,9.1347,292.9147],[-4.9308,9.1324,287.5993],[-4.9261,9.1285,291.9457],[-4.9221,9.1303,288.7837],[-4.9169,9.1268,291.0642],[-4.9142,9.1272,283.6992],[-4.906,9.121,289.7276],[-4.8993,9.1203,296.5863],[-4.8935,9.1288,281.6939],[-4.8857,9.1113,280.7032],[-4.8846,9.099,278.0884],[-4.8929,9.0723,274.4904],[-4.8972,9.0525,272.575],[-4.8973,9.0454,272.2393],[-4.9036,9.0411,275.2632],[-4.9066,9.0276,271.5669],[-4.9059,9.0169,271.9174],[-4.9112,8.996,283.1252],[-4.9051,8.9942,270.9041],[-4.9132,8.9864,269.1848],[-4.9149,8.981,274.0618],[-4.9138,8.9714,268.9509],[-4.9256,8.9654,277.1114],[-4.9288,8.9541,271.8384],[-4.9392,8.9496,277.113],[-4.9427,8.942,266.5505],[-4.9466,8.942,268.1547],[-4.9488,8.9505,275.9835],[-4.9566,8.9495,262.986],[-4.9639,8.9415,268.077],[-4.9545,8.9223,261.9095],[-4.5691,8.9143,314.155],[-4.5608,8.9219,305.4578],[-4.5552,8.9199,303.975],[-4.5483,8.9115,305.4622],[-4.5425,8.9106,299.6368],[-4.5355,8.9064,297.6597],[-4.5128,8.9115,282.8711],[-4.4991,8.8926,272.1016],[-4.4977,8.8812,276.9117],[-4.4922,8.8768,289.1864],[-4.4779,8.8814,267.3737],[-4.471,8.8862,265.7193],[-4.4658,8.8847,275.1937],[-4.4611,8.886,259.7],[-4.4554,8.8799,260.76],[-4.4339,8.869,254.3492],[-4.4315,8.8609,246.795],[-4.4262,8.8566,250.6512],[-4.4183,8.8544,240.3344],[-4.4077,8.8657,242.0471],[-4.3875,8.8311,242.6747],[-4.3785,8.8185,238.6753],[-4.3835,8.8046,235.6891],[-4.3776,8.7946,225.0642],[-4.3798,8.7848,230.5172],[-4.3532,8.7263,234.0961],[-4.3476,8.7197,225.7092],[-4.3394,8.7213,229.2322],[-4.3324,8.7313,228.058],[-4.3244,8.7338,223.6973],[-4.3159,8.7317,229.3815],[-4.3033,8.737,229.8378],[-4.2982,8.7418,222.1539],[-4.2904,8.7366,217.9011],[-4.2856,8.741,217.8629],[-4.2816,8.7424,217.115],[-4.28,8.7396,213.8016],[-4.2818,8.7313,219.6475],[-4.2802,8.7264,221.7787],[-4.2726,8.7194,211.3562],[-4.2782,8.7169,220.0245],[-4.2772,8.7117,219.6347],[-4.273,8.706,218.8771],[-4.2686,8.704,216.4051],[-4.2644,8.7045,210.0877],[-4.2628,8.6867,222.0592],[-4.2568,8.685,213.7889],[-4.2499,8.6788,210.4998],[-4.2456,8.6717,207.5105],[-4.232,8.663,209.111],[-4.2228,8.6515,207.641],[-4.2155,8.6498,210.5026],[-4.2068,8.6547,221.45],[-4.2008,8.6646,206.5856],[-4.2021,8.668,204.9825],[-4.1953,8.6712,215.0128],[-4.1946,8.675,240.2479],[-4.1716,8.6601,204.6119],[-4.1729,8.6539,217.1025],[-4.172,8.6485,204.0544],[-4.1672,8.6462,216.838],[-4.1628,8.6516,215.7551],[-4.1608,8.6572,200.8296],[-4.1552,8.6602,203.4306],[-4.138,8.6505,204.3882],[-4.1294,8.6433,287.4396],[-4.1234,8.6418,221.4001],[-4.1128,8.6426,221.5401],[-4.1077,8.6454,210.3624],[-4.1061,8.6479,205.0654],[-4.0936,8.6431,211.1126],[-4.0903,8.6496,196.8793],[-4.0807,8.6484,196.7887],[-4.0767,8.6451,224.7868],[-4.0747,8.6517,201.0933],[-4.0783,8.6591,197.455],[-4.0717,8.6573,196.799],[-4.063,8.6461,197.2072],[-4.0564,8.6478,192.9448],[-4.0505,8.6415,220.8885],[-4.0467,8.6418,247.717],[-4.0342,8.6521,224.0536],[-4.0219,8.6489,199.4133],[-4.0008,8.638,196.8617],[-3.991,8.6421,196.9633],[-3.9842,8.6378,187.8431],[-3.9846,8.632,196.8254],[-3.9822,8.6281,187.818],[-3.977,8.6277,187.2633],[-3.9713,8.6231,188.4983],[-3.962,8.6266,189.2215],[-3.9521,8.6258,214.1242],[-3.9425,8.6352,192.0385],[-3.931,8.6394,201.0955],[-3.9299,8.6662,185.8176],[-3.9252,8.6786,189.712],[-3.9185,8.6844,194.1499],[-3.9015,8.6814,195.6101],[-3.892,8.6864,185.5653],[-3.8846,8.693,192.6804],[-3.8496,8.6942,196.7004],[-3.8506,8.7017,192.6686],[-3.8567,8.7061,190.9681],[-3.8643,8.707,186.8586],[-3.8684,8.7129,195.8308],[-3.8704,8.7278,190.9131],[-3.859,8.7305,198.6824],[-3.8539,8.7268,199.6239],[-3.8434,8.7281,200.6728],[-3.8221,8.7415,197.2207],[-3.817,8.7502,187.9812],[-3.8181,8.7598,193.9427],[-3.8255,8.7667,189.2124],[-3.8246,8.7781,195.9555],[-3.8135,8.7821,206.0209],[-3.8054,8.7799,194.5743],[-3.8048,8.7725,219.4273],[-3.8003,8.7675,219.9211],[-3.7881,8.7675,196.839],[-3.7779,8.7729,194.5203],[-3.7757,8.783,189.6597],[-3.7784,8.7925,190.122],[-3.7896,8.8126,200.7217],[-3.7933,8.8259,198.2126],[-3.8041,8.8344,197.865],[-3.8178,8.8383,189.8133],[-3.8243,8.8317,197.9394],[-3.8308,8.8439,193.0057],[-3.8251,8.8476,195.7112],[-3.8117,8.8493,202.4673],[-3.8057,8.8547,200.0404],[-3.818,8.8683,196.7747],[-3.8231,8.8771,197.6373],[-3.832,8.884,191.6435],[-3.8418,8.886,194.5093],[-3.8441,8.8928,206.4535],[-3.8448,8.9069,197.0221],[-3.8509,8.9168,195.2894],[-3.8797,8.9271,191.8091],[-3.886,8.9348,195.8456],[-3.8887,8.9481,193.0848],[-3.8961,8.9589,199.4561],[-3.8909,8.9625,200.1757],[-3.8707,8.9538,203.438],[-3.8508,8.9743,196.5993],[-3.8422,8.9786,193.3109],[-3.834,8.9791,195.8477],[-3.8238,8.9867,195.5041],[-3.8071,8.9954,214.735],[-3.8003,9.0034,196.7274],[-3.8028,9.0135,220.111],[-3.8099,9.0203,198.3377],[-3.8207,9.0265,196.2772],[-3.8347,9.0317,197.2569],[-3.8559,9.0342,199.0584],[-3.8739,9.0498,212.5556],[-3.8807,9.0579,201.2724],[-3.8874,9.0586,196.5071],[-3.8929,9.0564,199.6758],[-3.9049,9.0631,201.3352],[-3.8952,9.0657,206.3585],[-3.8893,9.0707,199.816],[-3.8899,9.0957,199.0872],[-3.8818,9.1032,199.9253],[-3.8734,9.0946,200.3924],[-3.8669,9.0842,201.8357],[-3.8601,9.0785,224.3186],[-3.8538,9.0782,214.0761],[-3.8489,9.0859,200.6918],[-3.8472,9.0968,201.0666],[-3.8516,9.1126,202.6576],[-3.8473,9.1207,211.9188],[-3.8558,9.1282,200.2335],[-3.8727,9.1285,200.7776],[-3.8762,9.1262,200.0544],[-3.8788,9.1187,201.9588],[-3.8842,9.1144,202.4308],[-3.8935,9.1127,201.083],[-3.9055,9.1149,200.5059],[-3.9098,9.1246,204.4769],[-3.9121,9.1428,202.8471],[-3.9104,9.1507,205.6692],[-3.8907,9.1693,205.3267],[-3.8884,9.1739,201.5989],[-3.8964,9.1806,201.8649],[-3.913,9.1766,206.4396],[-3.9343,9.1759,202.3632],[-3.9445,9.1821,206.5545],[-3.9527,9.1894,204.0526],[-3.9605,9.2084,203.9822],[-3.9871,9.2116,204.0458],[-4.0089,9.2086,203.2662],[-4.0138,9.2145,212.5092],[-4.0201,9.2181,207.6166],[-4.0315,9.2201,209.0799],[-4.0379,9.2159,208.7909],[-4.0454,9.2224,207.7555],[-4.0588,9.2411,209.769],[-4.0687,9.2427,208.8458],[-4.0773,9.2485,212.099],[-4.0818,9.2584,204.6608],[-4.0932,9.2602,207.7765],[-4.1086,9.2577,207.4709],[-4.128,9.2611,207.534],[-4.134,9.2607,209.0103],[-4.1424,9.252,206.4946],[-4.154,9.2478,211.0276],[-4.1647,9.2382,210.0913],[-4.1682,9.23,212.9813],[-4.1708,9.2286,208.4762],[-4.1811,9.2406,216.2269],[-4.1949,9.2488,209.2634],[-4.1978,9.2584,213.4327],[-4.193,9.267,212.7031],[-4.1797,9.2725,211.5046],[-4.1726,9.2796,209.4972],[-4.1782,9.298,213.5301],[-4.21,9.3375,215.3042],[-4.2096,9.3428,215.6117],[-4.1984,9.3462,225.312],[-4.1919,9.3547,223.6365],[-4.189,9.364,213.7901],[-4.1897,9.3761,218.4886],[-4.1837,9.3837,217.1631],[-4.1806,9.3954,217.0276],[-4.187,9.4019,209.5109],[-4.1972,9.4038,215.2599],[-4.2024,9.4116,218.0108],[-4.1997,9.4204,214.5092],[-4.1964,9.4457,220.8786],[-4.2021,9.4549,220.6186],[-4.2145,9.4581,211.6378],[-4.2233,9.4659,215.5924],[-4.2386,9.4753,212.085],[-4.2411,9.4856,217.2616],[-4.2476,9.491,215.9622],[-4.2491,9.5,215.5271],[-4.2456,9.5132,221.0888],[-4.2449,9.5232,222.7704],[-4.2493,9.5347,214.0266],[-4.2591,9.5438,215.2546],[-4.2716,9.551,216.7939],[-4.3114,9.6086,219.968],[-4.3187,9.5996,217.6354],[-4.3508,9.626,215.1912],[-4.3612,9.6262,218.1668],[-4.3708,9.6189,223.2808],[-4.3732,9.6122,220.5547],[-4.3714,9.6028,219.1754],[-4.3749,9.5965,220.0021],[-4.3802,9.5941,220.2228],[-4.3895,9.5945,218.4746],[-4.3944,9.597,220.5614],[-4.4043,9.6064,221.0076],[-4.4107,9.62,222.251],[-4.4171,9.6463,225.341],[-4.4202,9.6522,220.9664],[-4.4334,9.6623,220.7417],[-4.4376,9.6624,217.7849],[-4.4661,9.653,219.6544],[-4.4934,9.6515,221.7028],[-4.5001,9.6481,220.3773],[-4.5079,9.6467,225.7978],[-4.5142,9.656,222.4781],[-4.5189,9.6591,222.218],[-4.5194,9.6695,221.5355],[-4.5218,9.674,221.3615],[-4.5212,9.6809,222.3687],[-4.5233,9.6882,220.7015],[-4.5221,9.7053,225.1003],[-4.5098,9.7154,221.6101],[-4.5073,9.7199,221.3634],[-4.5054,9.7335,225.9029],[-4.5068,9.7398,221.7163],[-4.5095,9.7423,221.4266],[-4.5193,9.746,231.0075],[-4.5525,9.7455,226.2161],[-4.5593,9.7405,231.9468],[-4.5606,9.7377,229.5873],[-4.5547,9.725,228.559],[-4.547,9.7228,225.5716],[-4.5453,9.7197,226.0775],[-4.5475,9.7136,233.2736],[-4.5562,9.7003,221.7825],[-4.5648,9.6907,224.7224],[-4.571,9.6873,227.0551],[-4.5805,9.6878,231.1344],[-4.5902,9.694,233.3276],[-4.5907,9.6969,234.6692]]]]}
,"properties": {"GID_3": "CIV.10.3.2_1","GID_0": "CIV","country": "Côted'Ivoire","GID_1": "CIV.10_1","province": "Savanes","NL_NAME_1": "NA","GID_2": "CIV.10.3_1","county": "Tchologo","NL_NAME_2": "NA","city": "Kong","VARNAME_3": "NA","NL_NAME_3": "NA","TYPE_3": "Département","ENGTYPE_3": "Department","CC_3": "NA","HASC_3": "NA","name": "Kong.city","area_km2": 8994.07,"hist_schema_id": "Elevation0-9000","hist_area_km2": {"175": 8.551,"200": 385.595,"225": 1157.468,"250": 1947.808,"275": 1890.609,"300": 1611.788,"325": 1141.55,"350": 581.28,"375": 178.072,"400": 37.242,"425": 19.942,"450": 13.469,"475": 8.044,"500": 4.838,"525": 3.267,"550": 2.409,"575": 1.257,"600": 0.482,"625": 0.314,"650": 0.084}}}