{"type": "Feature","bbox": [-3.452,7.6205,-2.9855,8.0477],"geometry": {"type": "MultiPolygon","coordinates": [[[[-3.2783,8.0316,229.7496],[-3.2812,8.0244,230.9405],[-3.2837,8.0222,225.9146],[-3.2969,8.0152,226.8385],[-3.2976,8.0064,226.4846],[-3.3024,8.0012,222.3931],[-3.305,7.9954,224.7354],[-3.3043,7.9927,226.3909],[-3.3016,7.9908,225.1571],[-3.3027,7.9845,221.3787],[-3.3057,7.9827,221.4727],[-3.3099,7.9832,219.3397],[-3.3186,7.9784,216.7391],[-3.3221,7.9662,214.1323],[-3.3279,7.9572,215.0462],[-3.3311,7.9551,211.3343],[-3.3327,7.9509,206.523],[-3.3364,7.9493,216.7859],[-3.3594,7.959,258.3721],[-3.3758,7.9562,253.646],[-3.3916,7.9566,226.6966],[-3.4017,7.9523,215.2258],[-3.4054,7.9437,206.6825],[-3.4139,7.9365,200.5609],[-3.4126,7.9288,197.8318],[-3.4134,7.9214,193.2444],[-3.418,7.9111,191.2255],[-3.4247,7.9078,189.4384],[-3.4282,7.9029,190.2808],[-3.4379,7.8952,201.4044],[-3.4273,7.8933,196.6306],[-3.4255,7.8849,203.9666],[-3.4195,7.8748,216.7753],[-3.4202,7.8694,222.7273],[-3.4184,7.8648,241.0289],[-3.4088,7.853,244.474],[-3.4022,7.851,246.4403],[-3.4004,7.8479,242.6509],[-3.4002,7.8368,230.5349],[-3.402,7.8272,235.3398],[-3.4095,7.8062,231.8874],[-3.4203,7.7861,199.869],[-3.4215,7.7645,212.4572],[-3.4234,7.7592,225.141],[-3.4311,7.7459,209.0078],[-3.4484,7.7066,200.0285],[-3.452,7.7017,198.9571],[-3.3782,7.6669,205.7905],[-3.3453,7.6567,186.1971],[-3.3349,7.6574,187.7098],[-3.3318,7.661,185.1762],[-3.33,7.6701,188.9434],[-3.3189,7.6772,189.8449],[-3.3142,7.6757,197.4003],[-3.3113,7.6824,194.4099],[-3.3038,7.674,196.4806],[-3.2945,7.6738,192.9807],[-3.2898,7.6707,205.6304],[-3.2868,7.672,194.2428],[-3.2823,7.6705,195.4537],[-3.2716,7.6749,201.3308],[-3.2712,7.6725,199.6003],[-3.2553,7.6728,200.4081],[-3.248,7.6632,199.9455],[-3.2405,7.6571,203.6176],[-3.2374,7.6399,214.9915],[-3.2378,7.6333,208.4467],[-3.2311,7.6243,217.7481],[-3.2261,7.6205,214.0485],[-3.2082,7.6336,230.5517],[-3.1943,7.6479,211.8142],[-3.1786,7.6486,201.1733],[-3.1763,7.6513,202.822],[-3.1759,7.6566,202.2097],[-3.1704,7.6584,202.65],[-3.1624,7.6565,208.0549],[-3.156,7.6605,206.6934],[-3.1525,7.6603,207.738],[-3.1488,7.6651,205.3697],[-3.1366,7.6626,214.6954],[-3.133,7.6511,228.6231],[-3.1306,7.6481,213.5376],[-3.1258,7.6463,221.385],[-3.1189,7.6474,222.5581],[-3.1192,7.6542,235.271],[-3.115,7.6609,240.9858],[-3.1082,7.6651,251.3336],[-3.0897,7.6698,262.3193],[-3.095,7.7085,215.519],[-3.097,7.7377,244.83],[-3.0877,7.7585,226.7464],[-3.0752,7.7763,259.6423],[-3.0147,7.8399,239.1304],[-2.9855,7.8748,273.581],[-2.9945,7.8787,250.997],[-3.0054,7.8869,288.9686],[-3.0154,7.8996,289.8864],[-3.0446,7.9159,278.3581],[-3.0609,7.9183,262.9831],[-3.076,7.9273,278.8336],[-3.0868,7.9278,297.1504],[-3.0965,7.9302,281.3056],[-3.0985,7.9389,282.5626],[-3.0964,7.9411,282.7479],[-3.0967,7.9491,272.212],[-3.1015,7.9744,298.721],[-3.1056,7.9832,277.473],[-3.102,7.9898,275.618],[-3.0862,7.9933,275.1326],[-3.0814,7.9983,277.6867],[-3.0795,8.0032,282.9467],[-3.0808,8.0214,290.2808],[-3.0842,8.024,289.2305],[-3.0921,8.0245,294.3302],[-3.1157,8.0318,288.9921],[-3.1298,8.0301,274.6045],[-3.1484,8.0324,270.8503],[-3.1609,8.0419,276.47],[-3.1654,8.0431,262.6057],[-3.1721,8.041,271.519],[-3.1894,8.0477,281.7441],[-3.1937,8.0475,298.3307],[-3.1982,8.0451,292.9492],[-3.2068,8.0321,300.9562],[-3.2176,8.024,266.6772],[-3.2316,8.0219,252.3211],[-3.2457,8.0274,251.9568],[-3.2571,8.0272,241.579],[-3.2681,8.0323,245.4951],[-3.2783,8.0316,229.7496]]]]}
,"properties": {"GID_3": "CIV.14.2.4_1","GID_0": "CIV","country": "Côted'Ivoire","GID_1": "CIV.14_1","province": "Zanzan","NL_NAME_1": "NA","GID_2": "CIV.14.2_1","county": "Gontougo","NL_NAME_2": "NA","city": "Tanda","VARNAME_3": "NA","NL_NAME_3": "NA","TYPE_3": "Département","ENGTYPE_3": "Department","CC_3": "NA","HASC_3": "NA","name": "Tanda.city","area_km2": 1504.051,"hist_schema_id": "Elevation0-9000","hist_area_km2": {"175": 2.332,"200": 173.437,"225": 411.318,"250": 425.941,"275": 321.558,"300": 110.948,"325": 25.561,"350": 11.174,"375": 7.057,"400": 4.831,"425": 3.675,"450": 2.415,"475": 1.659,"500": 1.008,"525": 0.588,"550": 0.357,"575": 0.168,"600": 0.021}}}