{"type":"Feature","properties":{"GID_2":"CIV.2.2_1","GID_0":"CIV","country":"Côted'Ivoire","GID_1":"CIV.2_1","province":"Bas-Sassandra","NL_NAME_1":"NA","county":"Nawa","VARNAME_2":"NA","NL_NAME_2":"NA","TYPE_2":"Région","ENGTYPE_2":"Region","CC_2":"NA","HASC_2":"CI.BA.NW","name":"Nawa.county"},
"geometry":{"type": "MultiPolygon","coordinates": [[[[-6.4347,5.4854,73.9692],[-6.4316,5.4999,63.6743],[-6.4309,5.5156,69.5178],[-6.4255,5.5336,77.0942],[-6.4153,5.5448,73.6505],[-6.4054,5.5435,65.3476],[-6.3949,5.5537,68.2913],[-6.3892,5.5543,85.1161],[-6.387,5.5577,85.6651],[-6.3804,5.56,70.5917],[-6.3713,5.57,72.267],[-6.3639,5.5699,72.8927],[-6.3554,5.5723,82.2301],[-6.3422,5.5719,74.2207],[-6.3363,5.5729,73.1778],[-6.3328,5.5753,74.9833],[-6.3264,5.5715,82.01],[-6.3069,5.5713,91.2471],[-6.2982,5.5765,98.32],[-6.2959,5.5789,91.3569],[-6.2952,5.5827,96.475],[-6.2718,5.5952,109.0309],[-6.2675,5.5937,115.6352],[-6.2629,5.5884,122.6658],[-6.2544,5.5866,120.5229],[-6.2481,5.589,115.3385],[-6.241,5.5871,112.4951],[-6.2367,5.5791,124.7654],[-6.2214,5.5746,125.9539],[-6.1995,5.6187,140.7708],[-6.1998,5.6428,140.6206],[-6.1845,5.6361,148.656],[-6.1802,5.6381,152.8123],[-6.1738,5.6378,155.5844],[-6.1684,5.635,153.8518],[-6.1628,5.6352,151.0186],[-6.1486,5.6532,155.4957],[-6.1226,5.6598,179.0615],[-6.1212,5.6587,173.6649],[-6.1257,5.6556,172.4016],[-6.1263,5.6413,166.2794],[-6.1301,5.6399,157.3663],[-6.1325,5.6359,151.4169],[-6.1384,5.6315,143.4375],[-6.1378,5.624,135.5271],[-6.1491,5.6191,129.6334],[-6.168,5.6018,121.4196],[-6.1665,5.5962,115.6178],[-6.1716,5.5829,106.1943],[-6.1706,5.5768,101.6017],[-6.1724,5.567,99.7901],[-6.1642,5.5629,89.5062],[-6.1658,5.5519,92.8031],[-6.1609,5.545,86.1245],[-6.1679,5.5229,81.5025],[-6.1616,5.5205,90.4114],[-6.1571,5.5152,97.447],[-6.1515,5.516,106.408],[-6.1392,5.508,126.2977],[-6.1353,5.5146,119.1021],[-6.1232,5.5177,138.5806],[-6.1142,5.5167,143.8672],[-6.1082,5.5239,150.9073],[-6.1058,5.5298,146.9276],[-6.0949,5.5336,151.1598],[-6.0906,5.5332,149.4961],[-6.0797,5.5282,152.9688],[-6.0623,5.4442,167.6237],[-6.0671,5.4411,144.692],[-6.0688,5.4184,121.0141],[-6.0635,5.3979,118.3956],[-6.059,5.3929,107.083],[-6.0549,5.3729,106.7625],[-6.0575,5.368,105.1456],[-6.0562,5.3648,94.8926],[-6.058,5.3593,97.534],[-6.0503,5.3504,107.2536],[-6.0499,5.3372,89.2547],[-6.041,5.3332,86.2853],[-6.0329,5.3423,90.0983],[-6.0298,5.3529,87.149],[-6.0233,5.3486,94.6571],[-6.006,5.3529,87.5122],[-6.0014,5.3525,87.550299999999993],[-5.9989,5.3551,96.8951],[-5.9954,5.363,97.9116],[-5.9826,5.3785,98.1078],[-5.982,5.3818,95.1487],[-5.9868,5.3919,95.4814],[-5.9821,5.4104,110.086],[-5.9695,5.4215,122.4369],[-5.9682,5.4353,126.1019],[-5.9638,5.4361,127.2058],[-5.9617,5.4327,126.1789],[-5.959,5.4344,127.2963],[-5.9577,5.4489,132.4197],[-5.9518,5.4545,133.4108],[-5.9508,5.4575,134.1538],[-5.9507,5.4602,132.6442],[-5.9621,5.4693,134.8017],[-5.9617,5.4788,137.012],[-5.9661,5.4822,143.3165],[-5.9755,5.4945,136.1197],[-5.9695,5.5116,137.5895],[-5.9737,5.5167,142.2344],[-5.9735,5.5243,142.1245],[-5.9774,5.5269,141.2839],[-5.9808,5.5248,149.4303],[-5.992,5.5271,143.2596],[-5.9942,5.5346,140.7839],[-5.9996,5.543,141.3822],[-5.9988,5.5514,155.3535],[-6.0034,5.5502,143.7581],[-6.0069,5.5521,145.2562],[-6.008,5.5581,145.8636],[-6.0115,5.5625,149.7427],[-6.0145,5.5719,152.1906],[-6.0195,5.5796,144.982],[-6.0194,5.586,187.9579],[-6.0232,5.5965,147.5036],[-6.0194,5.6019,152.2421],[-6.0204,5.6052,168.1142],[-6.0282,5.6072,150.8093],[-6.0285,5.6089,158.9412],[-6.0173,5.6109,165.5656],[-6.016,5.6131,152.3966],[-6.0175,5.6171,180.2493],[-6.0159,5.6231,168.1125],[-6.0167,5.6309,157.1367],[-6.0109,5.6385,167.0957],[-6.0151,5.6455,158.1228],[-6.0218,5.6474,149.789],[-6.0259,5.656,149.847],[-6.0336,5.6576,153.7557],[-6.0352,5.6615,152.5144],[-6.0401,5.6638,156.2482],[-6.0376,5.6681,150.7593],[-6.0384,5.6738,162.6899],[-6.0461,5.6751,150.8262],[-6.0517,5.6787,150.8447],[-6.0552,5.6917,151.0007],[-6.063,5.7056,157.0655],[-6.0617,5.71,164.5025],[-6.0655,5.7122,156.7576],[-6.0692,5.7091,176.7859],[-6.074,5.7143,154.4491],[-6.0748,5.7218,152.7579],[-6.069,5.7238,156.3719],[-6.0666,5.7277,160.9308],[-6.0687,5.7318,159.0666],[-6.0676,5.7383,159.6735],[-6.0908,5.7536,157.6831],[-6.094,5.7537,155.285],[-6.0966,5.7503,162.2905],[-6.1002,5.7557,155.9808],[-6.1052,5.7578,158.3516],[-6.102,5.7636,157.4808],[-6.1021,5.7702,163.9095],[-6.1194,5.7743,165.3794],[-6.1924,5.7708,166.8587],[-6.2037,5.7658,153.0493],[-6.208,5.7656,156.9679],[-6.2116,5.7635,154.4397],[-6.2174,5.7561,158.2276],[-6.2212,5.7623,149.7074],[-6.2257,5.7711,147.5772],[-6.2249,5.7729,157.296],[-6.2263,5.7763,148.016],[-6.2245,5.7788,155.9247],[-6.2269,5.7895,175.2766],[-6.2331,5.7966,169.8152],[-6.2367,5.7976,156.3099],[-6.2434,5.8101,156.5184],[-6.2389,5.8237,155.1909],[-6.2469,5.8475,159.1095],[-6.2488,5.8492,159.9281],[-6.2515,5.8489,158.4656],[-6.2556,5.8553,160.1645],[-6.2656,5.8572,161.0307],[-6.2772,5.8636,164.5683],[-6.2818,5.8758,167.3633],[-6.2818,5.8809,166.0583],[-6.2774,5.8876,170.7034],[-6.2803,5.893,170.8186],[-6.2801,5.8967,170.5871],[-6.2849,5.9026,171.7759],[-6.286,5.9733,209.917],[-6.2999,5.9912,212.7778],[-6.3053,5.9926,206.0502],[-6.313,5.9992,214.0889],[-6.3492,6.0215,208.9829],[-6.3582,6.0286,207.1379],[-6.3663,6.0427,219.4512],[-6.3886,6.0953,199.5993],[-6.3951,6.1214,237.1366],[-6.4105,6.1587,243.9086],[-6.4222,6.1994,211.5279],[-6.4201,6.209,206.2076],[-6.4234,6.2428,200.2953],[-6.4277,6.2551,196.11],[-6.427,6.2639,196.125],[-6.4299,6.2805,192.335],[-6.4345,6.2841,192.0464],[-6.4359,6.2951,191.9222],[-6.4718,6.2793,199.7811],[-6.4808,6.272,213.5943],[-6.5082,6.2628,223.317],[-6.59,6.3209,173.6839],[-6.6806,6.2479,175.9624],[-6.8154,6.2491,219.4172],[-6.9785,6.4226,189.5],[-6.9876,6.4452,189.5],[-7.0036,6.4456,189.5],[-7.0059,6.4501,189.5],[-7.0046,6.4611,189.5],[-7.0009,6.4632,189.5],[-6.9973,6.4631,189.5],[-6.9949,6.4606,189.5],[-6.9844,6.4587,189.5],[-6.9789,6.461,189.5],[-6.9635,6.4712,189.5],[-6.9536,6.4842,189.5],[-6.9525,6.488,189.5],[-6.9611,6.5057,190.5311],[-6.9639,6.5237,197.3593],[-6.9739,6.5323,189.5],[-6.9801,6.5495,189.5],[-6.9875,6.5569,189.5],[-6.9923,6.5584,189.5],[-7.1236,6.4593,236.6225],[-7.1268,6.2697,189.5],[-7.0865,6.0586,214.5152],[-7.0834,5.9914,192.1784],[-7.0863,5.9785,194.4282],[-7.0875,5.82,229.8485],[-7.0871,5.7042,188.6772],[-7.0833,5.6985,185.9932],[-7.0843,5.6665,188.2877],[-7.0002,5.4995,177.1441],[-6.8289,5.4978,168.8789],[-6.7964,5.4649,157.2335],[-6.7897,5.4609,161.2633],[-6.7869,5.4609,153.3452],[-6.7819,5.457,161.5229],[-6.758,5.4516,157.4383],[-6.7491,5.4452,140.1771],[-6.746,5.4382,151.3529],[-6.7421,5.4367,138.1789],[-6.7305,5.4193,133.8202],[-6.7332,5.4033,133.9024],[-6.73,5.4001,131.2913],[-6.7312,5.3859,130.1219],[-6.7292,5.3766,136.5428],[-6.7194,5.3615,125.5155],[-6.7148,5.3608,124.0594],[-6.7114,5.3566,133.3847],[-6.7011,5.35,113.4986],[-6.6992,5.3454,114.6639],[-6.6911,5.3436,119.3725],[-6.6819,5.3454,114.1762],[-6.6759,5.3411,99.4561],[-6.6742,5.3356,94.1758],[-6.672,5.3343,95.3215],[-6.6689,5.3361,86.3597],[-6.6554,5.3295,83.72],[-6.4998,5.3331,94.3762],[-6.4607,5.3087,101.1619],[-6.4347,5.4854,73.9692]]]]}}