{"type": "Feature","bbox": [-6.4038,7.1692,-5.6322,7.7779],"geometry": {"type": "MultiPolygon","coordinates": [[[[-5.9346,7.1747,175.6198],[-5.9294,7.174,173.2739],[-5.927,7.1772,192.0808],[-5.9291,7.1872,184.5943],[-5.9278,7.1949,189.394],[-5.93,7.2077,198.0025],[-5.93,7.219,203.5279],[-5.9269,7.2262,203.7605],[-5.9287,7.2395,212.7809],[-5.9256,7.2437,214.0311],[-5.9192,7.2457,210.6796],[-5.9133,7.2529,218.4507],[-5.8993,7.2549,233.2756],[-5.8841,7.2734,213.6999],[-5.8964,7.2987,220.5696],[-5.8969,7.309,226.0465],[-5.8758,7.3096,253.8339],[-5.8564,7.314,249.1453],[-5.8534,7.3168,241.0025],[-5.8499,7.3312,217.8101],[-5.8323,7.3433,209.7816],[-5.8409,7.3618,209.5798],[-5.8419,7.3707,215.8365],[-5.8358,7.3746,219.8564],[-5.826,7.3966,268.6255],[-5.81,7.4213,219.2851],[-5.7996,7.4279,209.5308],[-5.8076,7.4408,234.1084],[-5.8021,7.4601,232.4512],[-5.7999,7.4834,261.591],[-5.7978,7.486,253.3345],[-5.7829,7.4928,236.4391],[-5.7768,7.4901,230.2438],[-5.7592,7.4989,204.6711],[-5.7544,7.495,185.263],[-5.7445,7.4979,184.5558],[-5.734,7.4968,181.5],[-5.7303,7.5019,181.5],[-5.7174,7.506,181.5],[-5.7118,7.5108,181.5],[-5.7112,7.5238,181.5],[-5.6923,7.5376,181.5],[-5.6818,7.5425,181.5],[-5.6639,7.5473,191.8739],[-5.6624,7.552,181.8418],[-5.6639,7.556,181.5],[-5.6841,7.5654,181.816],[-5.6971,7.5786,181.5],[-5.6964,7.5857,182.08],[-5.659,7.6022,181.5],[-5.6322,7.6099,189.4154],[-5.6337,7.6161,183.733],[-5.6372,7.6195,181.5],[-5.6626,7.6237,183.1086],[-5.6883,7.6399,184.9145],[-5.6874,7.6422,181.5],[-5.6675,7.6505,199.9975],[-5.6639,7.6562,198.3591],[-5.6671,7.6605,187.9713],[-5.6705,7.662,182.5673],[-5.6829,7.6627,183.6329],[-5.6952,7.6689,185.4272],[-5.6949,7.6785,185.3271],[-5.689,7.6826,183.9139],[-5.6781,7.6853,199.9035],[-5.6729,7.6934,202.8849],[-5.6733,7.695,197.6364],[-5.6864,7.7023,185.7342],[-5.6873,7.7053,185.8884],[-5.6855,7.7118,186.4595],[-5.6767,7.7177,184.9412],[-5.6823,7.7261,187.7239],[-5.699,7.737,205.2626],[-5.7137,7.7391,203.9511],[-5.7456,7.7471,215.4483],[-5.7662,7.7466,209.7711],[-5.7897,7.7549,225.6768],[-5.8267,7.7564,248.4565],[-5.8279,7.7664,275.2302],[-5.8415,7.7779,286.7469],[-5.8776,7.7619,312.0319],[-5.9779,7.7439,254.6009],[-5.998,7.7514,292.0378],[-6.0033,7.7557,272.98],[-6.0084,7.7572,257.7025],[-6.0347,7.7582,240.5122],[-6.0386,7.7534,236.275],[-6.0363,7.7444,236.6489],[-6.0439,7.732,235.6945],[-6.0518,7.711,238.9861],[-6.0525,7.7144,238.3395],[-6.0596,7.7152,239.7554],[-6.0662,7.6958,233.1376],[-6.0586,7.6911,227.9789],[-6.0583,7.6849,233.1889],[-6.0608,7.6833,233.1793],[-6.0613,7.6771,231.6621],[-6.0667,7.6749,230.4347],[-6.0701,7.6703,230.8166],[-6.0701,7.6664,231.1791],[-6.0779,7.6572,226.7289],[-6.0786,7.6551,230.119],[-6.0766,7.6513,230.1494],[-6.0797,7.6455,229.2806],[-6.079,7.6418,224.0533],[-6.0931,7.6363,222.7639],[-6.1082,7.6374,205.8595],[-6.1123,7.6434,207.8435],[-6.3295,7.5198,288.858],[-6.3265,7.4553,279.2727],[-6.3868,7.4081,245.1544],[-6.4005,7.3841,244.5651],[-6.3965,7.3731,241.1413],[-6.4027,7.3617,242.5629],[-6.4034,7.3454,242.8127],[-6.4011,7.3388,236.2228],[-6.4018,7.3295,248.0078],[-6.3956,7.31,265.93],[-6.4019,7.2934,235.2562],[-6.3989,7.2819,257.2798],[-6.4038,7.265,261.0239],[-6.3997,7.2596,275.2003],[-6.3864,7.2558,254.862],[-6.38,7.252,281.5735],[-6.3721,7.2435,282.8621],[-6.3539,7.2309,270.1396],[-6.3435,7.2153,252.1798],[-6.3387,7.1968,279.4136],[-6.3019,7.1692,288.3796],[-6.2899,7.1902,295.4428],[-6.2526,7.2224,261.4011],[-6.1831,7.2604,230.5109],[-6.0158,7.204,179.5902],[-6.0061,7.2023,178.3296],[-5.9952,7.1978,175.6049],[-5.988,7.1923,180.1416],[-5.9768,7.1908,178.1563],[-5.9346,7.1747,175.6198]]]]}
,"properties": {"GID_3": "CIV.9.2.3_1","GID_0": "CIV","country": "Côted'Ivoire","GID_1": "CIV.9_1","province": "Sassandra-Marahoué","NL_NAME_1": "NA","GID_2": "CIV.9.2_1","county": "Marahoué","NL_NAME_2": "NA","city": "Zuénoula","VARNAME_3": "NA","NL_NAME_3": "NA","TYPE_3": "Département","ENGTYPE_3": "Department","CC_3": "NA","HASC_3": "NA","name": "Zuénoula.city","area_km2": 3314.251,"hist_schema_id": "Elevation0-9000","hist_area_km2": {"175": 84.83,"200": 473.352,"225": 698.7,"250": 796.661,"275": 811.054,"300": 426.908,"325": 22.557,"350": 0.189}}}