{"type":"Feature","properties":{"GID_3":"CIV.12.2.2_1","GID_0":"CIV","country":"Côted'Ivoire","GID_1":"CIV.12_1","province":"Woroba","NL_NAME_1":"NA","GID_2":"CIV.12.2_1","county":"Béré","NL_NAME_2":"NA","city":"Kounahiri","VARNAME_3":"NA","NL_NAME_3":"NA","TYPE_3":"Département","ENGTYPE_3":"Department","CC_3":"NA","HASC_3":"NA","name":"Kounahiri.city"},
"geometry":{"type": "MultiPolygon","coordinates": [[[[-6.1196,7.6477,208.6363],[-6.1123,7.6434,207.8435],[-6.1082,7.6374,205.8595],[-6.0931,7.6363,222.7639],[-6.079,7.6418,224.0533],[-6.0797,7.6455,229.2806],[-6.0766,7.6513,230.1494],[-6.0786,7.6551,230.119],[-6.0779,7.6572,226.7289],[-6.0701,7.6664,231.1791],[-6.0701,7.6703,230.8166],[-6.0667,7.6749,230.4347],[-6.0613,7.6771,231.6621],[-6.0608,7.6833,233.1793],[-6.0583,7.6849,233.1889],[-6.0586,7.6911,227.9789],[-6.0662,7.6958,233.1376],[-6.0596,7.7152,239.7554],[-6.0525,7.7144,238.3395],[-6.0518,7.711,238.9861],[-6.0439,7.732,235.6945],[-6.0363,7.7444,236.6489],[-6.0386,7.7534,236.275],[-6.0347,7.7582,240.5122],[-6.0084,7.7572,257.7025],[-6.0033,7.7557,272.98],[-5.998,7.7514,292.0378],[-5.9779,7.7439,254.6009],[-5.8776,7.7619,312.0319],[-5.8415,7.7779,286.7469],[-5.8279,7.7664,275.2302],[-5.8267,7.7564,248.4565],[-5.7897,7.7549,225.6768],[-5.7662,7.7466,209.7711],[-5.7456,7.7471,215.4483],[-5.7137,7.7391,203.9511],[-5.699,7.737,205.2626],[-5.6823,7.7261,187.7239],[-5.6767,7.7177,184.9412],[-5.6726,7.7423,183.631],[-5.661,7.7475,183.5811],[-5.6595,7.7499,183.9767],[-5.6594,7.7548,183.3825],[-5.6634,7.7624,185.5781],[-5.6642,7.7693,183.3999],[-5.6654,7.7976,185.2475],[-5.6554,7.8057,191.4588],[-5.6521,7.8189,184.7586],[-5.6557,7.827,186.7107],[-5.6623,7.831,185.6593],[-5.6606,7.8417,185.7247],[-5.655,7.8401,187.7702],[-5.6517,7.8409,186.5435],[-5.6348,7.8313,185.535],[-5.6308,7.8312,187.4974],[-5.6245,7.8331,191.554],[-5.6117,7.85,186.1856],[-5.613,7.8559,187.1353],[-5.6192,7.8599,193.4387],[-5.6209,7.8756,189.7853],[-5.6283,7.8876,186.0928],[-5.6173,7.9071,189.7126],[-5.604,7.9158,188.6839],[-5.6017,7.9189,187.2987],[-5.6035,7.9348,193.3902],[-5.5955,7.9423,190.3006],[-5.5959,7.9477,191.9941],[-5.5931,7.9541,189.4159],[-5.5942,7.9598,191.2094],[-5.5929,7.9653,189.5517],[-5.5833,7.9753,193.5079],[-5.5804,7.9797,190.25],[-5.578,7.9887,194.7391],[-5.5692,7.9991,199.6828],[-5.5718,8.0117,193.1906],[-5.6801,7.9959,279.2952],[-5.684,7.9992,267.7018],[-5.743,7.9981,306.9134],[-5.7512,7.9998,276.7635],[-5.9036,7.9588,280.8192],[-5.907,7.9561,276.01],[-5.9136,7.9444,272.7258],[-5.922,7.9358,276.4318],[-5.9337,7.9321,263.0573],[-5.9373,7.9288,274.8419],[-5.9642,7.9171,266.0139],[-5.9648,7.9117,263.4612],[-5.972,7.9072,259.438],[-5.9795,7.8922,252.2001],[-5.9885,7.8657,256.7566],[-5.9936,7.8628,251.718],[-6.0032,7.8627,241.2382],[-6.0075,7.8606,237.7464],[-6.0097,7.8608,243.0479],[-6.0153,7.866,239.8835],[-6.0173,7.8726,245.4702],[-6.0287,7.8858,264.1168],[-6.0247,7.8881,245.641],[-6.0425,7.8936,249.3963],[-6.0459,7.897,254.3486],[-6.0509,7.8988,248.6785],[-6.0624,7.9002,258.4071],[-6.0679,7.9042,256.1435],[-6.067,7.9078,255.6986],[-6.0636,7.9113,260.9474],[-6.0645,7.9204,255.5731],[-6.0672,7.9229,254.7993],[-6.0696,7.9316,265.1162],[-6.0833,7.9465,266.5799],[-6.1081,7.9386,279.0907],[-6.1109,7.9366,279.5626],[-6.1139,7.923,292.5678],[-6.1162,7.92,286.6248],[-6.1162,7.8985,295.3737],[-6.1189,7.8887,294.1523],[-6.128,7.8735,309.6722],[-6.1272,7.8682,313.1359],[-6.1294,7.8654,307.5906],[-6.137,7.8623,326.5491],[-6.1402,7.8586,332.7077],[-6.1392,7.8463,332.3821],[-6.141,7.8416,343.4685],[-6.1439,7.8383,384.6633],[-6.1564,7.8347,327.0103],[-6.16,7.8323,328.0857],[-6.1669,7.8228,312.9048],[-6.1705,7.8203,305.4077],[-6.1796,7.8054,287.7866],[-6.1884,7.8018,271.257],[-6.1881,7.7927,266.3762],[-6.1915,7.7773,256.9682],[-6.1995,7.7716,247.0054],[-6.202,7.7664,243.9748],[-6.2033,7.7559,252.9924],[-6.2073,7.7515,236.3326],[-6.2112,7.7391,224.9225],[-6.2127,7.7371,235.3636],[-6.2205,7.739,230.0266],[-6.21,7.7264,230.0865],[-6.2168,7.6925,214.3426],[-6.214,7.6871,217.6463],[-6.2093,7.6852,216.3663],[-6.2029,7.685,212.1435],[-6.1814,7.6739,209.734],[-6.1734,7.6645,208.6946],[-6.1683,7.661,207.5945],[-6.1337,7.6542,204.4967],[-6.1196,7.6477,208.6363]]]]}}