{"type":"Feature","properties":{"GID_3":"CIV.7.1.2_1","GID_0":"CIV","country":"Côted'Ivoire","GID_1":"CIV.7_1","province":"Lagunes","NL_NAME_1":"NA","GID_2":"CIV.7.1_1","county":"Agnéby-Tiassa","NL_NAME_2":"NA","city":"Sikensi","VARNAME_3":"NA","NL_NAME_3":"NA","TYPE_3":"Département","ENGTYPE_3":"Department","CC_3":"NA","HASC_3":"NA","name":"Sikensi.city"},
"geometry":{"type": "MultiPolygon","coordinates": [[[[-4.3674,5.5912,42.6707],[-4.3791,5.596,69.2587],[-4.3877,5.595,49.7346],[-4.3994,5.5989,60.1505],[-4.4054,5.6091,65.4989],[-4.4175,5.6127,62.146],[-4.4215,5.6235,69.3816],[-4.4261,5.625,64.7169],[-4.4216,5.6332,76.6465],[-4.4246,5.6413,82.8035],[-4.4317,5.6465,64.8286],[-4.4387,5.6472,83.8077],[-4.4426,5.6495,85.0091],[-4.4569,5.6527,76.4962],[-4.4034,5.7085,58.6646],[-4.4049,5.7211,67.0557],[-4.4689,5.7573,72.5747],[-4.5529,5.7924,91.0381],[-4.617,5.8122,74.3527],[-4.6215,5.8332,103.2715],[-4.6343,5.7677,49.7303],[-4.6487,5.7617,50.8738],[-4.6903,5.587,55.7757],[-4.7041,5.561,54.1169],[-4.6426,5.539,78.8281],[-4.4889,5.5212,74.9134],[-4.4196,5.5224,34.0505],[-4.421,5.5229,34.0505],[-4.3674,5.5912,42.6707]]]]}}