{"type":"Feature","properties":{"GID_3":"CIV.6.4.3_1","GID_0":"CIV","country":"Côted'Ivoire","GID_1":"CIV.6_1","province":"Lacs","NL_NAME_1":"NA","GID_2":"CIV.6.4_1","county":"N'zi","NL_NAME_2":"NA","city":"Kouassi-Kouassikro","VARNAME_3":"NA","NL_NAME_3":"NA","TYPE_3":"Département","ENGTYPE_3":"Department","CC_3":"NA","HASC_3":"NA","name":"Kouassi-Kouassikro.city"},
"geometry":{"type": "MultiPolygon","coordinates": [[[[-4.7641,7.1097,166.4693],[-4.7591,7.1039,160.9303],[-4.7519,7.0887,142.4037],[-4.7495,7.0814,144.7562],[-4.7495,7.0685,145.6335],[-4.7466,7.0576,163.3459],[-4.7314,7.0316,159.653],[-4.6823,7.0282,132.8031],[-4.6679,7.0288,138.4691],[-4.6276,7.0213,179.8],[-4.6131,7.0238,152.5146],[-4.6022,7.0277,141.5381],[-4.6023,7.03,150.7217],[-4.5278,7.0809,103.2672],[-4.4943,7.1152,104.3955],[-4.4812,7.1572,117.4776],[-4.5148,7.2469,112.4915],[-4.5016,7.2575,119.5543],[-4.4964,7.2585,110.2826],[-4.4878,7.2548,111.2505],[-4.4828,7.2558,111.5142],[-4.4744,7.2615,114.3906],[-4.4652,7.2612,110.7845],[-4.4636,7.2652,109.7499],[-4.4726,7.2723,128.2362],[-4.4731,7.278,128.5672],[-4.4707,7.2821,112.224],[-4.4475,7.2885,114.7437],[-4.4438,7.2935,125.7884],[-4.4463,7.3011,127.9038],[-4.4724,7.3232,127.8761],[-4.4877,7.323,142.754],[-4.503,7.3318,155.8717],[-4.5241,7.3479,156.2917],[-4.5344,7.3519,144.0834],[-4.5436,7.3505,147.9502],[-4.5517,7.3567,142.0112],[-4.5587,7.366,136.6642],[-4.5589,7.3691,138.8918],[-4.5666,7.3834,147.8357],[-4.5841,7.3976,151.4843],[-4.5945,7.4028,154.1378],[-4.5972,7.4061,156.7395],[-4.5987,7.4173,164.2521],[-4.6054,7.436,189.9535],[-4.6121,7.4411,193.0269],[-4.6201,7.4531,202.0212],[-4.6234,7.4563,203.9106],[-4.6324,7.4593,203.9715],[-4.6399,7.47,208.4223],[-4.6468,7.4757,197.9501],[-4.6664,7.4705,194.7136],[-4.6825,7.4704,189.0707],[-4.6879,7.4686,207.6776],[-4.7496,7.4336,215.9365],[-4.7701,7.4194,189.223],[-4.7658,7.4097,185.9186],[-4.7609,7.4035,199.6453],[-4.7464,7.3716,191.9516],[-4.7419,7.3546,205.0387],[-4.741,7.3448,196.6098],[-4.7301,7.3047,209.0042],[-4.7155,7.2851,240.2431],[-4.7114,7.2692,241.121],[-4.7123,7.254,227.241],[-4.7021,7.2399,211.6162],[-4.7014,7.2361,200.7141],[-4.7104,7.2322,188.2397],[-4.7343,7.2163,202.5994],[-4.7412,7.2063,207.71],[-4.7455,7.1858,182.5046],[-4.7491,7.1776,170.1713],[-4.7518,7.1508,169.0529],[-4.7593,7.1329,167.0095],[-4.7641,7.1097,166.4693]]]]}}