{"type": "Feature","id": "3447","bbox": [-6.05164,5.02769,-4.9377,6.23394],"geometry": {"type": "Polygon","coordinates": [[[-5.24435,6.21812,176.7934],[-5.29065,6.2306,170.8262],[-5.31256,6.23394,175.9755],[-5.50521,6.16676,177.5853],[-5.72882,6.19616,283.2327],[-5.75688,6.13975,231.4459],[-5.76287,6.11826,255.8998],[-5.75874,6.08188,254.3622],[-5.75378,6.06061,230.9327],[-5.75378,6.05139,250.7772],[-5.78137,6.00033,262.8995],[-5.77993,5.98224,332.3304],[-5.78137,5.96364,260.7517],[-5.78484,5.9569,247.8289],[-5.79047,5.95005,269.2504],[-5.80411,5.94083,246.7869],[-5.81331,5.93773,258.6471],[-5.82116,5.9368,262.3057],[-5.86705,5.89496,232.3514],[-6.05164,5.67821,150.8447],[-6.04513,5.66733,150.3003],[-6.0397,5.66136,151.2705],[-6.03578,5.6557,148.412],[-6.032,5.65144,161.2195],[-6.02167,5.63482,150.9595],[-6.02219,5.62475,150.9404],[-6.02368,5.61968,147.1642],[-6.02591,5.61542,157.312],[-6.02735,5.61054,148.6698],[-6.02725,5.60527,151.1519],[-6.02596,5.59408,144.3084],[-6.02394,5.5895,150.3724],[-6.02167,5.5854,179.9692],[-6.01981,5.5809,145.6956],[-6.01536,5.56057,150.374],[-6.01288,5.55622,147.5368],[-6.00989,5.55243,150.9831],[-6.00353,5.54568,143.7888],[-5.99934,5.54002,142.3387],[-5.99562,5.53682,141.0349],[-5.98963,5.53341,139.8958],[-5.9794,5.52915,140.872],[-5.97506,5.52395,143.006],[-5.97216,5.51845,150.1813],[-5.96958,5.51481,142.7813],[-5.95387,5.51698,165.025],[-5.82881,5.55948,194.8654],[-5.74396,5.27591,82.8866],[-5.75274,5.21198,59.9613],[-5.83315,5.19172,57.3796],[-5.84282,5.18754,63.8641],[-5.85114,5.18211,66.3838],[-5.86116,5.17173,54.6577],[-5.86468,5.16573,57.6688],[-5.86814,5.1579,50.8788],[-5.87253,5.14199,63.482],[-5.87305,5.12974,53.566],[-5.8594,5.03065,0.0],[-5.85868,5.02769,0.0],[-5.85867,5.0277,0.0],[-5.85131,5.02997,0.0],[-5.63024,5.06322,0.0],[-5.55053,5.08771,12.6111],[-5.55769,5.08845,1.0],[-5.57844,5.09455,1.0],[-5.55053,5.11498,3.8137],[-5.52481,5.0998,6.3283],[-5.49568,5.09528,18.9014],[-5.42831,5.09888,1.3386],[-5.42832,5.09894,1.3386],[-5.44294,5.2334,20.0439],[-5.43566,5.25986,23.9685],[-5.42295,5.25782,14.9125],[-5.4122,5.25425,14.4852],[-5.4032,5.24937,12.8818],[-5.35132,5.20532,31.1969],[-5.34016,5.19777,37.8165],[-5.326,5.19126,17.6559],[-5.32448,5.19083,17.6559],[-5.32852,5.19684,7.318],[-5.33007,5.1999,2.067],[-5.33829,5.19758,22.3187],[-5.33776,5.20067,15.0707],[-5.33829,5.21117,7.1434],[-5.32706,5.20551,19.0538],[-5.32396,5.20441,35.0701],[-5.3282,5.21646,48.3614],[-5.32726,5.22606,9.3794],[-5.32152,5.23021,0.0],[-5.31094,5.22549,12.5634],[-5.3048,5.22549,6.4775],[-5.28991,5.22773,8.2391],[-5.27086,5.21939,10.6201],[-5.25304,5.2141,21.1917],[-5.24205,5.22549,7.5301],[-5.23583,5.22549,32.7928],[-5.23405,5.22307,27.0643],[-5.23405,5.22307,27.0643],[-5.23396,5.22322,27.0643],[-5.22451,5.22748,36.3291],[-5.16203,5.2327,27.4442],[-5.14844,5.2327,23.0332],[-5.13914,5.23105,47.3715],[-5.12488,5.22012,10.2482],[-5.11371,5.21617,13.914],[-5.10648,5.21609,12.5056],[-5.10069,5.2178,4.2355],[-5.09666,5.22097,40.6141],[-5.09268,5.22508,34.4964],[-5.08808,5.23146,13.4202],[-5.05274,5.30857,20.1617],[-5.0517,5.31425,51.6966],[-5.05129,5.3203,68.3227],[-5.05305,5.34396,31.4826],[-5.05268,5.35102,7.4597],[-5.0516,5.35861,10.3596],[-5.04829,5.36939,18.8261],[-4.98504,5.5207,36.6583],[-4.97419,5.55739,43.1696],[-4.97181,5.57113,50.3732],[-4.9716,5.58361,22.992],[-4.97605,5.6048,31.6473],[-4.9778,5.60999,37.6807],[-4.987,5.62746,62.4035],[-4.99227,5.6356,44.7062],[-4.99429,5.63994,54.6341],[-4.99517,5.64498,35.9295],[-4.9931,5.65322,52.0073],[-4.9377,5.79567,77.5848],[-4.98716,5.8893,101.0821],[-4.99925,5.96682,66.992],[-5.00395,6.08978,73.1027],[-5.00778,6.11082,84.5766],[-5.01811,6.11996,106.6984],[-5.0331,6.1251,109.9655],[-5.13562,6.1372,137.8915],[-5.17609,6.15347,292.6879],[-5.24435,6.21812,176.7934]]]}
,"properties": {"ISO3166-1-Alpha-3": "CIV","country": "Ivory Coast","fill": "#F00","name": "Sud-Bandama","area_km2": 10830.623,"hist_schema_id": "Elevation0-9000","hist_area_km2": {"0": 310.667,"25": 1332.806,"50": 1515.513,"75": 953.576,"100": 692.509,"125": 729.195,"150": 1087.375,"175": 1556.134,"200": 1256.3,"225": 786.523,"250": 369.583,"275": 91.219,"300": 36.836,"325": 26.145,"350": 19.672,"375": 14.718,"400": 13.052,"425": 13.875,"450": 15.309,"475": 8.519,"500": 1.096}}}