{"type": "Feature","bbox": [-6.4607,4.8501,-5.4532,5.6598],"geometry": {"type": "MultiPolygon","coordinates": [[[[-5.5988,5.1032,2.8287],[-5.6007,5.1024,1.0],[-5.6004,5.0996,1.0],[-5.5957,5.0974,1.0],[-5.5951,5.1001,1.0],[-5.5988,5.1032,2.8287]]],
[[[-5.8565,5.0335,0.0],[-5.8415,5.0371,10.6258],[-5.8399,5.0379,2.4154],[-5.8396,5.0407,9.0671],[-5.8388,5.0388,6.6886],[-5.8363,5.0382,0.0],[-5.7846,5.0479,3.0659],[-5.7849,5.0524,2.5],[-5.7899,5.0568,11.2285],[-5.7901,5.0599,5.9185],[-5.7946,5.0632,10.8755],[-5.7985,5.0635,15.0978],[-5.8018,5.0596,9.8126],[-5.8068,5.0585,11.885],[-5.8021,5.0613,15.5748],[-5.8037,5.0643,22.5592],[-5.801,5.0632,2.5],[-5.799,5.0643,2.5],[-5.8018,5.0707,6.8152],[-5.7996,5.0699,45.3762],[-5.7982,5.0654,2.5],[-5.7924,5.0649,5.8562],[-5.7876,5.0582,2.5],[-5.7843,5.0565,2.5],[-5.7838,5.0615,12.6819],[-5.7879,5.0668,10.3725],[-5.7857,5.066,3.1277],[-5.7832,5.0618,2.5],[-5.7813,5.0618,2.5],[-5.7799,5.0635,2.5],[-5.7801,5.071,2.5],[-5.7776,5.0712,2.5],[-5.7779,5.0687,2.5],[-5.7757,5.0676,4.3316],[-5.7813,5.056,2.5],[-5.7796,5.049,2.9718],[-5.7618,5.0515,0.0],[-5.7612,5.0618,7.3274],[-5.7596,5.0615,8.4992],[-5.7607,5.0582,4.5],[-5.759,5.0518,0.0],[-5.7546,5.0521,27.4078],[-5.7521,5.0604,13.8468],[-5.7515,5.0596,13.8468],[-5.7521,5.0529,3.9389],[-5.751,5.0526,3.9389],[-5.7368,5.0549,0.0],[-5.7343,5.061,8.5181],[-5.7335,5.0588,19.2793],[-5.7346,5.0557,6.4984],[-5.7329,5.0551,0.0],[-5.714,5.0579,2.1775],[-5.7126,5.0621,7.6125],[-5.7121,5.0607,8.25],[-5.7126,5.0585,1.0521],[-5.7079,5.0585,0.0],[-5.6318,5.0682,0.0],[-5.6188,5.0718,0.0],[-5.6132,5.0749,0.0],[-5.5871,5.079,1.206],[-5.5846,5.0824,7.2892],[-5.5765,5.0826,3.6968],[-5.5735,5.0851,10.6392],[-5.5726,5.089,1.0],[-5.5782,5.0901,1.0],[-5.5954,5.0876,1.0],[-5.5985,5.0904,1.0],[-5.6046,5.0882,1.0],[-5.6171,5.0868,1.0],[-5.6179,5.0882,1.0],[-5.6157,5.0885,1.0],[-5.6154,5.0904,6.7394],[-5.619,5.0957,1.0],[-5.6196,5.1021,4.5875],[-5.6176,5.101,1.0],[-5.6171,5.0957,1.0],[-5.6118,5.091,1.0],[-5.5993,5.0946,4.5574],[-5.6018,5.0982,1.9632],[-5.6062,5.099,1.0],[-5.6118,5.1035,1.0],[-5.6126,5.1107,1.4645],[-5.6149,5.114,8.1602],[-5.6099,5.1149,2.7786],[-5.6093,5.1143,2.7786],[-5.6107,5.1126,1.0],[-5.6107,5.1065,1.0],[-5.6068,5.1015,1.0],[-5.604,5.1018,1.0],[-5.6032,5.1046,3.987],[-5.601,5.1057,3.6417],[-5.601,5.1115,1.0],[-5.5988,5.1115,1.0],[-5.5999,5.1101,2.3585],[-5.5971,5.1043,12.8746],[-5.5938,5.1049,1.0],[-5.5915,5.1126,9.8648],[-5.5907,5.1101,1.0],[-5.5924,5.101,1.0],[-5.5899,5.0971,1.0],[-5.5868,5.0982,7.6205],[-5.586,5.0951,1.0],[-5.5837,5.0946,1.0],[-5.576,5.096,4.941],[-5.5726,5.0982,1.0],[-5.5735,5.091,1.0],[-5.5718,5.089,1.0],[-5.569,5.0899,1.3757],[-5.5696,5.0874,1.6771],[-5.5726,5.0863,5.5809],[-5.5715,5.0829,1.1236],[-5.5707,5.0849,1.4906],[-5.5665,5.0857,1.6166],[-5.5657,5.0885,1.4983],[-5.5618,5.0854,1.0],[-5.5576,5.0863,1.0],[-5.549,5.084,1.3717],[-5.4882,5.0918,0.0],[-5.4882,5.0943,6.9627],[-5.4857,5.0954,0.7525],[-5.4871,5.0987,5.9891],[-5.4849,5.0962,2.7258],[-5.4863,5.0924,0.4875],[-5.4532,5.0962,0.5584],[-5.455,5.1719,54.8115],[-5.4715,5.4351,49.6999],[-5.516,5.4286,78.4135],[-5.6114,5.5515,161.8685],[-5.6129,5.574,165.5522],[-5.6504,5.5624,166.5738],[-5.7446,5.6268,158.1122],[-5.8295,5.5697,196.864],[-5.9745,5.5248,142.1245],[-5.9728,5.5223,140.2231],[-5.9737,5.5167,142.2344],[-5.9695,5.5116,137.5895],[-5.9755,5.4945,136.1197],[-5.9661,5.4822,143.3165],[-5.9617,5.4788,137.012],[-5.9621,5.4693,134.8017],[-5.9507,5.4602,132.6442],[-5.9518,5.4545,133.4108],[-5.9577,5.4489,132.4197],[-5.959,5.4344,127.2963],[-5.9617,5.4327,126.1789],[-5.9638,5.4361,127.2058],[-5.9682,5.4353,126.1019],[-5.9695,5.4215,122.4369],[-5.9821,5.4104,110.086],[-5.9868,5.3919,95.4814],[-5.982,5.3818,95.1487],[-5.9826,5.3785,98.1078],[-5.9954,5.363,97.9116],[-5.9989,5.3551,96.8951],[-6.0014,5.3525,87.550299999999993],[-6.006,5.3529,87.5122],[-6.0233,5.3486,94.6571],[-6.0298,5.3529,87.149],[-6.0329,5.3423,90.0983],[-6.041,5.3332,86.2853],[-6.0499,5.3372,89.2547],[-6.0503,5.3504,107.2536],[-6.058,5.3593,97.534],[-6.0562,5.3648,94.8926],[-6.0575,5.368,105.1456],[-6.0549,5.3729,106.7625],[-6.059,5.3929,107.083],[-6.0635,5.3979,118.3956],[-6.0688,5.4184,121.0141],[-6.0671,5.4411,144.692],[-6.0623,5.4442,167.6237],[-6.0797,5.5282,152.9688],[-6.0906,5.5332,149.4961],[-6.0949,5.5336,151.1598],[-6.1058,5.5298,146.9276],[-6.1082,5.5239,150.9073],[-6.1142,5.5167,143.8672],[-6.1232,5.5177,138.5806],[-6.1353,5.5146,119.1021],[-6.1392,5.508,126.2977],[-6.1515,5.516,106.408],[-6.1571,5.5152,97.447],[-6.1616,5.5205,90.4114],[-6.1679,5.5229,81.5025],[-6.1609,5.545,86.1245],[-6.1658,5.5519,92.8031],[-6.1642,5.5629,89.5062],[-6.1724,5.567,99.7901],[-6.1706,5.5768,101.6017],[-6.1716,5.5829,106.1943],[-6.1665,5.5962,115.6178],[-6.168,5.6018,121.4196],[-6.1491,5.6191,129.6334],[-6.1378,5.624,135.5271],[-6.1384,5.6315,143.4375],[-6.1325,5.6359,151.4169],[-6.1301,5.6399,157.3663],[-6.1263,5.6413,166.2794],[-6.1257,5.6556,172.4016],[-6.1212,5.6587,173.6649],[-6.1226,5.6598,179.0615],[-6.1486,5.6532,155.4957],[-6.1628,5.6352,151.0186],[-6.1684,5.635,153.8518],[-6.1738,5.6378,155.5844],[-6.1802,5.6381,152.8123],[-6.1845,5.6361,148.656],[-6.1998,5.6428,140.6206],[-6.1995,5.6187,140.7708],[-6.2214,5.5746,125.9539],[-6.2367,5.5791,124.7654],[-6.241,5.5871,112.4951],[-6.2481,5.589,115.3385],[-6.2544,5.5866,120.5229],[-6.2629,5.5884,122.6658],[-6.2675,5.5937,115.6352],[-6.2718,5.5952,109.0309],[-6.2952,5.5827,96.475],[-6.2959,5.5789,91.3569],[-6.2982,5.5765,98.32],[-6.3069,5.5713,91.2471],[-6.3264,5.5715,82.01],[-6.3328,5.5753,74.9833],[-6.3363,5.5729,73.1778],[-6.3422,5.5719,74.2207],[-6.3554,5.5723,82.2301],[-6.3639,5.5699,72.8927],[-6.3713,5.57,72.267],[-6.3804,5.56,70.5917],[-6.387,5.5577,85.6651],[-6.3892,5.5543,85.1161],[-6.3949,5.5537,68.2913],[-6.4054,5.5435,65.3476],[-6.4153,5.5448,73.6505],[-6.4255,5.5336,77.0942],[-6.4309,5.5156,69.5178],[-6.4316,5.4999,63.6743],[-6.4607,5.3087,101.1619],[-6.3981,5.2681,108.4751],[-6.3952,5.2409,88.0485],[-6.3553,5.2077,82.3703],[-6.3468,5.19,94.5874],[-6.3303,5.1684,95.0222],[-6.3517,5.1409,83.3956],[-6.3419,5.1229,86.7576],[-6.3499,5.0859,74.6586],[-6.3435,5.07,74.8856],[-6.3248,5.0528,71.5579],[-6.3187,5.051,68.1748],[-6.3219,5.0419,64.3388],[-6.3222,5.0281,54.2655],[-6.3301,5.022,54.0926],[-6.329,5.0162,55.5779],[-6.3314,5.0114,49.2688],[-6.3384,5.0057,56.4221],[-6.3412,4.9996,63.2498],[-6.3415,4.989,53.1269],[-6.3385,4.976,43.3701],[-6.3394,4.9718,44.2817],[-6.3446,4.9644,47.556],[-6.3507,4.9604,40.097],[-6.3555,4.9541,36.7641],[-6.3675,4.9501,37.1954],[-6.3712,4.947,45.9597],[-6.3829,4.9422,44.9797],[-6.3851,4.9348,36.0665],[-6.3918,4.9362,53.1703],[-6.3989,4.9329,49.3254],[-6.4054,4.9336,35.129],[-6.4072,4.9315,27.3291],[-6.4042,4.9248,37.6005],[-6.3864,4.9137,32.5709],[-6.3824,4.9039,33.1514],[-6.3673,4.8986,35.4517],[-6.3579,4.9054,40.8923],[-6.35,4.9087,54.7653],[-6.3453,4.907,61.6751],[-6.3428,4.9038,52.5816],[-6.3319,4.9031,54.6086],[-6.318,4.8977,48.983],[-6.3138,4.8899,60.2955],[-6.3109,4.8748,27.8207],[-6.3018,4.8714,28.1055],[-6.302,4.8501,2.5632],[-6.2918,4.8515,0.0],[-6.2774,4.8593,8.2854],[-6.2499,4.864,4.5574],[-6.2421,4.8682,1.5577],[-6.2371,4.8688,2.5452],[-6.2349,4.8707,2.0796],[-6.2354,4.8738,0.0],[-6.2337,4.876,2.0478],[-6.2279,4.879,30.0131],[-6.2193,4.8818,0.0],[-6.1985,4.884,0.0],[-6.1971,4.8871,18.8045],[-6.1896,4.889,3.2333],[-6.1879,4.8915,2.0057],[-6.1799,4.8957,0.0],[-6.1776,4.9015,5.5191],[-6.1679,4.9035,0.0],[-6.1535,4.9126,14.6307],[-6.1487,4.9126,0.0],[-6.1457,4.9171,29.4826],[-6.1346,4.9185,0.0],[-6.1343,4.921,19.796],[-6.1326,4.9218,0.0],[-6.1276,4.9221,6.9746],[-6.1179,4.9271,10.5329],[-6.1135,4.9274,0.0],[-6.1104,4.9307,4.9014],[-6.1038,4.9321,2.8175],[-6.0996,4.9346,0.0],[-6.0976,4.9379,7.114],[-6.0929,4.9379,0.0],[-6.0924,4.9418,16.6178],[-6.0846,4.9432,0.0],[-6.0796,4.9476,37.7318],[-6.0821,4.954,35.8941],[-6.0765,4.9574,0.0],[-6.0765,4.9607,1.0017],[-6.0751,4.9615,1.157],[-6.0635,4.9643,2.9116],[-6.0232,4.969,7.8094],[-6.0207,4.9721,18.438],[-6.0085,4.9743,1.7291],[-6.0076,4.9768,10.2919],[-6.0046,4.9788,6.1812],[-5.9765,4.9838,0.0],[-5.9774,4.9885,18.33],[-5.9763,4.991,0.0],[-5.974,4.9943,0.0],[-5.9707,4.9957,3.418],[-5.9321,5.0051,0.0],[-5.9279,5.0074,10.1628],[-5.9243,5.0071,0.0],[-5.9237,5.0085,0.0],[-5.9251,5.0093,4.8761],[-5.9215,5.0121,21.9743],[-5.9174,5.0121,5.6333],[-5.9163,5.014,12.8534],[-5.9124,5.0154,0.0],[-5.9032,5.0165,0.0],[-5.8974,5.0201,4.3456],[-5.8901,5.0221,3.0832],[-5.8921,5.0226,4.7316],[-5.8888,5.0279,28.7167],[-5.8876,5.0268,14.9267],[-5.889,5.0229,3.0832],[-5.8874,5.0226,5.9231],[-5.8729,5.0271,5.5408],[-5.8715,5.029,6.1634],[-5.8654,5.0313,3.1174],[-5.8613,5.0315,0.0],[-5.8613,5.0335,6.9727],[-5.8593,5.0321,7.3915],[-5.8565,5.0335,0.0]]]]}
,"properties": {"GID_2": "CIV.2.1_1","GID_0": "CIV","country": "Côted'Ivoire","GID_1": "CIV.2_1","province": "Bas-Sassandra","NL_NAME_1": "NA","county": "Gbôkle","VARNAME_2": "NA","NL_NAME_2": "NA","TYPE_2": "Région","ENGTYPE_2": "Region","CC_2": "NA","HASC_2": "CI.BA.GL","name": "Gbôkle.county","area_km2": 6197.495,"hist_schema_id": "Elevation0-9000","hist_area_km2": {"0": 251.708,"25": 871.308,"50": 1228.196,"75": 1428.798,"100": 941.991,"125": 528.258,"150": 464.282,"175": 310.732,"200": 140.731,"225": 21.697,"250": 6.036,"275": 1.942,"300": 1.055,"325": 0.422,"350": 0.253,"375": 0.084}}}