{"type":"Feature","properties":{"GID_2":"CIV.6.1_1","GID_0":"CIV","country":"Côted'Ivoire","GID_1":"CIV.6_1","province":"Lacs","NL_NAME_1":"NA","county":"Bélier","VARNAME_2":"NA","NL_NAME_2":"NA","TYPE_2":"Région","ENGTYPE_2":"Region","CC_2":"NA","HASC_2":"CI.LA.BL","name":"Bélier.county"},
"geometry":{"type": "MultiPolygon","coordinates": [[[[-5.2119,6.3819,126.7873],[-5.2096,6.3809,132.3474],[-5.1988,6.382,144.2644],[-5.1908,6.3758,148.3514],[-5.095,6.289,122.1952],[-5.0504,6.3027,151.5864],[-4.9292,6.3042,73.5442],[-4.9236,6.2592,61.0581],[-4.8299,6.2346,49.2355],[-4.8245,6.2338,48.9617],[-4.8175,6.236,52.6353],[-4.8144,6.2407,52.8668],[-4.8192,6.2458,44.9256],[-4.819,6.2512,55.5439],[-4.8155,6.2516,54.1759],[-4.8081,6.2415,63.6883],[-4.8011,6.2401,75.4808],[-4.7925,6.2412,55.8618],[-4.7857,6.2381,66.1036],[-4.7446,6.246,65.1682],[-4.7379,6.2522,52.1604],[-4.7294,6.2514,55.9077],[-4.7217,6.2589,60.0438],[-4.7112,6.2641,63.3123],[-4.7016,6.2746,60.5946],[-4.7022,6.2825,52.9809],[-4.6907,6.2816,60.1192],[-4.684,6.2833,52.1942],[-4.6879,6.2948,52.7665],[-4.6867,6.3007,57.4716],[-4.6945,6.3065,63.6318],[-4.7,6.3134,65.5344],[-4.7197,6.3119,68.8479],[-4.7214,6.3126,61.9702],[-4.7232,6.3195,62.3564],[-4.7142,6.3197,72.1486],[-4.7131,6.3236,71.3579],[-4.7183,6.3304,57.6563],[-4.7182,6.3332,61.9818],[-4.7036,6.3367,58.3278],[-4.6973,6.3465,69.6779],[-4.6979,6.3488,67.7756],[-4.7005,6.3502,61.9612],[-4.711,6.353,59.7273],[-4.7133,6.357,58.9542],[-4.7127,6.3589,66.5291],[-4.7084,6.3601,65.047],[-4.7071,6.3668,56.8893],[-4.7057,6.3675,62.6548],[-4.7064,6.3718,62.602],[-4.7002,6.3782,59.9659],[-4.6915,6.3796,62.8833],[-4.6905,6.3852,61.7008],[-4.7029,6.3925,61.9897],[-4.7163,6.3945,60.0219],[-4.7154,6.3999,67.3566],[-4.7131,6.4005,64.9175],[-4.7044,6.3978,65.0187],[-4.693,6.4015,69.0992],[-4.6957,6.4083,60.777],[-4.7,6.4127,62.0212],[-4.7141,6.4156,62.2996],[-4.7175,6.4149,65.3623],[-4.7237,6.4201,67.3549],[-4.7234,6.4227,64.1145],[-4.72,6.4244,64.931],[-4.7125,6.4329,71.6257],[-4.7128,6.4362,73.2877],[-4.7309,6.4433,63.2339],[-4.7407,6.4425,66.1907],[-4.7382,6.4555,76.2397],[-4.7338,6.4525,64.5205],[-4.7301,6.4529,68.7371],[-4.7245,6.4563,65.909],[-4.7235,6.4595,63.9315],[-4.7282,6.4661,82.144],[-4.7268,6.4739,62.2851],[-4.7323,6.4788,65.8761],[-4.7445,6.4844,66.169],[-4.7499,6.4882,66.2349],[-4.7522,6.4924,86.5864],[-4.7569,6.4946,64.1628],[-4.7687,6.4917,62.9099],[-4.7716,6.4859,64.6629],[-4.7887,6.4904,66.9858],[-4.7824,6.4935,67.3184],[-4.7812,6.4995,61.955],[-4.7861,6.5035,64.1405],[-4.7892,6.5087,66.3733],[-4.7729,6.5275,92.8247],[-4.7732,6.5307,67.4381],[-4.7774,6.5353,65.0206],[-4.7806,6.5444,72.8364],[-4.7809,6.5521,68.1326],[-4.7747,6.5523,67.9949],[-4.7694,6.5506,68.4908],[-4.7657,6.5515,66.1934],[-4.754,6.5488,72.3536],[-4.7511,6.553,70.0406],[-4.75,6.5578,67.0158],[-4.7599,6.5742,69.4075],[-4.7543,6.5808,81.1377],[-4.7547,6.584,64.1823],[-4.7684,6.5929,69.8059],[-4.7721,6.598,72.1678],[-4.7693,6.6029,70.7345],[-4.813,6.625,71.5363],[-4.8324,6.6322,77.7482],[-4.8559,6.6329,81.2584],[-4.8659,6.6258,86.5818],[-4.8657,6.6216,87.0525],[-4.873,6.6154,93.6501],[-4.8845,6.6141,95.6804],[-4.8953,6.6154,96.6802],[-4.8995,6.6039,99.86],[-4.8987,6.6008,102.77],[-4.8901,6.5996,99.1991],[-4.8928,6.5977,100.0534],[-4.8976,6.5974,101.5892],[-4.904,6.6004,101.0087],[-4.9124,6.6019,101.9479],[-4.9138,6.5996,102.1723],[-4.9216,6.6036,105.2868],[-4.9273,6.6032,103.0313],[-4.9392,6.615,104.6965],[-4.9351,6.6292,98.9897],[-4.9323,6.6295,104.0932],[-4.9295,6.6271,105.7064],[-4.9243,6.6192,105.0959],[-4.9193,6.6224,111.9807],[-4.9214,6.6281,111.0886],[-4.9231,6.6449,105.8696],[-4.9261,6.6457,104.4763],[-4.9321,6.6429,108.1194],[-4.934,6.6456,108.2034],[-4.9308,6.6473,102.6564],[-4.9361,6.6511,107.047],[-4.9336,6.6564,109.5589],[-4.9352,6.659,106.0191],[-4.9518,6.6652,105.8618],[-4.9545,6.6693,107.0559],[-4.9495,6.6805,106.5017],[-4.9543,6.6857,107.7249],[-4.9535,6.6874,108.7971],[-4.9465,6.6883,108.7103],[-4.9449,6.6899,108.9942],[-4.9466,6.6979,112.4653],[-4.9392,6.7015,111.7911],[-4.9331,6.7024,118.0323],[-4.9316,6.7042,119.7649],[-4.9302,6.7075,128.0751],[-4.9299,6.7189,142.0394],[-4.9342,6.7214,111.0831],[-4.953,6.7242,113.3828],[-4.9593,6.7282,115.0226],[-4.9695,6.7414,113.5041],[-4.9682,6.7498,131.2084],[-4.9654,6.7547,131.2701],[-4.9682,6.7601,117.8451],[-4.9611,6.7655,117.6092],[-4.9756,6.7607,132.3544],[-5.0049,6.7591,162.005],[-5.026,6.7721,185.4581],[-5.039,6.7965,212.864],[-5.0424,6.8213,206.7553],[-5.0607,6.814,187.3503],[-5.0897,6.7963,187.7202],[-5.1077,6.7635,195.6501],[-5.1208,6.7531,185.5897],[-5.2167,6.6603,194.5165],[-5.2158,6.6574,189.1479],[-5.261,6.6481,170.6068],[-5.2639,6.6457,167.3967],[-5.2716,6.627,162.6284],[-5.2859,6.6093,156.1934],[-5.2874,6.5984,154.6788],[-5.2854,6.5884,155.593],[-5.2869,6.5792,159.1198],[-5.2834,6.574,154.2753],[-5.2847,6.5697,175.9576],[-5.2943,6.5563,148.5629],[-5.3048,6.5542,152.6199],[-5.3026,6.5497,143.8204],[-5.3027,6.5447,142.0821],[-5.3058,6.5382,150.4693],[-5.3112,6.5346,146.0917],[-5.3247,6.5297,140.7883],[-5.3275,6.5246,142.2122],[-5.3257,6.518,142.6415],[-5.3204,6.5148,145.8365],[-5.3129,6.5134,142.7143],[-5.3002,6.5062,154.2007],[-5.298,6.4995,155.827],[-5.3048,6.4736,143.2578],[-5.3135,6.4671,146.2072],[-5.3187,6.4606,143.5984],[-5.3106,6.444,145.8717],[-5.3092,6.4322,143.6674],[-5.3141,6.4263,149.7566],[-5.3154,6.4212,139.9868],[-5.3146,6.4091,158.5899],[-5.3083,6.3954,135.6968],[-5.3083,6.3882,135.0148],[-5.301,6.3775,136.2086],[-5.2951,6.3757,135.4885],[-5.2907,6.3705,135.3055],[-5.2865,6.3694,137.1196],[-5.2835,6.365,136.5459],[-5.28,6.3632,132.7082],[-5.2635,6.369,132.4247],[-5.2523,6.3787,131.7218],[-5.218,6.3841,127.4799],[-5.2119,6.3819,126.7873]]],
[[[-4.8468,6.8579,140.429],[-4.8353,6.8678,137.0786],[-4.8195,6.8767,135.0305],[-4.8087,6.871,122.5084],[-4.7929,6.8753,118.1216],[-4.7918,6.8795,116.6786],[-4.7935,6.885,121.4139],[-4.8013,6.8975,120.9916],[-4.8026,6.9039,124.4462],[-4.8022,6.9096,121.7356],[-4.7976,6.9191,122.3831],[-4.8012,6.9258,127.7159],[-4.8011,6.9307,128.451],[-4.8069,6.936,132.3214],[-4.7966,6.9546,150.896],[-4.7786,6.979,142.848],[-4.7779,6.9818,142.6545],[-4.784,6.9955,160.4895],[-4.7843,7.0004,165.1694],[-4.7913,7.0081,182.4474],[-4.808,7.0411,170.8629],[-4.7931,7.0512,184.9846],[-4.7832,7.0559,165.3728],[-4.7809,7.0588,163.0131],[-4.7721,7.0615,158.4983],[-4.769,7.0731,157.3542],[-4.7678,7.0914,148.4986],[-4.7593,7.1329,167.0095],[-4.7518,7.1508,169.0529],[-4.7491,7.1776,170.1713],[-4.7455,7.1858,182.5046],[-4.7412,7.2063,207.71],[-4.7343,7.2163,202.5994],[-4.7104,7.2322,188.2397],[-4.7014,7.2361,200.7141],[-4.7021,7.2399,211.6162],[-4.7123,7.254,227.241],[-4.7114,7.2692,241.121],[-4.7155,7.2851,240.2431],[-4.7301,7.3047,209.0042],[-4.741,7.3448,196.6098],[-4.7419,7.3546,205.0387],[-4.7464,7.3716,191.9516],[-4.7609,7.4035,199.6453],[-4.7658,7.4097,185.9186],[-4.7701,7.4194,189.223],[-4.7496,7.4336,215.9365],[-4.6879,7.4686,207.6776],[-4.6825,7.4704,189.0707],[-4.6764,7.4694,176.9954],[-4.6577,7.4726,181.9176],[-4.6686,7.4814,176.1164],[-4.6731,7.4823,174.2302],[-4.6757,7.4849,173.5794],[-4.6776,7.4906,176.2375],[-4.6783,7.4978,179.9921],[-4.6744,7.5058,171.6916],[-4.6685,7.532,161.7744],[-4.6791,7.5226,160.7133],[-4.6874,7.5187,172.3775],[-4.7063,7.5227,169.5667],[-4.7112,7.5264,172.163],[-4.7242,7.5313,168.0498],[-4.7293,7.5274,172.5302],[-4.7361,7.5289,170.5793],[-4.7398,7.5321,167.9771],[-4.7427,7.5467,175.823],[-4.7457,7.5523,174.4363],[-4.7495,7.5562,193.0961],[-4.7553,7.5584,196.3069],[-4.7751,7.5834,278.576],[-4.7892,7.5661,182.7616],[-4.7942,7.5688,183.1061],[-4.8069,7.5709,187.7957],[-4.8165,7.5745,209.192],[-4.8204,7.5739,218.0477],[-4.8264,7.5696,211.661],[-4.8315,7.5602,186.6687],[-4.8366,7.5605,190.1521],[-4.8386,7.5585,197.6153],[-4.8433,7.5577,206.7845],[-4.8603,7.558,208.5261],[-4.8659,7.5602,208.0786],[-4.8766,7.571,206.2793],[-4.8797,7.5727,206.6389],[-4.8858,7.5728,211.639],[-4.8907,7.5669,234.4903],[-4.9006,7.5471,251.1998],[-4.9124,7.535,245.6125],[-4.9215,7.5228,222.7513],[-4.9294,7.5163,211.1907],[-4.9268,7.5085,208.417],[-4.9275,7.5033,206.379],[-4.9316,7.4983,211.9173],[-4.9296,7.487,205.4164],[-4.935,7.4857,212.0981],[-4.9453,7.4895,218.0601],[-4.9534,7.4861,221.3581],[-4.9575,7.4888,235.791],[-4.9598,7.4929,246.303],[-4.9689,7.4941,237.6764],[-4.9733,7.4911,248.6547],[-4.9915,7.4685,235.8696],[-5.0013,7.4786,259.4728],[-5.0121,7.4695,264.7402],[-5.0145,7.4649,262.4766],[-5.0341,7.4489,276.0081],[-5.043,7.4388,286.1562],[-5.0436,7.436,292.6939],[-5.0382,7.43,284.2587],[-5.0263,7.4308,284.0745],[-5.0199,7.4288,284.1986],[-5.0101,7.4244,271.39],[-5.0076,7.421,265.3734],[-5.0087,7.419,264.1838],[-5.0126,7.4168,256.6985],[-5.0327,7.418,282.3648],[-5.0384,7.4147,298.2332],[-5.0569,7.4137,270.6019],[-5.06,7.4083,270.8011],[-5.0546,7.3895,312.7739],[-5.0565,7.3849,297.2569],[-5.0626,7.3791,288.007],[-5.0974,7.3605,262.8823],[-5.1052,7.3573,259.4053],[-5.1383,7.3552,228.1149],[-5.1462,7.3516,217.9017],[-5.1496,7.3528,208.5939],[-5.157,7.3482,208.6482],[-5.1698,7.3487,204.668],[-5.174,7.346,203.7349],[-5.1796,7.3376,196.9038],[-5.1865,7.3352,197.9753],[-5.1909,7.3307,192.5801],[-5.1974,7.3196,187.6596],[-5.2021,7.3155,189.6184],[-5.2013,7.3109,186.4104],[-5.2041,7.2987,187.1147],[-5.2077,7.2949,181.3082],[-5.2212,7.2964,195.5414],[-5.2249,7.2945,192.2427],[-5.2299,7.2886,193.0454],[-5.2472,7.2955,201.3212],[-5.2529,7.2955,201.842],[-5.2557,7.2894,211.9861],[-5.2733,7.2714,200.8716],[-5.296,7.2334,199.906],[-5.3018,7.2352,191.8361],[-5.3092,7.2428,199.164],[-5.3166,7.2419,198.7191],[-5.3259,7.2468,210.3171],[-5.3406,7.2476,230.0558],[-5.3562,7.2422,216.3322],[-5.3905,7.2439,226.6533],[-5.3973,7.2496,208.163],[-5.3976,7.2569,213.0352],[-5.4005,7.2667,217.8262],[-5.4046,7.2724,214.2395],[-5.4044,7.2757,215.9129],[-5.4094,7.2851,203.5051],[-5.4187,7.2864,205.2875],[-5.4335,7.2846,188.5858],[-5.4346,7.2933,219.3771],[-5.4325,7.3027,248.0431],[-5.4348,7.3065,234.1868],[-5.4384,7.3079,209.5236],[-5.4443,7.3061,202.7979],[-5.4511,7.3078,201.2569],[-5.4626,7.3039,189.0458],[-5.4749,7.3061,183.1979],[-5.4813,7.3106,181.5],[-5.4838,7.3049,181.5],[-5.4942,7.3026,181.5],[-5.4964,7.3006,181.5],[-5.501,7.2877,181.5],[-5.5,7.2848,181.5],[-5.5046,7.2792,181.5],[-5.5157,7.2847,182.7204],[-5.519,7.2881,185.1545],[-5.5218,7.2948,187.4551],[-5.5657,7.2871,207.1473],[-5.5896,7.2785,220.185],[-5.6048,7.2758,206.9313],[-5.6075,7.2702,202.8785],[-5.6104,7.2692,197.9873],[-5.629,7.2716,186.3609],[-5.6349,7.2686,182.4948],[-5.6413,7.2588,182.5466],[-5.6444,7.2588,181.5],[-5.6482,7.2375,181.5],[-5.6502,7.2344,181.5],[-5.6534,7.2337,181.5],[-5.6635,7.2384,181.5],[-5.6688,7.235,181.5],[-5.6688,7.2257,181.5],[-5.666,7.2201,181.5],[-5.6489,7.2048,181.5],[-5.636,7.2023,181.5],[-5.6199,7.1945,181.5],[-5.6066,7.192,181.5],[-5.5981,7.187,181.5],[-5.5959,7.1783,181.5],[-5.5962,7.1733,181.5],[-5.6073,7.1597,181.5],[-5.5849,7.1435,181.5],[-5.5504,7.1437,181.9478],[-5.5382,7.1578,181.5],[-5.5216,7.1593,181.5],[-5.4802,7.1399,181.5],[-5.479,7.1365,181.5],[-5.4848,7.1266,181.5],[-5.4885,7.1134,181.5],[-5.4921,7.1106,181.5],[-5.4935,7.1059,181.5],[-5.4904,7.0741,181.5],[-5.4872,7.0569,181.5],[-5.4843,7.0532,181.5],[-5.4675,7.0458,181.5],[-5.4646,7.0485,181.5],[-5.4596,7.0493,181.5],[-5.4526,7.0474,181.5],[-5.4199,7.0463,181.5],[-5.4133,7.0476,181.5],[-5.3945,7.0541,183.0656],[-5.3701,7.0686,200.2091],[-5.3646,7.0683,208.5332],[-5.3299,7.076,246.3619],[-5.2978,7.0962,203.0177],[-5.2909,7.0944,201.913],[-5.2813,7.0968,191.4399],[-5.2414,7.0813,215.8904],[-5.2225,7.0818,183.8291],[-5.2095,7.0781,175.8426],[-5.1992,7.0792,169.1559],[-5.1944,7.0816,166.6007],[-5.1865,7.0803,163.2121],[-5.182,7.0778,161.0911],[-5.1861,7.0624,162.1523],[-5.1914,7.0575,160.366],[-5.1911,7.053,163.425],[-5.1797,7.0515,161.2316],[-5.1722,7.0456,159.1334],[-5.1674,7.0485,164.4908],[-5.1608,7.049,157.5667],[-5.161,7.0401,156.5136],[-5.157,7.0379,155.7708],[-5.1549,7.0307,154.036],[-5.1519,7.0287,159.9412],[-5.1452,7.0306,152.8116],[-5.1402,7.0257,159.0118],[-5.1332,7.0271,155.0187],[-5.1292,7.0256,151.9827],[-5.1337,7.0216,154.1181],[-5.1331,7.0182,155.4224],[-5.1221,6.9973,150.9943],[-5.1171,6.9951,149.3864],[-5.115,6.9916,149.3578],[-5.1068,6.9929,150.6059],[-5.0968,6.9797,155.0297],[-5.0931,6.9811,151.2622],[-5.0892,6.9778,154.511],[-5.0855,6.9769,149.6932],[-5.0664,6.9766,145.2562],[-5.0624,6.9745,143.2321],[-5.0481,6.9541,141.872],[-5.048,6.95,143.4998],[-5.0452,6.9438,146.8108],[-5.0409,6.9417,144.2943],[-5.041,6.9287,149.0947],[-5.0373,6.9241,138.82],[-5.0373,6.9195,142.4127],[-5.0352,6.9161,140.8925],[-5.0347,6.911,141.245],[-5.0366,6.9058,152.479],[-5.0332,6.9037,140.5299],[-5.0233,6.9017,140.2796],[-5.0121,6.8931,139.6204],[-4.9953,6.8889,135.8699],[-4.9964,6.8721,143.0315],[-4.9928,6.8597,130.1154],[-4.9877,6.8514,138.2855],[-4.9884,6.8449,133.5003],[-4.9872,6.8413,128.6468],[-4.9854,6.8378,139.7163],[-4.9775,6.8361,124.0628],[-4.9714,6.8269,125.6131],[-4.9674,6.8252,139.6837],[-4.9671,6.8289,120.5],[-4.9623,6.8368,129.6749],[-4.9634,6.8422,120.5],[-4.9417,6.8486,138.5638],[-4.9202,6.8455,155.9154],[-4.9062,6.8475,174.7676],[-4.8927,6.8422,177.1095],[-4.8864,6.844,171.3095],[-4.8781,6.8441,169.1774],[-4.8615,6.8487,168.371],[-4.8468,6.8579,140.429]]]]}}