{"type": "Feature","bbox": [-5.7708,6.1657,-5.2096,6.6541],"geometry": {"type": "MultiPolygon","coordinates": [[[[-5.7514,6.2552,238.0907],[-5.7406,6.2015,266.1038],[-5.6981,6.1869,259.077],[-5.6763,6.1871,246.4898],[-5.4805,6.1657,202.7988],[-5.2844,6.2544,179.9795],[-5.2445,6.2168,165.932],[-5.2096,6.3809,132.3474],[-5.218,6.3841,127.4799],[-5.2523,6.3787,131.7218],[-5.2635,6.369,132.4247],[-5.28,6.3632,132.7082],[-5.2835,6.365,136.5459],[-5.2865,6.3694,137.1196],[-5.2907,6.3705,135.3055],[-5.2951,6.3757,135.4885],[-5.301,6.3775,136.2086],[-5.3083,6.3882,135.0148],[-5.3083,6.3954,135.6968],[-5.3146,6.4091,158.5899],[-5.3154,6.4212,139.9868],[-5.3141,6.4263,149.7566],[-5.3092,6.4322,143.6674],[-5.3106,6.444,145.8717],[-5.3187,6.4606,143.5984],[-5.3135,6.4671,146.2072],[-5.3048,6.4736,143.2578],[-5.298,6.4995,155.827],[-5.3002,6.5062,154.2007],[-5.3129,6.5134,142.7143],[-5.3204,6.5148,145.8365],[-5.3257,6.518,142.6415],[-5.3275,6.5246,142.2122],[-5.3247,6.5297,140.7883],[-5.3112,6.5346,146.0917],[-5.3058,6.5382,150.4693],[-5.3027,6.5447,142.0821],[-5.3026,6.5497,143.8204],[-5.3066,6.5579,153.0646],[-5.2986,6.5691,159.331],[-5.298,6.576,150.6024],[-5.3009,6.5842,148.1655],[-5.306,6.591,144.1804],[-5.3252,6.5982,145.2563],[-5.3412,6.6018,141.5807],[-5.3645,6.6038,145.1555],[-5.3973,6.6021,154.251],[-5.4049,6.6064,152.0583],[-5.4103,6.6124,147.226],[-5.4122,6.6221,147.651],[-5.4107,6.6334,148.8723],[-5.4047,6.6525,147.3936],[-5.5002,6.6541,412.9138],[-5.7421,6.5002,216.9924],[-5.7576,6.409,260.2866],[-5.7708,6.3447,250.0867],[-5.7514,6.2552,238.0907]]]]}
,"properties": {"GID_3": "CIV.5.1.2_1","GID_0": "CIV","country": "Côted'Ivoire","GID_1": "CIV.5_1","province": "Gôh-Djiboua","NL_NAME_1": "NA","GID_2": "CIV.5.1_1","county": "Gôh","NL_NAME_2": "NA","city": "Oumé","VARNAME_3": "NA","NL_NAME_3": "NA","TYPE_3": "Département","ENGTYPE_3": "Department","CC_3": "NA","HASC_3": "NA","name": "Oumé.city","area_km2": 2366.692,"hist_schema_id": "Elevation0-9000","hist_area_km2": {"100": 0.105,"125": 38.58,"150": 311.069,"175": 522.996,"200": 624.104,"225": 461.559,"250": 269.047,"275": 120.692,"300": 9.546,"325": 3.645,"350": 2.465,"375": 1.327,"400": 0.779,"425": 0.442,"450": 0.126,"475": 0.105,"500": 0.105}}}