{"type": "Feature","bbox": [-4.3114,8.2011,-2.5964,9.9571],"geometry": {"type": "MultiPolygon","coordinates": [[[[-3.9361,8.466,194.0236],[-3.9379,8.4479,181.6433],[-3.919,8.4453,181.1102],[-3.898,8.4465,195.4215],[-3.8867,8.4448,212.3397],[-3.8822,8.4405,204.897],[-3.8786,8.4285,216.8957],[-3.8658,8.4165,238.7837],[-3.8621,8.4146,237.6407],[-3.8571,8.4089,242.7872],[-3.8513,8.4073,250.4531],[-3.846,8.4007,222.1261],[-3.8364,8.3932,239.5582],[-3.8279,8.3907,267.5923],[-3.8212,8.3838,256.2231],[-3.8197,8.3722,249.0965],[-3.823,8.3597,229.3601],[-3.8295,8.3462,210.6588],[-3.8299,8.3324,208.6147],[-3.8275,8.3296,209.7283],[-3.8149,8.3243,205.0493],[-3.8099,8.3205,209.5162],[-3.7974,8.3032,210.7727],[-3.7929,8.289,222.8539],[-3.7848,8.2816,223.953],[-3.7619,8.2761,230.1802],[-3.742,8.2734,239.7809],[-3.7396,8.2706,236.6694],[-3.7259,8.2705,241.8761],[-3.7145,8.2624,251.0571],[-3.6801,8.2761,299.3038],[-3.6751,8.2801,292.7834],[-3.6669,8.3077,282.2147],[-3.661,8.3094,293.6729],[-3.6067,8.3083,272.6488],[-3.5952,8.3047,286.9452],[-3.5895,8.2922,257.7717],[-3.5893,8.2786,279.1216],[-3.5968,8.2596,251.7645],[-3.5999,8.2453,234.1961],[-3.6001,8.2287,238.6459],[-3.597,8.2204,235.3666],[-3.5898,8.2104,228.2111],[-3.5856,8.2089,222.381],[-3.5793,8.2011,227.1369],[-3.5763,8.2012,223.8204],[-3.5623,8.2088,225.7809],[-3.5578,8.2177,223.3232],[-3.5541,8.2213,222.0255],[-3.5427,8.2228,232.4663],[-3.5341,8.2285,234.6931],[-3.5224,8.2279,240.6267],[-3.5086,8.2351,244.6049],[-3.5023,8.2356,242.5811],[-3.5,8.2404,237.5423],[-3.4967,8.2426,236.035],[-3.4985,8.2545,244.1417],[-3.4922,8.2589,245.7808],[-3.4873,8.2592,254.6148],[-3.4828,8.2506,253.7133],[-3.4765,8.2454,245.8535],[-3.4605,8.2495,251.8965],[-3.4513,8.2577,253.0626],[-3.4472,8.2588,256.1362],[-3.4399,8.2573,255.9222],[-3.4333,8.2604,252.2785],[-3.4287,8.2678,255.6911],[-3.4274,8.2751,265.2397],[-3.4244,8.2769,261.2261],[-3.4243,8.2814,263.9012],[-3.4211,8.287,268.4496],[-3.4152,8.2906,271.9525],[-3.411,8.2973,284.6255],[-3.4021,8.3003,294.6905],[-3.3914,8.3014,293.583],[-3.3645,8.3004,308.3107],[-3.3549,8.3043,310.8887],[-3.3526,8.308,316.0377],[-3.3576,8.3203,348.3686],[-3.3522,8.3458,368.1505],[-3.3534,8.3511,359.575],[-3.3459,8.3587,371.398],[-3.3344,8.3782,369.046],[-3.3294,8.3905,366.1893],[-3.331,8.3948,360.1118],[-3.3302,8.4019,344.8838],[-3.3271,8.4077,333.8566],[-3.3113,8.4217,299.0521],[-3.3027,8.4364,313.9592],[-3.2987,8.4395,293.9143],[-3.2886,8.4693,315.8176],[-3.2825,8.4798,342.3909],[-3.2761,8.4853,363.2691],[-3.2645,8.4851,396.229],[-3.2593,8.4888,383.8274],[-3.2412,8.4947,371.0106],[-3.2303,8.5033,364.1777],[-3.2066,8.513,399.1746],[-3.196,8.5206,371.7381],[-3.1868,8.5337,405.8333],[-3.1803,8.54,394.6705],[-3.1747,8.5513,389.175],[-3.1681,8.5579,377.8916],[-3.1656,8.5627,376.2635],[-3.1646,8.5738,368.4742],[-3.1623,8.5742,373.4462],[-3.1543,8.5862,369.0352],[-3.1533,8.5904,365.4091],[-3.1441,8.6027,357.052],[-3.1384,8.606,353.8008],[-3.1207,8.6079,347.4031],[-3.1076,8.6159,342.4785],[-3.0994,8.6152,342.5048],[-3.0868,8.6101,352.477],[-3.0762,8.6121,335.2415],[-3.0721,8.6173,319.7997],[-3.0649,8.6201,329.4117],[-3.06,8.6271,303.5381],[-3.0567,8.6292,302.8044],[-3.0319,8.6337,299.5573],[-3.0235,8.6447,297.9736],[-3.0082,8.6515,290.1493],[-2.9964,8.6514,284.3871],[-2.9898,8.6482,289.5327],[-2.9852,8.6483,286.5098],[-2.9726,8.6424,284.6521],[-2.9566,8.6432,278.6652],[-2.9399,8.6396,280.92],[-2.7876,8.6838,364.8486],[-2.6262,8.7782,199.8089],[-2.6298,8.7843,197.4828],[-2.6289,8.7894,198.7501],[-2.6259,8.7928,194.8567],[-2.629,8.7949,193.1151],[-2.6243,8.8041,201.769],[-2.62,8.8086,199.5517],[-2.6101,8.8136,198.3732],[-2.5971,8.8236,200.2898],[-2.5964,8.8311,194.2472],[-2.601,8.8407,193.7338],[-2.6004,8.8429,197.174],[-2.6035,8.8439,196.983],[-2.6073,8.8478,192.3356],[-2.6175,8.8699,194.4492],[-2.623,8.8781,194.6842],[-2.6213,8.8916,198.4336],[-2.6159,8.9115,213.3224],[-2.6182,8.9221,200.2534],[-2.627,8.9297,200.0705],[-2.6448,8.936,197.9783],[-2.6513,8.944,200.8378],[-2.6578,8.9837,195.7541],[-2.6541,9.0074,197.4357],[-2.6597,9.0069,206.4368],[-2.6634,9.0153,205.1896],[-2.6722,9.0202,203.752],[-2.6862,9.0185,203.2052],[-2.6886,9.016,206.7522],[-2.6887,9.0188,204.6371],[-2.6942,9.0191,202.1312],[-2.7018,9.0153,205.1711],[-2.7035,9.0162,207.0572],[-2.7024,9.0196,204.3464],[-2.7057,9.0209,203.5796],[-2.7155,9.0174,206.9979],[-2.72,9.0121,209.1396],[-2.7195,9.0176,203.8768],[-2.7135,9.0228,204.0474],[-2.7166,9.0253,208.8578],[-2.7275,9.0273,206.3939],[-2.7605,9.0256,205.9373],[-2.7721,9.0327,208.3318],[-2.7736,9.0448,208.8158],[-2.7792,9.0518,210.2959],[-2.7794,9.0504,209.1831],[-2.7808,9.0507,210.2959],[-2.78,9.0529,211.9665],[-2.7812,9.055,211.3254],[-2.782,9.0531,209.451],[-2.7827,9.0548,211.3254],[-2.7819,9.0563,210.4641],[-2.7835,9.0609,207.0894],[-2.7819,9.0649,209.4287],[-2.769,9.0789,209.412],[-2.7656,9.0879,209.8195],[-2.7677,9.1131,209.8258],[-2.7711,9.1148,206.888],[-2.7676,9.1149,210.9286],[-2.7686,9.1204,207.676],[-2.7724,9.1275,207.6352],[-2.7746,9.1373,204.028],[-2.7791,9.1373,209.4701],[-2.776,9.1383,208.5873],[-2.7746,9.1377,204.028],[-2.7741,9.1424,211.2286],[-2.7719,9.1455,207.4349],[-2.7636,9.151,205.2729],[-2.7486,9.1552,210.5099],[-2.7503,9.1579,209.5788],[-2.7472,9.1557,208.003],[-2.7429,9.1561,208.4138],[-2.7369,9.1595,208.8363],[-2.7323,9.1654,210.2462],[-2.7226,9.1865,209.8744],[-2.7211,9.1932,212.6429],[-2.7223,9.1926,209.9633],[-2.7228,9.1958,208.3315],[-2.7255,9.1958,210.5819],[-2.7236,9.197,209.3901],[-2.7242,9.2002,209.0519],[-2.7204,9.195,212.4723],[-2.718,9.2015,208.3227],[-2.7188,9.2028,210.7967],[-2.7168,9.2034,205.4275],[-2.7161,9.2067,210.3747],[-2.7137,9.2081,210.2386],[-2.7143,9.2095,210.72],[-2.6979,9.218,205.3989],[-2.6921,9.2262,206.107],[-2.6619,9.2401,211.6148],[-2.6566,9.2556,211.5531],[-2.6767,9.2803,213.8479],[-2.6849,9.287,208.3743],[-2.6932,9.2844,208.9021],[-2.7011,9.2857,208.5923],[-2.7106,9.2912,210.7082],[-2.7175,9.3001,212.4203],[-2.7182,9.3066,208.1697],[-2.7213,9.3129,214.2085],[-2.7214,9.3255,217.6336],[-2.7195,9.3347,209.6212],[-2.7112,9.3389,216.0],[-2.7031,9.3393,209.2221],[-2.6946,9.3512,214.864],[-2.6811,9.3613,208.8934],[-2.6752,9.3763,211.5269],[-2.6736,9.3854,211.9641],[-2.6752,9.3981,211.6976],[-2.6792,9.4129,210.1743],[-2.6875,9.4275,212.6499],[-2.6901,9.4469,211.5061],[-2.6894,9.4572,211.6248],[-2.6845,9.4745,210.6782],[-2.6847,9.4874,211.9726],[-2.6871,9.4914,215.4178],[-2.7072,9.4748,245.7102],[-2.7248,9.451,229.1017],[-2.7313,9.4396,238.9321],[-2.7359,9.4366,239.6561],[-2.7534,9.4096,263.2019],[-2.7632,9.4011,281.77],[-2.7711,9.4021,298.1259],[-2.7872,9.4098,288.1731],[-2.7987,9.4193,301.8823],[-2.8472,9.4709,340.2799],[-2.8687,9.4901,332.2154],[-2.9012,9.531,268.8117],[-2.9255,9.5737,253.8133],[-2.9424,9.6086,281.4404],[-2.9661,9.6467,311.6411],[-2.9775,9.672,338.0132],[-2.9847,9.6946,323.6857],[-2.9952,9.7197,325.9051],[-3.0067,9.7374,323.1726],[-3.0128,9.743,303.5717],[-3.0172,9.7433,297.2507],[-3.0483,9.7188,295.3413],[-3.0601,9.7195,311.4399],[-3.0662,9.7233,314.986],[-3.0878,9.758,316.1456],[-3.0916,9.7611,320.5424],[-3.0943,9.7712,333.0635],[-3.095,9.7909,287.7975],[-3.1005,9.8012,310.2457],[-3.1081,9.8093,318.2975],[-3.1151,9.8229,325.5072],[-3.1206,9.8396,326.1224],[-3.1255,9.8446,333.9813],[-3.1372,9.8482,309.4958],[-3.1651,9.8424,322.9742],[-3.1842,9.8429,330.8286],[-3.187,9.8449,324.2598],[-3.1944,9.8567,325.8084],[-3.1943,9.896,291.7423],[-3.1924,9.9149,275.4842],[-3.1955,9.9275,276.2591],[-3.2013,9.9274,266.1501],[-3.2041,9.9247,271.74],[-3.2094,9.9244,285.2647],[-3.2143,9.9209,287.7356],[-3.2162,9.9087,279.613],[-3.225,9.8991,272.5489],[-3.2357,9.8975,272.8842],[-3.2398,9.8952,284.1679],[-3.2527,9.8763,291.7601],[-3.2625,9.8717,291.5803],[-3.2789,9.853,281.34],[-3.2812,9.8516,291.4477],[-3.2889,9.8565,283.642],[-3.296,9.8532,283.2981],[-3.3119,9.8533,286.5725],[-3.3185,9.8591,296.3028],[-3.3198,9.8653,297.3586],[-3.3116,9.8811,325.129],[-3.3101,9.8883,332.3044],[-3.3107,9.8949,327.2758],[-3.3153,9.9015,317.5573],[-3.3204,9.9023,312.6818],[-3.3433,9.8906,323.8019],[-3.3496,9.8911,331.6222],[-3.3567,9.8986,328.3652],[-3.3668,9.9041,327.1624],[-3.3972,9.9165,359.5642],[-3.4047,9.9161,368.9994],[-3.4208,9.9114,351.6876],[-3.4698,9.9251,386.5784],[-3.492,9.923,405.7297],[-3.5039,9.9248,464.1442],[-3.5234,9.9244,477.7982],[-3.5494,9.9263,379.3213],[-3.5686,9.9254,360.6871],[-3.5797,9.9222,387.2786],[-3.5993,9.9197,352.8737],[-3.6323,9.9527,338.5986],[-3.6417,9.9571,345.2174],[-3.6486,9.9556,338.5358],[-3.6738,9.9401,355.614],[-3.6809,9.9392,343.3034],[-3.7086,9.9425,339.8874],[-3.7116,9.9399,322.2249],[-3.7269,9.9391,338.6561],[-3.752,9.9316,361.4858],[-3.7724,9.9229,356.2955],[-3.7886,9.912,330.2229],[-3.8092,9.8883,324.7376],[-3.9004,9.9006,310.4578],[-3.9048,9.893,308.3843],[-3.9187,9.8789,318.939],[-3.9284,9.8794,303.8123],[-3.937,9.8714,320.1497],[-3.9449,9.8724,309.2693],[-3.9581,9.8702,314.5782],[-3.9619,9.8734,303.5153],[-3.9644,9.8733,302.0747],[-3.969,9.8695,294.2214],[-3.9729,9.8695,312.4594],[-3.9745,9.8667,309.3745],[-3.9737,9.8628,307.1804],[-3.9781,9.8523,305.9543],[-3.9728,9.8435,290.9267],[-3.9753,9.8386,297.9881],[-3.981,9.833,280.5992],[-3.9876,9.8296,275.3367],[-3.9932,9.8293,270.015],[-4.0002,9.8314,273.667],[-4.0086,9.8365,269.3723],[-4.0171,9.8338,277.9898],[-4.0306,9.8342,264.7893],[-4.0356,9.8306,264.7214],[-4.0445,9.8184,277.2409],[-4.0429,9.8016,278.3631],[-4.0635,9.7991,282.6906],[-4.0663,9.8015,283.3356],[-4.0789,9.8045,283.7189],[-4.0921,9.814,289.2164],[-4.1092,9.821,308.5181],[-4.1234,9.8317,311.7006],[-4.1301,9.8319,305.4562],[-4.1354,9.8295,317.8207],[-4.1408,9.8227,313.3742],[-4.1452,9.812,307.5627],[-4.1671,9.7973,302.3839],[-4.1732,9.7826,308.547],[-4.1804,9.7753,308.3128],[-4.2091,9.762,296.1361],[-4.2276,9.762,265.8381],[-4.2353,9.7544,259.7301],[-4.2524,9.7535,242.9563],[-4.2588,9.7561,229.8691],[-4.2636,9.7546,235.8765],[-4.2688,9.7582,232.2434],[-4.2711,9.757,236.8672],[-4.2777,9.7396,236.2502],[-4.2767,9.7373,231.9508],[-4.2672,9.7373,231.196],[-4.2655,9.736,228.6964],[-4.2657,9.7336,231.9478],[-4.2713,9.725,234.1457],[-4.27,9.7198,231.8296],[-4.271,9.7138,228.7126],[-4.2756,9.7086,234.3218],[-4.2751,9.7006,228.1952],[-4.2795,9.6989,233.6153],[-4.2844,9.6912,235.9733],[-4.2801,9.6839,228.7626],[-4.2838,9.676,223.2438],[-4.2895,9.6692,234.806],[-4.2872,9.6626,223.8485],[-4.2896,9.6554,223.3782],[-4.2888,9.6499,223.6429],[-4.2909,9.6379,225.2695],[-4.3004,9.6221,219.0216],[-4.3114,9.6086,219.968],[-4.2716,9.551,216.7939],[-4.2591,9.5438,215.2546],[-4.2493,9.5347,214.0266],[-4.2449,9.5232,222.7704],[-4.2456,9.5132,221.0888],[-4.2491,9.5,215.5271],[-4.2476,9.491,215.9622],[-4.2411,9.4856,217.2616],[-4.2386,9.4753,212.085],[-4.2233,9.4659,215.5924],[-4.2145,9.4581,211.6378],[-4.2021,9.4549,220.6186],[-4.1964,9.4457,220.8786],[-4.1997,9.4204,214.5092],[-4.2024,9.4116,218.0108],[-4.1972,9.4038,215.2599],[-4.187,9.4019,209.5109],[-4.1806,9.3954,217.0276],[-4.1837,9.3837,217.1631],[-4.1897,9.3761,218.4886],[-4.189,9.364,213.7901],[-4.1919,9.3547,223.6365],[-4.1984,9.3462,225.312],[-4.2096,9.3428,215.6117],[-4.21,9.3375,215.3042],[-4.1782,9.298,213.5301],[-4.1726,9.2796,209.4972],[-4.1797,9.2725,211.5046],[-4.193,9.267,212.7031],[-4.1978,9.2584,213.4327],[-4.1949,9.2488,209.2634],[-4.1811,9.2406,216.2269],[-4.1708,9.2286,208.4762],[-4.1682,9.23,212.9813],[-4.1647,9.2382,210.0913],[-4.154,9.2478,211.0276],[-4.1424,9.252,206.4946],[-4.134,9.2607,209.0103],[-4.128,9.2611,207.534],[-4.1086,9.2577,207.4709],[-4.0932,9.2602,207.7765],[-4.0818,9.2584,204.6608],[-4.0773,9.2485,212.099],[-4.0687,9.2427,208.8458],[-4.0588,9.2411,209.769],[-4.0454,9.2224,207.7555],[-4.0379,9.2159,208.7909],[-4.0315,9.2201,209.0799],[-4.0201,9.2181,207.6166],[-4.0138,9.2145,212.5092],[-4.0089,9.2086,203.2662],[-3.9871,9.2116,204.0458],[-3.9605,9.2084,203.9822],[-3.9527,9.1894,204.0526],[-3.9445,9.1821,206.5545],[-3.9343,9.1759,202.3632],[-3.913,9.1766,206.4396],[-3.8964,9.1806,201.8649],[-3.8884,9.1739,201.5989],[-3.8907,9.1693,205.3267],[-3.9104,9.1507,205.6692],[-3.9121,9.1428,202.8471],[-3.9098,9.1246,204.4769],[-3.9055,9.1149,200.5059],[-3.8935,9.1127,201.083],[-3.8842,9.1144,202.4308],[-3.8788,9.1187,201.9588],[-3.8762,9.1262,200.0544],[-3.8727,9.1285,200.7776],[-3.8558,9.1282,200.2335],[-3.8473,9.1207,211.9188],[-3.8516,9.1126,202.6576],[-3.8472,9.0968,201.0666],[-3.8489,9.0859,200.6918],[-3.8538,9.0782,214.0761],[-3.8601,9.0785,224.3186],[-3.8669,9.0842,201.8357],[-3.8734,9.0946,200.3924],[-3.8818,9.1032,199.9253],[-3.8899,9.0957,199.0872],[-3.8893,9.0707,199.816],[-3.8952,9.0657,206.3585],[-3.9049,9.0631,201.3352],[-3.8929,9.0564,199.6758],[-3.8874,9.0586,196.5071],[-3.8807,9.0579,201.2724],[-3.8739,9.0498,212.5556],[-3.8559,9.0342,199.0584],[-3.8347,9.0317,197.2569],[-3.8207,9.0265,196.2772],[-3.8099,9.0203,198.3377],[-3.8028,9.0135,220.111],[-3.8003,9.0034,196.7274],[-3.8071,8.9954,214.735],[-3.8238,8.9867,195.5041],[-3.834,8.9791,195.8477],[-3.8422,8.9786,193.3109],[-3.8508,8.9743,196.5993],[-3.8707,8.9538,203.438],[-3.8909,8.9625,200.1757],[-3.8961,8.9589,199.4561],[-3.8887,8.9481,193.0848],[-3.886,8.9348,195.8456],[-3.8797,8.9271,191.8091],[-3.8509,8.9168,195.2894],[-3.8448,8.9069,197.0221],[-3.8441,8.8928,206.4535],[-3.8418,8.886,194.5093],[-3.832,8.884,191.6435],[-3.8231,8.8771,197.6373],[-3.818,8.8683,196.7747],[-3.8057,8.8547,200.0404],[-3.8117,8.8493,202.4673],[-3.8251,8.8476,195.7112],[-3.8308,8.8439,193.0057],[-3.8243,8.8317,197.9394],[-3.8178,8.8383,189.8133],[-3.8041,8.8344,197.865],[-3.7933,8.8259,198.2126],[-3.7896,8.8126,200.7217],[-3.7784,8.7925,190.122],[-3.7757,8.783,189.6597],[-3.7779,8.7729,194.5203],[-3.7881,8.7675,196.839],[-3.8003,8.7675,219.9211],[-3.8048,8.7725,219.4273],[-3.8054,8.7799,194.5743],[-3.8135,8.7821,206.0209],[-3.8246,8.7781,195.9555],[-3.8255,8.7667,189.2124],[-3.8181,8.7598,193.9427],[-3.817,8.7502,187.9812],[-3.8221,8.7415,197.2207],[-3.8434,8.7281,200.6728],[-3.8539,8.7268,199.6239],[-3.859,8.7305,198.6824],[-3.8704,8.7278,190.9131],[-3.8684,8.7129,195.8308],[-3.8643,8.707,186.8586],[-3.8567,8.7061,190.9681],[-3.8506,8.7017,192.6686],[-3.8496,8.6942,196.7004],[-3.8846,8.693,192.6804],[-3.892,8.6864,185.5653],[-3.9015,8.6814,195.6101],[-3.9185,8.6844,194.1499],[-3.9252,8.6786,189.712],[-3.9299,8.6662,185.8176],[-3.9316,8.6342,193.2028],[-3.9289,8.6278,196.3691],[-3.9295,8.6213,183.1237],[-3.9186,8.6109,184.9375],[-3.9109,8.5905,184.7318],[-3.905,8.5842,187.7309],[-3.9034,8.5784,185.4131],[-3.9203,8.5715,195.2581],[-3.9257,8.5661,192.8692],[-3.9322,8.5632,195.6295],[-3.9359,8.5578,187.873],[-3.9428,8.552,184.9937],[-3.9526,8.549,179.6921],[-3.9655,8.5489,183.394],[-3.9721,8.5453,181.6926],[-3.9771,8.5396,188.4481],[-3.9806,8.5243,181.977],[-3.979,8.5166,179.9637],[-3.9746,8.5112,190.377],[-3.9663,8.5083,182.5461],[-3.9572,8.5097,187.9464],[-3.9502,8.5076,186.6702],[-3.9265,8.4957,180.489],[-3.9274,8.486,183.8689],[-3.9358,8.4709,187.3947],[-3.9361,8.466,194.0236]]]]}
,"properties": {"GID_2": "CIV.14.1_1","GID_0": "CIV","country": "Côted'Ivoire","GID_1": "CIV.14_1","province": "Zanzan","NL_NAME_1": "NA","county": "Bounkani","VARNAME_2": "NA","NL_NAME_2": "NA","TYPE_2": "Région","ENGTYPE_2": "Region","CC_2": "NA","HASC_2": "CI.ZA.BK","name": "Bounkani.county","area_km2": 21868.73,"hist_schema_id": "Elevation0-9000","hist_area_km2": {"175": 31.41,"200": 556.11,"225": 1860.68,"250": 2803.3,"275": 3441.11,"300": 3959.13,"325": 3873.68,"350": 2995.58,"375": 1530.75,"400": 499.2,"425": 149.45,"450": 79.37,"475": 38.54,"500": 23.26,"525": 13.45,"550": 7.53,"575": 3.81,"600": 1.76,"625": 0.59}}}