{"type": "Feature","bbox": [-6.157,6.5002,-5.3983,6.8032],"geometry": {"type": "MultiPolygon","coordinates": [[[[-5.7421,6.5002,216.9924],[-5.5002,6.6541,412.9138],[-5.4047,6.6525,147.3936],[-5.3995,6.6602,150.8753],[-5.3983,6.6714,147.4303],[-5.405,6.6921,152.2368],[-5.405,6.7048,149.7202],[-5.4233,6.741,147.946],[-5.4328,6.7545,149.1152],[-5.4333,6.7705,154.9061],[-5.4388,6.7847,148.525],[-5.4554,6.7989,149.0305],[-5.4607,6.7938,148.5544],[-5.4774,6.7907,156.7977],[-5.4844,6.7926,151.087],[-5.5061,6.7921,157.5378],[-5.5103,6.7899,158.5923],[-5.5263,6.7891,158.031],[-5.5306,6.7848,165.8938],[-5.5406,6.7827,161.1343],[-5.5445,6.7833,161.2454],[-5.5481,6.7803,167.9307],[-5.5546,6.7811,166.0328],[-5.558,6.7788,167.8091],[-5.5672,6.781,168.8404],[-5.5847,6.7777,178.5636],[-5.5971,6.7709,180.3286],[-5.6004,6.7713,176.2454],[-5.6032,6.7749,176.8379],[-5.6999,6.8032,185.0338],[-5.7318,6.7933,207.8059],[-5.7418,6.7956,219.8049],[-5.7468,6.7947,237.6571],[-5.8832,6.7453,233.147],[-6.0262,6.6616,223.7135],[-6.0461,6.6639,259.159],[-6.0748,6.672,225.7633],[-6.1091,6.6783,238.359],[-6.157,6.6782,261.4852],[-6.1357,6.6342,265.1743],[-6.1077,6.6152,255.3057],[-6.108,6.5742,240.5728],[-6.0409,6.5305,201.4382],[-5.9317,6.5282,243.4844],[-5.7421,6.5002,216.9924]]]]}
,"properties": {"GID_3": "CIV.9.2.2_1","GID_0": "CIV","country": "Côted'Ivoire","GID_1": "CIV.9_1","province": "Sassandra-Marahoué","NL_NAME_1": "NA","GID_2": "CIV.9.2_1","county": "Marahoué","NL_NAME_2": "NA","city": "Sinfra","VARNAME_3": "NA","NL_NAME_3": "NA","TYPE_3": "Département","ENGTYPE_3": "Department","CC_3": "NA","HASC_3": "NA","name": "Sinfra.city","area_km2": 1673.123,"hist_schema_id": "Elevation0-9000","hist_area_km2": {"150": 70.055,"175": 101.955,"200": 340.269,"225": 682.412,"250": 392.168,"275": 74.261,"300": 2.043,"325": 1.79,"350": 1.348,"375": 1.495,"400": 1.221,"425": 0.863,"450": 0.632,"475": 0.526,"500": 0.442,"525": 0.4,"550": 0.232,"575": 0.4,"600": 0.211,"625": 0.211,"650": 0.19}}}