{"type": "Feature","bbox": [-5.7075,8.33,-4.878,9.4245],"geometry": {"type": "MultiPolygon","coordinates": [[[[-5.4976,8.8735,286.7444],[-5.5037,8.8763,307.8627],[-5.5179,8.879,333.2299],[-5.5409,8.8746,356.9223],[-5.5574,8.8749,360.7511],[-5.5613,8.8716,340.4924],[-5.5743,8.8752,351.9039],[-5.5795,8.8744,356.8259],[-5.5873,8.8708,381.8504],[-5.5939,8.8587,347.6004],[-5.5936,8.8522,345.6033],[-5.601,8.8461,349.5957],[-5.6119,8.8424,377.2247],[-5.6477,8.8348,342.0293],[-5.6515,8.8387,342.5135],[-5.6643,8.8402,374.2195],[-5.7035,8.7813,335.842],[-5.7033,8.7761,324.7438],[-5.6811,8.7586,307.4836],[-5.6936,8.7498,304.9745],[-5.6694,8.7381,319.5547],[-5.6651,8.7344,324.3397],[-5.6647,8.7297,322.002],[-5.6732,8.7245,306.0253],[-5.6897,8.7254,310.0275],[-5.6953,8.7243,306.136],[-5.6994,8.7222,306.3908],[-5.7011,8.7189,307.4854],[-5.6921,8.7169,315.0398],[-5.6754,8.7078,320.1409],[-5.6741,8.7029,328.5399],[-5.6804,8.6954,312.0414],[-5.68,8.6874,323.5233],[-5.6832,8.6847,319.2645],[-5.6827,8.6759,319.4092],[-5.6849,8.673,311.1291],[-5.6897,8.6715,307.6677],[-5.6871,8.6679,312.3586],[-5.6875,8.6571,319.4552],[-5.6919,8.6528,318.8029],[-5.706,8.6538,302.0209],[-5.7075,8.6507,303.9541],[-5.6969,8.6355,308.608],[-5.6954,8.6302,321.318],[-5.7012,8.6248,303.6741],[-5.6966,8.62,302.4045],[-5.6901,8.617,295.0324],[-5.681,8.6053,285.0332],[-5.6786,8.6124,295.1706],[-5.6674,8.6213,285.6874],[-5.6638,8.622,276.1475],[-5.6589,8.6206,282.0027],[-5.6568,8.6171,264.7572],[-5.652,8.6183,266.4243],[-5.6396,8.6167,278.3973],[-5.6316,8.6107,274.1273],[-5.6319,8.6053,269.8444],[-5.6277,8.5981,265.71],[-5.6275,8.5916,274.0451],[-5.6324,8.5887,269.3877],[-5.6374,8.5887,264.5541],[-5.6439,8.5917,262.7578],[-5.646,8.5902,263.372],[-5.6426,8.5811,261.4956],[-5.637,8.5759,262.1551],[-5.6374,8.5724,268.2682],[-5.6432,8.5711,262.5284],[-5.6335,8.5645,265.1574],[-5.6342,8.5605,274.2929],[-5.6428,8.5556,264.301],[-5.6443,8.5529,261.3391],[-5.6423,8.55,260.6246],[-5.6335,8.5493,262.5833],[-5.6245,8.5445,265.1665],[-5.6226,8.5465,259.8994],[-5.6252,8.5528,268.1714],[-5.6223,8.5532,271.9716],[-5.6118,8.5498,271.0412],[-5.6119,8.5321,259.636],[-5.618,8.5301,255.8362],[-5.6194,8.5268,262.2368],[-5.6181,8.5168,259.445],[-5.611,8.5076,255.5746],[-5.5746,8.4843,263.2002],[-5.5509,8.4774,256.935],[-5.5322,8.4642,286.0848],[-5.5225,8.461,252.7992],[-5.5301,8.4565,255.7289],[-5.5358,8.4482,257.08],[-5.2762,8.4518,285.1243],[-5.1029,8.4026,256.7133],[-5.1009,8.3994,259.109],[-5.0922,8.3972,250.0257],[-5.0928,8.3941,249.1199],[-5.0906,8.3922,247.4268],[-5.0818,8.3963,249.0502],[-5.0792,8.3932,245.6238],[-5.0786,8.3874,243.8796],[-5.0722,8.3756,242.8702],[-5.0677,8.3757,239.9578],[-5.0666,8.3703,242.2147],[-5.0622,8.3706,237.555],[-5.0513,8.3638,238.1585],[-5.0469,8.3641,234.3519],[-5.0388,8.3678,230.407],[-5.0282,8.3646,232.215],[-5.019,8.3666,226.7842],[-5.0132,8.3649,228.0653],[-5.0051,8.3577,226.8276],[-5.002,8.358,225.0768],[-4.991,8.352,221.9743],[-4.9874,8.3485,222.953],[-4.9872,8.3428,220.9604],[-4.9797,8.3384,222.3263],[-4.9698,8.3375,218.3421],[-4.9566,8.3329,217.2237],[-4.9538,8.3328,220.8439],[-4.9505,8.3359,217.012],[-4.9447,8.3308,217.573],[-4.9383,8.3326,210.4984],[-4.9275,8.33,218.0164],[-4.9079,8.3348,207.0615],[-4.9069,8.3457,208.0394],[-4.915,8.3541,225.6745],[-4.9144,8.3575,230.5808],[-4.9013,8.3532,212.5679],[-4.898,8.3548,208.5648],[-4.8967,8.358,212.5893],[-4.9043,8.3669,211.0057],[-4.9007,8.37,211.4279],[-4.8858,8.3744,211.675],[-4.8841,8.3855,213.5327],[-4.878,8.3893,213.3042],[-4.8817,8.3903,211.2343],[-4.8885,8.3974,216.7664],[-4.8913,8.4037,213.6955],[-4.8954,8.4077,209.7502],[-4.9023,8.4223,217.7805],[-4.9103,8.4261,213.7791],[-4.9157,8.4263,219.7077],[-4.918,8.4234,219.2462],[-4.9182,8.4198,220.8004],[-4.921,8.42,216.6017],[-4.9296,8.4304,216.4164],[-4.9369,8.4325,218.171],[-4.9371,8.4364,217.8953],[-4.936,8.4505,222.5633],[-4.9307,8.4547,226.1552],[-4.9243,8.4525,218.7777],[-4.924,8.4554,221.8739],[-4.9266,8.4578,220.947],[-4.9253,8.4618,223.3973],[-4.9206,8.4615,224.0705],[-4.9141,8.4659,222.9288],[-4.9112,8.4736,223.0595],[-4.9084,8.4738,223.4877],[-4.9055,8.4833,224.6599],[-4.9155,8.4864,223.9169],[-4.9149,8.4905,226.5831],[-4.9179,8.497,225.0022],[-4.9149,8.5024,226.1546],[-4.919,8.5064,226.2933],[-4.9263,8.5187,230.6337],[-4.9231,8.524,227.5315],[-4.9319,8.5282,229.2702],[-4.938,8.5269,229.4671],[-4.9457,8.5286,227.4699],[-4.9489,8.5312,229.5022],[-4.9482,8.5393,232.3848],[-4.9511,8.5429,231.097],[-4.9474,8.5479,227.1828],[-4.944,8.5488,232.6581],[-4.9397,8.546,226.2906],[-4.9407,8.557,232.5663],[-4.9389,8.5632,231.2809],[-4.9432,8.5652,245.5865],[-4.9435,8.5691,235.0074],[-4.9404,8.5717,232.5499],[-4.9391,8.5808,240.2345],[-4.941,8.5835,236.5412],[-4.9469,8.5815,229.0967],[-4.9504,8.5789,235.2229],[-4.95,8.5733,237.1878],[-4.9527,8.5687,239.9649],[-4.9572,8.5672,232.6227],[-4.9616,8.5679,235.6375],[-4.9655,8.5756,235.0157],[-4.9652,8.5796,236.1526],[-4.9689,8.5883,241.1572],[-4.9746,8.5895,252.5056],[-4.9732,8.5935,243.2162],[-4.9674,8.5984,243.5349],[-4.9708,8.6005,251.4438],[-4.9749,8.6113,237.7663],[-4.9733,8.6166,238.6389],[-4.9694,8.6211,244.5063],[-4.9748,8.6291,239.7485],[-4.9888,8.6325,240.2804],[-5.0009,8.6447,242.7862],[-4.9998,8.6482,247.6504],[-4.997,8.6487,242.8381],[-4.9844,8.64,243.2724],[-4.9823,8.6428,243.6369],[-4.9754,8.646,247.2534],[-4.9706,8.6451,241.7611],[-4.9661,8.6474,248.1869],[-4.962,8.6575,244.5437],[-4.972,8.6619,254.3106],[-4.9757999999999996,8.6664,250.6001],[-4.9753,8.6714,245.9951],[-4.9791,8.6743,247.7498],[-4.9786,8.681,255.3696],[-4.9725,8.6829,243.6091],[-4.9703,8.6853,247.3243],[-4.9689,8.6907,251.2435],[-4.964,8.6893,245.0091],[-4.9561,8.6942,254.9681],[-4.9445,8.6943,250.0627],[-4.9504,8.698,248.2968],[-4.9552,8.6978,256.27],[-4.9585,8.7015,254.7614],[-4.9584,8.7057,265.5887],[-4.9544,8.7108,254.843],[-4.9497,8.711,251.3148],[-4.9509,8.7161,251.4866],[-4.9544,8.7174,250.322],[-4.9612,8.7163,255.1315],[-4.9695,8.7188,248.8647],[-4.9719,8.723,256.5176],[-4.9617,8.738,253.0437],[-4.9687,8.7446,260.4079],[-4.9654,8.7499,253.39],[-4.968,8.7516,263.5661],[-4.9665,8.756,264.2391],[-4.9626,8.7582,258.9163],[-4.9539,8.7521,253.426],[-4.9452,8.7613,254.6562],[-4.9518,8.7645,252.5667],[-4.9503,8.7677,250.6215],[-4.9539,8.7718,253.0492],[-4.968,8.782,258.7609],[-4.9781,8.7844,258.9121],[-4.9859,8.7822,254.0111],[-4.9912,8.7863,254.9664],[-4.992,8.7959,254.8309],[-4.9964,8.8004,256.5401],[-4.9962,8.8056,257.8481],[-4.9886,8.811,257.8275],[-4.9866,8.8177,257.8971],[-4.9935,8.8211,261.1924],[-4.9923,8.8257,254.5465],[-4.9835,8.8291,259.7916],[-4.9878,8.8335,267.1159],[-4.9855,8.8378,264.578],[-4.9759,8.8473,260.5685],[-4.9783,8.85,259.814],[-4.9773,8.8536,258.0403],[-4.9801,8.8577,259.299],[-4.9802,8.8612,258.6393],[-4.9756,8.8636,261.664],[-4.9677,8.8732,260.8434],[-4.9623,8.8851,258.4694],[-4.9654,8.8884,261.986],[-4.96,8.8951,262.7189],[-4.9594,8.9003,263.866],[-4.9529,8.9082,260.4222],[-4.9523,8.9141,260.379],[-4.9545,8.9223,261.9095],[-4.9639,8.9415,268.077],[-4.9566,8.9495,262.986],[-4.9488,8.9505,275.9835],[-4.9466,8.942,268.1547],[-4.9427,8.942,266.5505],[-4.9392,8.9496,277.113],[-4.9288,8.9541,271.8384],[-4.9256,8.9654,277.1114],[-4.9138,8.9714,268.9509],[-4.9149,8.981,274.0618],[-4.9132,8.9864,269.1848],[-4.9051,8.9942,270.9041],[-4.9112,8.996,283.1252],[-4.9059,9.0169,271.9174],[-4.9066,9.0276,271.5669],[-4.9036,9.0411,275.2632],[-4.8973,9.0454,272.2393],[-4.8972,9.0525,272.575],[-4.8929,9.0723,274.4904],[-4.8846,9.099,278.0884],[-4.8857,9.1113,280.7032],[-4.8935,9.1288,281.6939],[-4.8993,9.1203,296.5863],[-4.906,9.121,289.7276],[-4.9142,9.1272,283.6992],[-4.9169,9.1268,291.0642],[-4.9221,9.1303,288.7837],[-4.9261,9.1285,291.9457],[-4.9308,9.1324,287.5993],[-4.9401,9.1347,292.9147],[-4.9475,9.1387,292.9643],[-4.9525,9.1441,292.0046],[-4.9556,9.1546,291.0999],[-4.9612,9.155,297.8141],[-4.9654,9.1627,292.2307],[-4.9742,9.1641,303.6036],[-4.9827,9.1698,297.7466],[-4.9859,9.175,295.9871],[-4.9817,9.1794,296.7794],[-4.9804,9.1838,303.7876],[-4.9809,9.1923,306.2745],[-4.9896,9.2093,315.0138],[-4.9975,9.2193,313.5576],[-5.0101,9.2233,326.2814],[-5.016,9.2283,323.6043],[-5.0117,9.248,332.1543],[-5.0131,9.259,327.3943],[-5.0109,9.2724,336.4982],[-5.0138,9.2804,331.5835],[-5.011,9.2869,334.5387],[-5.0155,9.2932,328.7304],[-5.0187,9.302,341.4314],[-5.0249,9.3074,338.505],[-5.023,9.314,336.6869],[-5.0309,9.3316,346.6845],[-5.0347,9.3322,346.9161],[-5.0467,9.3422,360.0747],[-5.0542,9.3437,361.6974],[-5.0719,9.3348,378.8135],[-5.0779,9.3356,377.8417],[-5.0831,9.334,388.8665],[-5.0927,9.3358,395.5799],[-5.1018,9.3293,414.1002],[-5.1144,9.3293,419.1932],[-5.1286,9.3331,381.6174],[-5.1431,9.3399,365.0049],[-5.1503,9.348,365.1096],[-5.1837,9.3543,346.3867],[-5.1926,9.3621,338.8118],[-5.1899,9.3687,354.093],[-5.1892,9.3773,377.0251],[-5.1922,9.4087,347.0623],[-5.1943,9.4178,342.9081],[-5.2005,9.4245,337.5166],[-5.208,9.4078,365.8088],[-5.2382,9.4028,331.8849],[-5.246,9.397,317.9724],[-5.256,9.397,325.0406],[-5.2815,9.3923,310.0553],[-5.3003,9.3842,302.4165],[-5.3181,9.3896,296.6664],[-5.3226,9.3888,293.8249],[-5.3306,9.3743,290.2578],[-5.3324,9.363,295.6016],[-5.3345,9.3599,302.4963],[-5.3426,9.3562,291.3699],[-5.3442,9.3494,286.1642],[-5.3495,9.3467,291.4849],[-5.3426,9.3423,300.9161],[-5.3445,9.3371,298.963],[-5.3554,9.3326,295.2014],[-5.3501,9.3252,291.816],[-5.3501,9.3219,295.6418],[-5.3522,9.3191,299.1808],[-5.3589,9.3166,292.4608],[-5.3603,9.31,294.1658],[-5.3671,9.3031,297.0225],[-5.3718,9.3018,288.2357],[-5.3806,9.307,287.2012],[-5.3821,9.304,293.1105],[-5.3759,9.2972,289.7317],[-5.3715,9.2886,304.8698],[-5.3722,9.2853,306.8509],[-5.3748,9.2828,298.6068],[-5.3815,9.2807,289.2919],[-5.3812,9.2668,303.4032],[-5.3848,9.2552,296.7831],[-5.3917,9.2484,285.638],[-5.3983,9.2388,288.2123],[-5.3936,9.2346,295.2852],[-5.3963,9.2266,302.0125],[-5.3947,9.2201,305.1082],[-5.3984,9.2121,292.4849],[-5.4046,9.2078,296.7012],[-5.4036,9.2039,296.9396],[-5.4134,9.1988,286.7618],[-5.4277,9.2038,284.5563],[-5.4323,9.2043,287.3386],[-5.4345,9.2021,288.9527],[-5.4295,9.1987,290.3848],[-5.4169,9.194,290.5035],[-5.4195,9.1886,293.5326],[-5.424,9.1878,288.0861],[-5.4293,9.1891,285.261],[-5.4286,9.186,286.9471],[-5.42,9.1776,284.6448],[-5.4199,9.1715,290.5289],[-5.4226,9.1676,288.3473],[-5.4359,9.158,287.33],[-5.4331,9.1537,282.6864],[-5.4291,9.1511,295.7044],[-5.4285,9.1437,302.8606],[-5.4486,9.1253,282.3136],[-5.4491,9.1224,284.6305],[-5.4428,9.1069,293.4906],[-5.4425,9.1006,297.5681],[-5.4451,9.0963,293.5622],[-5.4577,9.0885,281.4496],[-5.4635,9.0867,291.4951],[-5.4748,9.0876,286.7971],[-5.4807,9.0908,286.2482],[-5.4826,9.0889,281.8924],[-5.4824,9.0833,290.4221],[-5.4798,9.0771,295.1317],[-5.4902,9.0651,290.5709],[-5.4895,9.0602,289.4997],[-5.4851,9.0522,282.004],[-5.4813,9.0473,281.9958],[-5.4751,9.0439,279.9075],[-5.4647,9.0421,294.7553],[-5.461,9.0397,281.772],[-5.4473,9.0363,292.4988],[-5.4368,9.0299,300.903],[-5.4296,9.0237,295.7799],[-5.4223,9.0117,277.8444],[-5.4129,9.004,279.0168],[-5.4088,8.9972,290.5169],[-5.4087,8.9895,290.4398],[-5.4142,8.9845,281.839],[-5.4181,8.9838,278.0345],[-5.4424,8.9974,279.0257],[-5.4526,8.9956,279.1783],[-5.4567,8.9921,281.3911],[-5.4496,8.9927,288.4606],[-5.4393,8.9837,296.4037],[-5.4385,8.9751,280.4494],[-5.4398,8.9706,280.6978],[-5.4428,8.9672,282.6025],[-5.4521,8.9599,279.4016],[-5.4585,8.9635,282.9747],[-5.4634,8.9735,277.4305],[-5.4675,8.9729,283.025],[-5.4651,8.9588,281.954],[-5.4674,8.9465,287.0591],[-5.4727,8.9373,278.4555],[-5.4568,8.9327,284.5856],[-5.4521,8.9304,295.8946],[-5.4503,8.9273,290.6306],[-5.4501,8.9236,288.2265],[-5.4541,8.9169,281.2353],[-5.4564,8.9044,273.6123],[-5.4587,8.9025,276.693],[-5.4659,8.9024,278.0764],[-5.4844,8.914,277.6158],[-5.4883,8.9132,281.3803],[-5.4847,8.9059,289.9401],[-5.4768,8.8978,276.7631],[-5.4627,8.8972,285.0166],[-5.4518,8.8933,290.5003],[-5.4439,8.8834,277.8603],[-5.4468,8.873,286.3727],[-5.4537,8.869,283.1232],[-5.4642,8.8661,273.6872],[-5.4736,8.8601,276.6518],[-5.483,8.8657,276.9885],[-5.4891,8.8718,281.9341],[-5.4932,8.8711,275.677],[-5.4976,8.8735,286.7444]]]]}
,"properties": {"GID_3": "CIV.11.2.3_1","GID_0": "CIV","country": "Côted'Ivoire","GID_1": "CIV.11_1","province": "ValléeduBandama","NL_NAME_1": "NA","GID_2": "CIV.11.2_1","county": "Hambol","NL_NAME_2": "NA","city": "Niakarmadougou","VARNAME_3": "NA","NL_NAME_3": "NA","TYPE_3": "Département","ENGTYPE_3": "Department","CC_3": "NA","HASC_3": "NA","name": "Niakarmadougou.city","area_km2": 6625.439,"hist_schema_id": "Elevation0-9000","hist_area_km2": {"200": 6.524,"225": 84.944,"250": 283.251,"275": 877.482,"300": 1298.68,"325": 1337.047,"350": 1232.388,"375": 1008.792,"400": 423.214,"425": 67.817,"450": 2.178,"475": 0.859,"500": 0.691,"525": 0.461,"550": 0.44,"575": 0.272,"600": 0.251,"625": 0.147}}}