{"type":"Feature","properties":{"GID_2":"CIV.5.1_1","GID_0":"CIV","country":"Côted'Ivoire","GID_1":"CIV.5_1","province":"Gôh-Djiboua","NL_NAME_1":"NA","county":"Gôh","VARNAME_2":"NA","NL_NAME_2":"NA","TYPE_2":"Région","ENGTYPE_2":"Region","CC_2":"NA","HASC_2":"CI.GD.GH","name":"Gôh.county"},
"geometry":{"type": "MultiPolygon","coordinates": [[[[-6.0352,5.6615,152.5144],[-6.0336,5.6576,153.7557],[-6.0259,5.656,149.847],[-5.9988,5.714,193.6926],[-5.9968,5.7377,177.6699],[-5.9822,5.7806,206.6639],[-5.9468,5.7731,196.2817],[-5.8356,5.9133,254.986],[-5.7916,5.9391,264.2325],[-5.7948,6.0057,268.6871],[-5.7406,6.2015,266.1038],[-5.6981,6.1869,259.077],[-5.6763,6.1871,246.4898],[-5.4805,6.1657,202.7988],[-5.2844,6.2544,179.9795],[-5.2445,6.2168,165.932],[-5.2096,6.3809,132.3474],[-5.218,6.3841,127.4799],[-5.2523,6.3787,131.7218],[-5.2635,6.369,132.4247],[-5.28,6.3632,132.7082],[-5.2835,6.365,136.5459],[-5.2865,6.3694,137.1196],[-5.2907,6.3705,135.3055],[-5.2951,6.3757,135.4885],[-5.301,6.3775,136.2086],[-5.3083,6.3882,135.0148],[-5.3083,6.3954,135.6968],[-5.3146,6.4091,158.5899],[-5.3154,6.4212,139.9868],[-5.3141,6.4263,149.7566],[-5.3092,6.4322,143.6674],[-5.3106,6.444,145.8717],[-5.3187,6.4606,143.5984],[-5.3135,6.4671,146.2072],[-5.3048,6.4736,143.2578],[-5.298,6.4995,155.827],[-5.3002,6.5062,154.2007],[-5.3129,6.5134,142.7143],[-5.3204,6.5148,145.8365],[-5.3257,6.518,142.6415],[-5.3275,6.5246,142.2122],[-5.3247,6.5297,140.7883],[-5.3112,6.5346,146.0917],[-5.3058,6.5382,150.4693],[-5.3027,6.5447,142.0821],[-5.3026,6.5497,143.8204],[-5.3066,6.5579,153.0646],[-5.2986,6.5691,159.331],[-5.298,6.576,150.6024],[-5.3009,6.5842,148.1655],[-5.306,6.591,144.1804],[-5.3252,6.5982,145.2563],[-5.3412,6.6018,141.5807],[-5.3645,6.6038,145.1555],[-5.3973,6.6021,154.251],[-5.4049,6.6064,152.0583],[-5.4103,6.6124,147.226],[-5.4122,6.6221,147.651],[-5.4107,6.6334,148.8723],[-5.4047,6.6525,147.3936],[-5.5002,6.6541,412.9138],[-5.7421,6.5002,216.9924],[-5.9317,6.5282,243.4844],[-6.0409,6.5305,201.4382],[-6.0481,6.5087,199.0415],[-6.0486,6.4878,197.7502],[-6.051,6.4699,199.9788],[-6.056,6.4626,198.102],[-6.0578,6.4511,200.4841],[-6.0716,6.4409,204.0915],[-6.0789,6.4244,195.7826],[-6.087,6.4143,199.3114],[-6.0899,6.3897,189.7328],[-6.0955,6.3765,191.7731],[-6.1036,6.3695,189.0876],[-6.1054,6.3649,191.7546],[-6.1046,6.3524,189.9624],[-6.1116,6.3388,187.9511],[-6.1145,6.323,191.2968],[-6.1311,6.3257,191.4894],[-6.1409,6.3254,189.8576],[-6.1676,6.3405,210.8259],[-6.173,6.3409,195.9846],[-6.183,6.3334,196.6397],[-6.1918,6.329,198.6272],[-6.2068,6.3337,201.8106],[-6.3116,6.3408,255.2306],[-6.325,6.3279,253.5082],[-6.3369,6.3095,223.8439],[-6.3737,6.2992,219.1934],[-6.4237,6.2975,194.2375],[-6.4359,6.2951,191.9222],[-6.4345,6.2841,192.0464],[-6.4299,6.2805,192.335],[-6.427,6.2639,196.125],[-6.4277,6.2551,196.11],[-6.4234,6.2428,200.2953],[-6.4201,6.209,206.2076],[-6.4222,6.1994,211.5279],[-6.4105,6.1587,243.9086],[-6.3951,6.1214,237.1366],[-6.3886,6.0953,199.5993],[-6.3663,6.0427,219.4512],[-6.3582,6.0286,207.1379],[-6.3492,6.0215,208.9829],[-6.313,5.9992,214.0889],[-6.3053,5.9926,206.0502],[-6.2999,5.9912,212.7778],[-6.286,5.9733,209.917],[-6.2849,5.9026,171.7759],[-6.2801,5.8967,170.5871],[-6.2803,5.893,170.8186],[-6.2774,5.8876,170.7034],[-6.2818,5.8809,166.0583],[-6.2818,5.8758,167.3633],[-6.2772,5.8636,164.5683],[-6.2656,5.8572,161.0307],[-6.2556,5.8553,160.1645],[-6.2515,5.8489,158.4656],[-6.2488,5.8492,159.9281],[-6.2469,5.8475,159.1095],[-6.2389,5.8237,155.1909],[-6.2434,5.8101,156.5184],[-6.2367,5.7976,156.3099],[-6.2331,5.7966,169.8152],[-6.2269,5.7895,175.2766],[-6.2245,5.7788,155.9247],[-6.2263,5.7763,148.016],[-6.2249,5.7729,157.296],[-6.2257,5.7711,147.5772],[-6.2174,5.7561,158.2276],[-6.2116,5.7635,154.4397],[-6.208,5.7656,156.9679],[-6.2037,5.7658,153.0493],[-6.1924,5.7708,166.8587],[-6.1194,5.7743,165.3794],[-6.1021,5.7702,163.9095],[-6.102,5.7636,157.4808],[-6.1052,5.7578,158.3516],[-6.1002,5.7557,155.9808],[-6.0966,5.7503,162.2905],[-6.094,5.7537,155.285],[-6.0908,5.7536,157.6831],[-6.0676,5.7383,159.6735],[-6.0687,5.7318,159.0666],[-6.0666,5.7277,160.9308],[-6.069,5.7238,156.3719],[-6.0748,5.7218,152.7579],[-6.074,5.7143,154.4491],[-6.0692,5.7091,176.7859],[-6.0655,5.7122,156.7576],[-6.0617,5.71,164.5025],[-6.063,5.7056,157.0655],[-6.0552,5.6917,151.0007],[-6.0517,5.6787,150.8447],[-6.0461,5.6751,150.8262],[-6.0384,5.6738,162.6899],[-6.0376,5.6681,150.7593],[-6.0401,5.6638,156.2482],[-6.0352,5.6615,152.5144]]]]}}