{"type": "Feature","bbox": [-7.5239,7.1655,-7.0479,7.4951],"geometry": {"type": "MultiPolygon","coordinates": [[[[-7.0913,7.1832,221.1092],[-7.0869,7.188,215.3873],[-7.078,7.1925,217.1403],[-7.0686,7.192,210.0],[-7.0663,7.1981,215.957],[-7.0714,7.2046,214.4724],[-7.0763,7.22,216.6337],[-7.0772,7.2308,217.0959],[-7.0723,7.2484,216.3326],[-7.0734,7.2609,215.4998],[-7.0724,7.2678,219.6063],[-7.0675,7.283,222.7638],[-7.0681,7.2888,225.4785],[-7.0725,7.2996,222.5294],[-7.0722,7.307,228.5289],[-7.0639,7.3258,228.9122],[-7.0637,7.3344,220.6599],[-7.0787,7.3616,216.0562],[-7.0849,7.3653,222.7332],[-7.0872,7.3709,219.8914],[-7.0817,7.3806,226.89],[-7.0646,7.3826,228.9639],[-7.0615,7.3891,233.7175],[-7.0561,7.3952,223.3152],[-7.0488,7.3979,225.1422],[-7.0479,7.4031,226.0163],[-7.052,7.4152,223.3414],[-7.064,7.4277,231.1156],[-7.0681,7.4347,230.0255],[-7.0826,7.4684,234.9006],[-7.1184,7.4702,246.7214],[-7.1413,7.4951,246.0039],[-7.1475,7.492,248.314],[-7.1738,7.491,249.4218],[-7.1812,7.4863,250.7023],[-7.2006,7.4661,259.8988],[-7.2051,7.4579,266.8855],[-7.2046,7.4507,272.7082],[-7.2132,7.4427,267.1839],[-7.2188,7.4262,276.2753],[-7.2355,7.4022,286.6355],[-7.2468,7.3919,313.3301],[-7.2525,7.3805,308.0676],[-7.2538,7.369,308.2345],[-7.2616,7.358,331.8925],[-7.2658,7.3553,311.4678],[-7.2709,7.3488,305.1153],[-7.2884,7.3427,307.9157],[-7.3034,7.3326,317.3934],[-7.3108,7.3295,343.1851],[-7.325,7.3303,327.7803],[-7.3352,7.329,308.2086],[-7.3392,7.3268,315.2137],[-7.3453,7.3297,301.6876],[-7.3482,7.3253,310.9753],[-7.3595,7.3201,295.2887],[-7.3679,7.3187,290.4963],[-7.3852,7.3195,288.7037],[-7.3893,7.3183,308.019],[-7.4218,7.3222,310.179],[-7.4344,7.329,333.5332],[-7.4696,7.3362,329.2466],[-7.4791,7.3341,338.2796],[-7.4822,7.3315,327.207],[-7.4921,7.3318,325.3045],[-7.4958,7.3333,315.9147],[-7.496,7.3158,333.6073],[-7.5016,7.2891,305.787],[-7.5239,7.2709,294.6708],[-7.5214,7.2655,295.6266],[-7.5192,7.2648,293.9303],[-7.5201,7.263,293.9434],[-7.5165,7.2573,292.0573],[-7.5156,7.2448,290.1314],[-7.5053,7.2411,299.6924],[-7.5028,7.242,286.8188],[-7.4984,7.2403,282.1965],[-7.4978,7.2348,280.8544],[-7.4948,7.2292,276.8498],[-7.496,7.226,281.5753],[-7.4955,7.2193,271.7697],[-7.489,7.2126,270.6535],[-7.4888,7.1972,261.861],[-7.486,7.1925,256.6165],[-7.4767,7.1862,257.4199],[-7.4728,7.1752,258.2676],[-7.4708,7.1745,256.6407],[-7.4707,7.1777,262.8761],[-7.4645,7.1815,254.5534],[-7.4472,7.1692,275.1785],[-7.4372,7.1655,283.7917],[-7.424,7.1668,289.7233],[-7.4071,7.1734,308.9908],[-7.4013,7.1809,293.748],[-7.3991,7.1976,292.17],[-7.3795,7.221,409.8687],[-7.353,7.2401,325.0028],[-7.3341,7.221,344.7947],[-7.2938,7.2119,283.4922],[-7.2798,7.2171,281.8947],[-7.255,7.2164,272.1697],[-7.2187,7.1866,238.7425],[-7.2106,7.1911,251.4691],[-7.1737,7.1718,263.5042],[-7.1657,7.1742,258.4643],[-7.1493,7.1859,256.9081],[-7.131,7.1856,274.264],[-7.1256,7.1835,236.7527],[-7.0913,7.1832,221.1092]]]]}
,"properties": {"GID_3": "CIV.8.2.4_1","GID_0": "CIV","country": "Côted'Ivoire","GID_1": "CIV.8_1","province": "Montagnes","NL_NAME_1": "NA","GID_2": "CIV.8.2_1","county": "Guémon","NL_NAME_2": "NA","city": "Kouibly","VARNAME_3": "NA","NL_NAME_3": "NA","TYPE_3": "Département","ENGTYPE_3": "Department","CC_3": "NA","HASC_3": "NA","name": "Kouibly.city","area_km2": 1011.5734,"hist_schema_id": "Elevation0-9000","hist_area_km2": {"200": 0.0421,"225": 107.5306,"250": 201.4889,"275": 229.7319,"300": 213.3703,"325": 162.2491,"350": 54.7635,"375": 20.61,"400": 7.9285,"425": 4.5425,"450": 2.797,"475": 1.5772,"500": 1.3879,"525": 0.9884,"550": 0.6098,"575": 0.4837,"600": 0.3154,"625": 0.4626,"650": 0.2103,"675": 0.0841,"700": 0.0841,"725": 0.1051,"750": 0.2103}}}