{"type": "Feature","bbox": [-3.4776,9.5843,-3.0773,9.9275],"geometry": {"type": "MultiPolygon","coordinates": [[[[-3.1645,9.8425,322.9742],[-3.1842,9.8429,330.8286],[-3.1929,9.8528,327.3138],[-3.1944,9.8567,325.8084],[-3.1943,9.896,291.7423],[-3.1924,9.9149,275.4842],[-3.1955,9.9275,276.2591],[-3.2013,9.9274,266.1501],[-3.2041,9.9247,271.74],[-3.2094,9.9244,285.2647],[-3.2143,9.9209,287.7356],[-3.2162,9.9087,279.613],[-3.225,9.8991,272.5489],[-3.2357,9.8975,272.8842],[-3.2398,9.8952,284.1679],[-3.2527,9.8763,291.7601],[-3.2625,9.8717,291.5803],[-3.2789,9.853,281.34],[-3.2812,9.8516,291.4477],[-3.2889,9.8565,283.642],[-3.3094,9.8493,284.2204],[-3.3117,9.8436,284.6597],[-3.3388,9.8412,291.6956],[-3.3537,9.8426,296.6348],[-3.3602,9.8409,293.2183],[-3.4158,9.8118,316.4243],[-3.4278,9.8037,320.3874],[-3.4571,9.7762,344.6781],[-3.4776,9.7503,379.0335],[-3.45,9.7523,377.7017],[-3.4438,9.7559,368.1343],[-3.4374,9.7654,357.1271],[-3.4305,9.7716,363.5591],[-3.4277,9.7628,351.7291],[-3.4239,9.739,351.9411],[-3.4254,9.7337,338.0632],[-3.4246,9.7242,328.5732],[-3.4261,9.7136,347.7629],[-3.4316,9.699,321.8397],[-3.4321,9.6924,335.9391],[-3.4279,9.684,359.1603],[-3.4289,9.6744,363.2197],[-3.425,9.6698,369.446],[-3.4082,9.6674,350.901],[-3.4049,9.6639,339.747],[-3.4026,9.6638,339.2102],[-3.3923,9.6504,349.0289],[-3.3587,9.6579,374.7865],[-3.3456,9.6565,367.2996],[-3.3407,9.6537,362.3446],[-3.3302,9.6542,381.1415],[-3.3156,9.6518,368.0223],[-3.2975,9.6538,340.9225],[-3.2857,9.6522,355.5531],[-3.2716,9.619,357.0029],[-3.2659,9.6123,338.9248],[-3.2628,9.6039,320.9839],[-3.2573,9.603,339.1399],[-3.2467,9.608,321.7025],[-3.2368,9.6098,347.4105],[-3.2251,9.6099,326.0777],[-3.2142,9.5918,351.9207],[-3.2084,9.5869,361.1781],[-3.2003,9.5843,362.3162],[-3.1862,9.6023,337.4067],[-3.1718,9.6088,347.4243],[-3.1613,9.6164,369.2251],[-3.1559,9.6185,365.0386],[-3.1371,9.6407,315.6772],[-3.135,9.6515,306.5094],[-3.1383,9.6901,326.3495],[-3.1335,9.7018,300.4368],[-3.1209,9.7162,282.864],[-3.0971,9.7312,279.0654],[-3.0796,9.7375,270.7908],[-3.0773,9.7406,273.5052],[-3.0878,9.758,316.1456],[-3.0916,9.7611,320.5424],[-3.0943,9.7712,333.0635],[-3.095,9.7909,287.7975],[-3.1005,9.8012,310.2457],[-3.1081,9.8093,318.2975],[-3.1151,9.8229,325.5072],[-3.1206,9.8396,326.1224],[-3.1255,9.8446,333.9813],[-3.1372,9.8482,309.4958],[-3.1645,9.8425,322.9742]]]]}
,"properties": {"GID_3": "CIV.14.1.2_1","GID_0": "CIV","country": "Côted'Ivoire","GID_1": "CIV.14_1","province": "Zanzan","NL_NAME_1": "NA","GID_2": "CIV.14.1_1","county": "Bounkani","NL_NAME_2": "NA","city": "Doropo","VARNAME_3": "NA","NL_NAME_3": "NA","TYPE_3": "Département","ENGTYPE_3": "Department","CC_3": "NA","HASC_3": "NA","name": "Doropo.city","area_km2": 858.4148,"hist_schema_id": "Elevation0-9000","hist_area_km2": {"275": 29.3933,"300": 152.7629,"325": 324.2449,"350": 275.9235,"375": 74.9825,"400": 1.1076}}}