{"type":"Feature","properties":{"featurecla":"River","scalerank":9,"rivernum":981,"dissolve":"981River","name":"Bagoé1","name_alt":null,"note":null,"min_zoom":7.1,"strokeweig":0.2,"name_en":"Bagoé","min_label":8.1},
"geometry":{"type": "LineString","coordinates": [[-6.53857421875,9.5766787781191169,357.336],[-6.4471191406249773,9.59406159061912,358.2951],[-6.3723632812499886,9.60016510624412,354.0789],[-6.3544921875,9.89362213749412,337.7621],[-6.3224609374999829,9.90009186405662,342.9166],[-6.2944824218749886,9.98334381718162,342.5263],[-6.3052734374999773,9.99042389530662,333.2458],[-6.3111328124999773,10.000018621869117,334.6788],[-6.30517578125,10.04047272343162,331.2729],[-6.2722656249999886,10.07221100468162,335.9451]]}}