{"type":"Feature","properties":{"featurecla":"River","scalerank":9,"rivernum":981,"dissolve":"981River","name":"Bagoé4","name_alt":null,"note":null,"min_zoom":7.1,"strokeweig":0.2,"name_en":"Bagoé","min_label":8.1},
"geometry":{"type": "LineString","coordinates": [[-6.2696289062499773,10.72247955936912,330.8602],[-6.2770263671874886,10.975213934369108,331.0666],[-6.4298583984374886,11.100213934369108,301.623],[-6.50927734375,11.249627996869108,302.1108],[-6.5327636718749886,11.392108465619117,296.7839],[-6.5533203124999773,11.53021881718162,309.0713],[-6.5610839843749886,11.63886139530662,296.6289]]}}