{"type":"Feature","properties":{"featurecla":"River","scalerank":9,"rivernum":981,"dissolve":"981River","name":"Bagoé7","name_alt":null,"note":null,"min_zoom":7.1,"strokeweig":0.2,"name_en":"Bagoé","min_label":8.1},
"geometry":{"type": "LineString","coordinates": [[-6.2222167968749886,10.25556061405662,328.7645],[-6.1788085937499773,10.37323639530662,322.8883],[-6.196533203125,10.473993231244108,329.0607],[-6.2216064453124886,10.594842840619108,314.3225],[-6.1976074218749773,10.62006256718162,313.3722],[-6.1944335937499773,10.64996979374412,322.845],[-6.22509765625,10.690301824994108,312.9432],[-6.2696289062499773,10.72247955936912,330.8602]]}}