{"type":"Feature","properties":{"featurecla":"River","scalerank":7,"rivernum":444,"dissolve":"444River","name":"Bandama5","name_alt":null,"note":null,"min_zoom":6.0,"strokeweig":0.2,"name_en":"Bandama Blanc","min_label":7.0},
"geometry":{"type": "LineString","coordinates": [[-5.770263671875,9.7471865906191084,318.1365],[-5.7574218749999773,9.7659854187441084,332.0563],[-5.7423583984374886,9.7820010437441169,309.6208],[-5.7373046875,9.7818545593691084,312.5298],[-5.73046875,9.77985260624412,314.2971],[-5.7244140624999886,9.78229401249412,315.38],[-5.7218261718749943,9.79559967655662,334.4753],[-5.7164062499999773,9.7898135437441169,310.4714],[-5.7066406249999773,9.7720889343691084,309.531],[-5.7053710937499886,9.7683291687441169,313.9746],[-5.6951660156249773,9.76764557499412,307.5705],[-5.6874267578124886,9.76508209843162,309.4353],[-5.6826171875,9.75983307499412,309.9759],[-5.680908203125,9.75092194218162,312.2974],[-5.6767578125,9.7444033874941169,310.7369],[-5.668212890625,9.7515811218691084,308.1089],[-5.660888671875,9.7628115906191084,317.6315],[-5.660400390625,9.7683291687441169,330.0764],[-5.64990234375,9.76715729374412,311.4078],[-5.6434082031249773,9.7628115906191084,307.6715],[-5.63671875,9.75934479374412,311.5645],[-5.6255859374999773,9.7608584656191084,305.2845],[-5.6255859374999773,9.7608584656191084,305.2845],[-5.6255859374999773,9.7608584656191084,305.2845],[-5.6255859374999773,9.7608584656191084,305.2845],[-5.6255859374999773,9.7608584656191084,305.2845],[-5.6155761718749773,9.74628327030662,307.2102],[-5.6125976562499886,9.7403506531191084,307.6736],[-5.6057617187499886,9.7471865906191084,306.5571],[-5.5933105468749886,9.7395205749941169,305.7488],[-5.5728515624999773,9.73712799686912,308.3018],[-5.5647949218749773,9.72736237186912,306.5214],[-5.5448242187499943,9.73505280155662,303.8006],[-5.4910156249999886,9.7442569031191084,302.801],[-5.474853515625,9.7546572937441169,303.2932],[-5.4686035156249773,9.7546572937441169,304.0358],[-5.4666503906249773,9.74860260624412,302.6964],[-5.4634277343749886,9.7326846374941169,303.3873],[-5.461181640625,9.72736237186912,305.2882],[-5.4605468749999773,9.7244815124941084,303.4138],[-5.4617675781249773,9.7165713562441169,307.0927],[-5.461181640625,9.71369049686912,301.8074],[-5.4585937499999773,9.71308014530662,302.2498],[-5.45068359375,9.71430084843162,308.0964],[-5.4480957031249773,9.71369049686912,303.5396],[-5.4139160156249773,9.68573639530662,310.5616],[-5.4036621093749773,9.6812686218691084,300.3878],[-5.382080078125,9.67767975468162,301.9594],[-5.3724121093749773,9.6727236999941084,300.6923],[-5.3705078124999943,9.6687197937441169,300.0103],[-5.3680175781249773,9.6553897156191084,297.6095],[-5.3662109375,9.6509951843691084,298.7364],[-5.3603515625,9.6465029968691169,298.8676],[-5.3560546874999773,9.6443057312441169,297.0963],[-5.353271484375,9.6403994812441169,298.0318],[-5.3519042968749773,9.63117096561912,300.7606],[-5.345703125,9.63117096561912,296.9644],[-5.336669921875,9.63739655155662,297.0256],[-5.331787109375,9.63031647343162,295.4547],[-5.323974609375,9.60382721561912,296.3159],[-5.314697265625,9.5945986999941084,302.284],[-5.30419921875,9.58734772343162,295.9525],[-5.2987792968749829,9.5779971374941084,294.557],[-5.3047363281249886,9.5628604187441084,294.0388],[-5.301025390625,9.54950592655662,291.9493],[-5.3020507812499886,9.5315127624941169,290.7947],[-5.3077148437499773,9.51349518436912,292.8635],[-5.3177734374999943,9.50018952030662,297.929],[-5.3228515624999773,9.5052432312441084,294.1002],[-5.3382324218749773,9.51447174686912,318.3858],[-5.33837890625,9.4947451843691084,309.8918],[-5.3287841796874886,9.49115631718162,291.9704],[-5.3155273437499773,9.4941592468691169,295.6393],[-5.3047363281249886,9.49396393436912,306.1569],[-5.299072265625,9.4868350281191169,292.1791],[-5.302734375,9.4804873718691169,291.1363],[-5.3105957031249886,9.47406647343162,291.2017],[-5.3177734374999943,9.4666690124941084,290.9977],[-5.317626953125,9.46430084843162,290.5934],[-5.3212890625,9.44684479374412,293.0124],[-5.323974609375,9.4393252624941084,289.367],[-5.3505859375,9.40265534061912,294.3705],[-5.3506835937499773,9.3953799499941084,291.396],[-5.3382324218749773,9.39154694218162,293.833],[-5.3382324218749773,9.38471100468162,298.884],[-5.371875,9.34442780155662,302.9828],[-5.38671875,9.31793854374412,306.8427],[-5.3928710937499886,9.2916201843691084,314.7762],[-5.3956787109374886,9.25946686405662,294.4457],[-5.4054443359374886,9.22980377811912,294.647],[-5.4244873046874886,9.2115420593691084,298.9638],[-5.4549316406249773,9.21344635624412,299.4589],[-5.4412597656249773,9.19855377811912,298.1277],[-5.4351562499999773,9.1834658874941084,285.7112],[-5.4354003906249773,9.1663760437441084,292.3578],[-5.44775390625,9.12250397343162,291.563],[-5.4581054687499773,9.0999697937441084,300.5285],[-5.4734863281249773,9.08624909061912,292.7664],[-5.4958984374999886,9.08991119999412,305.7465],[-5.4973632812499886,9.06329987186912,282.9394],[-5.4374267578124886,9.02448151249412,281.8235],[-5.4207519531249773,8.99433014530662,283.9031],[-5.429931640625,8.99787018436912,286.8871],[-5.4398925781249829,9.0002627624941169,281.3401],[-5.4503662109374886,9.00116608280662,283.8519],[-5.461181640625,9.00055573124412,306.6998],[-5.461181640625,8.99433014530662,297.5151],[-5.455322265625,8.9915713562441084,283.334],[-5.440673828125,8.98004791874412,283.9274],[-5.4653808593749886,8.9649600281191084,281.1252],[-5.4598144531249773,8.92633698124412,282.3312],[-5.4856933593749773,8.9185733093691084,278.071],[-5.4921875,8.91339752811912,276.2361],[-5.4817382812499886,8.9024600281191084,281.1487],[-5.4671386718749773,8.8925967468691169,275.9545],[-5.461181640625,8.89069244999412,274.2065],[-5.45947265625,8.87811920780662,279.4027],[-5.4668457031249886,8.8679385437441169,279.483],[-5.4800781249999773,8.86395905155662,277.2212],[-5.4958984374999886,8.87018463749412,274.5653],[-5.49951171875,8.8673037781191084,282.1505],[-5.501220703125,8.86432526249412,274.3932],[-5.5027343749999886,8.85712311405662,276.8948],[-5.5027343749999886,8.85712311405662,276.8948],[-5.5027343749999886,8.85712311405662,276.8948],[-5.5027343749999886,8.85712311405662,276.8948],[-5.5027343749999886,8.85712311405662,276.8948],[-5.484619140625,8.8493838562441169,283.0023],[-5.4608642578124886,8.84210846561912,286.8218],[-5.446875,8.82941315311912,302.4305],[-5.4581054687499773,8.8052920593691084,273.1269],[-5.472412109375,8.79791901249412,276.8852],[-5.4833984375,8.80487702030662,277.7763],[-5.4919921874999886,8.81635162968162,272.9315],[-5.4993164062499886,8.8223819031191084,273.1775],[-5.509765625,8.8170108093691084,289.5654],[-5.50634765625,8.8052920593691084,275.2638],[-5.4942382812499773,8.7935733093691084,272.0755],[-5.47216796875,8.7856631531191169,290.2066],[-5.4687988281249886,8.77960846561912,279.1601],[-5.469482421875,8.77277252811912,272.271],[-5.474853515625,8.76776764530662,274.2765],[-5.48291015625,8.7672061218691084,277.5882],[-5.4909179687499829,8.76996491093162,276.1697],[-5.497802734375,8.77338287968162,281.9279],[-5.5027343749999886,8.77460358280662,280.8813],[-5.5162109374999773,8.77228424686912,268.7689],[-5.5184082031249773,8.7707705749941169,273.3931],[-5.51611328125,8.7658877624941169,273.0482],[-5.5158203124999829,8.75348541874412,269.2155],[-5.5143066406249943,8.75311920780662,274.2026],[-5.511962890625,8.74762604374412,272.4134],[-5.5099609374999829,8.74005768436912,268.7399],[-5.5096191406249773,8.7336611999941169,272.6656],[-5.512939453125,8.73248932499412,270.6775],[-5.5196777343749943,8.73346588749412,269.7215],[-5.5264648437499773,8.7326846374941169,272.7067],[-5.530029296875,8.7261904968691084,269.5572],[-5.5283691406249886,8.71088287968162,282.6622],[-5.5212890624999886,8.6987490906191169,279.8081],[-5.5100585937499886,8.69342682499412,270.6842],[-5.4958984374999886,8.6988467468691084,283.5633],[-5.497314453125,8.6853213562441169,267.5527],[-5.5022949218749773,8.6773623718691084,271.0923],[-5.5110351562499886,8.6732119812441084,282.7012],[-5.5232421874999886,8.67096588749412,267.3322],[-5.5188476562499886,8.66242096561912,265.5809],[-5.517333984375,8.65424225468162,267.1035],[-5.5188476562499886,8.64594147343162,273.3051],[-5.5232421874999886,8.6374697937441169,284.6634],[-5.51123046875,8.62811920780662,264.7222],[-5.5149902343749773,8.6202334656191084,274.1084],[-5.524658203125,8.6184268249941169,267.1686],[-5.530029296875,8.62714264530662,266.8343],[-5.5340332031249773,8.6363467468691084,264.7895],[-5.5435546874999773,8.64154694218162,264.1056],[-5.5551025390624886,8.6403994812441169,270.4959],[-5.5647949218749773,8.63056061405662,260.2976],[-5.550537109375,8.6237979187441169,279.8046],[-5.57470703125,8.6160830749941084,281.2749],[-5.5840820312499773,8.60919830936912,276.5542],[-5.58154296875,8.59955475468162,264.3617],[-5.5768554687499829,8.59735748905662,265.9714],[-5.5666992187499886,8.59601471561912,272.8421],[-5.5647949218749773,8.59271881718162,287.4067],[-5.5647949218749773,8.5833682312441084,269.7927],[-5.5635253906249886,8.57941315311912,262.1165],[-5.559375,8.57782623905662,260.5177],[-5.550537109375,8.57599518436912,270.1857],[-5.550537109375,8.56915924686912,263.813],[-5.554931640625,8.5626162781191084,261.456],[-5.5623046874999886,8.55719635624412,266.7065],[-5.572265625,8.55438873905662,263.3759],[-5.5846435546874886,8.55548737186912,258.1825],[-5.5846435546874886,8.54804108280662,259.9897],[-5.569580078125,8.53949616093162,264.632],[-5.5712890625,8.53095123905662,266.4312],[-5.583251953125,8.5276065124941169,259.15],[-5.5989746093749773,8.53436920780662,261.1337],[-5.6063476562499943,8.53351471561912,257.7213],[-5.6119140624999773,8.5318545593691084,261.9227],[-5.6160644531249773,8.52802155155662,262.7163],[-5.6194335937499886,8.52069733280662,260.2804],[-5.5232421874999886,8.46613190311912,260.4102],[-5.5343261718749943,8.45380280155662,260.3994],[-5.5432617187499886,8.45001862186912,255.3349],[-5.5679199218749886,8.45184967655662,253.3535],[-5.5865234374999773,8.4581240906191084,253.2237],[-5.5955566406249773,8.45929596561912,266.0094],[-5.6045410156249886,8.4571475281191084,255.0207],[-5.6138671874999773,8.45246002811912,254.9284],[-5.6192382812499773,8.4477725281191169,253.4937],[-5.6160156249999886,8.44562409061912,255.0721],[-5.60693359375,8.43805573124412,256.411],[-5.578857421875,8.4048037781191169,251.4385],[-5.5679199218749886,8.3972354187441169,248.0],[-5.563232421875,8.39508698124412,252.7455],[-5.5596679687499773,8.3903994812441169,251.7565],[-5.5551025390624886,8.38568756718162,250.4771],[-5.547119140625,8.3835635437441169,252.5371],[-5.5126953125,8.3835635437441169,249.8057],[-5.5078613281249886,8.38080475468162,241.2692],[-5.505859375,8.37445709843162,278.8856],[-5.5048095703124886,8.36774323124412,253.8457],[-5.5027343749999886,8.36371491093162,263.7844],[-5.4545410156249829,8.35248444218162,236.2924],[-5.4480957031249773,8.35004303593162,231.6246],[-5.4276611328124886,8.33576080936912,237.5687],[-5.416259765625,8.33038971561912,245.0408],[-5.4113037109374886,8.32721588749412,242.941],[-5.4072265625,8.3227725281191169,235.6141],[-5.39697265625,8.3007998718691169,234.5748],[-5.3928710937499886,8.2947940124941084,231.9849],[-5.3816894531249773,8.2891787781191084,232.0558],[-5.3675292968749773,8.2852725281191084,227.5688],[-5.354248046875,8.27741119999412,240.9721],[-5.345703125,8.2600283874941169,227.0424],[-5.3662109375,8.2600283874941169,223.1824],[-5.3475830078124886,8.2114444031191169,216.0614],[-5.3457519531249886,8.18585846561912,214.2639],[-5.359375,8.16449616093162,209.6038],[-5.3889648437499886,8.1636904968691084,205.8664],[-5.402587890625,8.1591983093691169,210.4948],[-5.3914062499999886,8.13568756718162,218.087],[-5.3934082031249773,8.12177155155662,213.9378],[-5.4013671875,8.1128115906191169,208.2055],[-5.4139160156249773,8.11603424686912,210.3843],[-5.4207519531249773,8.1030459656191169,206.2817],[-5.4354003906249773,8.1092471374941084,201.5886],[-5.4521484375,8.11359284061912,197.9157],[-5.4666503906249773,8.11078522343162,227.3366],[-5.474853515625,8.09552643436912,212.819]]}}