{"type":"Feature","properties":{"featurecla":"River","scalerank":7,"rivernum":444,"dissolve":"444River","name":"Bandama4","name_alt":null,"note":null,"min_zoom":6.0,"strokeweig":0.2,"name_en":"Bandama Blanc","min_label":7.0},
"geometry":{"type": "LineString","coordinates": [[-6.10546875,9.4359072937441084,351.9528],[-6.1022216796874886,9.4490908874941084,347.4173],[-6.0881835937499886,9.47308991093162,347.7589],[-6.0849609375,9.48371002811912,361.9861],[-6.088623046875,9.50836823124412,340.0575],[-6.089111328125,9.52008698124412,336.4445],[-6.0849609375,9.53497955936912,337.1405],[-6.0566894531249886,9.5744815124941169,344.4518],[-6.0384277343749773,9.5949893249941169,358.6571],[-6.0269531249999773,9.60382721561912,357.1595],[-6.024169921875,9.60809967655662,358.0115],[-6.0205078125,9.61749909061912,337.803],[-6.01318359375,9.62689850468162,341.3072],[-5.999267578125,9.63117096561912,339.1792],[-5.9717285156249886,9.6325869812441169,330.116],[-5.9598876953124886,9.63654205936912,325.9],[-5.9490234374999886,9.64484284061912,339.1984],[-5.9358886718749773,9.63373444218162,321.9156],[-5.9185546874999773,9.6402529968691084,321.1154],[-5.8863281249999773,9.6653018249941169,322.4652],[-5.8455566406249773,9.6838565124941169,324.63],[-5.78271484375,9.73126862186912,317.323],[-5.770263671875,9.7471865906191084,318.1365]]}}