{"type":"Feature","properties":{"GID_2":"CIV.10.1_1","GID_0":"CIV","country":"Côted'Ivoire","GID_1":"CIV.10_1","province":"Savanes","NL_NAME_1":"NA","county":"Bagoué","VARNAME_2":"NA","NL_NAME_2":"NA","TYPE_2":"Région","ENGTYPE_2":"Region","CC_2":"NA","HASC_2":"CI.SV.BG","name":"Bagoué.county"},
"geometry":{"type": "MultiPolygon","coordinates": [[[[-6.7999,9.3692,566.5518],[-6.8086,9.3567,483.7057],[-6.8176,9.3514,480.7194],[-6.8177,9.3495,520.9431],[-6.7884,9.3252,446.5115],[-6.7924,9.3194,454.9642],[-6.7937,9.3011,431.3394],[-6.7977,9.292,431.0015],[-6.7952,9.2873,423.9163],[-6.7854,9.2822,431.9407],[-6.7658,9.2849,428.2289],[-6.7629,9.2816,442.1772],[-6.7542,9.2766,408.1909],[-6.7681,9.1292,463.1479],[-6.7767,9.1008,457.8429],[-6.7816,9.0965,423.1714],[-6.7678,9.1013,402.1954],[-6.724,9.1096,366.097],[-6.697,9.085,349.4908],[-6.6932,9.0869,347.4252],[-6.6786,9.0886,355.6261],[-6.6679,9.0881,352.5541],[-6.6614,9.0987,356.439],[-6.6522,9.1053,362.8212],[-6.6416,9.0968,368.8165],[-6.6304,9.0915,369.3932],[-6.617,9.0964,378.7307],[-6.6127,9.0962,376.0872],[-6.6073,9.0952,383.1974],[-6.6024,9.0915,381.1604],[-6.6007,9.0879,383.1912],[-6.5469,9.0836,396.9373],[-6.5799,9.1499,397.7502],[-6.5268,9.1534,388.3151],[-6.5236,9.1475,394.2637],[-6.5236,9.1348,390.0475],[-6.5217,9.129,377.1384],[-6.5161,9.1237,374.8984],[-6.503,9.1006,372.7842],[-6.4912,9.0932,370.2586],[-6.4889,9.0861,384.5452],[-6.4862,9.0647,358.1662],[-6.4828,9.0595,363.2655],[-6.473,9.0543,348.6399],[-6.4693,9.0493,348.6596],[-6.4648,9.0502,340.0393],[-6.4649,9.0523,340.2604],[-6.4716,9.0608,346.0619],[-6.469,9.0715,359.4537],[-6.4505,9.0875,359.2199],[-6.4415,9.1013,369.6913],[-6.4352,9.1052,381.2526],[-6.3791,9.1269,378.7106],[-6.345,9.1747,398.8203],[-6.3495,9.184,389.5377],[-6.3501,9.1899,382.1639],[-6.3479,9.195,382.1758],[-6.3494,9.205,371.5144],[-6.3478,9.2105,372.217],[-6.344,9.2138,370.9254],[-6.3386,9.2137,373.6981],[-6.334,9.2157,373.2971],[-6.3193,9.2143,369.4159],[-6.3155,9.2174,376.5132],[-6.3095,9.2271,381.3351],[-6.3071,9.2333,381.0291],[-6.3072,9.2385,385.638],[-6.2943,9.268,384.9626],[-6.2895,9.2726,379.1033],[-6.2844,9.2848,377.0789],[-6.2867,9.3213,378.3292],[-6.2842,9.3265,366.3453],[-6.2741,9.3325,366.4468],[-6.2714,9.3367,365.5],[-6.2814,9.3487,365.5],[-6.2862,9.3647,380.7488],[-6.2844,9.3747,387.1823],[-6.2814,9.3799,386.9657],[-6.2734,9.4097,395.7719],[-6.1575,9.4596,368.9818],[-6.1433,9.5013,375.8928],[-6.1467,9.6158,351.1801],[-6.1205,9.6357,344.3605],[-6.1273,9.7264,348.6943],[-6.1177,9.7376,349.9422],[-6.1173,9.7466,344.0259],[-6.1105,9.7581,343.4822],[-6.1137,9.7726,343.1612],[-6.1112,9.779,339.5227],[-6.1036,9.7869,353.7251],[-6.0899,9.7928,346.6464],[-6.0721,9.7942,345.5135],[-6.0686,9.7901,355.8455],[-6.0448,9.7836,348.432],[-6.0356,9.7923,344.7419],[-6.0298,9.7944,343.7617],[-6.0202,9.7942,333.2948],[-6.0234,9.8268,335.2359],[-6.0427,9.8388,343.091],[-6.0557,9.8561,331.5417],[-6.1456,9.9062,341.0583],[-6.1515,9.9145,342.3898],[-6.1606,9.9175,340.8749],[-6.1767,9.9333,345.6601],[-6.1772,9.9452,351.3535],[-6.1581,9.9892,353.9865],[-6.1037,9.9912,343.9456],[-6.105,10.0,348.1825],[-6.1698,10.0389,385.8538],[-6.2323,10.0432,359.9835],[-6.2718,10.0583,338.4995],[-6.2805,10.069,332.8045],[-6.2882,10.0823,332.4877],[-6.2922,10.0838,332.9968],[-6.3045,10.0831,328.5312],[-6.3061,10.0867,329.2958],[-6.3041,10.0903,329.6395],[-6.2984,10.0912,328.4279],[-6.2922,10.0887,330.2202],[-6.2909,10.0956,329.4756],[-6.2842,10.1056,330.3055],[-6.2863,10.0957,329.5776],[-6.2765,10.0826,328.2146],[-6.2645,10.076,332.7828],[-6.2598,10.0793,336.6722],[-6.2568,10.0932,328.772],[-6.2582,10.0987,327.2197],[-6.2517,10.1116,335.3913],[-6.2564,10.1167,332.0576],[-6.2642,10.115,331.0082],[-6.2582,10.1255,326.5493],[-6.2447,10.1353,326.1449],[-6.2378,10.1324,329.6635],[-6.2358,10.1228,328.6493],[-6.2383,10.1164,327.2985],[-6.2335,10.1102,330.3454],[-6.2262,10.1095,330.2265],[-6.223,10.1121,334.4383],[-6.22,10.131,324.7205],[-6.2217,10.136,326.2037],[-6.2199,10.1397,325.88],[-6.2231,10.1455,329.9505],[-6.2335,10.1446,326.4525],[-6.2354,10.1502,325.8801],[-6.2343,10.1547,325.6458],[-6.2241,10.1656,325.5035],[-6.2065,10.1758,323.9103],[-6.2064,10.1817,322.6862],[-6.2037,10.1854,333.375],[-6.2035,10.192,344.9215],[-6.208,10.1929,343.8769],[-6.2156,10.1996,327.8062],[-6.2253,10.2037,324.3884],[-6.2276,10.2094,323.4465],[-6.2273,10.217,321.3247],[-6.2253,10.2209,324.6326],[-6.2219,10.223,325.3375],[-6.2165,10.2214,328.7498],[-6.2138,10.2245,328.4069],[-6.215,10.2288,324.0912],[-6.214,10.233,323.5484],[-6.2108,10.2368,322.919],[-6.2025,10.2315,326.7178],[-6.1978,10.2314,332.8269],[-6.192,10.2358,325.174],[-6.1954,10.2387,325.3732],[-6.1936,10.2515,323.0406],[-6.1978,10.2529,324.5005],[-6.1997,10.257,323.3995],[-6.202,10.2579,323.1542],[-6.2173,10.2564,330.5986],[-6.2226,10.259,335.2811],[-6.2257,10.2817,325.2025],[-6.2314,10.2905,325.3117],[-6.2393,10.298,327.4656],[-6.2328,10.305,323.0455],[-6.219,10.3132,323.9129],[-6.2136,10.3147,323.9626],[-6.2051,10.3137,321.9103],[-6.1996,10.3025,322.0411],[-6.1948,10.3026,321.3806],[-6.1921,10.3125,320.9703],[-6.1855,10.3188,320.9944],[-6.1875,10.3225,321.2272],[-6.1928,10.3254,322.0142],[-6.1977,10.3328,333.2309],[-6.1983,10.3368,332.6741],[-6.1949,10.3447,328.6353],[-6.1916,10.3488,327.8914],[-6.1865,10.3496,323.024],[-6.1746,10.3611,320.4339],[-6.1672,10.3617,319.1118],[-6.1655,10.3633,319.7166],[-6.1666,10.3663,321.8908],[-6.1741,10.3676,321.0393],[-6.184,10.3721,321.0878],[-6.1875,10.3812,318.7153],[-6.1925,10.387,319.7007],[-6.1887,10.392,319.6237],[-6.1849,10.4092,316.7394],[-6.1776,10.4134,320.2659],[-6.1714,10.4082,318.102],[-6.1679,10.4088,316.4705],[-6.1641,10.4122,321.0842],[-6.1617,10.4186,318.8531],[-6.1637,10.424,318.7693],[-6.1685,10.4284,320.5068],[-6.1845,10.4372,335.0391],[-6.1874,10.4435,332.2313],[-6.19,10.4454,327.0401],[-6.1911,10.4606,329.2204],[-6.1889,10.4661,321.3853],[-6.1829,10.4724,319.9745],[-6.1683,10.4813,317.6518],[-6.1647,10.4855,317.2838],[-6.1675,10.491,317.1263],[-6.1704,10.4947,317.2708],[-6.1785,10.4976,316.8137],[-6.205,10.4965,334.9861],[-6.2086,10.5019,328.3223],[-6.2059,10.5085,317.91],[-6.2082,10.5131,317.2281],[-6.2203,10.5249,317.4385],[-6.2258,10.5226,315.7883],[-6.2319,10.5145,317.1729],[-6.2378,10.514,315.0453],[-6.246,10.5164,319.1889],[-6.2498,10.522,327.4642],[-6.2511,10.5273,326.4954],[-6.2464,10.5431,328.4149],[-6.2395,10.5501,322.1839],[-6.2262,10.5547,316.4078],[-6.2122,10.5705,315.2591],[-6.2103,10.5833,314.4405],[-6.2159,10.5823,315.9935],[-6.2153,10.5878,317.5555],[-6.21,10.5964,315.8574],[-6.2104,10.6004,314.7502],[-6.2127,10.6006,314.4229],[-6.2191,10.5973,314.0224],[-6.2216,10.5985,314.2531],[-6.2251,10.6094,315.2435],[-6.2232,10.6151,313.4927],[-6.2186,10.6201,314.1675],[-6.2151,10.6214,313.9852],[-6.2031,10.6205,314.2465],[-6.1981,10.622,313.6338],[-6.1885,10.6336,314.547],[-6.192,10.6403,313.6672],[-6.2006,10.6393,312.2834],[-6.2047,10.6428,311.8969],[-6.213,10.6462,313.1249],[-6.216,10.6506,311.696],[-6.2163,10.6543,312.4126],[-6.2221,10.6583,314.4802],[-6.2309,10.6573,317.8925],[-6.2354,10.6653,318.2593],[-6.2346,10.6704,315.1342],[-6.2255,10.6847,312.2072],[-6.2333,10.7,310.6337],[-6.2266,10.7041,312.4202],[-6.2195,10.7117,311.4429],[-6.2149,10.722,312.1037],[-6.2177,10.7263,310.5742],[-6.2464,10.7335,323.3317],[-6.2482,10.7361,321.8205],[-6.2564,10.7366,339.9509],[-6.2749,10.7298,326.9046],[-6.2832,10.7243,326.0178],[-6.2897,10.7232,336.7894],[-6.3106,10.7142,362.8403],[-6.3191,10.7074,336.0006],[-6.3505,10.6946,328.265],[-6.3538,10.7062,335.307],[-6.3607,10.7093,336.7689],[-6.3765,10.7103,334.1679],[-6.3825,10.7127,337.1702],[-6.3907,10.7103,333.0797],[-6.3967,10.7114,335.1632],[-6.4164,10.7007,343.6103],[-6.4196,10.6947,341.2548],[-6.4215,10.6775,355.4627],[-6.4203,10.6255,331.1156],[-6.4083,10.6246,334.3606],[-6.4004,10.6196,324.1447],[-6.3966,10.6136,326.5907],[-6.3965,10.6071,327.9172],[-6.4011,10.5985,329.5413],[-6.4152,10.59,345.061],[-6.4315,10.5726,346.3228],[-6.4442,10.5654,345.5507],[-6.4619,10.5648,358.8907],[-6.4907,10.5784,345.784],[-6.4996,10.5777,341.7401],[-6.5044,10.5748,340.6107],[-6.5399,10.5869,333.1349],[-6.5488,10.5942,342.8144],[-6.5528,10.603,336.4517],[-6.5586,10.6059,349.6714],[-6.5652,10.6129,340.2267],[-6.5735,10.6174,330.5925],[-6.5956,10.6219,329.0435],[-6.6112,10.6397,326.5851],[-6.616,10.6598,333.9234],[-6.6235,10.668,330.1918],[-6.6422,10.6722,320.1381],[-6.6447,10.6661,321.3645],[-6.6518,10.6593,323.4067],[-6.6586,10.6436,330.0576],[-6.6568,10.6405,321.8602],[-6.65,10.6425,319.613],[-6.6466,10.6392,320.3174],[-6.6492,10.6353,321.3635],[-6.6541,10.6329,319.6104],[-6.6677,10.6301,324.4242],[-6.6719,10.6263,323.9325],[-6.6734,10.6215,318.3762],[-6.6721,10.6153,322.4598],[-6.6771,10.5988,329.0714],[-6.6752,10.5969,321.0864],[-6.6692,10.5961,321.0799],[-6.6667,10.5922,322.7563],[-6.671,10.5725,325.1704],[-6.6692,10.5549,323.8107],[-6.6702,10.5499,321.877],[-6.664,10.5369,326.4905],[-6.6654,10.5344,324.3312],[-6.6741,10.5318,325.8521],[-6.6794,10.533,324.838],[-6.6815,10.5204,323.6317],[-6.6775,10.5077,327.6126],[-6.6848,10.4894,327.7945],[-6.6825,10.4866,325.5525],[-6.6767,10.4852,326.3422],[-6.6763,10.4826,327.8337],[-6.6812,10.47,330.5569],[-6.6792,10.4666,333.3999],[-6.675,10.4679,328.5631],[-6.6661,10.4571,330.3206],[-6.6589,10.4545,326.1373],[-6.6533,10.4571,328.1782],[-6.6487,10.4564,326.5958],[-6.6443,10.4535,327.2232],[-6.6434,10.4505,328.8737],[-6.6461,10.4446,338.7144],[-6.6445,10.4423,333.8973],[-6.6383,10.441,326.1262],[-6.6347,10.4426,330.7434],[-6.6313,10.442,328.013],[-6.6302,10.4388,326.936],[-6.6318,10.4259,332.5286],[-6.6376,10.4143,331.4009],[-6.6459,10.4041,332.736],[-6.6532,10.4001,328.614],[-6.6554,10.3959,331.4996],[-6.6541,10.3936,330.5154],[-6.6648,10.3819,344.356],[-6.65,10.3515,330.0367],[-6.647,10.3434,331.7169],[-6.6466,10.336,329.7797],[-6.6393,10.3287,330.6379],[-6.6382,10.3157,329.3089],[-6.6324,10.3123,331.9094],[-6.6329,10.2887,333.8546],[-6.6277,10.2779,332.2157],[-6.6328,10.272,339.6834],[-6.6313,10.2592,339.8987],[-6.6265,10.2499,333.0783],[-6.6163,10.2381,338.0715],[-6.6106,10.236,339.2756],[-6.599,10.2394,337.7054],[-6.5891,10.2321,342.2203],[-6.584,10.2252,348.3939],[-6.5882,10.19,372.0077],[-6.5842,10.1804,366.7487],[-6.5785,10.1727,380.5766],[-6.5784,10.1682,371.3735],[-6.5807,10.1646,365.3371],[-6.5977,10.1527,360.676],[-6.645,10.1334,372.4468],[-6.6608,10.129,377.3033],[-6.6955,10.1089,367.9157],[-6.706,10.1035,370.3242],[-6.7116,10.1024,358.8691],[-6.7453,10.1002,361.8162],[-6.7551,10.1046,396.8221],[-6.7648,10.12,393.0574],[-6.7796,10.1348,344.1719],[-6.7894,10.1353,342.7726],[-6.8025,10.1405,346.0825],[-6.8067,10.138,340.5616],[-6.81,10.1336,343.5273],[-6.8171,10.1399,347.2456],[-6.8263,10.1426,352.7672],[-6.8281,10.1405,348.7569],[-6.8281,10.1343,344.4376],[-6.8468,10.1331,341.7497],[-6.8583,10.1288,346.9597],[-6.8637,10.1235,342.0356],[-6.8718,10.125,343.0318],[-6.879,10.1105,347.9231],[-6.8832,10.1073,344.4398],[-6.8886,10.1062,344.8489],[-6.8949,10.1009,353.6426],[-6.91,10.0735,351.4639],[-6.9162,10.0712,362.964],[-6.9238,10.0645,358.763],[-6.928,10.0465,360.5056],[-6.9237,10.0348,353.9111],[-6.9246,10.0268,354.333],[-6.9311,10.0195,358.1339],[-6.9454,9.9959,363.3192],[-6.9504,9.9938,358.1483],[-6.9571,9.9785,377.8218],[-6.9591,9.9693,374.3344],[-6.9491,9.9656,393.7523],[-6.8892,9.9538,392.194],[-6.8784,9.9537,366.6054],[-6.8779,9.9618,368.7479],[-6.8638,9.959,371.2425],[-6.8454,9.9457,377.2294],[-6.8182,9.9305,390.7104],[-6.7942,9.9128,410.7404],[-6.7874,9.912,420.7975],[-6.7821,9.9081,423.6521],[-6.772,9.8993,441.2008],[-6.7544,9.8645,457.6454],[-6.76,9.8103,459.475],[-6.7695,9.7702,433.3018],[-6.745,9.7533,413.4869],[-6.7416,9.7489,413.711],[-6.7436,9.7438,408.8979],[-6.7493,9.7378,406.216],[-6.7497,9.7319,401.9487],[-6.7598,9.706,393.1519],[-6.7501,9.7019,390.5535],[-6.7458,9.6983,393.3391],[-6.7462,9.6945,399.8627],[-6.7596,9.6883,395.6918],[-6.7635,9.6828,399.1033],[-6.7653,9.6731,405.7983],[-6.7623,9.6646,405.073],[-6.7639,9.6604,402.8294],[-6.7671,9.6558,408.2915],[-6.7776,9.6483,407.7954],[-6.7779,9.6431,409.7511],[-6.7757,9.6374,409.2301],[-6.7773,9.6208,417.7587],[-6.781,9.6138,423.4002],[-6.7779,9.5996,431.313],[-6.7746,9.5968,439.2794],[-6.79,9.585,423.507],[-6.79,9.5791,418.317],[-6.7919,9.5749,420.8337],[-6.7958,9.5721,420.3369],[-6.7984,9.5655,407.1424],[-6.7926,9.5615,409.6536],[-6.7898,9.5555,408.1994],[-6.781,9.5544,409.8465],[-6.7773,9.5565,405.4103],[-6.7759,9.554,400.0539],[-6.777,9.5472,398.3062],[-6.7753,9.5435,411.1984],[-6.752,9.5253,398.7479],[-6.7913,9.4955,426.8014],[-6.789,9.4429,560.2645],[-6.7999,9.3692,566.5518]]]]}}