{"type": "Feature","bbox": [-6.6848,10.2094,-6.1617,10.7366],"geometry": {"type": "MultiPolygon","coordinates": [[[[-6.3261,10.2303,338.2657],[-6.2273,10.217,321.3247],[-6.2253,10.2209,324.6326],[-6.2219,10.223,325.3375],[-6.2165,10.2214,328.7498],[-6.2138,10.2245,328.4069],[-6.215,10.2288,324.0912],[-6.214,10.233,323.5484],[-6.2108,10.2368,322.919],[-6.2025,10.2315,326.7178],[-6.1978,10.2314,332.8269],[-6.192,10.2358,325.174],[-6.1954,10.2387,325.3732],[-6.1936,10.2515,323.0406],[-6.1978,10.2529,324.5005],[-6.1997,10.257,323.3995],[-6.202,10.2579,323.1542],[-6.2173,10.2564,330.5986],[-6.2226,10.259,335.2811],[-6.2257,10.2817,325.2025],[-6.2314,10.2905,325.3117],[-6.2393,10.298,327.4656],[-6.2328,10.305,323.0455],[-6.219,10.3132,323.9129],[-6.2136,10.3147,323.9626],[-6.2051,10.3137,321.9103],[-6.1996,10.3025,322.0411],[-6.1948,10.3026,321.3806],[-6.1921,10.3125,320.9703],[-6.1855,10.3188,320.9944],[-6.1875,10.3225,321.2272],[-6.1928,10.3254,322.0142],[-6.1977,10.3328,333.2309],[-6.1983,10.3368,332.6741],[-6.1949,10.3447,328.6353],[-6.1916,10.3488,327.8914],[-6.1865,10.3496,323.024],[-6.1746,10.3611,320.4339],[-6.1672,10.3617,319.1118],[-6.1655,10.3633,319.7166],[-6.1666,10.3663,321.8908],[-6.1741,10.3676,321.0393],[-6.184,10.3721,321.0878],[-6.1875,10.3812,318.7153],[-6.1925,10.387,319.7007],[-6.1887,10.392,319.6237],[-6.1849,10.4092,316.7394],[-6.1776,10.4134,320.2659],[-6.1714,10.4082,318.102],[-6.1679,10.4088,316.4705],[-6.1641,10.4122,321.0842],[-6.1617,10.4186,318.8531],[-6.1637,10.424,318.7693],[-6.1685,10.4284,320.5068],[-6.1845,10.4372,335.0391],[-6.1874,10.4435,332.2313],[-6.19,10.4454,327.0401],[-6.1911,10.4606,329.2204],[-6.1889,10.4661,321.3853],[-6.1829,10.4724,319.9745],[-6.1683,10.4813,317.6518],[-6.1647,10.4855,317.2838],[-6.1704,10.4947,317.2708],[-6.1785,10.4976,316.8137],[-6.205,10.4965,334.9861],[-6.2086,10.5019,328.3223],[-6.2059,10.5085,317.91],[-6.2082,10.5131,317.2281],[-6.2203,10.5249,317.4385],[-6.2258,10.5226,315.7883],[-6.2319,10.5145,317.1729],[-6.2378,10.514,315.0453],[-6.246,10.5164,319.1889],[-6.2498,10.522,327.4642],[-6.2511,10.5273,326.4954],[-6.2464,10.5431,328.4149],[-6.2395,10.5501,322.1839],[-6.2262,10.5547,316.4078],[-6.2122,10.5705,315.2591],[-6.2103,10.5833,314.4405],[-6.2159,10.5823,315.9935],[-6.2153,10.5878,317.5555],[-6.21,10.5964,315.8574],[-6.2104,10.6004,314.7502],[-6.2127,10.6006,314.4229],[-6.2191,10.5973,314.0224],[-6.2216,10.5985,314.2531],[-6.2251,10.6094,315.2435],[-6.2232,10.6151,313.4927],[-6.2186,10.6201,314.1675],[-6.2151,10.6214,313.9852],[-6.2031,10.6205,314.2465],[-6.1981,10.622,313.6338],[-6.1885,10.6336,314.547],[-6.192,10.6403,313.6672],[-6.2006,10.6393,312.2834],[-6.2047,10.6428,311.8969],[-6.213,10.6462,313.1249],[-6.216,10.6506,311.696],[-6.2163,10.6543,312.4126],[-6.2221,10.6583,314.4802],[-6.2309,10.6573,317.8925],[-6.2354,10.6653,318.2593],[-6.2346,10.6704,315.1342],[-6.2255,10.6847,312.2072],[-6.2333,10.7,310.6337],[-6.2266,10.7041,312.4202],[-6.2195,10.7117,311.4429],[-6.2149,10.722,312.1037],[-6.2177,10.7263,310.5742],[-6.2464,10.7335,323.3317],[-6.2482,10.7361,321.8205],[-6.2564,10.7366,339.9509],[-6.2749,10.7298,326.9046],[-6.2832,10.7243,326.0178],[-6.2897,10.7232,336.7894],[-6.3106,10.7142,362.8403],[-6.3191,10.7074,336.0006],[-6.3505,10.6946,328.265],[-6.3538,10.7062,335.307],[-6.3607,10.7093,336.7689],[-6.3765,10.7103,334.1679],[-6.3825,10.7127,337.1702],[-6.3907,10.7103,333.0797],[-6.3967,10.7114,335.1632],[-6.4164,10.7007,343.6103],[-6.4196,10.6947,341.2548],[-6.4215,10.6775,355.4627],[-6.4203,10.6255,331.1156],[-6.4083,10.6246,334.3606],[-6.4004,10.6196,324.1447],[-6.3966,10.6136,326.5907],[-6.3965,10.6071,327.9172],[-6.4011,10.5985,329.5413],[-6.4152,10.59,345.061],[-6.4315,10.5726,346.3228],[-6.4442,10.5654,345.5507],[-6.4619,10.5648,358.8907],[-6.4907,10.5784,345.784],[-6.4996,10.5777,341.7401],[-6.5044,10.5748,340.6107],[-6.5399,10.5869,333.1349],[-6.5488,10.5942,342.8144],[-6.5528,10.603,336.4517],[-6.5586,10.6059,349.6714],[-6.5652,10.6129,340.2267],[-6.5735,10.6174,330.5925],[-6.5956,10.6219,329.0435],[-6.6112,10.6397,326.5851],[-6.616,10.6598,333.9234],[-6.6235,10.668,330.1918],[-6.6422,10.6722,320.1381],[-6.6447,10.6661,321.3645],[-6.6518,10.6593,323.4067],[-6.6586,10.6436,330.0576],[-6.6568,10.6405,321.8602],[-6.65,10.6425,319.613],[-6.6466,10.6392,320.3174],[-6.6492,10.6353,321.3635],[-6.6541,10.6329,319.6104],[-6.6677,10.6301,324.4242],[-6.6719,10.6263,323.9325],[-6.6734,10.6215,318.3762],[-6.6721,10.6153,322.4598],[-6.6771,10.5988,329.0714],[-6.6752,10.5969,321.0864],[-6.6692,10.5961,321.0799],[-6.6667,10.5922,322.7563],[-6.671,10.5725,325.1704],[-6.6692,10.5549,323.8107],[-6.6702,10.5499,321.877],[-6.664,10.5369,326.4905],[-6.6654,10.5344,324.3312],[-6.6741,10.5318,325.8521],[-6.6794,10.533,324.838],[-6.6815,10.5204,323.6317],[-6.6775,10.5077,327.6126],[-6.6848,10.4894,327.7945],[-6.6825,10.4866,325.5525],[-6.6767,10.4852,326.3422],[-6.6763,10.4826,327.8337],[-6.6812,10.47,330.5569],[-6.6792,10.4666,333.3999],[-6.675,10.4679,328.5631],[-6.6661,10.4571,330.3206],[-6.6589,10.4545,326.1373],[-6.6533,10.4571,328.1782],[-6.6487,10.4564,326.5958],[-6.6443,10.4535,327.2232],[-6.6434,10.4505,328.8737],[-6.6461,10.4446,338.7144],[-6.6445,10.4423,333.8973],[-6.6383,10.441,326.1262],[-6.6347,10.4426,330.7434],[-6.6313,10.442,328.013],[-6.6302,10.4388,326.936],[-6.6318,10.4259,332.5286],[-6.6376,10.4143,331.4009],[-6.6459,10.4041,332.736],[-6.6532,10.4001,328.614],[-6.6554,10.3959,331.4996],[-6.6541,10.3936,330.5154],[-6.6648,10.3819,344.356],[-6.65,10.3515,330.0367],[-6.647,10.3434,331.7169],[-6.6466,10.336,329.7797],[-6.6393,10.3287,330.6379],[-6.6382,10.3157,329.3089],[-6.6324,10.3123,331.9094],[-6.6329,10.2887,333.8546],[-6.6277,10.2779,332.2157],[-6.6328,10.272,339.6834],[-6.6313,10.2592,339.8987],[-6.6265,10.2499,333.0783],[-6.6163,10.2381,338.0715],[-6.6106,10.236,339.2756],[-6.599,10.2394,337.7054],[-6.5891,10.2321,342.2203],[-6.584,10.2252,348.3939],[-6.5768,10.2257,335.3596],[-6.5715,10.2208,336.2197],[-6.5659,10.222,337.4202],[-6.5655,10.2285,338.3151],[-6.5616,10.2311,345.0123],[-6.5548,10.2337,346.0914],[-6.5324,10.236,352.9869],[-6.5191,10.241,354.1028],[-6.5127,10.238,358.6879],[-6.5035,10.2372,355.1784],[-6.4284,10.2417,366.9707],[-6.4246,10.2264,370.0165],[-6.4132999999999996,10.2094,377.1486],[-6.3355,10.2316,353.0175],[-6.3261,10.2303,338.2657]]]]}
,"properties": {"GID_3": "CIV.10.1.3_1","GID_0": "CIV","country": "Côted'Ivoire","GID_1": "CIV.10_1","province": "Savanes","NL_NAME_1": "NA","GID_2": "CIV.10.1_1","county": "Bagoué","NL_NAME_2": "NA","city": "Tengréla","VARNAME_3": "NA","NL_NAME_3": "NA","TYPE_3": "Département","ENGTYPE_3": "Department","CC_3": "NA","HASC_3": "NA","name": "Tengréla.city","area_km2": 2328.22,"hist_schema_id": "Elevation0-9000","hist_area_km2": {"300": 8.48,"325": 632.219,"350": 1211.663,"375": 440.879,"400": 31.142,"425": 2.169,"450": 0.897,"475": 0.5,"500": 0.271}}}