{"type":"Feature","properties":{"GID_3":"CIV.8.2.1_1","GID_0":"CIV","country":"Côted'Ivoire","GID_1":"CIV.8_1","province":"Montagnes","NL_NAME_1":"NA","GID_2":"CIV.8.2_1","county":"Guémon","NL_NAME_2":"NA","city":"Bangolo","VARNAME_3":"NA","NL_NAME_3":"NA","TYPE_3":"Département","ENGTYPE_3":"Department","CC_3":"NA","HASC_3":"NA","name":"Bangolo.city"},
"geometry":{"type": "MultiPolygon","coordinates": [[[[-7.8411,6.8491,309.7476],[-7.6297,6.847,223.2466],[-7.58,6.9416,256.937],[-7.4757,6.9485,262.8393],[-7.4002,6.962,297.7781],[-7.1563,6.9691,220.227],[-7.1152,6.9528,209.0929],[-7.1102,6.9534,209.3351],[-7.1038,6.9474,207.0258],[-7.0995,6.9509,205.3991],[-7.0773,6.9485,209.9274],[-7.0756,6.9424,205.5203],[-7.0643,6.9405,197.0],[-7.0649,6.9598,201.8961],[-7.0599,6.9696,206.1697],[-7.0593,6.998,206.9466],[-7.0652,7.0015,203.869],[-7.0671,7.0051,203.4531],[-7.0608,7.0251,207.0771],[-7.0571,7.0605,208.9895],[-7.0486,7.0823,209.4149],[-7.0476,7.0885,203.9148],[-7.0524,7.095,206.2143],[-7.0682,7.11,211.6769],[-7.0681,7.1323,216.0516],[-7.0638,7.1429,214.7991],[-7.0694,7.1565,215.1754],[-7.0791,7.1592,214.7427],[-7.0853,7.1639,218.3735],[-7.091,7.1735,216.9096],[-7.0913,7.1832,221.1092],[-7.1256,7.1835,236.7527],[-7.131,7.1856,274.264],[-7.1493,7.1859,256.9081],[-7.1657,7.1742,258.4643],[-7.1737,7.1718,263.5042],[-7.2106,7.1911,251.4691],[-7.2187,7.1866,238.7425],[-7.255,7.2164,272.1697],[-7.2798,7.2171,281.8947],[-7.2938,7.2119,283.4922],[-7.3341,7.221,344.7947],[-7.353,7.2401,325.0028],[-7.3795,7.221,409.8687],[-7.3991,7.1976,292.17],[-7.4013,7.1809,293.748],[-7.4071,7.1734,308.9908],[-7.424,7.1668,289.7233],[-7.4372,7.1655,283.7917],[-7.4472,7.1692,275.1785],[-7.4645,7.1815,254.5534],[-7.4707,7.1777,262.8761],[-7.4712,7.173,260.7132],[-7.4682,7.1706,256.5012],[-7.4688,7.1683,257.1999],[-7.4739,7.1715,255.4811],[-7.4789,7.1721,266.6277],[-7.4818,7.1674,254.4445],[-7.4817,7.1658,255.1008],[-7.4798,7.166,253.797],[-7.479,7.1618,251.626],[-7.4817,7.1614,253.5871],[-7.4884,7.1561,253.8788],[-7.4869,7.1536,252.0585],[-7.503,7.132,254.2926],[-7.5279,7.1137,249.1241],[-7.5229,7.1023,268.7375],[-7.51,7.0893,269.2907],[-7.5136,7.0582,295.5936],[-7.5896,7.0298,243.5535],[-7.5895,7.0273,241.7714],[-7.6659,6.9817,256.1724],[-7.6764,6.9883,279.8635],[-7.6926,6.9943,249.8774],[-7.7059,7.005,249.3572],[-7.7376,7.0054,258.4544],[-7.7409,7.0068,252.8562],[-7.7775,7.0341,279.8197],[-7.842,7.0755,307.4077],[-7.8555,7.0832,300.3742],[-7.8758,7.0866,291.6625],[-7.8858,7.0922,291.5632],[-7.8945,7.0801,284.3564],[-7.8985,7.0771,290.688],[-7.9015,7.0759,277.1503],[-7.9087,7.0773,275.8782],[-7.9129,7.0745,279.5617],[-7.9221,7.0734,278.0091],[-7.9234,7.072,274.4793],[-7.924,7.0626,275.6166],[-7.942,7.0449,273.1476],[-7.9447,7.0396,270.8523],[-7.9665,7.0261,273.2373],[-7.9676,7.0209,274.9154],[-7.9787,7.009,268.7394],[-7.9879,6.9945,269.8385],[-7.9977,6.9933,271.1918],[-8.0059,6.9845,275.6239],[-8.0111,6.983,270.2354],[-8.0115,6.9663,273.2991],[-8.0029,6.9651,269.8849],[-8.0016,6.9673,269.1497],[-7.9774,6.9531,274.372],[-7.953,6.9452,281.0401],[-7.9402,6.9382,296.9035],[-7.9329,6.9505,315.5125],[-7.9102,6.9411,288.2039],[-7.905,6.9349,298.5059],[-7.8987,6.931,299.3514],[-7.8873,6.9298,297.2663],[-7.8411,6.8491,309.7476]]]]}}