{"type": "Feature","bbox": [-4.0835,5.7615,-3.6214,6.4304],"geometry": {"type": "MultiPolygon","coordinates": [[[[-4.0835,5.8622,52.1636],[-4.0617,5.8404,51.1258],[-4.0599,5.8266,48.3212],[-4.0377,5.8138,46.352],[-4.0316,5.8179,44.9387],[-4.0234,5.8135,41.5981],[-4.0206,5.8074,42.9341],[-4.015,5.8076,36.0434],[-4.0102,5.8035,39.7127],[-3.9993,5.8093,41.2329],[-3.9923,5.8058,33.2074],[-3.9887,5.806,49.2639],[-3.9855,5.8033,36.3354],[-3.9762,5.8036,33.76],[-3.9668,5.7931,33.6368],[-3.9609,5.7908,33.8608],[-3.9488,5.7791,39.2335],[-3.9413,5.762,25.6298],[-3.9373,5.7687,28.8408],[-3.9249,5.7718,34.5537],[-3.9226,5.7682,35.0593],[-3.9258,5.7615,30.3832],[-3.9245,5.7615,29.4415],[-3.9131,5.7749,39.3411],[-3.9117,5.7782,30.5125],[-3.9154,5.7886,37.5586],[-3.9086,5.7939,29.8914],[-3.9091,5.8004,29.2982],[-3.9071,5.8083,33.8496],[-3.8981,5.8189,36.7974],[-3.8926,5.8196,45.7876],[-3.8858,5.8171,56.7798],[-3.8845,5.8122,36.7704],[-3.8856,5.8103,38.941],[-3.8791,5.8024,43.1209],[-3.8568,5.8146,43.4601],[-3.8455,5.8153,41.5953],[-3.8385,5.8203,42.7647],[-3.8385,5.8262,45.6693],[-3.8368,5.8288,51.0196],[-3.8293,5.8337,41.5598],[-3.8226,5.8421,37.312],[-3.8175,5.8441,41.4571],[-3.8147,5.8509,49.4975],[-3.811,5.8551,47.0832],[-3.7985,5.8635,45.1524],[-3.7949,5.8698,51.4778],[-3.7803,5.8772,52.2351],[-3.7707,5.8858,46.2685],[-3.762,5.8892,54.506],[-3.7563,5.8935,55.4634],[-3.7514,5.9071,66.0259],[-3.7394,5.9167,58.0005],[-3.7127,5.9617,67.2985],[-3.6961,6.0206,62.09],[-3.7005,6.0223,62.3722],[-3.6994,6.0323,68.3308],[-3.7037,6.0382,66.288],[-3.7075,6.0398,71.9339],[-3.7059,6.0445,68.3126],[-3.7072,6.0537,67.7267],[-3.7102,6.0527,67.6936],[-3.7124,6.0553,72.9644],[-3.7133,6.0633,66.822],[-3.7114,6.0662,68.4442],[-3.7115,6.0707,70.1779],[-3.7023,6.0784,69.7707],[-3.6978,6.0912,76.5286],[-3.7001,6.0966,71.0831],[-3.7012,6.1151,72.4105],[-3.7035,6.1216,83.9409],[-3.7102,6.1307,77.2527],[-3.717,6.1527,80.6416],[-3.7135,6.1762,84.156],[-3.697,6.1993,91.6681],[-3.6909,6.2105,101.3934],[-3.6871,6.2372,106.3821],[-3.6767,6.2455,109.6774],[-3.6733,6.2524,116.7469],[-3.6621,6.2619,128.784],[-3.66,6.2701,125.0606],[-3.6214,6.3227,132.5818],[-3.6484,6.4296,109.0148],[-3.6508,6.4304,112.8534],[-3.6608,6.4256,122.869],[-3.6698,6.4169,117.8716],[-3.676,6.4132,122.5146],[-3.6785,6.4087,120.709],[-3.6905,6.4049,124.2896],[-3.7297,6.3832,153.9115],[-3.7585,6.3525,156.8192],[-3.8351,6.3043,133.0878],[-3.8809,6.2474,117.183],[-3.9961,6.201,121.4644],[-4.0183,6.1842,134.3889],[-4.0022,6.1636,114.5594],[-3.9857,6.153,118.3724],[-3.9794,6.1439,106.0968],[-3.9774,6.1383,99.9462],[-3.9782,6.1311,100.7618],[-3.9821,6.125,100.0796],[-3.9812,6.1189,96.7977],[-3.9784,6.1144,96.0162],[-3.9785,6.1044,97.5269],[-3.974,6.0942,94.8912],[-3.984,6.0834,87.8578],[-4.0022,6.0455,83.3961],[-4.0239,6.0163,82.6532],[-4.0483,5.9931,74.1601],[-4.0584,5.9873,74.3326],[-4.0619,5.9743,69.7228],[-4.0671,5.9715,65.2159],[-4.08,5.9504,66.0247],[-4.082,5.9445,60.6927],[-4.0821,5.9373,59.4252],[-4.0674,5.9288,65.8039],[-4.0641,5.9064,57.5438],[-4.065,5.9044,54.7888],[-4.0696,5.903,58.8102],[-4.076,5.8822,52.2418],[-4.0799,5.8768,50.9287],[-4.0835,5.8622,52.1636]]]]}
,"properties": {"GID_3": "CIV.7.3.1_1","GID_0": "CIV","country": "Côted'Ivoire","GID_1": "CIV.7_1","province": "Lagunes","NL_NAME_1": "NA","GID_2": "CIV.7.3_1","county": "LaMé","NL_NAME_2": "NA","city": "Adzope","VARNAME_3": "NA","NL_NAME_3": "NA","TYPE_3": "Département","ENGTYPE_3": "Department","CC_3": "NA","HASC_3": "NA","name": "Adzope.city","area_km2": 1913.052,"hist_schema_id": "Elevation0-9000","hist_area_km2": {"25": 14.491,"50": 201.086,"75": 403.123,"100": 486.567,"125": 429.188,"150": 296.115,"175": 81.83,"200": 0.653}}}