{"type": "Feature","bbox": [-5.8626,5.0335,-5.4532,5.6268],"geometry": {"type": "MultiPolygon","coordinates": [[[[-5.5988,5.1032,2.8287],[-5.6007,5.1024,1.0],[-5.6004,5.0996,1.0],[-5.5957,5.0974,1.0],[-5.5951,5.1001,1.0],[-5.5988,5.1032,2.8287]]],
[[[-5.6125,5.5689,161.3328],[-5.6129,5.574,165.5522],[-5.6504,5.5624,166.5738],[-5.7446,5.6268,158.1122],[-5.8295,5.5697,196.864],[-5.7021,5.2077,38.4263],[-5.7148,5.2071,57.912],[-5.7595,5.1998,56.6971],[-5.8626,5.1524,48.4428],[-5.8569,5.0335,0.0],[-5.8415,5.0371,10.6258],[-5.8399,5.0379,2.4154],[-5.8396,5.0407,9.0671],[-5.8388,5.0388,6.6886],[-5.8363,5.0382,0.0],[-5.7846,5.0479,3.0659],[-5.7849,5.0524,2.5],[-5.7899,5.0568,11.2285],[-5.7901,5.0599,5.9185],[-5.7946,5.0632,10.8755],[-5.7985,5.0635,15.0978],[-5.8018,5.0596,9.8126],[-5.8068,5.0585,11.885],[-5.8021,5.0613,15.5748],[-5.8037,5.0643,22.5592],[-5.801,5.0632,2.5],[-5.799,5.0643,2.5],[-5.8018,5.0707,6.8152],[-5.7996,5.0699,45.3762],[-5.7982,5.0654,2.5],[-5.7924,5.0649,5.8562],[-5.7876,5.0582,2.5],[-5.7843,5.0565,2.5],[-5.7838,5.0615,12.6819],[-5.7879,5.0668,10.3725],[-5.7857,5.066,3.1277],[-5.7832,5.0618,2.5],[-5.7813,5.0618,2.5],[-5.7799,5.0635,2.5],[-5.7801,5.071,2.5],[-5.7776,5.0712,2.5],[-5.7779,5.0687,2.5],[-5.7757,5.0676,4.3316],[-5.7813,5.056,2.5],[-5.7796,5.049,2.9718],[-5.7618,5.0515,0.0],[-5.7612,5.0618,7.3274],[-5.7596,5.0615,8.4992],[-5.7607,5.0582,4.5],[-5.759,5.0518,0.0],[-5.7546,5.0521,27.4078],[-5.7521,5.0604,13.8468],[-5.7515,5.0596,13.8468],[-5.7521,5.0529,3.9389],[-5.751,5.0526,3.9389],[-5.7368,5.0549,0.0],[-5.7343,5.061,8.5181],[-5.7335,5.0588,19.2793],[-5.7346,5.0557,6.4984],[-5.7329,5.0551,0.0],[-5.714,5.0579,2.1775],[-5.7126,5.0621,7.6125],[-5.7121,5.0607,8.25],[-5.7126,5.0585,1.0521],[-5.7079,5.0585,0.0],[-5.6318,5.0682,0.0],[-5.6188,5.0718,0.0],[-5.6132,5.0749,0.0],[-5.5871,5.079,1.206],[-5.5846,5.0824,7.2892],[-5.5765,5.0826,3.6968],[-5.5735,5.0851,10.6392],[-5.5726,5.089,1.0],[-5.5782,5.0901,1.0],[-5.5954,5.0876,1.0],[-5.5985,5.0904,1.0],[-5.6046,5.0882,1.0],[-5.6171,5.0868,1.0],[-5.6179,5.0882,1.0],[-5.6157,5.0885,1.0],[-5.6154,5.0904,6.7394],[-5.619,5.0957,1.0],[-5.6196,5.1021,4.5875],[-5.6176,5.101,1.0],[-5.6171,5.0957,1.0],[-5.6118,5.091,1.0],[-5.5993,5.0946,4.5574],[-5.6018,5.0982,1.9632],[-5.6062,5.099,1.0],[-5.6118,5.1035,1.0],[-5.6126,5.1107,1.4645],[-5.6149,5.114,8.1602],[-5.6099,5.1149,2.7786],[-5.6093,5.1143,2.7786],[-5.6107,5.1126,1.0],[-5.6107,5.1065,1.0],[-5.6068,5.1015,1.0],[-5.604,5.1018,1.0],[-5.6032,5.1046,3.987],[-5.601,5.1057,3.6417],[-5.601,5.1115,1.0],[-5.5988,5.1115,1.0],[-5.5999,5.1101,2.3585],[-5.5971,5.1043,12.8746],[-5.5938,5.1049,1.0],[-5.5915,5.1126,9.8648],[-5.5907,5.1101,1.0],[-5.5924,5.101,1.0],[-5.5899,5.0971,1.0],[-5.5868,5.0982,7.6205],[-5.586,5.0951,1.0],[-5.5837,5.0946,1.0],[-5.576,5.096,4.941],[-5.5726,5.0982,1.0],[-5.5735,5.091,1.0],[-5.5718,5.089,1.0],[-5.569,5.0899,1.3757],[-5.5696,5.0874,1.6771],[-5.5726,5.0863,5.5809],[-5.5715,5.0829,1.1236],[-5.5707,5.0849,1.4906],[-5.5665,5.0857,1.6166],[-5.5657,5.0885,1.4983],[-5.5618,5.0854,1.0],[-5.5576,5.0863,1.0],[-5.549,5.084,1.3717],[-5.4882,5.0918,0.0],[-5.4882,5.0943,6.9627],[-5.4857,5.0954,0.7525],[-5.4871,5.0987,5.9891],[-5.4849,5.0962,2.7258],[-5.4863,5.0924,0.4875],[-5.4532,5.0962,0.5584],[-5.455,5.1719,54.8115],[-5.4715,5.4351,49.6999],[-5.516,5.4286,78.4135],[-5.6114,5.5515,161.8685],[-5.6125,5.5689,161.3328]]]]}
,"properties": {"GID_3": "CIV.2.1.1_1","GID_0": "CIV","country": "Côted'Ivoire","GID_1": "CIV.2_1","province": "Bas-Sassandra","NL_NAME_1": "NA","GID_2": "CIV.2.1_1","county": "Gbôkle","NL_NAME_2": "NA","city": "Fresco","VARNAME_3": "NA","NL_NAME_3": "NA","TYPE_3": "Département","ENGTYPE_3": "Department","CC_3": "NA","HASC_3": "NA","name": "Fresco.city","area_km2": 1874.882,"hist_schema_id": "Elevation0-9000","hist_area_km2": {"0": 93.678,"25": 365.285,"50": 415.776,"75": 201.919,"100": 167.991,"125": 221.627,"150": 230.214,"175": 139.773,"200": 36.172,"225": 2.364,"250": 0.084}}}