{"type": "Feature","bbox": [-4.0558,7.0626,-2.4949,8.7928],"geometry": {"type": "MultiPolygon","coordinates": [[[[-2.9775,7.2768,276.1639],[-2.9696,7.3331,310.0078],[-2.9484,7.43,264.7946],[-2.9473,7.4565,239.2708],[-2.9347,7.4865,243.2682],[-2.9235,7.6086,236.1369],[-2.8887,7.6836,364.4055],[-2.8834,7.6985,498.789],[-2.8735,7.7187,349.0617],[-2.8693,7.7323,299.5308],[-2.8506,7.7619,342.4809],[-2.8486,7.7802,336.4331],[-2.8352,7.7936,349.4802],[-2.8261,7.8057,334.9637],[-2.8304,7.8205,286.6523],[-2.8251,7.8244,286.4109],[-2.8291,7.8337,294.729],[-2.8292,7.8427,291.7617],[-2.8329,7.8486,295.2161],[-2.8252,7.8682,298.219],[-2.8217,7.8949,328.815],[-2.8221,7.9124,320.747],[-2.8103,7.9385,362.4898],[-2.81,7.9595,372.5909],[-2.8086,7.9656,458.5644],[-2.7931,7.9837,331.4152],[-2.7717,7.9971,351.3109],[-2.7516,8.0018,350.8256],[-2.7127,8.0172,339.3589],[-2.6956,8.0298,309.8781],[-2.6921,8.0296,321.9709],[-2.662,8.0421,337.3122],[-2.6527,8.0422,354.9591],[-2.6367,8.0547,320.5698],[-2.6314,8.0532,323.9861],[-2.6362,8.0671,323.0465],[-2.6341,8.0913,297.68],[-2.6299,8.1151,275.652],[-2.625,8.125,270.4728],[-2.6225,8.1265,274.1291],[-2.621,8.1312,265.8718],[-2.6148,8.1376,266.2091],[-2.6085,8.1519,258.7228],[-2.6018,8.1536,261.7604],[-2.5913,8.1515,255.4218],[-2.5899,8.1524,258.0605],[-2.5875,8.1498,255.4337],[-2.5851,8.1505,257.3929],[-2.5762,8.1448,252.598],[-2.5697,8.1455,250.598],[-2.5654,8.1493,248.8618],[-2.5614,8.1473,247.3402],[-2.5597,8.1434,247.651],[-2.5582,8.1462,246.8633],[-2.5554,8.1469,245.3651],[-2.5448,8.1757,279.4157],[-2.5179,8.1908,263.9494],[-2.509,8.1934,272.843],[-2.4949,8.2052,256.2722],[-2.4977,8.2448,304.2874],[-2.5,8.2565,304.6902],[-2.5014,8.3074,283.587],[-2.5044,8.334,305.2288],[-2.5164,8.3831,238.8592],[-2.5175,8.4017,227.0714],[-2.5244,8.4406,217.8188],[-2.533,8.4809,234.8058],[-2.5396,8.5005,238.35],[-2.549,8.5423,225.122],[-2.5621,8.6149,242.5673],[-2.5626,8.6289,254.7161],[-2.5671,8.6596,242.6318],[-2.5739,8.6909,259.6284],[-2.5734,8.7006,254.4217],[-2.5872,8.7786,199.8163],[-2.5937,8.7883,194.0643],[-2.605,8.7885,194.5253],[-2.6159,8.7868,196.4583],[-2.6259,8.7928,194.8567],[-2.6289,8.7894,198.7501],[-2.6298,8.7843,197.4828],[-2.6262,8.7782,199.8089],[-2.7876,8.6838,364.8486],[-2.9399,8.6396,280.92],[-2.9566,8.6432,278.6652],[-2.9726,8.6424,284.6521],[-2.9852,8.6483,286.5098],[-2.9898,8.6482,289.5327],[-2.9964,8.6514,284.3871],[-3.0082,8.6515,290.1493],[-3.0235,8.6447,297.9736],[-3.0319,8.6337,299.5573],[-3.0567,8.6292,302.8044],[-3.06,8.6271,303.5381],[-3.0649,8.6201,329.4117],[-3.0721,8.6173,319.7997],[-3.0762,8.6121,335.2415],[-3.0868,8.6101,352.477],[-3.0994,8.6152,342.5048],[-3.1076,8.6159,342.4785],[-3.1207,8.6079,347.4031],[-3.1384,8.606,353.8008],[-3.1441,8.6027,357.052],[-3.1533,8.5904,365.4091],[-3.1543,8.5862,369.0352],[-3.1623,8.5742,373.4462],[-3.1646,8.5738,368.4742],[-3.1656,8.5627,376.2635],[-3.1681,8.5579,377.8916],[-3.1747,8.5513,389.175],[-3.1803,8.54,394.6705],[-3.1868,8.5337,405.8333],[-3.196,8.5206,371.7381],[-3.2066,8.513,399.1746],[-3.2303,8.5033,364.1777],[-3.2412,8.4947,371.0106],[-3.2593,8.4888,383.8274],[-3.2645,8.4851,396.229],[-3.2761,8.4853,363.2691],[-3.2825,8.4798,342.3909],[-3.2886,8.4693,315.8176],[-3.2987,8.4395,293.9143],[-3.3027,8.4364,313.9592],[-3.3113,8.4217,299.0521],[-3.3271,8.4077,333.8566],[-3.3302,8.4019,344.8838],[-3.331,8.3948,360.1118],[-3.3294,8.3905,366.1893],[-3.3344,8.3782,369.046],[-3.3459,8.3587,371.398],[-3.3534,8.3511,359.575],[-3.3522,8.3458,368.1505],[-3.3576,8.3203,348.3686],[-3.3526,8.308,316.0377],[-3.3549,8.3043,310.8887],[-3.3645,8.3004,308.3107],[-3.3914,8.3014,293.583],[-3.4021,8.3003,294.6905],[-3.411,8.2973,284.6255],[-3.4152,8.2906,271.9525],[-3.4211,8.287,268.4496],[-3.4243,8.2814,263.9012],[-3.4244,8.2769,261.2261],[-3.4274,8.2751,265.2397],[-3.4287,8.2678,255.6911],[-3.4333,8.2604,252.2785],[-3.4399,8.2573,255.9222],[-3.4472,8.2588,256.1362],[-3.4513,8.2577,253.0626],[-3.4605,8.2495,251.8965],[-3.4765,8.2454,245.8535],[-3.4828,8.2506,253.7133],[-3.4873,8.2592,254.6148],[-3.4922,8.2589,245.7808],[-3.4985,8.2545,244.1417],[-3.4967,8.2426,236.035],[-3.5,8.2404,237.5423],[-3.5023,8.2356,242.5811],[-3.5086,8.2351,244.6049],[-3.5224,8.2279,240.6267],[-3.5341,8.2285,234.6931],[-3.5427,8.2228,232.4663],[-3.5541,8.2213,222.0255],[-3.5578,8.2177,223.3232],[-3.5623,8.2088,225.7809],[-3.5763,8.2012,223.8204],[-3.5793,8.2011,227.1369],[-3.5856,8.2089,222.381],[-3.5898,8.2104,228.2111],[-3.597,8.2204,235.3666],[-3.6001,8.2287,238.6459],[-3.5999,8.2453,234.1961],[-3.5968,8.2596,251.7645],[-3.5893,8.2786,279.1216],[-3.5895,8.2922,257.7717],[-3.5952,8.3047,286.9452],[-3.6067,8.3083,272.6488],[-3.661,8.3094,293.6729],[-3.6669,8.3077,282.2147],[-3.6751,8.2801,292.7834],[-3.6801,8.2761,299.3038],[-3.7145,8.2624,251.0571],[-3.7259,8.2705,241.8761],[-3.7396,8.2706,236.6694],[-3.742,8.2734,239.7809],[-3.7619,8.2761,230.1802],[-3.7848,8.2816,223.953],[-3.7929,8.289,222.8539],[-3.7974,8.3032,210.7727],[-3.8099,8.3205,209.5162],[-3.8149,8.3243,205.0493],[-3.8275,8.3296,209.7283],[-3.8299,8.3324,208.6147],[-3.8295,8.3462,210.6588],[-3.823,8.3597,229.3601],[-3.8197,8.3722,249.0965],[-3.8212,8.3838,256.2231],[-3.8279,8.3907,267.5923],[-3.8364,8.3932,239.5582],[-3.846,8.4007,222.1261],[-3.8513,8.4073,250.4531],[-3.8571,8.4089,242.7872],[-3.8621,8.4146,237.6407],[-3.8658,8.4165,238.7837],[-3.8786,8.4285,216.8957],[-3.8822,8.4405,204.897],[-3.8867,8.4448,212.3397],[-3.898,8.4465,195.4215],[-3.919,8.4453,181.1102],[-3.9379,8.4479,181.6433],[-3.9561,8.4354,176.5826],[-3.9706,8.4314,177.7698],[-3.9761,8.4308,176.8996],[-3.9808,8.4342,180.2852],[-3.993,8.4347,180.0269],[-3.9956,8.4315,188.1017],[-3.9965,8.4243,187.7145],[-3.9927,8.4193,175.6562],[-3.99,8.4057,179.0513],[-3.9863,8.4005,187.5689],[-3.9732,8.4022,181.8617],[-3.9505,8.3987,178.5565],[-3.9484,8.3947,184.3721],[-3.9542,8.3795,178.382],[-3.9584,8.3762,177.1168],[-3.9736,8.3746,178.5197],[-3.9789,8.3726,176.1535],[-3.9823,8.3669,173.0126],[-3.9814,8.3631,181.783],[-3.9764,8.3581,182.5358],[-3.9739,8.3524,183.0497],[-3.9517,8.346,176.3957],[-3.9527,8.3388,177.581],[-3.9595,8.3249,176.2669],[-3.9612,8.3071,179.0234],[-3.9669,8.2972,179.2322],[-3.9706,8.2969,173.5979],[-3.9861,8.3021,182.999],[-4.0,8.3047,176.0307],[-4.0079,8.3082,181.5374],[-4.0163,8.3054,177.6677],[-4.0332,8.3086,174.5661],[-4.047,8.3072,172.6542],[-4.0551,8.2942,183.4736],[-4.0558,8.2879,177.1359],[-4.0463,8.2793,174.2734],[-4.0305,8.2607,179.5011],[-4.0113,8.2465,170.5298],[-4.0024,8.2334,181.3637],[-4.0023,8.2282,179.9255],[-4.0077,8.2194,177.3498],[-4.0212,8.2065,180.599],[-4.0294,8.1921,174.2133],[-4.0288,8.1851,206.4695],[-4.0249,8.1784,174.7748],[-4.0188,8.1733,183.1619],[-4.0076,8.1755,170.0915],[-3.9757,8.1661,170.0713],[-3.9755,8.1608,175.5148],[-3.9725,8.1551,172.6698],[-3.9578,8.1421,167.1726],[-3.9572,8.1367,176.1932],[-3.952,8.1345,175.0489],[-3.9464,8.129,166.7369],[-3.9458,8.1238,167.6859],[-3.9375,8.1236,169.7087],[-3.9284,8.1209,167.0825],[-3.9271,8.1138,167.0249],[-3.9296,8.1054,164.9735],[-3.9351,8.1039,165.5042],[-3.9512,8.1057,174.7465],[-3.9645,8.1098,171.9745],[-3.9867,8.1088,183.9147],[-3.9976,8.1003,165.1373],[-3.9992,8.0944,165.1163],[-3.9977,8.0897,165.2264],[-4.0005,8.0774,165.1006],[-4.005,8.0714,165.3209],[-4.0117,8.067,175.769],[-4.0135,8.0513,177.5234],[-4.0109,8.0463,173.0054],[-4.0015,8.0408,166.941],[-4.0008,8.0434,177.953],[-3.9963,8.0422,168.4524],[-3.9813,8.0322,168.9312],[-3.9684,8.032,171.7082],[-3.9654,8.0294,173.6353],[-3.9634,8.0182,191.2375],[-3.9646,8.0153,191.5889],[-3.9688,8.0123,192.9563],[-3.9752,8.0138,172.7897],[-3.9868,8.0135,170.4851],[-3.9898,8.0119,167.2043],[-4.0003,8.0011,166.0782],[-4.0082,7.9978,166.0704],[-4.0143,7.9907,177.8851],[-4.0164,7.9816,167.2573],[-4.0089,7.9572,162.8712],[-4.0052,7.9542,167.2155],[-4.0002,7.953,168.4622],[-3.9943,7.9562,173.7064],[-3.9809,7.9691,164.8358],[-3.9734,7.971,163.596],[-3.9614,7.9689,166.0782],[-3.9284,7.9779,167.1904],[-3.9242,7.975,166.897],[-3.9202,7.9654,160.9551],[-3.9203,7.9623,161.2236],[-3.9243,7.9553,162.9454],[-3.931,7.9482,158.2701],[-3.9406,7.9417,171.1415],[-3.944,7.9296,163.5254],[-3.9462,7.9276,162.6048],[-3.9584,7.9218,168.2981],[-3.9703,7.9191,163.1308],[-3.9741,7.9165,165.4379],[-3.9898,7.916,164.7933],[-3.9933,7.9119,166.2351],[-3.9939,7.9072,159.5925],[-3.9899,7.9025,168.6494],[-3.9868,7.9024,164.8373],[-3.9838,7.9,161.9012],[-3.9497,7.8937,162.3469],[-3.9357,7.8936,161.2403],[-3.921,7.8851,159.3484],[-3.9113,7.8829,160.2914],[-3.9035,7.8851,162.5957],[-3.8949,7.8848,161.1367],[-3.8805,7.8795,157.7434],[-3.8704,7.8652,158.3961],[-3.865,7.8603,157.9034],[-3.8634,7.8486,155.0411],[-3.8677,7.8416,158.4364],[-3.8759,7.8332,167.272],[-3.8784,7.824,166.3811],[-3.8776,7.82,157.2409],[-3.8741,7.8152,164.1268],[-3.8608,7.8069,154.8033],[-3.859,7.8023,153.8184],[-3.8623,7.7985,155.4009],[-3.8693,7.7831,152.8198],[-3.877,7.7764,159.1906],[-3.8776,7.7749,158.0498],[-3.874,7.7695,158.2293],[-3.8551,7.7696,160.0777],[-3.8449,7.7721,155.6656],[-3.8289,7.765,157.0551],[-3.8269,7.7627,156.2871],[-3.8282,7.7596,155.244],[-3.8333,7.7548,154.4993],[-3.8326,7.7468,154.5714],[-3.8296,7.7418,155.3425],[-3.8209,7.7375,157.4446],[-3.8037,7.7418,156.6035],[-3.788,7.7382,154.2312],[-3.7816,7.7349,155.8693],[-3.7615,7.7374,155.3644],[-3.7549,7.7319,163.1681],[-3.7424,7.7338,176.5411],[-3.7369,7.7401,152.7152],[-3.7325,7.736,149.8286],[-3.7285,7.7216,149.3141],[-3.7324,7.7139,157.2772],[-3.7308,7.7061,150.6003],[-3.7351,7.6888,152.165],[-3.7346,7.6772,155.1227],[-3.7315,7.6654,159.7571],[-3.7079,7.6481,158.499],[-3.6979,7.6479,147.7943],[-3.681,7.6399,148.5424],[-3.6837,7.6285,152.0544],[-3.6831,7.6252,154.0294],[-3.6667,7.6058,147.2307],[-3.6611,7.5883,153.4717],[-3.6562,7.5803,151.1475],[-3.6484,7.5757,146.3168],[-3.6422,7.5752,162.6823],[-3.6356,7.5773,146.9208],[-3.6167,7.5919,147.9078],[-3.6088,7.594,145.865],[-3.5966,7.5922,150.7848],[-3.5824,7.5824,155.4947],[-3.5791,7.577,146.2982],[-3.5748,7.5542,160.4759],[-3.5852,7.5416,161.1444],[-3.5919,7.5371,158.349],[-3.5993,7.5345,151.721],[-3.603,7.5278,155.0368],[-3.6033,7.5231,151.4659],[-3.6014,7.5199,160.5205],[-3.5923,7.5164,149.6155],[-3.5895,7.5109,147.4804],[-3.5837,7.5095,148.781],[-3.5749,7.5013,160.139],[-3.5586,7.496,149.0721],[-3.5399,7.4925,142.9485],[-3.5333,7.4789,143.7543],[-3.5317,7.4678,146.8128],[-3.5262,7.4591,147.5359],[-3.5137,7.4489,159.8494],[-3.5071,7.4398,143.8212],[-3.5021,7.4263,144.9277],[-3.5032,7.403,141.339],[-3.5049,7.3953,141.2532],[-3.5141,7.3886,142.1549],[-3.5222,7.3732,146.0204],[-3.5222,7.3642,145.3047],[-3.5178,7.3523,150.3548],[-3.5023,7.352,148.629],[-3.4963,7.3533,148.1499],[-3.4876,7.3477,149.3055],[-3.4786,7.3458,148.8116],[-3.479,7.3543,147.3458],[-3.4754,7.3546,147.2433],[-3.4724,7.3499,151.0689],[-3.469,7.3484,150.3676],[-3.4648,7.3529,149.5452],[-3.4616,7.35,147.6037],[-3.4602,7.3434,148.0268],[-3.4584,7.3424,148.6355],[-3.4555,7.3446,146.9862],[-3.4568,7.3517,149.1657],[-3.4527,7.3537,149.5982],[-3.4501,7.3492,149.3218],[-3.4478,7.3393,149.9724],[-3.4422,7.3421,151.708],[-3.4364,7.3405,150.1208],[-3.436,7.3353,148.2839],[-3.428,7.3259,144.7363],[-3.425,7.3188,162.7748],[-3.4207,7.3021,164.039],[-3.4209,7.2948,177.927],[-3.4123,7.2701,175.6587],[-3.3986,7.2466,186.4666],[-3.3916,7.2398,188.0582],[-3.3871,7.2403,212.9149],[-3.2985,7.2742,164.2807],[-3.2925,7.29,161.8605],[-3.2917,7.2976,157.8866],[-3.2955,7.3096,161.3189],[-3.2992,7.3155,161.6801],[-3.3079,7.3221,155.5545],[-3.3094,7.3252,153.5744],[-3.3076,7.3272,159.2348],[-3.2988,7.3298,162.9679],[-3.279,7.3319,166.7351],[-3.2724,7.3316,164.9826],[-3.263,7.3272,180.5292],[-3.2514,7.3259,170.6629],[-3.2465,7.3221,175.8762],[-3.2449,7.3185,186.3926],[-3.2405,7.2432,195.1102],[-3.236,7.2339,206.8617],[-3.2313,7.2288,221.9502],[-3.2209,7.2217,228.1854],[-3.2181,7.217,225.2913],[-3.2174,7.1887,211.9024],[-3.1914,7.1739,247.3868],[-3.1807,7.1734,231.5212],[-3.138,7.1414,263.9858],[-3.1357,7.1363,250.2512],[-3.1283,7.1288,243.2246],[-3.1134,7.1069,212.672],[-3.0752,7.0626,246.0659],[-3.0321,7.0717,235.2218],[-3.0236,7.1425,260.0125],[-2.9827,7.1947,267.4173],[-2.9534,7.2392,245.7386],[-2.9597,7.2509,264.2367],[-2.9782,7.2721,273.7089],[-2.9775,7.2768,276.1639]]]]}
,"properties": {"GID_2": "CIV.14.2_1","GID_0": "CIV","country": "Côted'Ivoire","GID_1": "CIV.14_1","province": "Zanzan","NL_NAME_1": "NA","county": "Gontougo","VARNAME_2": "NA","NL_NAME_2": "NA","TYPE_2": "Région","ENGTYPE_2": "Region","CC_2": "NA","HASC_2": "CI.ZA.GT","name": "Gontougo.county","area_km2": 16160.59,"hist_schema_id": "Elevation0-9000","hist_area_km2": {"150": 297.27,"175": 1053.28,"200": 2078.79,"225": 2699.61,"250": 2687.03,"275": 1980.73,"300": 1327.59,"325": 1016.51,"350": 911.33,"375": 758.48,"400": 666.96,"425": 342.36,"450": 93.66,"475": 61.58,"500": 46.07,"525": 34.19,"550": 25.8,"575": 20.8,"600": 16.2,"625": 13.18,"650": 9.49,"675": 8.02,"700": 7.12,"725": 4.53}}}