{"type": "Feature","bbox": [-4.421,5.2207,-3.7218,5.6363],"geometry": {"type": "MultiPolygon","coordinates": [[[[-3.8241,5.3753,16.7259],[-3.8251,5.3866,22.2822],[-3.8288,5.3897,21.0824],[-3.8251,5.3945,21.9778],[-3.8242,5.4008,15.9436],[-3.8185,5.4092,13.1936],[-3.8168,5.4148,15.2333],[-3.8141,5.4164,16.865],[-3.8144,5.4226,21.8217],[-3.8109,5.4262,23.4624],[-3.814,5.4292,10.8696],[-3.8137,5.4328,12.0647],[-3.8165,5.4345,9.9513],[-3.8193,5.4354,9.9092],[-3.8227,5.4337,14.5761],[-3.8249,5.4415,12.7269],[-3.8288,5.4435,12.8564],[-3.8293,5.4513,11.6927],[-3.8312,5.4551,14.552],[-3.8271,5.459,12.5172],[-3.8251,5.4645,9.3574],[-3.8284,5.4719,14.247],[-3.8304,5.4854,14.064],[-3.8389,5.4929,16.905],[-3.8389,5.497,23.586],[-3.8428,5.5067,37.5843],[-3.8462,5.5089,14.3984],[-3.8567,5.5071,16.0592],[-3.862,5.5086,13.5253],[-3.8684,5.504,17.3385],[-3.8708,5.5105,19.3331],[-3.8717,5.5221,16.2158],[-3.8784,5.5257,30.9131],[-3.8966,5.5546,32.1378],[-3.9029,5.5575,22.125],[-3.9082,5.5637,22.2974],[-3.9121,5.5643,18.7348],[-3.9172,5.5625,15.5286],[-3.9219,5.5653,13.018],[-3.9213,5.5731,16.086],[-3.9229,5.5782,22.7473],[-3.9369,5.5972,19.0752],[-3.9301,5.616,17.2851],[-3.9343,5.6218,18.6144],[-3.9351,5.6258,17.9216],[-3.9335,5.6318,16.9849],[-3.9356,5.6363,20.0508],[-3.9422,5.624,23.0942],[-3.9564,5.6239,38.9831],[-3.9689,5.6189,41.7124],[-3.9774,5.6132,40.1891],[-3.9853,5.6053,46.0476],[-4.083,5.5974,75.1138],[-4.2208,5.6058,20.7496],[-4.2254,5.6037,20.2168],[-4.2532,5.6084,24.1698],[-4.2564,5.6071,22.4705],[-4.2604,5.6026,19.8115],[-4.3571,5.5853,43.0168],[-4.3674,5.5912,42.6707],[-4.421,5.5229,34.0505],[-4.4064,5.518,26.4827],[-4.3433,5.5115,19.2023],[-4.3061,5.5002,33.667],[-4.2705,5.4824,38.1486],[-4.2617,5.4571,26.5854],[-4.265,5.4546,18.9991],[-4.2671,5.4469,10.4989],[-4.2692,5.4445,13.8482],[-4.2672,5.4414,16.7754],[-4.2675,5.4344,13.3143],[-4.2701,5.4293,11.6784],[-4.2941,5.307,0.0],[-4.2519,5.2994,0.0],[-4.2543,5.2931,3.238],[-4.2535,5.2899,0.0],[-4.2514,5.2878,0.0],[-4.2467,5.2883,0.0],[-4.2433,5.283,0.0],[-4.2357,5.2389,10.7324],[-4.2273,5.2382,8.7771],[-4.2165,5.2207,4.8779],[-4.0365,5.2446,7.2469],[-4.0068,5.244,1.2136],[-4.0054,5.2465,5.0998],[-4.0015,5.2465,1.2891],[-4.0046,5.2488,0.0],[-4.0021,5.2499,0.6929],[-4.0015,5.2524,8.081],[-3.9912,5.2549,4.4717],[-3.9815,5.2551,0.9308],[-3.9668,5.2535,0.0],[-3.956,5.2482,3.1708],[-3.9435,5.2454,0.0],[-3.8885,5.2371,8.8707],[-3.8546,5.2274,8.0814],[-3.844,5.2541,5.6146],[-3.8196,5.2507,11.2947],[-3.8172,5.2541,9.7637],[-3.818,5.2618,7.6418],[-3.8221,5.2669,9.732],[-3.8213,5.2719,5.9239],[-3.8107,5.2864,0.0],[-3.7879,5.2728,0.0],[-3.7218,5.2993,0.0],[-3.7442,5.31,0.0],[-3.748,5.3158,0.0],[-3.752,5.3309,0.0],[-3.7673,5.3398,0.0],[-3.7831,5.3556,0.0],[-3.8241,5.3753,16.7259]]]]}
,"properties": {"GID_2": "CIV.1.1_1","GID_0": "CIV","country": "Côted'Ivoire","GID_1": "CIV.1_1","province": "Abidjan","NL_NAME_1": "NA","county": "Abidjan","VARNAME_2": "NA","NL_NAME_2": "NA","TYPE_2": "Districtautonome","ENGTYPE_2": "Autonomousdistrict","CC_2": "NA","HASC_2": "CI.AB.AB","name": "Abidjan.county","area_km2": 2116.52,"hist_schema_id": "Elevation0-9000","hist_area_km2": {"0": 537.762,"25": 485.755,"50": 457.601,"75": 384.762,"100": 207.477,"125": 43.016,"150": 0.148}}}