{"type": "Feature","bbox": [-3.8546,5.1829,-3.6635,5.2993],"geometry": {"type": "MultiPolygon","coordinates": [[[[-3.8546,5.2274,8.0814],[-3.8224,5.2135,0.0],[-3.7899,5.2043,4.3011],[-3.7154,5.1896,0.0],[-3.6635,5.1829,1.1112],[-3.6638,5.2024,9.8243],[-3.719,5.2217,1.2327],[-3.7186,5.2298,0.0],[-3.7214,5.2418,3.8282],[-3.731,5.251,0.0],[-3.7304,5.273,0.0],[-3.7197,5.294,0.0],[-3.7194,5.297,0.0],[-3.7218,5.2993,0.0],[-3.7879,5.2728,0.0],[-3.8107,5.2864,0.0],[-3.8213,5.2719,5.9239],[-3.8221,5.2669,9.732],[-3.818,5.2618,7.6418],[-3.8172,5.2541,9.7637],[-3.8196,5.2507,11.2947],[-3.844,5.2541,5.6146],[-3.8546,5.2274,8.0814]]]]}
,"properties": {"GID_3": "CIV.3.2.5_1","GID_0": "CIV","country": "Côted'Ivoire","GID_1": "CIV.3_1","province": "Comoé","NL_NAME_1": "NA","GID_2": "CIV.3.2_1","county": "SudComoé","NL_NAME_2": "NA","city": "Grand-Bassam","VARNAME_3": "NA","NL_NAME_3": "NA","TYPE_3": "Département","ENGTYPE_3": "Department","CC_3": "NA","HASC_3": "NA","name": "Grand-Bassam.city","area_km2": 127.92829,"hist_schema_id": "Elevation0-9000","hist_area_km2": {"0": 120.28536,"25": 7.15735,"50": 0.48557}}}