{"type":"Feature","properties":{"GID_3":"CIV.11.1.5_1","GID_0":"CIV","country":"Côted'Ivoire","GID_1":"CIV.11_1","province":"ValléeduBandama","NL_NAME_1":"NA","GID_2":"CIV.11.1_1","county":"Gbeke","NL_NAME_2":"NA","city":"Sakassou","VARNAME_3":"NA","NL_NAME_3":"NA","TYPE_3":"Département","ENGTYPE_3":"Department","CC_3":"NA","HASC_3":"NA","name":"Sakassou.city"},
"geometry":{"type": "MultiPolygon","coordinates": [[[[-5.2011,7.3158,189.6184],[-5.209,7.3305,187.1383],[-5.2085,7.3424,191.0598],[-5.1966,7.3547,194.5215],[-5.1952,7.3586,197.1928],[-5.1997,7.3707,201.377],[-5.207,7.3801,201.8794],[-5.2011,7.3938,205.8406],[-5.1928,7.4053,203.5243],[-5.1896,7.414,199.8095],[-5.1825,7.4213,201.3833],[-5.1665,7.4284,204.4848],[-5.1627,7.4373,208.2254],[-5.1636,7.4426,205.029],[-5.158,7.449,207.3745],[-5.1512,7.4523,209.615],[-5.1489,7.4653,219.5231],[-5.1455,7.4704,215.5316],[-5.1424,7.4873,217.1583],[-5.1437,7.4936,216.4114],[-5.1496,7.5024,220.0788],[-5.1499,7.5058,230.2289],[-5.1445,7.512,227.4064],[-5.1422,7.5198,224.1523],[-5.1388,7.5225,222.4813],[-5.1353,7.5288,231.3988],[-5.1323,7.5263,227.7529],[-5.1269,7.5273,229.4113],[-5.1241,7.5323,231.8103],[-5.1175,7.5377,232.5975],[-5.1178,7.5413,233.4306],[-5.111,7.5456,234.7025],[-5.1081,7.5574,244.5775],[-5.1093,7.5699,249.1458],[-5.102,7.5773,257.1432],[-5.0989,7.5834,258.3585],[-5.0991,7.5938,273.8481],[-5.1024,7.5979,289.7303],[-5.105,7.5986,293.7779],[-5.1073,7.6067,308.5725],[-5.1148,7.6057,309.6556],[-5.1203,7.6,302.6024],[-5.1296,7.5962,290.7963],[-5.1442,7.5962,294.7125],[-5.1529,7.6096,301.8729],[-5.1644,7.6185,306.061],[-5.1792,7.6269,304.083],[-5.1876,7.6288,282.1263],[-5.2037,7.627,281.7573],[-5.2057,7.6246,275.0382],[-5.2121,7.6238,286.7447],[-5.2224,7.6303,264.1563],[-5.2485,7.6418,269.7478],[-5.2505,7.6393,271.2621],[-5.255,7.6381,265.0978],[-5.2646,7.6395,258.4579],[-5.2666,7.6413,253.9456],[-5.282,7.6274,266.5007],[-5.2891,7.6265,263.142],[-5.2939,7.6296,293.6069],[-5.2958,7.6354,268.8514],[-5.3069,7.637,284.8202],[-5.3176,7.6417,299.2158],[-5.3453,7.6616,294.9076],[-5.3559,7.6638,274.5801],[-5.3596,7.6665,276.4046],[-5.3724,7.6634,266.5045],[-5.3839,7.665,261.6713],[-5.4291,7.6169,264.4813],[-5.4357,7.6124,271.8889],[-5.4506,7.5925,214.9548],[-5.4462,7.5764,209.9163],[-5.4359,7.5716,207.956],[-5.4325,7.5599,207.0722],[-5.4244,7.5452,202.3833],[-5.4246,7.5419,202.2248],[-5.4339,7.522,204.81],[-5.4336,7.4986,196.6506],[-5.5705,7.4911,216.9479],[-5.665,7.4746,230.7842],[-5.6799,7.4689,218.7129],[-5.6877,7.461,199.7851],[-5.6961,7.4628,211.0432],[-5.7015,7.4604,185.1111],[-5.7073,7.4613,181.5],[-5.7107,7.459,181.5],[-5.7107,7.4433,195.2584],[-5.718,7.4308,181.5],[-5.7204,7.4169,181.5],[-5.7261,7.4104,181.5],[-5.7269,7.4066,181.5],[-5.7227,7.3808,181.5],[-5.7145,7.3687,181.5],[-5.7082,7.3656,181.5],[-5.6949,7.3669,181.5],[-5.6874,7.3617,181.5],[-5.6832,7.3546,181.5],[-5.6865,7.3453,186.2599],[-5.6905,7.3414,181.5],[-5.7137,7.3283,181.5],[-5.7149,7.3233,181.5],[-5.6958,7.3066,181.5],[-5.6795,7.2981,181.5],[-5.6723,7.2972,181.5],[-5.6682,7.295,181.5],[-5.6471,7.2758,191.8933],[-5.6468,7.25,181.5],[-5.6444,7.2588,181.5],[-5.6413,7.2588,182.5466],[-5.6349,7.2686,182.4948],[-5.6319,7.2704,188.5573],[-5.629,7.2716,186.3609],[-5.6104,7.2692,197.9873],[-5.6075,7.2702,202.8785],[-5.6048,7.2758,206.9313],[-5.5896,7.2785,220.185],[-5.5621,7.2879,208.7961],[-5.5218,7.2948,187.4551],[-5.519,7.2881,185.1545],[-5.5157,7.2847,182.7204],[-5.5046,7.2792,181.5],[-5.5,7.2848,181.5],[-5.501,7.2877,181.5],[-5.4964,7.3006,181.5],[-5.4942,7.3026,181.5],[-5.4838,7.3049,181.5],[-5.4813,7.3106,181.5],[-5.4749,7.3061,183.1979],[-5.4626,7.3039,189.0458],[-5.4511,7.3078,201.2569],[-5.4443,7.3061,202.7979],[-5.4384,7.3079,209.5236],[-5.4348,7.3065,234.1868],[-5.4325,7.3027,248.0431],[-5.4346,7.2933,219.3771],[-5.4335,7.2846,188.5858],[-5.4187,7.2864,205.2875],[-5.4094,7.2851,203.5051],[-5.4044,7.2757,215.9129],[-5.4046,7.2724,214.2395],[-5.4005,7.2667,217.8262],[-5.3976,7.2569,213.0352],[-5.3973,7.2496,208.163],[-5.3905,7.2439,226.6533],[-5.3562,7.2422,216.3322],[-5.3406,7.2476,230.0558],[-5.3259,7.2468,210.3171],[-5.3166,7.2419,198.7191],[-5.3092,7.2428,199.164],[-5.3018,7.2352,191.8361],[-5.296,7.2334,199.906],[-5.2733,7.2714,200.8716],[-5.2557,7.2894,211.9861],[-5.2529,7.2955,201.842],[-5.2472,7.2955,201.3212],[-5.2299,7.2886,193.0454],[-5.2249,7.2945,192.2427],[-5.2212,7.2964,195.5414],[-5.2077,7.2949,181.3082],[-5.2041,7.2987,187.1147],[-5.2011,7.3158,189.6184]]]]}}