{"type": "Feature","bbox": [-8.5993,5.638,-6.9715,8.157],"geometry": {"type": "MultiPolygon","coordinates": [[[[-7.0863,5.9709,197.9254],[-7.0863,5.9785,194.4282],[-7.0834,5.9914,192.1784],[-7.0865,6.0586,214.5152],[-7.1268,6.2697,189.5],[-7.1236,6.4593,236.6225],[-6.9923,6.5584,189.5],[-7.0159,6.5719,189.5],[-7.0201,6.5794,189.5],[-7.0202,6.5878,189.5],[-7.0027,6.6039,189.5],[-6.9956,6.6079,191.0092],[-6.988,6.6185,189.5],[-6.9835,6.6415,189.5],[-6.9836,6.6567,189.5],[-6.9898,6.6648,189.5],[-6.9913,6.6728,189.5],[-6.9863,6.6869,189.5],[-6.9715,6.7073,189.5],[-6.9743,6.7131,189.5],[-6.9786,6.7171,190.7672],[-6.9872,6.7198,189.5],[-6.9899,6.723,189.5],[-6.9888,6.7288,189.5],[-6.9827,6.7384,189.5],[-6.9819,6.7454,198.8674],[-6.9898,6.7666,189.5],[-6.9961,6.7742,189.5],[-6.9948,6.7925,189.5],[-6.9982,6.8159,190.5028],[-7.0041,6.8275,189.5],[-7.0081,6.8333,191.4906],[-7.0178,6.8388,198.5392],[-7.0258,6.8399,194.9831],[-7.0403,6.8388,195.5197],[-7.0607,6.8477,197.3177],[-7.0634,6.8508,193.8182],[-7.061,6.8595,199.5465],[-7.0614,6.8729,193.4857],[-7.0641,6.8828,193.0],[-7.0609,6.8906,196.9257],[-7.0464,6.8976,200.6303],[-7.0428,6.9054,201.3371],[-7.0435,6.9123,199.1721],[-7.0413,6.9202,199.6086],[-7.044,6.9284,202.8085],[-7.0516,6.9327,201.9132],[-7.0586,6.9336,201.3968],[-7.0643,6.9405,197.0],[-7.0652,6.9517,206.7781],[-7.0649,6.9598,201.8961],[-7.0599,6.9696,206.1697],[-7.059,6.9904,213.4101],[-7.0593,6.998,206.9466],[-7.0652,7.0015,203.869],[-7.0671,7.0051,203.4531],[-7.0608,7.0251,207.0771],[-7.0571,7.0605,208.9895],[-7.0486,7.0823,209.4149],[-7.0476,7.0885,203.9148],[-7.0524,7.095,206.2143],[-7.0682,7.11,211.6769],[-7.0681,7.1323,216.0516],[-7.0638,7.1429,214.7991],[-7.0694,7.1565,215.1754],[-7.0791,7.1592,214.7427],[-7.0853,7.1639,218.3735],[-7.091,7.1735,216.9096],[-7.0913,7.1832,221.1092],[-7.0869,7.188,215.3873],[-7.078,7.1925,217.1403],[-7.0686,7.192,210.0],[-7.0663,7.1981,215.957],[-7.0714,7.2046,214.4724],[-7.0763,7.22,216.6337],[-7.0772,7.2308,217.0959],[-7.0723,7.2484,216.3326],[-7.0734,7.2609,215.4998],[-7.0724,7.2678,219.6063],[-7.0675,7.283,222.7638],[-7.0681,7.2888,225.4785],[-7.0725,7.2996,222.5294],[-7.0722,7.307,228.5289],[-7.0639,7.3258,228.9122],[-7.0637,7.3344,220.6599],[-7.0787,7.3616,216.0562],[-7.0849,7.3653,222.7332],[-7.0872,7.3709,219.8914],[-7.0817,7.3806,226.89],[-7.0646,7.3826,228.9639],[-7.0615,7.3891,233.7175],[-7.0561,7.3952,223.3152],[-7.0488,7.3979,225.1422],[-7.0479,7.4031,226.0163],[-7.052,7.4152,223.3414],[-7.0476,7.4194,225.7847],[-7.0203,7.4237,224.1718],[-7.0063,7.4378,224.6149],[-7.0063,7.454,227.0314],[-7.012,7.457,228.8119],[-7.0176,7.4644,225.6234],[-7.0244,7.4746,226.5458],[-7.0298,7.4887,226.5675],[-7.0255,7.5064,227.9183],[-7.045,7.529,227.6226],[-7.0449,7.5351,231.3448],[-7.0385,7.5427,230.6099],[-7.0301,7.5461,234.1772],[-7.0166,7.5546,237.8651],[-7.0063,7.556,243.2106],[-6.9981,7.5521,235.9026],[-6.9909,7.5521,230.1612],[-6.9855,7.5566,231.9921],[-6.9872,7.5711,235.9678],[-6.9862,7.5793,226.3169],[-6.9903,7.5844,231.0704],[-6.9948,7.5862,229.6597],[-6.9996,7.5844,231.8556],[-7.0032,7.5861,236.7206],[-7.0034,7.5905,228.8141],[-7.0209,7.613,234.9407],[-7.0248,7.6134,235.897],[-7.0333,7.6091,233.4409],[-7.043,7.6069,234.0441],[-7.0487,7.6216,234.1562],[-7.0559,7.6238,235.8854],[-7.0675,7.6364,238.4351],[-7.0687,7.6432,230.5],[-7.0668,7.6497,234.824],[-7.0685,7.6566,239.6658],[-7.0748,7.6644,239.502],[-7.0809,7.6792,240.7117],[-7.0774,7.6886,234.6292],[-7.0723,7.7192,244.1485],[-7.0756,7.7232,243.8054],[-7.0727,7.7308,244.1232],[-7.0771,7.7638,242.6009],[-7.0779,7.7901,245.761],[-7.0763,7.7966,248.059],[-7.0787,7.8068,245.6362],[-7.0782,7.8123,247.969],[-7.0739,7.8191,249.0891],[-7.0742,7.8525,250.7924],[-7.0776,7.8577,256.3595],[-7.088,7.8623,250.1097],[-7.0956,7.8611,249.3756],[-7.1095,7.8644,252.4322],[-7.1108,7.8596,258.2261],[-7.1135,7.8585,249.7007],[-7.1202,7.8644,260.1797],[-7.126,7.8657,258.4398],[-7.1299,7.8732,260.0819],[-7.1336,7.8747,254.5399],[-7.1471,7.873,256.5267],[-7.1501,7.87,268.369],[-7.1588,7.8676,260.937],[-7.1623,7.8645,275.4377],[-7.1731,7.8634,263.6],[-7.1807,7.8608,265.1161],[-7.188,7.8689,263.8382],[-7.1985,7.8765,269.9636],[-7.202,7.8767,270.8222],[-7.206,7.8834,268.3656],[-7.2031,7.8878,270.1151],[-7.2004,7.9064,276.7046],[-7.2017,7.9102,282.5517],[-7.2075,7.911,280.5937],[-7.2077,7.9145,280.1878],[-7.21,7.915,279.899],[-7.2125,7.9225,285.1088],[-7.2111,7.9329,286.7331],[-7.2148,7.9443,284.819],[-7.2148,7.9544,292.3702],[-7.2181,7.963,294.4089],[-7.2238,7.9681,299.6248],[-7.2262,7.9728,299.4001],[-7.2283,7.9717,297.3488],[-7.2349,7.9774,301.9232],[-7.2386,7.9789,306.4335],[-7.243,7.9784,307.0692],[-7.2458,7.9805,309.9671],[-7.249,7.9914,311.6331],[-7.2527,7.9908,312.7225],[-7.2552,8.0105,321.9279],[-7.2578,8.018,324.4607],[-7.2657,8.0262,326.7035],[-7.2695,8.0364,333.2846],[-7.2726,8.0401,329.264],[-7.2845,8.0483,337.5683],[-7.2877,8.0572,344.3325],[-7.2922,8.0622,349.0569],[-7.2931,8.0658,346.6384],[-7.3053,8.0675,351.416],[-7.3092,8.0688,353.3508],[-7.3117,8.0724,359.3318],[-7.3156,8.0716,357.4117],[-7.3189,8.0729,358.2014],[-7.3245,8.08,360.4661],[-7.333,8.0868,364.7483],[-7.3393,8.086,368.4581],[-7.3423,8.0871,367.4606],[-7.3536,8.0961,382.3684],[-7.3855,8.1138,398.7009],[-7.3976,8.1241,410.4998],[-7.4097,8.1298,435.159],[-7.4226,8.1295,428.3867],[-7.4284,8.1382,403.8521],[-7.4328,8.1558,384.2545],[-7.4482,8.157,392.8212],[-7.4541,8.1559,399.5836],[-7.463,8.1491,405.7066],[-7.4691,8.1465,414.4183],[-7.4798,8.1315,410.8965],[-7.4846,8.1289,408.8256],[-7.516,8.0579,446.585],[-7.509,8.0519,450.8355],[-7.5077,8.0472,440.0856],[-7.5029,8.044,448.0822],[-7.5049,8.0258,461.3611],[-7.5083,8.0228,430.7099],[-7.5088,8.0198,437.3997],[-7.506,8.0149,436.1974],[-7.5083,8.0013,455.3964],[-7.5135,7.9896,427.8935],[-7.5135,7.982,425.3742],[-7.5106,7.9769,405.1399],[-7.5132,7.9582,408.4265],[-7.5184,7.9421,394.4088],[-7.5134,7.9381,383.0642],[-7.5091,7.9377,382.7163],[-7.5024,7.9322,393.6604],[-7.5012,7.9267,364.8961],[-7.5045,7.9229,366.9197],[-7.5067,7.922,374.9805],[-7.5113,7.9233,362.9686],[-7.5209,7.9172,369.3049],[-7.5109,7.9081,372.8798],[-7.5129,7.8983,389.4288],[-7.5146,7.8961,381.5072],[-7.5186,7.8964,380.9507],[-7.5206,7.8951,378.6862],[-7.5186,7.8835,377.7116],[-7.5211,7.8809,383.6713],[-7.53,7.8829,377.7793],[-7.5337,7.8806,377.3784],[-7.5432,7.8837,379.6811],[-7.5452,7.8779,388.9004],[-7.5493,7.8743,385.8392],[-7.55,7.8707,389.4286],[-7.5545,7.8656,388.9003],[-7.5599,7.8671,381.4413],[-7.5644,7.8617,395.0276],[-7.568,7.8609,381.1116],[-7.5728,7.8701,384.0768],[-7.5734,7.8672,391.5925],[-7.5808,7.8669,386.2458],[-7.5874,7.8595,386.7126],[-7.5966,7.8595,393.3552],[-7.6058,7.8649,387.5535],[-7.6094,7.8703,404.0642],[-7.626,7.8706,414.3093],[-7.6292,7.859,411.1149],[-7.6285,7.8525,428.3073],[-7.6305,7.8499,412.8765],[-7.6419,7.8486,405.3353],[-7.6474,7.8414,418.5167],[-7.6619,7.8415,416.114],[-7.67,7.8442,404.5312],[-7.6804,7.8542,406.0399],[-7.6924,7.8467,415.9632],[-7.7016,7.8541,423.9529],[-7.7039,7.8641,439.0411],[-7.7116,7.8633,439.7159],[-7.714,7.8647,436.2901],[-7.7198,7.8751,434.9165],[-7.7202,7.8788,433.2776],[-7.7176,7.882,432.6274],[-7.7207,7.8865,432.4197],[-7.7227,7.8874,435.9821],[-7.7322,7.8829,437.2689],[-7.7544,7.8953,434.7329],[-7.7587,7.8956,436.6042],[-7.7615,7.8885,439.6459],[-7.7644,7.8873,435.0657],[-7.773,7.8905,429.7467],[-7.7839,7.9026,435.3763],[-7.7851,7.9088,430.9258],[-7.7878,7.9134,437.9119],[-7.7954,7.9168,429.8711],[-7.8021,7.9141,442.1978],[-7.8034,7.9166,434.4406],[-7.8025,7.9245,434.0906],[-7.8012,7.9337,439.9783],[-7.7992,7.9367,437.012],[-7.8007,7.9392,436.6703],[-7.815,7.941,437.1055],[-7.8177,7.9435,445.3377],[-7.8216,7.9538,434.3664],[-7.8243,7.9552,440.5304],[-7.8281,7.954,434.7698],[-7.8328,7.9552,439.8347],[-7.839,7.9591,436.4199],[-7.8431,7.9555,431.3809],[-7.8466,7.9548,441.545],[-7.8451,7.956,431.3809],[-7.8484,7.9725,441.3754],[-7.844,7.9799,434.5636],[-7.8475,7.9866,433.2509],[-7.8531,7.9898,434.7998],[-7.8495,7.9961,440.4875],[-7.85,7.9979,435.8639],[-7.8585,8.0011,434.8675],[-7.8577,8.0146,448.6353],[-7.8592,8.0173,441.018],[-7.8673,8.02,440.3182],[-7.8835,8.0208,446.9176],[-7.8859,8.0227,438.3837],[-7.8885,8.0117,435.9],[-7.897,8.0081,441.0906],[-7.9083,8.007,441.0883],[-7.9106,8.0106,443.6687],[-7.9144,8.0109,443.4539],[-7.9154,8.0131,440.6612],[-7.9249,8.012,442.2018],[-7.9284,8.0132,438.3179],[-7.9346,8.0199,441.8944],[-7.9394,8.0171,443.2256],[-7.9465,8.023,447.3309],[-7.9469,8.0158,443.0286],[-7.9456,8.013,454.4893],[-7.9482,8.0073,471.122],[-7.9537,8.0071,457.8444],[-7.9596,8.0129,448.0902],[-7.9727,8.017,442.9613],[-7.9822,8.0105,462.4643],[-7.9843,8.011,466.015],[-7.986,8.0181,458.736],[-7.9907,8.0168,460.5839],[-7.9918,8.0182,462.7991],[-7.9873,8.0312,447.9808],[-7.9891,8.0349,461.1579],[-8.0003,8.0392,461.9373],[-8.0033,8.0385,464.0114],[-8.0098,8.032,463.1455],[-8.0243,8.0331,454.3198],[-8.0297,8.0297,483.0645],[-8.0407,8.0328,467.7473],[-8.0474,8.0299,480.7968],[-8.0576,8.0227,475.2789],[-8.0635,8.0111,483.0432],[-8.0534,8.0,513.7914],[-8.0658,7.9583,512.6216],[-8.0752,7.9387,542.7903],[-8.0826,7.916,518.7702],[-8.0941,7.8985,549.3779],[-8.1072,7.8846,500.4865],[-8.1156,7.8691,542.1998],[-8.1172,7.8588,558.3548],[-8.1147,7.8448,550.2146],[-8.0831,7.8198,529.0477],[-8.0718,7.8083,594.4813],[-8.0703,7.7995,568.0728],[-8.0714,7.7902,590.694],[-8.086,7.7686,557.0466],[-8.0913,7.751,570.843],[-8.094,7.722,568.9855],[-8.1013,7.7159,579.1604],[-8.1237,7.7108,526.674],[-8.1399,7.6933,572.6501],[-8.1437,7.6555,557.1011],[-8.1489,7.6493,509.8687],[-8.1572,7.6442,490.1064],[-8.1719,7.62,499.0989],[-8.1726,7.5817,683.3112],[-8.18,7.5667,503.8682],[-8.1936,7.545,597.8718],[-8.205,7.5358,429.3849],[-8.2149,7.5337,370.6569],[-8.2299,7.5498,406.8843],[-8.2356,7.5519,348.6071],[-8.2573,7.5676,475.4529],[-8.2894,7.577,549.9385],[-8.2977,7.5848,474.3252],[-8.2997,7.5916,434.076],[-8.2986,7.5967,424.6054],[-8.3028,7.6014,461.8885],[-8.3225,7.5994,500.6119],[-8.3465,7.5789,464.1211],[-8.3569,7.5748,511.5075],[-8.3693,7.5727,515.739],[-8.3797,7.579,465.1685],[-8.3817,7.5976,570.4763],[-8.3847,7.607,597.9626],[-8.393,7.6122,910.3134],[-8.4055,7.6112,1098.3119],[-8.4174,7.6082,1341.1746],[-8.4722,7.5546,1168.2312],[-8.4645,7.5364,474.9705],[-8.4568,7.5266,482.0469],[-8.434,7.5171,436.2855],[-8.4141,7.4938,365.5715],[-8.4137,7.4857,355.8112],[-8.408,7.476,368.6562],[-8.4096,7.4691,359.1686],[-8.4055,7.4563,355.8703],[-8.4044,7.4457,356.9781],[-8.4098,7.429,360.1868],[-8.3989,7.4092,353.4278],[-8.3939,7.3938,391.0439],[-8.3959,7.3724,353.893],[-8.3899,7.3288,355.5027],[-8.386,7.3196,350.6739],[-8.3728,7.3021,349.2892],[-8.3605,7.2813,335.3284],[-8.36,7.2744,328.7074],[-8.3534,7.2733,339.8469],[-8.3518,7.271,365.5285],[-8.3523,7.2572,333.1678],[-8.3562,7.2519,330.9468],[-8.3565,7.2478,329.288],[-8.3609,7.2428,320.226],[-8.3573,7.2342,322.8886],[-8.346,7.2296,330.8591],[-8.3357,7.2192,325.6553],[-8.3314,7.2137,331.708],[-8.3305,7.2056,318.8737],[-8.325,7.2006,335.0202],[-8.3181,7.2026,321.5977],[-8.3142,7.201,330.907],[-8.3076,7.1943,314.7286],[-8.3036,7.1945,323.5301],[-8.3018,7.1873,327.757],[-8.2942,7.1868,321.7216],[-8.2906,7.1818,311.2098],[-8.2871,7.1813,312.0066],[-8.2841,7.1852,310.5032],[-8.2784,7.1852,324.6453],[-8.2761,7.1808,329.0125],[-8.2785,7.1702,301.1929],[-8.2758,7.1562,296.7652],[-8.2779,7.1514,303.5652],[-8.2929,7.1393,301.4055],[-8.2943,7.135,304.6355],[-8.2916,7.1177,307.3844],[-8.2994,7.0888,290.2772],[-8.2994,7.0824,271.4432],[-8.2949,7.072,263.2015],[-8.2956,7.0617,262.309],[-8.2877,7.0392,260.6865],[-8.2871,7.024,258.1981],[-8.285,7.0205,247.7254],[-8.2786,7.0189,246.7727],[-8.2761,7.0166,246.0857],[-8.2782,7.0134,256.6955],[-8.2747,7.0106,244.5334],[-8.2736,7.0067,244.5601],[-8.2764,7.0021,245.0525],[-8.2836,6.9978,245.7915],[-8.2848,6.9879,243.4843],[-8.2931,6.9838,244.9347],[-8.3025,6.9733,252.0471],[-8.3097,6.9743,242.1852],[-8.3134,6.9709,239.9942],[-8.3216,6.9698,248.2425],[-8.3249,6.9661,238.6054],[-8.3215,6.9594,241.8298],[-8.3222,6.9546,241.9857],[-8.3183,6.9459,245.1118],[-8.3179,6.9351,245.7122],[-8.3152,6.9222,241.0464],[-8.3091,6.9116,238.1659],[-8.3089,6.9063,241.2448],[-8.3107,6.9024,253.2248],[-8.3147,6.8995,245.8164],[-8.3246,6.899,237.0594],[-8.3262,6.8968,234.7896],[-8.323,6.8912,246.6676],[-8.3299,6.8871,233.1124],[-8.332,6.8796,236.8544],[-8.3181,6.8554,234.8947],[-8.316,6.8543,233.7864],[-8.3117,6.8611,233.9413],[-8.3084,6.8622,232.1659],[-8.3074,6.8482,242.9922],[-8.3215,6.8317,235.1458],[-8.3238,6.8265,234.5556],[-8.3168,6.811,235.5675],[-8.3181,6.8097,234.1944],[-8.3241,6.8099,231.6097],[-8.3272,6.7994,234.7141],[-8.3406,6.7907,251.7451],[-8.3429,6.7852,232.4389],[-8.3384,6.7606,247.8431],[-8.3401,6.756,248.9733],[-8.3428,6.7579,249.9999],[-8.3437,6.762,235.1676],[-8.3495,6.7609,238.448],[-8.3531,6.7618,236.6273],[-8.3559,6.7596,233.2588],[-8.3568,6.7545,231.9168],[-8.3557,6.7465,244.3993],[-8.3608,6.7401,240.9293],[-8.3645,6.7444,237.6664],[-8.3677,6.744,229.3948],[-8.3698,6.7362,240.8991],[-8.3793,6.7319,228.0464],[-8.3832,6.7282,231.9365],[-8.38,6.7248,233.5135],[-8.3747,6.7243,234.1056],[-8.3782,6.7176,249.0712],[-8.3858,6.7221,227.4777],[-8.389,6.7218,231.5872],[-8.3911,6.7182,232.0169],[-8.3881,6.7131,247.0124],[-8.4058,6.707,226.9695],[-8.4075,6.7026,228.3436],[-8.4025,6.6946,227.7274],[-8.4046,6.69,229.9233],[-8.4018,6.6824,235.622],[-8.4044,6.6794,241.093],[-8.409,6.6778,236.7633],[-8.415,6.6696,233.9385],[-8.4182,6.6689,231.2328],[-8.423,6.6722,229.4183],[-8.4256,6.6699,225.352],[-8.4305,6.6561,227.2786],[-8.4326,6.6543,229.1487],[-8.4353,6.6548,227.997],[-8.4399,6.6596,242.368],[-8.4431,6.6594,238.4908],[-8.4475,6.6549,225.5493],[-8.4487,6.6493,229.3596],[-8.4476,6.6406,226.1825],[-8.449,6.636,230.0547],[-8.4529,6.6333,235.1628],[-8.4607,6.6347,227.8862],[-8.4626,6.6336,244.0325],[-8.4647,6.6274,230.5254],[-8.4704,6.6334,226.0038],[-8.4729,6.6329,230.3878],[-8.4762,6.6254,224.1695],[-8.4824,6.6247,223.2217],[-8.4847,6.6217,223.2504],[-8.4852,6.6197,221.6707],[-8.4822,6.6127,235.7712],[-8.488,6.608,238.7036],[-8.4898,6.6073,237.9875],[-8.4919,6.6089,229.3315],[-8.4916,6.6142,227.803],[-8.4939,6.616,223.0089],[-8.4999,6.6149,225.4575],[-8.5038,6.6119,228.716],[-8.5057,6.6069,223.4269],[-8.5041,6.5977,222.0019],[-8.5062,6.5913,235.8785],[-8.5088,6.5895,230.1125],[-8.5133,6.5938,224.9265],[-8.5212,6.5916,227.4616],[-8.5228,6.5943,225.0915],[-8.5211,6.601,226.7348],[-8.5287,6.6082,223.34],[-8.5328,6.6045,227.1122],[-8.5333,6.6015,223.056],[-8.5304,6.5921,223.017],[-8.5311,6.5767,226.3945],[-8.5263,6.5709,229.9381],[-8.537,6.557,224.7746],[-8.5397,6.5561,223.279],[-8.5466,6.5623,228.7833],[-8.5562,6.564,228.8332],[-8.5606,6.5615,226.9329],[-8.5637,6.5532,231.0064],[-8.563,6.5509,232.7046],[-8.5554,6.5488,245.8585],[-8.5543,6.546,226.5469],[-8.5626,6.5369,229.9856],[-8.5687,6.5188,239.4846],[-8.5783,6.5188,227.6265],[-8.5872,6.5264,220.7972],[-8.5919,6.5242,226.2907],[-8.5993,6.5056,223.3832],[-8.5924,6.4984,226.868],[-8.5851,6.4959,241.0987],[-8.5812,6.4952,243.4671],[-8.5706,6.4988,243.8334],[-8.5653,6.496,238.8405],[-8.5479,6.4952,241.9876],[-8.5405,6.4922,235.5868],[-8.528,6.4786,249.9964],[-8.5156,6.4588,249.8381],[-8.5042,6.4454,259.1551],[-8.4903,6.4324,296.0672],[-8.4834,6.4296,272.665],[-8.4811,6.4322,294.4281],[-8.4735,6.4307,285.4384],[-8.4696,6.4344,278.1282],[-8.4678,6.4491,288.708],[-8.4588,6.4619,271.3643],[-8.4565,6.4712,263.7785],[-8.4577,6.4868,272.9073],[-8.4555,6.4887,285.2934],[-8.4517,6.4887,294.9563],[-8.436,6.4803,283.6472],[-8.4271,6.4704,270.4125],[-8.4141,6.4598,251.263],[-8.3936,6.4475,265.7167],[-8.386,6.4449,251.3872],[-8.386,6.4417,246.8605],[-8.3899,6.436,252.7414],[-8.4059,6.431,246.3439],[-8.4082,6.427,257.062],[-8.4074,6.4221,254.5187],[-8.3991,6.4232,256.2481],[-8.3934,6.4067,247.1],[-8.3926,6.3945,258.6696],[-8.3828,6.3804,255.2896],[-8.386,6.3747,261.8654],[-8.3929,6.3745,253.2495],[-8.3982,6.3702,252.1043],[-8.4051,6.37,251.3152],[-8.412,6.3668,246.7182],[-8.3969,6.355,242.354],[-8.3924,6.3467,275.0228],[-8.3859,6.3462,276.6633],[-8.3804,6.3565,252.4591],[-8.3732,6.3558,263.0245],[-8.3718,6.3629,262.1949],[-8.3693,6.3647,263.3604],[-8.3617,6.3564,260.3683],[-8.3585,6.3562,289.2773],[-8.355,6.3619,249.7517],[-8.3525,6.3628,252.5299],[-8.3456,6.3611,271.1955],[-8.3426,6.3692,259.5212],[-8.3394,6.3728,245.5088],[-8.3236,6.3629,253.3567],[-8.3165,6.3555,269.5302],[-8.3121,6.3545,251.6423],[-8.3082,6.358,234.3098],[-8.303,6.3446,280.3182],[-8.3007,6.3423,272.7235],[-8.2984,6.3437,269.4626],[-8.2967,6.3482,287.0154],[-8.2804,6.3468,241.4408],[-8.2752,6.3385,251.2576],[-8.2694,6.3387,241.5457],[-8.2669,6.3357,237.3111],[-8.2672,6.3318,240.4482],[-8.2757,6.3275,241.5153],[-8.2796,6.3233,252.9885],[-8.2762,6.3199,245.1466],[-8.2597,6.3182,240.0008],[-8.2521,6.3202,240.364],[-8.2464,6.3179,240.5029],[-8.2411,6.3185,235.9107],[-8.2168,6.3037,232.0461],[-8.2122,6.3032,232.9361],[-8.2062,6.3089,240.3365],[-8.2019,6.3002,272.9705],[-8.1987,6.3004,263.5101],[-8.1952,6.3045,237.867],[-8.1881,6.2999,229.5516],[-8.1828,6.2925,224.4439],[-8.1746,6.286,222.5435],[-8.1717,6.2756,243.7406],[-8.1671,6.2749,245.2383],[-8.1586,6.2781,223.9634],[-8.1422,6.2782,234.2558],[-8.1335,6.2809,221.3887],[-8.1236,6.2793,219.4937],[-8.1186,6.2804,245.8409],[-8.1082,6.2891,220.6441],[-8.1004,6.2883,240.2547],[-8.0967,6.2906,238.8732],[-8.0909,6.3012,224.8246],[-8.0801,6.2967,224.9574],[-8.0734,6.2958,232.3786],[-8.0654,6.3008,212.8649],[-8.0506,6.3023,233.0911],[-8.0403,6.3089,217.3208],[-8.0053,6.3151,220.1759],[-8.0,6.3121,196.7822],[-7.9921,6.3006,210.3161],[-7.9912,6.2919,218.0929],[-7.9878,6.2895,208.0032],[-7.9836,6.2953,213.0934],[-7.9795,6.2936,199.1595],[-7.9751,6.2883,216.937],[-7.9712,6.2922,212.9591],[-7.9682,6.2929,196.1628],[-7.9653,6.2811,208.5556],[-7.9591,6.2795,204.6634],[-7.9552,6.2815,224.4778],[-7.9494,6.2902,213.0896],[-7.945,6.2925,203.7339],[-7.9406,6.2893,197.5964],[-7.9324,6.2768,219.8602],[-7.9267,6.2752,197.4194],[-7.9216,6.2885,201.0836],[-7.9175,6.2866,198.2911],[-7.9154,6.2831,212.7619],[-7.9134,6.2707,200.4093],[-7.9095,6.2705,210.3929],[-7.9065,6.2792,201.18],[-7.9016,6.2799,203.4658],[-7.8899,6.2524,213.1139],[-7.8811,6.2485,189.0605],[-7.8764,6.2406,214.0348],[-7.8629,6.2325,203.3253],[-7.8541,6.2295,185.3169],[-7.8206,6.1937,210.2409],[-7.819,6.1902,210.939],[-7.8238,6.1879,221.0083],[-7.8367,6.1882,204.015],[-7.8406,6.1846,189.6117],[-7.834,6.1758,220.5175],[-7.8352,6.1666,190.01],[-7.8316,6.1599,211.6156],[-7.8337,6.1565,204.0561],[-7.8443,6.1492,215.6628],[-7.8464,6.1435,210.5916],[-7.8483,6.0941,206.2036],[-7.8472,6.0904,186.2115],[-7.8426,6.0881,199.7206],[-7.8419,6.0851,196.4428],[-7.8443,6.0768,208.8817],[-7.8434,6.072,217.186],[-7.8341,6.0765,209.0936],[-7.8315,6.0903,210.0398],[-7.8283,6.0926,198.4393],[-7.8239,6.093,182.5737],[-7.8182,6.0909,176.9874],[-7.8075,6.0826,203.5998],[-7.806,6.0915,191.0707],[-7.8021,6.0922,185.0407],[-7.7966,6.0878,198.9472],[-7.7868,6.0749,190.7325],[-7.7931,6.0574,211.3458],[-7.7904,6.0512,180.7158],[-7.7781,6.0445,182.8509],[-7.7726,6.0394,176.3373],[-7.7685,6.0316,193.4754],[-7.771,6.0261,194.7914],[-7.7814,6.0208,199.2405],[-7.7844,6.016,193.0792],[-7.7797,6.0063,183.2231],[-7.7896,5.9951,184.2928],[-7.791,5.9915,179.2902],[-7.7881,5.9836,177.8915],[-7.7661,5.9748,175.7619],[-7.7636,5.9709,171.8961],[-7.7584,5.9534,179.4523],[-7.7394,5.9378,184.7373],[-7.7257,5.9336,188.6314],[-7.7186,5.9283,180.9245],[-7.7136,5.9193,178.0732],[-7.693,5.9049,168.7879],[-7.6843,5.9007,166.0833],[-7.6799,5.9009,185.255],[-7.6769,5.9034,178.6101],[-7.676,5.9069,182.8674],[-7.6821,5.9232,193.8971],[-7.6807,5.9283,182.1977],[-7.6737,5.9351,179.4061],[-7.6695,5.9473,180.7289],[-7.6632999999999996,5.9507,170.082],[-7.6606,5.9502,170.0681],[-7.6577,5.9332,183.203],[-7.6603,5.9197,185.8384],[-7.6596,5.9157,183.2283],[-7.6553,5.915,176.6707],[-7.6491,5.9173,174.6249],[-7.6449,5.9157,179.423],[-7.6376,5.9085,179.3937],[-7.6137,5.9074,181.1818],[-7.6115,5.8973,170.7785],[-7.609,5.8968,174.0271],[-7.6046,5.8991,175.6781],[-7.6024,5.8906,169.6849],[-7.5996,5.8883,171.7485],[-7.5962,5.8908,176.1856],[-7.592,5.9011,181.4102],[-7.5839,5.9008,177.7111],[-7.5752,5.8973,188.1013],[-7.5526,5.8735,203.8176],[-7.5533,5.8693,166.9027],[-7.5687,5.8734,177.3895],[-7.5719,5.8688,165.1977],[-7.5699,5.8646,169.9497],[-7.5578,5.8613,169.0124],[-7.5544,5.8496,174.0997],[-7.5487,5.8429,175.1173],[-7.5458,5.8351,162.8426],[-7.5398,5.8348,172.9052],[-7.5381,5.8495,167.0477],[-7.5298,5.8494,172.3375],[-7.5192,5.859,157.348],[-7.5125,5.856,158.7295],[-7.5107,5.8502,160.1595],[-7.5121,5.8461,164.47],[-7.5195,5.8413,166.2556],[-7.5179,5.8388,155.2542],[-7.5062,5.8385,155.7935],[-7.5026,5.8366,171.7628],[-7.4905,5.817,172.3614],[-7.4839,5.8117,173.6418],[-7.4756,5.8105,164.3205],[-7.4737,5.8229,179.2626],[-7.4691,5.8327,173.9338],[-7.4715,5.8399,163.8525],[-7.4683,5.8472,168.0076],[-7.4687,5.8539,158.1292],[-7.4668,5.8596,163.8011],[-7.4634,5.8612,150.8032],[-7.4512,5.857,185.9838],[-7.4457,5.8613,151.6911],[-7.4395,5.8551,165.4746],[-7.4364,5.8465,151.1547],[-7.4297,5.8433,162.4349],[-7.4224,5.8435,154.9173],[-7.4226,5.8375,148.9149],[-7.4298,5.832,149.6562],[-7.4308,5.8169,146.7729],[-7.4392,5.8004,161.1737],[-7.4392,5.7962,148.1485],[-7.429,5.7812,146.7215],[-7.4274,5.7752,149.4765],[-7.4293,5.7688,150.8893],[-7.4413,5.7537,145.1941],[-7.4361,5.7445,141.4651],[-7.4337,5.7293,141.1844],[-7.4289,5.7189,141.2561],[-7.4286,5.6975,142.9139],[-7.4263,5.6945,127.3582],[-7.4172,5.6908,130.7138],[-7.4159,5.6758,125.6887],[-7.4118,5.6712,119.0],[-7.4093,5.6595,123.7892],[-7.4043,5.6477,122.9071],[-7.3973,5.638,143.8116],[-7.0843,5.6665,188.2877],[-7.0833,5.6985,185.9932],[-7.0871,5.7042,188.6772],[-7.0863,5.9709,197.9254]]]]}
,"properties": {"GID_1": "CIV.8_1","GID_0": "CIV","country": "Côted'Ivoire","province": "Montagnes","VARNAME_1": "NA","NL_NAME_1": "NA","TYPE_1": "District","ENGTYPE_1": "District","CC_1": "NA","HASC_1": "CI.MN","ISO_1": "CI-MG","name": "Montagnes.province","area_km2": 30532.6,"hist_schema_id": "Elevation0-9000","hist_area_km2": {"125": 46.73,"150": 158.53,"175": 661.37,"200": 2357.7,"225": 4424.72,"250": 5239.95,"275": 4257.79,"300": 2844.74,"325": 1805.95,"350": 1316.88,"375": 782.15,"400": 499.8,"425": 491.18,"450": 590.28,"475": 652.84,"500": 624.13,"525": 544.85,"550": 449.72,"575": 355.64,"600": 331.36,"625": 276.66,"650": 239.92,"675": 211.24,"700": 190.6,"725": 173.39,"750": 158.22,"775": 141.94,"800": 124.58,"825": 110.25,"850": 97.78,"875": 86.08,"900": 70.11,"925": 56.87,"950": 42.81,"975": 34.11,"1000": 25.41,"1025": 17.49,"1050": 12.72,"1075": 8.18,"1100": 6.41,"1125": 4.16,"1150": 2.5,"1175": 1.49,"1200": 0.86,"1225": 0.92,"1250": 0.4,"1275": 0.38,"1325": 0.34}}}