{"type":"Feature","properties":{"GID_3":"CIV.13.1.1_1","GID_0":"CIV","country":"Côted'Ivoire","GID_1":"CIV.13_1","province":"Yamoussoukro","NL_NAME_1":"NA","GID_2":"CIV.13.1_1","county":"Yamoussoukro","NL_NAME_2":"NA","city":"Attiégoukaro","VARNAME_3":"NA","NL_NAME_3":"NA","TYPE_3":"Département","ENGTYPE_3":"Department","CC_3":"NA","HASC_3":"NA","name":"Attiégoukaro.city"},
"geometry":{"type": "MultiPolygon","coordinates": [[[[-5.3698,7.0686,200.2091],[-5.3642,7.0162,197.4749],[-5.3347,6.9796,217.1794],[-5.2497,6.9324,234.7674],[-5.2426,6.9017,200.7184],[-5.2048,6.8639,226.3276],[-5.1694,6.8368,196.9756],[-5.1565,6.812,206.0505],[-5.1671,6.7683,202.069],[-5.1685,6.7064,184.0536],[-5.1208,6.7531,185.5897],[-5.1077,6.7635,195.6501],[-5.0897,6.7963,187.7202],[-5.0607,6.814,187.3503],[-5.0424,6.8213,206.7553],[-5.039,6.7965,212.864],[-5.026,6.7721,185.4581],[-5.0049,6.7591,162.005],[-4.9756,6.7607,132.3544],[-4.9601,6.7668,120.1237],[-4.9603,6.7701,122.0004],[-4.9556,6.7776,121.7638],[-4.9516,6.7915,128.8365],[-4.9552,6.7946,123.6566],[-4.9525,6.8007,118.6918],[-4.952,6.8124,123.1752],[-4.9538,6.8225,120.5],[-4.9592,6.8211,122.117],[-4.9714,6.8269,125.6131],[-4.9775,6.8361,124.0628],[-4.9854,6.8378,139.7163],[-4.9884,6.8449,133.5003],[-4.9877,6.8514,138.2855],[-4.9928,6.8597,130.1154],[-4.9964,6.8721,143.0315],[-4.9953,6.8889,135.8699],[-5.0121,6.8931,139.6204],[-5.0233,6.9017,140.2796],[-5.0332,6.9037,140.5299],[-5.0366,6.9058,152.479],[-5.0347,6.911,141.245],[-5.0352,6.9161,140.8925],[-5.0373,6.9195,142.4127],[-5.0373,6.9241,138.82],[-5.041,6.9287,149.0947],[-5.0409,6.9417,144.2943],[-5.0452,6.9438,146.8108],[-5.048,6.95,143.4998],[-5.0481,6.9541,141.872],[-5.0624,6.9745,143.2321],[-5.0664,6.9766,145.2562],[-5.0855,6.9769,149.6932],[-5.0892,6.9778,154.511],[-5.0931,6.9811,151.2622],[-5.0968,6.9797,155.0297],[-5.1068,6.9929,150.6059],[-5.115,6.9916,149.3578],[-5.1171,6.9951,149.3864],[-5.1221,6.9973,150.9943],[-5.1331,7.0182,155.4224],[-5.1337,7.0216,154.1181],[-5.1292,7.0256,151.9827],[-5.1332,7.0271,155.0187],[-5.1402,7.0257,159.0118],[-5.1452,7.0306,152.8116],[-5.1519,7.0287,159.9412],[-5.1549,7.0307,154.036],[-5.157,7.0379,155.7708],[-5.161,7.0401,156.5136],[-5.1608,7.049,157.5667],[-5.1674,7.0485,164.4908],[-5.1722,7.0456,159.1334],[-5.1797,7.0515,161.2316],[-5.1911,7.053,163.425],[-5.1914,7.0575,160.366],[-5.1861,7.0624,162.1523],[-5.182,7.0778,161.0911],[-5.1865,7.0803,163.2121],[-5.1944,7.0816,166.6007],[-5.204,7.0781,172.9643],[-5.2095,7.0781,175.8426],[-5.2225,7.0818,183.8291],[-5.2414,7.0813,215.8904],[-5.2813,7.0968,191.4399],[-5.2909,7.0944,201.913],[-5.2978,7.0962,203.0177],[-5.3299,7.076,246.3619],[-5.3646,7.0683,208.5332],[-5.3698,7.0686,200.2091]]]]}}