{"type": "Feature","bbox": [-4.1369,6.5402,-3.7326,7.0044],"geometry": {"type": "MultiPolygon","coordinates": [[[[-3.7863,6.9442,139.9172],[-3.7871,6.949,137.2526],[-3.79,6.9522,138.3436],[-3.8073,6.9589,131.3377],[-3.8118,6.9616,136.7538],[-3.8157,6.9668,139.5178],[-3.8313,6.9664,138.9643],[-3.838,6.9814,144.6536],[-3.8423,6.9865,144.7506],[-3.8447,6.9889,150.7305],[-3.8527,6.9912,165.3357],[-3.8656,6.99,169.5575],[-3.8751,6.9855,179.3735],[-3.8798,6.9851,200.7844],[-3.8925,6.9916,185.423],[-3.9035,6.9899,166.6681],[-3.9082,6.9875,162.7804],[-3.9145,6.9774,157.777],[-3.9233,6.9757999999999996,174.1594],[-3.9477,6.9899,204.9828],[-3.9517,6.9889,211.4772],[-3.9668,6.9933,199.9878],[-3.9782,6.9922,187.0352],[-4.0019,6.9985,193.6976],[-4.0116,7.0044,202.1305],[-4.0335,6.9985,227.027],[-4.0113,6.9836,193.4604],[-4.0089,6.9805,200.0574],[-4.0065,6.9703,213.9533],[-4.008,6.9633,198.1093],[-4.0482,6.8931,234.9335],[-4.0536,6.8423,186.6231],[-4.0726,6.825,182.3041],[-4.0843,6.8025,168.5541],[-4.0834,6.7898,163.2794],[-4.081,6.782,178.7815],[-4.0816,6.7731,160.6572],[-4.088,6.7474,171.4303],[-4.1356,6.7037,166.4551],[-4.1369,6.6959,168.5669],[-4.1329,6.6842,181.3684],[-4.1205,6.6682,179.0725],[-4.1096,6.6477,254.5301],[-4.1012,6.6359,151.2101],[-4.0725,6.6147,142.5789],[-4.0247,6.5572,106.9851],[-4.0145,6.5607,111.2199],[-3.9847,6.5606,123.7906],[-3.9757,6.5624,115.2054],[-3.9574,6.5468,133.3539],[-3.9343,6.5402,138.1789],[-3.9144,6.5441,156.7881],[-3.893,6.5573,137.1358],[-3.8651,6.5656,146.4194],[-3.8498,6.5728,146.7042],[-3.8334,6.5763,142.5631],[-3.8144,6.5852,144.8824],[-3.8067,6.5855,133.333],[-3.7949,6.5889,130.3012],[-3.7699,6.6221,115.0217],[-3.774,6.6403,119.1669],[-3.7725,6.6476,120.7679],[-3.78,6.6546,128.7278],[-3.789,6.6708,122.3865],[-3.7917,6.6711,118.7212],[-3.7968,6.6756,126.053],[-3.7946,6.6791,123.278],[-3.7826,6.687,125.3058],[-3.7768,6.6967,124.7018],[-3.7716,6.6973,125.273],[-3.7645,6.7024,125.4931],[-3.7647,6.7038,119.5284],[-3.773,6.7176,120.0085],[-3.7743,6.7259,129.0939],[-3.7887,6.736,125.8505],[-3.7884,6.7451,125.2224],[-3.7925,6.7542,132.0606],[-3.7991,6.7607,124.718],[-3.7936,6.7659,133.2244],[-3.7769,6.7727,125.4611],[-3.762,6.7735,127.707],[-3.7585,6.7775,124.1024],[-3.7587,6.7862,129.0771],[-3.7622,6.7982,125.5461],[-3.7616,6.8029,122.4551],[-3.7475,6.8152,137.26],[-3.7465,6.8212,125.615],[-3.754,6.8344,152.1443],[-3.7671,6.8439,126.8453],[-3.7787,6.8574,126.0404],[-3.7788,6.8625,124.6243],[-3.7628,6.8842,125.3653],[-3.7431,6.9052,132.746],[-3.7345,6.9115,132.3717],[-3.7326,6.9272,130.5128],[-3.7416,6.9439,134.8836],[-3.7381,6.9559,135.1379],[-3.7425,6.9608,136.2823],[-3.7474,6.9614,145.6762],[-3.7548,6.9594,150.8345],[-3.7625,6.9519,132.1733],[-3.7707,6.9337,125.7244],[-3.7751,6.9305,133.5464],[-3.7792,6.9357,131.0533],[-3.7821,6.9366,128.7394],[-3.7863,6.9442,139.9172]]]]}
,"properties": {"GID_3": "CIV.6.3.1_1","GID_0": "CIV","country": "Côted'Ivoire","GID_1": "CIV.6_1","province": "Lacs","NL_NAME_1": "NA","GID_2": "CIV.6.3_1","county": "Moronou","NL_NAME_2": "NA","city": "Arrah","VARNAME_3": "NA","NL_NAME_3": "NA","TYPE_3": "Département","ENGTYPE_3": "Department","CC_3": "NA","HASC_3": "NA","name": "Arrah.city","area_km2": 1551.964,"hist_schema_id": "Elevation0-9000","hist_area_km2": {"100": 10.826,"125": 242.305,"150": 501.752,"175": 492.3,"200": 232.226,"225": 61.42,"250": 10.377,"275": 0.737,"300": 0.021}}}