{"type":"Feature","properties":{"GID_3":"CIV.8.3.3_1","GID_0":"CIV","country":"Côted'Ivoire","GID_1":"CIV.8_1","province":"Montagnes","NL_NAME_1":"NA","GID_2":"CIV.8.3_1","county":"Tonkpi","NL_NAME_2":"NA","city":"Man","VARNAME_3":"NA","NL_NAME_3":"NA","TYPE_3":"Département","ENGTYPE_3":"Department","CC_3":"NA","HASC_3":"NA","name":"Man.city"},
"geometry":{"type": "MultiPolygon","coordinates": [[[[-7.4712,7.173,260.7132],[-7.4767,7.1862,257.4199],[-7.486,7.1925,256.6165],[-7.4888,7.1972,261.861],[-7.489,7.2126,270.6535],[-7.4955,7.2193,271.7697],[-7.496,7.226,281.5753],[-7.4948,7.2292,276.8498],[-7.4978,7.2348,280.8544],[-7.4984,7.2403,282.1965],[-7.5028,7.242,286.8188],[-7.5053,7.2411,299.6924],[-7.5156,7.2448,290.1314],[-7.5165,7.2573,292.0573],[-7.5201,7.263,293.9434],[-7.5192,7.2648,293.9303],[-7.5214,7.2655,295.6266],[-7.5239,7.2709,294.6708],[-7.5026,7.2874,299.4786],[-7.5003,7.2928,316.2848],[-7.4953,7.3245,325.1095],[-7.4968,7.3263,333.2076],[-7.4958,7.3333,315.9147],[-7.4987,7.3363,331.9113],[-7.4927,7.3575,325.8511],[-7.4929,7.3651,344.3194],[-7.4881,7.3853,332.8613],[-7.4726,7.3997,356.9665],[-7.4565,7.41,321.9192],[-7.4485,7.4176,320.3809],[-7.438,7.4206,303.5197],[-7.427,7.4209,307.6303],[-7.4189,7.4288,298.8219],[-7.4104,7.4314,312.4062],[-7.3954,7.4397,322.0454],[-7.3882,7.4476,305.6165],[-7.3814,7.4482,306.371],[-7.3813,7.4542,286.6578],[-7.3791,7.4599,293.4072],[-7.3798,7.4631,287.0381],[-7.4024,7.457,303.1767],[-7.4079,7.4609,313.9622],[-7.4189,7.4768,320.7879],[-7.4378,7.4986,358.0061],[-7.449,7.5023,373.0266],[-7.4588,7.5088,479.0881],[-7.4636,7.5143,499.4185],[-7.459,7.5438,764.9889],[-7.4614,7.5525,877.7337],[-7.4672,7.5567,730.1811],[-7.4642,7.5666,675.6711],[-7.4543,7.5745,719.4138],[-7.438,7.5762,414.2256],[-7.4356,7.5826,415.2684],[-7.4375,7.5878,434.6373],[-7.4433,7.5946,645.1674],[-7.4626,7.6036,986.1793],[-7.4664,7.608,1005.8142],[-7.4691,7.6369,650.5154],[-7.4675,7.6437,482.2929],[-7.5002,7.6466,504.5701],[-7.5077,7.6452,513.311],[-7.5714,7.6441,549.3328],[-7.5885,7.6309,621.5974],[-7.5898,7.6237,750.4793],[-7.5879,7.6141,838.7896],[-7.5881,7.5979,697.0953],[-7.5853,7.5888,767.8743],[-7.5952,7.5841,841.5601],[-7.604,7.5859,840.511],[-7.6127,7.5831,642.3453],[-7.6244,7.5889,615.8138],[-7.631,7.5944,583.4952],[-7.6518,7.5803,558.9892],[-7.677,7.5687,726.8068],[-7.6891,7.5573,659.0909],[-7.7018,7.55,591.2485],[-7.717,7.5453,526.5784],[-7.7233,7.5415,380.2051],[-7.7257999999999996,7.5287,389.2299],[-7.7304,7.5165,416.114],[-7.7388,7.5101,529.1327],[-7.75,7.5078,666.2596],[-7.7619,7.502,511.1392],[-7.7627,7.5113,560.2012],[-7.768,7.5318,506.006],[-7.7763,7.5392,487.5548],[-7.7785,7.5447,409.3613],[-7.7822,7.5488,389.1299],[-7.7885,7.5509,389.5616],[-7.8059,7.546,372.8085],[-7.8121,7.5483,523.8655],[-7.8425,7.5495,709.0943],[-7.8463,7.5437,811.7208],[-7.8443,7.5325,736.0868],[-7.8502,7.5228,757.3329],[-7.8568,7.5048,843.3049],[-7.8842,7.4718,683.6758],[-7.8901,7.4601,556.8884],[-7.8899,7.4562,547.1625],[-7.8993,7.4306,561.7547],[-7.9028,7.411,674.3617],[-7.9218,7.3921,767.0696],[-7.9405,7.3805,594.2632],[-7.9551,7.3665,353.8851],[-7.8394,7.2398,306.1007],[-7.86,7.1334,286.8423],[-7.8575,7.1305,284.8694],[-7.855,7.1222,283.5163],[-7.8585,7.1122,280.3819],[-7.8663,7.1067,290.1989],[-7.8797,7.1044,282.0995],[-7.8858,7.0922,291.5632],[-7.8758,7.0866,291.6625],[-7.8555,7.0832,300.3742],[-7.842,7.0755,307.4077],[-7.7775,7.0341,279.8197],[-7.7409,7.0068,252.8562],[-7.7376,7.0054,258.4544],[-7.7059,7.005,249.3572],[-7.6926,6.9943,249.8774],[-7.6764,6.9883,279.8635],[-7.6659,6.9817,256.1724],[-7.5895,7.0273,241.7714],[-7.5896,7.0298,243.5535],[-7.5136,7.0582,295.5936],[-7.51,7.0893,269.2907],[-7.5229,7.1023,268.7375],[-7.5279,7.1137,249.1241],[-7.503,7.132,254.2926],[-7.4869,7.1536,252.0585],[-7.4884,7.1561,253.8788],[-7.4817,7.1614,253.5871],[-7.479,7.1618,251.626],[-7.4798,7.166,253.797],[-7.4817,7.1658,255.1008],[-7.4818,7.1674,254.4445],[-7.4789,7.1721,266.6277],[-7.4739,7.1715,255.4811],[-7.4688,7.1683,257.1999],[-7.4682,7.1706,256.5012],[-7.4712,7.173,260.7132]]]]}}