{"type": "Feature","bbox": [-4.3114,8.5101,-2.5963,9.7716],"geometry": {"type": "MultiPolygon","coordinates": [[[[-2.6899,9.4888,218.424],[-2.6977,9.4839,226.4841],[-2.7072,9.4748,245.7102],[-2.7248,9.451,229.1017],[-2.7313,9.4396,238.9321],[-2.7359,9.4366,239.6561],[-2.7534,9.4096,263.2019],[-2.7632,9.4011,281.77],[-2.7711,9.4021,298.1259],[-2.7872,9.4098,288.1731],[-2.8127,9.4332,316.7841],[-2.8472,9.4709,340.2799],[-2.8687,9.4901,332.2154],[-2.9012,9.531,268.8117],[-2.9255,9.5737,253.8133],[-2.9424,9.6086,281.4404],[-2.9661,9.6467,311.6411],[-2.9775,9.672,338.0132],[-2.9847,9.6946,323.6857],[-2.9952,9.7197,325.9051],[-3.0067,9.7374,323.1726],[-3.0128,9.743,303.5717],[-3.0172,9.7433,297.2507],[-3.0483,9.7188,295.3413],[-3.0601,9.7195,311.4399],[-3.0662,9.7233,314.986],[-3.0773,9.7406,273.5052],[-3.0796,9.7375,270.7908],[-3.0971,9.7312,279.0654],[-3.1209,9.7162,282.864],[-3.1335,9.7018,300.4368],[-3.1383,9.6901,326.3495],[-3.135,9.6515,306.5094],[-3.1371,9.6407,315.6772],[-3.1559,9.6185,365.0386],[-3.1613,9.6164,369.2251],[-3.1718,9.6088,347.4243],[-3.1862,9.6023,337.4067],[-3.2003,9.5843,362.3162],[-3.2084,9.5869,361.1781],[-3.2142,9.5918,351.9207],[-3.2251,9.6099,326.0777],[-3.2368,9.6098,347.4105],[-3.2467,9.608,321.7025],[-3.2573,9.603,339.1399],[-3.2628,9.6039,320.9839],[-3.2659,9.6123,338.9248],[-3.2716,9.619,357.0029],[-3.2857,9.6522,355.5531],[-3.2975,9.6538,340.9225],[-3.3156,9.6518,368.0223],[-3.3302,9.6542,381.1415],[-3.3407,9.6537,362.3446],[-3.3456,9.6565,367.2996],[-3.3587,9.6579,374.7865],[-3.3923,9.6504,349.0289],[-3.4026,9.6638,339.2102],[-3.4049,9.6639,339.747],[-3.4082,9.6674,350.901],[-3.425,9.6698,369.446],[-3.4289,9.6744,363.2197],[-3.4279,9.684,359.1603],[-3.4321,9.6924,335.9391],[-3.4316,9.699,321.8397],[-3.4261,9.7136,347.7629],[-3.4246,9.7242,328.5732],[-3.4254,9.7337,338.0632],[-3.4239,9.739,351.9411],[-3.4277,9.7628,351.7291],[-3.4305,9.7716,363.5591],[-3.4374,9.7654,357.1271],[-3.4438,9.7559,368.1343],[-3.45,9.7523,377.7017],[-3.4776,9.7503,379.0335],[-3.4945,9.7121,374.8353],[-3.5005,9.676,359.3593],[-3.5026,9.6416,328.9843],[-3.5151,9.6238,345.5531],[-3.523,9.5976,314.7773],[-3.5287,9.6083,336.855],[-3.5311,9.5958,335.4091],[-3.5355,9.589,316.4616],[-3.5406,9.5888,309.8268],[-3.5588,9.5796,331.3047],[-3.572,9.5756,331.7294],[-3.5914,9.5778,339.4753],[-3.6105,9.5771,335.872],[-3.6302,9.5884,315.4953],[-3.695,9.6062,279.1774],[-3.7073,9.6049,296.884],[-3.7144,9.6069,298.3593],[-3.7299,9.6008,293.6457],[-3.741,9.5997,303.7878],[-3.7508,9.6084,289.0971],[-3.7678,9.6051,322.8947],[-3.7969,9.5941,316.1882],[-3.8203,9.5909,276.0708],[-3.8791,9.5577,253.9029],[-3.8918,9.5601,278.3994],[-3.9024,9.5655,283.0769],[-3.924,9.5682,301.1994],[-3.9612,9.5787,343.7594],[-3.9681,9.5788,330.9338],[-3.994,9.5699,310.7182],[-4.0031,9.5694,288.7082],[-4.021,9.5761,316.676],[-4.0321,9.5891,303.0936],[-4.0355,9.5915,297.1918],[-4.0425,9.5922,302.0807],[-4.0598,9.5906,295.0984],[-4.0719,9.5805,288.7595],[-4.0745,9.5761,283.1478],[-4.0776,9.5756,287.1903],[-4.1026,9.5606,251.2597],[-4.1066,9.559,249.5399],[-4.1211,9.5588,242.4916],[-4.1343,9.5608,249.057],[-4.1468,9.5666,242.9875],[-4.1519,9.5703,241.3405],[-4.161,9.583,257.4881],[-4.1676,9.5893,260.3338],[-4.1737,9.5918,277.8286],[-4.1963,9.6078,259.4887],[-4.2088,9.6128,251.0045],[-4.2375,9.5998,264.0785],[-4.2514,9.5995,252.9161],[-4.2701,9.6025,233.4837],[-4.2841,9.5958,237.1166],[-4.3051,9.6164,225.5618],[-4.3114,9.6086,219.968],[-4.2716,9.551,216.7939],[-4.2591,9.5438,215.2546],[-4.2493,9.5347,214.0266],[-4.2449,9.5232,222.7704],[-4.2456,9.5132,221.0888],[-4.2491,9.5,215.5271],[-4.2476,9.491,215.9622],[-4.2411,9.4856,217.2616],[-4.2386,9.4753,212.085],[-4.2233,9.4659,215.5924],[-4.2145,9.4581,211.6378],[-4.2021,9.4549,220.6186],[-4.1964,9.4457,220.8786],[-4.1997,9.4204,214.5092],[-4.2024,9.4116,218.0108],[-4.1972,9.4038,215.2599],[-4.187,9.4019,209.5109],[-4.1806,9.3954,217.0276],[-4.1837,9.3837,217.1631],[-4.1897,9.3761,218.4886],[-4.189,9.364,213.7901],[-4.1919,9.3547,223.6365],[-4.1984,9.3462,225.312],[-4.2096,9.3428,215.6117],[-4.21,9.3375,215.3042],[-4.1782,9.298,213.5301],[-4.1726,9.2796,209.4972],[-4.1797,9.2725,211.5046],[-4.193,9.267,212.7031],[-4.1978,9.2584,213.4327],[-4.1949,9.2488,209.2634],[-4.1811,9.2406,216.2269],[-4.1708,9.2286,208.4762],[-4.1682,9.23,212.9813],[-4.1647,9.2382,210.0913],[-4.154,9.2478,211.0276],[-4.1424,9.252,206.4946],[-4.134,9.2607,209.0103],[-4.128,9.2611,207.534],[-4.1086,9.2577,207.4709],[-4.0932,9.2602,207.7765],[-4.0818,9.2584,204.6608],[-4.0773,9.2485,212.099],[-4.0687,9.2427,208.8458],[-4.0588,9.2411,209.769],[-4.0454,9.2224,207.7555],[-4.0379,9.2159,208.7909],[-4.0315,9.2201,209.0799],[-4.0201,9.2181,207.6166],[-4.0138,9.2145,212.5092],[-4.0089,9.2086,203.2662],[-3.9871,9.2116,204.0458],[-3.9605,9.2084,203.9822],[-3.9527,9.1894,204.0526],[-3.9445,9.1821,206.5545],[-3.9343,9.1759,202.3632],[-3.913,9.1766,206.4396],[-3.8964,9.1806,201.8649],[-3.8884,9.1739,201.5989],[-3.8907,9.1693,205.3267],[-3.9104,9.1507,205.6692],[-3.9121,9.1428,202.8471],[-3.9098,9.1246,204.4769],[-3.9055,9.1149,200.5059],[-3.8935,9.1127,201.083],[-3.8842,9.1144,202.4308],[-3.8788,9.1187,201.9588],[-3.8762,9.1262,200.0544],[-3.8727,9.1285,200.7776],[-3.8558,9.1282,200.2335],[-3.8473,9.1207,211.9188],[-3.8516,9.1126,202.6576],[-3.8472,9.0968,201.0666],[-3.8489,9.0859,200.6918],[-3.8538,9.0782,214.0761],[-3.8601,9.0785,224.3186],[-3.8669,9.0842,201.8357],[-3.8734,9.0946,200.3924],[-3.8818,9.1032,199.9253],[-3.8899,9.0957,199.0872],[-3.8893,9.0707,199.816],[-3.8952,9.0657,206.3585],[-3.9049,9.0631,201.3352],[-3.8929,9.0564,199.6758],[-3.8874,9.0586,196.5071],[-3.8807,9.0579,201.2724],[-3.8739,9.0498,212.5556],[-3.8559,9.0342,199.0584],[-3.8347,9.0317,197.2569],[-3.8207,9.0265,196.2772],[-3.8099,9.0203,198.3377],[-3.8028,9.0135,220.111],[-3.8003,9.0034,196.7274],[-3.8071,8.9954,214.735],[-3.8238,8.9867,195.5041],[-3.834,8.9791,195.8477],[-3.8422,8.9786,193.3109],[-3.8508,8.9743,196.5993],[-3.8707,8.9538,203.438],[-3.8909,8.9625,200.1757],[-3.8961,8.9589,199.4561],[-3.8887,8.9481,193.0848],[-3.886,8.9348,195.8456],[-3.8797,8.9271,191.8091],[-3.8509,8.9168,195.2894],[-3.8448,8.9069,197.0221],[-3.8441,8.8928,206.4535],[-3.8418,8.886,194.5093],[-3.832,8.884,191.6435],[-3.8231,8.8771,197.6373],[-3.818,8.8683,196.7747],[-3.8057,8.8547,200.0404],[-3.8117,8.8493,202.4673],[-3.8251,8.8476,195.7112],[-3.8308,8.8439,193.0057],[-3.8243,8.8317,197.9394],[-3.8178,8.8383,189.8133],[-3.8041,8.8344,197.865],[-3.7933,8.8259,198.2126],[-3.7896,8.8126,200.7217],[-3.7784,8.7925,190.122],[-3.7757,8.783,189.6597],[-3.7779,8.7729,194.5203],[-3.7881,8.7675,196.839],[-3.8003,8.7675,219.9211],[-3.8048,8.7725,219.4273],[-3.8054,8.7799,194.5743],[-3.8135,8.7821,206.0209],[-3.8246,8.7781,195.9555],[-3.8255,8.7667,189.2124],[-3.8181,8.7598,193.9427],[-3.817,8.7502,187.9812],[-3.8221,8.7415,197.2207],[-3.8434,8.7281,200.6728],[-3.8539,8.7268,199.6239],[-3.859,8.7305,198.6824],[-3.8704,8.7278,190.9131],[-3.8684,8.7129,195.8308],[-3.8643,8.707,186.8586],[-3.8567,8.7061,190.9681],[-3.8506,8.7017,192.6686],[-3.8496,8.6942,196.7004],[-3.8846,8.693,192.6804],[-3.892,8.6864,185.5653],[-3.9015,8.6814,195.6101],[-3.9185,8.6844,194.1499],[-3.9252,8.6786,189.712],[-3.9299,8.6662,185.8176],[-3.931,8.6394,201.0955],[-3.9183,8.6259,200.8198],[-3.915,8.6287,204.3059],[-3.9077,8.6292,206.327],[-3.9042,8.632,210.7101],[-3.8887,8.636,207.5754],[-3.8859,8.6383,210.875],[-3.8756,8.64,229.3716],[-3.8569,8.6483,248.1071],[-3.8458,8.6497,224.1672],[-3.8387,8.648,209.3216],[-3.8289,8.6482,217.0306],[-3.801,8.6617,245.3669],[-3.7862,8.6619,251.221],[-3.7539,8.6328,259.2617],[-3.7464,8.6365,266.2358],[-3.7356,8.6376,247.4515],[-3.7247,8.6357,247.8416],[-3.6969,8.6258,257.7646],[-3.6764,8.6268,272.1772],[-3.6701,8.6228,272.3011],[-3.652,8.5996,281.7705],[-3.623,8.5817,259.4828],[-3.6109,8.5768,275.5265],[-3.5982,8.5759,277.0808],[-3.5785,8.5623,250.0059],[-3.5662,8.5501,287.03],[-3.56,8.5351,267.1975],[-3.5498,8.5235,265.967],[-3.5438,8.5103,312.0609],[-3.5394,8.5101,322.9423],[-3.5236,8.5197,313.3636],[-3.5043,8.5421,297.9102],[-3.4958,8.5452,278.2836],[-3.4823,8.5448,269.0109],[-3.4611,8.55,259.1461],[-3.4441,8.5474,245.3333],[-3.4318,8.5496,271.8134],[-3.4222,8.5573,266.8749],[-3.409,8.5813,246.9989],[-3.4024,8.5882,254.9899],[-3.3945,8.5934,252.2763],[-3.3621,8.5966,294.4474],[-3.3474,8.6029,290.5233],[-3.3337,8.6066,271.5995],[-3.2938,8.6005,314.7409],[-3.2837,8.5891,319.4698],[-3.2791,8.5884,319.556],[-3.2563,8.5904,310.703],[-3.2387,8.5961,315.4427],[-3.2221,8.6117,334.8494],[-3.2167,8.6187,352.1555],[-3.211,8.6412,352.4863],[-3.2105,8.6565,352.3837],[-3.1996,8.6798,348.418],[-3.1982,8.6876,348.8139],[-3.1999,8.6925,371.9175],[-3.1999,8.7001,383.9851],[-3.1972,8.7035,386.7775],[-3.1939,8.7025,375.6658],[-3.1903,8.6983,355.468],[-3.1812,8.6721,383.5031],[-3.1779,8.668,376.4034],[-3.1694,8.6335,400.6194],[-3.164,8.6259,406.5161],[-3.1587,8.6217,390.0908],[-3.1415,8.615,372.6698],[-3.1316,8.6063,355.7974],[-3.1207,8.6079,347.4031],[-3.1076,8.6159,342.4785],[-3.0994,8.6152,342.5048],[-3.0898,8.6109,334.6816],[-3.0837,8.6099,351.6284],[-3.0762,8.6121,335.2415],[-3.0721,8.6173,319.7997],[-3.0649,8.6201,329.4117],[-3.06,8.6271,303.5381],[-3.0567,8.6292,302.8044],[-3.0319,8.6337,299.5573],[-3.0235,8.6447,297.9736],[-3.0082,8.6515,290.1493],[-2.9964,8.6514,284.3871],[-2.9898,8.6482,289.5327],[-2.9852,8.6483,286.5098],[-2.9726,8.6424,284.6521],[-2.9566,8.6432,278.6652],[-2.9399,8.6396,280.92],[-2.7876,8.6838,364.8486],[-2.6262,8.7782,199.8089],[-2.6298,8.7843,197.4828],[-2.6289,8.7894,198.7501],[-2.6259,8.7928,194.8567],[-2.629,8.7946,193.1151],[-2.627,8.7995,190.8874],[-2.6203,8.8084,199.5517],[-2.5982,8.8221,197.4224],[-2.5963,8.8307,194.2472],[-2.601,8.8407,193.7338],[-2.6004,8.8429,197.174],[-2.6072,8.8477,192.3356],[-2.6175,8.8699,194.4492],[-2.6229,8.8779,194.6842],[-2.6213,8.8916,198.4336],[-2.6159,8.9115,213.3224],[-2.6182,8.9221,200.2534],[-2.627,8.9297,200.0705],[-2.6448,8.936,197.9783],[-2.6513,8.944,200.8378],[-2.6578,8.9837,195.7541],[-2.6541,9.0074,197.4357],[-2.6597,9.0069,206.4368],[-2.6634,9.0153,205.1896],[-2.6722,9.0202,203.752],[-2.6862,9.0185,203.2052],[-2.6886,9.016,206.7522],[-2.6887,9.0188,204.6371],[-2.6942,9.0191,202.1312],[-2.7018,9.0153,205.1711],[-2.7035,9.0162,207.0572],[-2.7024,9.0196,204.3464],[-2.7057,9.0209,203.5796],[-2.7155,9.0174,206.9979],[-2.72,9.0121,209.1396],[-2.7195,9.0176,203.8768],[-2.7135,9.0228,204.0474],[-2.7166,9.0253,208.8578],[-2.7275,9.0273,206.3939],[-2.7605,9.0256,205.9373],[-2.7721,9.0327,208.3318],[-2.7736,9.0448,208.8158],[-2.7792,9.0518,210.2959],[-2.7794,9.0504,209.1831],[-2.7808,9.0507,210.2959],[-2.7799,9.0526,211.9665],[-2.7816,9.0552,211.3254],[-2.782,9.0531,209.451],[-2.7825,9.054,211.3254],[-2.7835,9.0609,207.0894],[-2.7804,9.067,200.6297],[-2.769,9.0789,209.412],[-2.7656,9.0879,209.8195],[-2.7677,9.1131,209.8258],[-2.7711,9.1148,206.888],[-2.7676,9.1149,210.9286],[-2.7686,9.1204,207.676],[-2.7724,9.1275,207.6352],[-2.7746,9.1373,204.028],[-2.7791,9.1373,209.4701],[-2.776,9.1383,208.5873],[-2.7746,9.1377,204.028],[-2.7741,9.1424,211.2286],[-2.7719,9.1455,207.4349],[-2.7636,9.151,205.2729],[-2.7486,9.1552,210.5099],[-2.7503,9.1579,209.5788],[-2.7472,9.1557,208.003],[-2.7429,9.1561,208.4138],[-2.7369,9.1595,208.8363],[-2.7323,9.1654,210.2462],[-2.7226,9.1865,209.8744],[-2.7211,9.1932,212.6429],[-2.7223,9.1926,209.9633],[-2.7228,9.1958,208.3315],[-2.7255,9.1958,210.5819],[-2.7236,9.197,209.3901],[-2.7242,9.2002,209.0519],[-2.7204,9.195,212.4723],[-2.718,9.2015,208.3227],[-2.7188,9.2028,210.7967],[-2.7168,9.2034,205.4275],[-2.7161,9.2067,210.3747],[-2.7137,9.2081,210.2386],[-2.7143,9.2095,210.72],[-2.6979,9.218,205.3989],[-2.6921,9.2262,206.107],[-2.6619,9.2401,211.6148],[-2.6566,9.2556,211.5531],[-2.6767,9.2803,213.8479],[-2.6849,9.287,208.3743],[-2.6932,9.2844,208.9021],[-2.7011,9.2857,208.5923],[-2.7106,9.2912,210.7082],[-2.7175,9.3001,212.4203],[-2.7182,9.3066,208.1697],[-2.7213,9.3129,214.2085],[-2.7214,9.3255,217.6336],[-2.7195,9.3347,209.6212],[-2.7112,9.3389,216.0],[-2.7031,9.3393,209.2221],[-2.6946,9.3512,214.864],[-2.6821,9.3603,215.5163],[-2.6777,9.3675,211.9086],[-2.6738,9.3839,211.9641],[-2.6779,9.4095,209.405],[-2.6862,9.4241,215.0533],[-2.6886,9.4325,216.5074],[-2.6901,9.4524,211.9198],[-2.6845,9.4745,210.6782],[-2.6838,9.4839,214.4119],[-2.6871,9.4914,215.4178],[-2.6899,9.4888,218.424]]]]}
,"properties": {"GID_3": "CIV.14.1.1_1","GID_0": "CIV","country": "Côted'Ivoire","GID_1": "CIV.14_1","province": "Zanzan","NL_NAME_1": "NA","GID_2": "CIV.14.1_1","county": "Bounkani","NL_NAME_2": "NA","city": "Bouna","VARNAME_3": "NA","NL_NAME_3": "NA","TYPE_3": "Département","ENGTYPE_3": "Department","CC_3": "NA","HASC_3": "NA","name": "Bouna.city","area_km2": 15601.22,"hist_schema_id": "Elevation0-9000","hist_area_km2": {"175": 3.37,"200": 459.82,"225": 1557.27,"250": 2157.39,"275": 2501.03,"300": 2812.43,"325": 2548.06,"350": 1941.79,"375": 1044.6,"400": 342.14,"425": 105.09,"450": 57.6,"475": 28.36,"500": 17.91,"525": 11.34,"550": 6.9,"575": 3.74,"600": 1.76,"625": 0.59}}}