{"type":"Feature","properties":{"GID_3":"CIV.5.2.2_1","GID_0":"CIV","country":"Côted'Ivoire","GID_1":"CIV.5_1","province":"Gôh-Djiboua","NL_NAME_1":"NA","GID_2":"CIV.5.2_1","county":"Lôh-Djiboua","NL_NAME_2":"NA","city":"Guitry","VARNAME_3":"NA","NL_NAME_3":"NA","TYPE_3":"Département","ENGTYPE_3":"Department","CC_3":"NA","HASC_3":"NA","name":"Guitry.city"},
"geometry":{"type": "MultiPolygon","coordinates": [[[[-5.4578,5.2175,27.5873],[-5.3355,5.1474,0.0],[-5.2465,5.207,0.7344],[-5.243,5.2125,0.0],[-5.217,5.2041,6.1735],[-5.2113,5.2058,0.0],[-5.1097,5.1715,0.0],[-5.0696,5.1953,0.0],[-5.0689,5.3196,6.4871],[-5.0663,5.3247,7.3643],[-5.061,5.3277,12.7731],[-5.0578,5.3323,14.1279],[-5.0579,5.3376,8.9223],[-5.0603,5.3397,12.4604],[-5.0592,5.3416,8.4588],[-5.0621,5.3499,11.2689],[-5.0629,5.3596,13.6615],[-5.0592,5.3632,11.1741],[-5.0548,5.3766,14.0824],[-5.0538,5.3805,13.5305],[-5.0554,5.3863,12.4576],[-5.0465,5.3973,14.7935],[-5.0468,5.4044,19.1082],[-5.0442,5.4101,9.6444],[-5.0448,5.4173,14.4487],[-5.0373,5.4302,13.2025],[-5.0311,5.4373,12.9749],[-5.0313,5.4412,16.7187],[-5.0286,5.4453,15.8906],[-5.0267,5.4549,12.795],[-5.0223,5.46,15.0961],[-5.0207,5.4796,15.8435],[-5.0175,5.4862,15.207],[-5.0101,5.4941,16.8576],[-5.006,5.5035,29.4059],[-5.0107,5.5261,22.795],[-5.0126,5.5291,20.6936],[-5.0101,5.5316,24.8468],[-5.0092,5.5389,33.8911],[-5.0122,5.5444,25.5717],[-5.0159,5.5585,23.0542],[-5.0238,5.5643,19.4861],[-5.0016,5.615,50.5874],[-5.1589,5.7231,57.2029],[-5.1946,5.7192,74.3593],[-5.2456,5.7196,94.1862],[-5.2501,5.7174,109.402],[-5.2563,5.7171,106.1419],[-5.2721,5.7189,113.3985],[-5.2795,5.7147,123.5621],[-5.2796,5.7082,124.3226],[-5.3578,5.7044,123.5155],[-5.5235,5.7125,215.234],[-5.5918,5.5814,193.0211],[-5.6129,5.574,165.5522],[-5.6114,5.5515,161.8685],[-5.516,5.4286,78.4135],[-5.4715,5.4351,49.6999],[-5.4578,5.2175,27.5873]]]]}}