{"type":"Feature","properties":{"GID_1":"CIV.13_1","GID_0":"CIV","country":"Côted'Ivoire","province":"Yamoussoukro","VARNAME_1":"NA","NL_NAME_1":"NA","TYPE_1":"Districtautonome","ENGTYPE_1":"Autonomousdistrict","CC_1":"NA","HASC_1":"CI.YM","ISO_1":"CI-YM","name":"Yamoussoukro.province"},
"geometry":{"type": "MultiPolygon","coordinates": [[[[-5.3066,6.5579,153.0646],[-5.3048,6.5542,152.6199],[-5.2943,6.5563,148.5629],[-5.2847,6.5697,175.9576],[-5.2834,6.574,154.2753],[-5.2869,6.5792,159.1198],[-5.2854,6.5884,155.593],[-5.2874,6.5984,154.6788],[-5.2859,6.6093,156.1934],[-5.2716,6.627,162.6284],[-5.2639,6.6457,167.3967],[-5.261,6.6481,170.6068],[-5.2158,6.6574,189.1479],[-5.2167,6.6603,194.5165],[-5.1208,6.7531,185.5897],[-5.1077,6.7635,195.6501],[-5.0897,6.7963,187.7202],[-5.0846,6.8004,169.8679],[-5.0531,6.8179,179.7237],[-5.0424,6.8213,206.7553],[-5.039,6.7965,212.864],[-5.026,6.7721,185.4581],[-5.0049,6.7591,162.005],[-4.9756,6.7607,132.3544],[-4.9611,6.7655,117.6092],[-4.9603,6.7701,122.0004],[-4.9526,6.7851,118.5731],[-4.9516,6.7915,128.8365],[-4.9552,6.7946,123.6566],[-4.9525,6.8007,118.6918],[-4.952,6.8124,123.1752],[-4.9538,6.8225,120.5],[-4.9592,6.8211,122.117],[-4.9714,6.8269,125.6131],[-4.9775,6.8361,124.0628],[-4.9854,6.8378,139.7163],[-4.9884,6.8449,133.5003],[-4.9877,6.8514,138.2855],[-4.9928,6.8597,130.1154],[-4.9964,6.8721,143.0315],[-4.9953,6.8889,135.8699],[-5.0121,6.8931,139.6204],[-5.0233,6.9017,140.2796],[-5.0332,6.9037,140.5299],[-5.0366,6.9058,152.479],[-5.0347,6.911,141.245],[-5.0352,6.9161,140.8925],[-5.0373,6.9195,142.4127],[-5.0373,6.9241,138.82],[-5.041,6.9287,149.0947],[-5.0409,6.9417,144.2943],[-5.0452,6.9438,146.8108],[-5.048,6.95,143.4998],[-5.0481,6.9541,141.872],[-5.0624,6.9745,143.2321],[-5.0664,6.9766,145.2562],[-5.0855,6.9769,149.6932],[-5.0892,6.9778,154.511],[-5.0931,6.9811,151.2622],[-5.0968,6.9797,155.0297],[-5.1068,6.9929,150.6059],[-5.115,6.9916,149.3578],[-5.1171,6.9951,149.3864],[-5.1221,6.9973,150.9943],[-5.1331,7.0182,155.4224],[-5.1337,7.0216,154.1181],[-5.1292,7.0256,151.9827],[-5.1332,7.0271,155.0187],[-5.1402,7.0257,159.0118],[-5.1452,7.0306,152.8116],[-5.1519,7.0287,159.9412],[-5.1549,7.0307,154.036],[-5.157,7.0379,155.7708],[-5.161,7.0401,156.5136],[-5.1608,7.049,157.5667],[-5.1674,7.0485,164.4908],[-5.1722,7.0456,159.1334],[-5.1797,7.0515,161.2316],[-5.1911,7.053,163.425],[-5.1914,7.0575,160.366],[-5.1861,7.0624,162.1523],[-5.182,7.0778,161.0911],[-5.1865,7.0803,163.2121],[-5.1944,7.0816,166.6007],[-5.204,7.0781,172.9643],[-5.2095,7.0781,175.8426],[-5.2225,7.0818,183.8291],[-5.2414,7.0813,215.8904],[-5.2813,7.0968,191.4399],[-5.2909,7.0944,201.913],[-5.2978,7.0962,203.0177],[-5.3299,7.076,246.3619],[-5.3646,7.0683,208.5332],[-5.3701,7.0686,200.2091],[-5.3945,7.0541,183.0656],[-5.4071,7.0492,181.5],[-5.4199,7.0463,181.5],[-5.4526,7.0474,181.5],[-5.4596,7.0493,181.5],[-5.4646,7.0485,181.5],[-5.4675,7.0458,181.5],[-5.4492,7.0408,181.5],[-5.4475,7.0356,181.5],[-5.456,7.0288,181.5],[-5.4587,7.0285,181.5],[-5.4691,7.0331,181.5],[-5.4739,7.0311,187.2115],[-5.4794,7.025,164.2525],[-5.484,7.007,168.0319],[-5.4897,7.0024,167.8193],[-5.4964,6.9889,187.9601],[-5.4953,6.984,193.9352],[-5.499,6.9659,177.8779],[-5.4995,6.9531,162.4655],[-5.4981,6.9461,162.8947],[-5.5013,6.9309,157.8093],[-5.5053,6.9261,156.7643],[-5.513,6.9235,156.7052],[-5.5193,6.9161,160.4525],[-5.5263,6.9125,152.7658],[-5.5281,6.9072,152.9365],[-5.5273,6.9019,152.606],[-5.5199,6.8947,156.8028],[-5.5189,6.89,153.4042],[-5.5211,6.885,153.0657],[-5.5174,6.8763,154.9884],[-5.5107,6.867,148.8579],[-5.4929,6.8631,157.1104],[-5.486,6.8577,156.6367],[-5.4837,6.8523,161.6979],[-5.4854,6.845,149.9409],[-5.4815,6.8307,147.4333],[-5.4839,6.8206,147.3622],[-5.4815,6.8126,146.8269],[-5.4629,6.8046,148.6546],[-5.4388,6.7847,148.525],[-5.4333,6.7705,154.9061],[-5.4328,6.7545,149.1152],[-5.4233,6.741,147.946],[-5.405,6.7048,149.7202],[-5.405,6.6921,152.2368],[-5.3985,6.6683,150.6462],[-5.3995,6.6602,150.8753],[-5.4047,6.6525,147.3936],[-5.4107,6.6334,148.8723],[-5.4122,6.6221,147.651],[-5.4103,6.6124,147.226],[-5.4049,6.6064,152.0583],[-5.3973,6.6021,154.251],[-5.3645,6.6038,145.1555],[-5.3412,6.6018,141.5807],[-5.3252,6.5982,145.2563],[-5.306,6.591,144.1804],[-5.3009,6.5842,148.1655],[-5.298,6.576,150.6024],[-5.2986,6.5691,159.331],[-5.3066,6.5579,153.0646]]]]}}