{"type":"Feature","properties":{"GID_3":"CIV.8.2.3_1","GID_0":"CIV","country":"Côted'Ivoire","GID_1":"CIV.8_1","province":"Montagnes","NL_NAME_1":"NA","GID_2":"CIV.8.2_1","county":"Guémon","NL_NAME_2":"NA","city":"Facobly","VARNAME_3":"NA","NL_NAME_3":"NA","TYPE_3":"Département","ENGTYPE_3":"Department","CC_3":"NA","HASC_3":"NA","name":"Facobly.city"},
"geometry":{"type": "MultiPolygon","coordinates": [[[[-7.3798,7.4631,287.0381],[-7.3791,7.4599,293.4072],[-7.3813,7.4542,286.6578],[-7.3814,7.4482,306.371],[-7.3882,7.4476,305.6165],[-7.3954,7.4397,322.0454],[-7.4104,7.4314,312.4062],[-7.4189,7.4288,298.8219],[-7.427,7.4209,307.6303],[-7.438,7.4206,303.5197],[-7.4485,7.4176,320.3809],[-7.4565,7.41,321.9192],[-7.4726,7.3997,356.9665],[-7.4881,7.3853,332.8613],[-7.4929,7.3651,344.3194],[-7.4927,7.3575,325.8511],[-7.4987,7.3363,331.9113],[-7.4958,7.3333,315.9147],[-7.4921,7.3318,325.3045],[-7.4822,7.3315,327.207],[-7.4791,7.3341,338.2796],[-7.4696,7.3362,329.2466],[-7.4344,7.329,333.5332],[-7.4218,7.3222,310.179],[-7.3893,7.3183,308.019],[-7.3595,7.3201,295.2887],[-7.3482,7.3253,310.9753],[-7.3453,7.3297,301.6876],[-7.3392,7.3268,315.2137],[-7.3352,7.329,308.2086],[-7.325,7.3303,327.7803],[-7.3108,7.3295,343.1851],[-7.3034,7.3326,317.3934],[-7.2884,7.3427,307.9157],[-7.2709,7.3488,305.1153],[-7.2658,7.3553,311.4678],[-7.2616,7.358,331.8925],[-7.2538,7.369,308.2345],[-7.2525,7.3805,308.0676],[-7.2468,7.3919,313.3301],[-7.2355,7.4022,286.6355],[-7.2188,7.4262,276.2753],[-7.2132,7.4427,267.1839],[-7.2046,7.4507,272.7082],[-7.2051,7.4579,266.8855],[-7.2006,7.4661,259.8988],[-7.1812,7.4863,250.7023],[-7.1738,7.491,249.4218],[-7.1475,7.492,248.314],[-7.1413,7.4951,246.0039],[-7.1184,7.4702,246.7214],[-7.0826,7.4684,234.9006],[-7.0681,7.4347,230.0255],[-7.064,7.4277,231.1156],[-7.052,7.4152,223.3414],[-7.0476,7.4194,225.7847],[-7.0203,7.4237,224.1718],[-7.0063,7.4378,224.6149],[-7.0063,7.454,227.0314],[-7.012,7.457,228.8119],[-7.0244,7.4746,226.5458],[-7.0298,7.4887,226.5675],[-7.0255,7.5064,227.9183],[-7.045,7.529,227.6226],[-7.0449,7.5351,231.3448],[-7.0385,7.5427,230.6099],[-7.0301,7.5461,234.1772],[-7.0166,7.5546,237.8651],[-7.0063,7.556,243.2106],[-6.9981,7.5521,235.9026],[-6.9909,7.5521,230.1612],[-6.9855,7.5566,231.9921],[-6.9872,7.5711,235.9678],[-6.9862,7.5793,226.3169],[-6.9903,7.5844,231.0704],[-6.9948,7.5862,229.6597],[-6.9996,7.5844,231.8556],[-7.0032,7.5861,236.7206],[-7.0034,7.5905,228.8141],[-7.0209,7.613,234.9407],[-7.0248,7.6134,235.897],[-7.0333,7.6091,233.4409],[-7.043,7.6069,234.0441],[-7.0487,7.6216,234.1562],[-7.0559,7.6238,235.8854],[-7.0675,7.6364,238.4351],[-7.0687,7.6432,230.5],[-7.0668,7.6497,234.824],[-7.0685,7.6566,239.6658],[-7.0748,7.6644,239.502],[-7.0809,7.6792,240.7117],[-7.0774,7.6886,234.6292],[-7.0723,7.7192,244.1485],[-7.0732,7.7175,240.4476],[-7.1037,7.7155,269.4978],[-7.145,7.7231,314.7358],[-7.1493,7.7218,311.5341],[-7.1542,7.7112,309.9314],[-7.17,7.6859,325.012],[-7.175,7.6736,355.5464],[-7.1923,7.6572,359.0923],[-7.1988,7.66,338.1933],[-7.2139,7.6574,314.3357],[-7.2219,7.6598,306.7733],[-7.2345,7.6582,297.8324],[-7.2512,7.6174,287.6031],[-7.2657,7.5956,283.998],[-7.2798,7.5817,276.9024],[-7.2796,7.5729,278.7116],[-7.2824,7.5659,274.9665],[-7.2822,7.5619,296.3436],[-7.2868,7.5523,285.2241],[-7.2855,7.5473,273.9865],[-7.2884,7.5411,271.0892],[-7.2826,7.5283,278.8882],[-7.2849,7.5204,270.7731],[-7.2801,7.5125,264.7044],[-7.2804,7.51,265.4311],[-7.3051,7.4925,266.5648],[-7.3437,7.4867,274.9651],[-7.3463,7.4814,273.7656],[-7.3535,7.4765,276.3841],[-7.3612,7.4755,280.6069],[-7.368,7.4727,285.8707],[-7.3764,7.4684,285.2451],[-7.3798,7.4631,287.0381]]]]}}