{"type":"Feature","properties":{"GID_3":"CIV.6.1.1_1","GID_0":"CIV","country":"Côted'Ivoire","GID_1":"CIV.6_1","province":"Lacs","NL_NAME_1":"NA","GID_2":"CIV.6.1_1","county":"Bélier","NL_NAME_2":"NA","city":"Didievi","VARNAME_3":"NA","NL_NAME_3":"NA","TYPE_3":"Département","ENGTYPE_3":"Department","CC_3":"NA","HASC_3":"NA","name":"Didievi.city"},
"geometry":{"type": "MultiPolygon","coordinates": [[[[-4.7118,7.2612,239.9626],[-4.7114,7.2692,241.121],[-4.7155,7.2851,240.2431],[-4.7301,7.3047,209.0042],[-4.741,7.3448,196.6098],[-4.7419,7.3546,205.0387],[-4.7464,7.3716,191.9516],[-4.7609,7.4035,199.6453],[-4.7658,7.4097,185.9186],[-4.7701,7.4194,189.223],[-4.7496,7.4336,215.9365],[-4.6879,7.4686,207.6776],[-4.6825,7.4704,189.0707],[-4.6764,7.4694,176.9954],[-4.6577,7.4726,181.9176],[-4.6686,7.4814,176.1164],[-4.6731,7.4823,174.2302],[-4.6757,7.4849,173.5794],[-4.6776,7.4906,176.2375],[-4.6783,7.4978,179.9921],[-4.6744,7.5058,171.6916],[-4.6685,7.532,161.7744],[-4.6791,7.5226,160.7133],[-4.6874,7.5187,172.3775],[-4.7063,7.5227,169.5667],[-4.7112,7.5264,172.163],[-4.7242,7.5313,168.0498],[-4.7293,7.5274,172.5302],[-4.7361,7.5289,170.5793],[-4.7398,7.5321,167.9771],[-4.7427,7.5467,175.823],[-4.7457,7.5523,174.4363],[-4.7495,7.5562,193.0961],[-4.7553,7.5584,196.3069],[-4.7751,7.5834,278.576],[-4.7892,7.5661,182.7616],[-4.7942,7.5688,183.1061],[-4.8069,7.5709,187.7957],[-4.8165,7.5745,209.192],[-4.8204,7.5739,218.0477],[-4.8264,7.5696,211.661],[-4.8315,7.5602,186.6687],[-4.8366,7.5605,190.1521],[-4.8386,7.5585,197.6153],[-4.8433,7.5577,206.7845],[-4.8603,7.558,208.5261],[-4.8659,7.5602,208.0786],[-4.8766,7.571,206.2793],[-4.8797,7.5727,206.6389],[-4.8858,7.5728,211.639],[-4.8907,7.5669,234.4903],[-4.9006,7.5471,251.1998],[-4.9124,7.535,245.6125],[-4.9215,7.5228,222.7513],[-4.9294,7.5163,211.1907],[-4.9268,7.5085,208.417],[-4.9275,7.5033,206.379],[-4.9316,7.4983,211.9173],[-4.9296,7.487,205.4164],[-4.935,7.4857,212.0981],[-4.9453,7.4895,218.0601],[-4.9534,7.4861,221.3581],[-4.9575,7.4888,235.791],[-4.9598,7.4929,246.303],[-4.9689,7.4941,237.6764],[-4.9733,7.4911,248.6547],[-4.9915,7.4685,235.8696],[-5.0013,7.4786,259.4728],[-5.0121,7.4695,264.7402],[-5.0145,7.4649,262.4766],[-5.0341,7.4489,276.0081],[-5.043,7.4388,286.1562],[-5.0436,7.436,292.6939],[-5.0382,7.43,284.2587],[-5.0263,7.4308,284.0745],[-5.0101,7.4244,271.39],[-5.0076,7.421,265.3734],[-5.0087,7.419,264.1838],[-5.0126,7.4168,256.6985],[-5.0327,7.418,282.3648],[-5.0384,7.4147,298.2332],[-5.0569,7.4137,270.6019],[-5.0592,7.4115,260.6524],[-5.06,7.4083,270.8011],[-5.0546,7.3895,312.7739],[-5.0588,7.382,279.1711],[-5.0717,7.3739,283.6213],[-5.0676,7.3613,261.496],[-5.0403,7.3178,242.9127],[-5.0195,7.2942,226.2199],[-4.9986,7.2752,207.9047],[-4.9934,7.2665,205.3398],[-4.9776,7.2526,205.4215],[-4.9675,7.2332,197.7608],[-4.9538,7.2032,207.8884],[-4.9451,7.1796,196.5863],[-4.9395,7.1606,174.4653],[-4.9434,7.1528,165.0253],[-4.9327,7.1352,164.3467],[-4.9281,7.1247,176.0484],[-4.9258,7.1141,176.8876],[-4.911,7.096,160.1725],[-4.9103,7.092,154.8336],[-4.9037,7.0837,144.4093],[-4.9024,7.0726,167.7981],[-4.8844,7.0054,173.0984],[-4.8779,6.9879,175.8346],[-4.877,6.9814,162.0729],[-4.878,6.9778,159.2661],[-4.8601,6.9337,184.521],[-4.8519,6.9281,174.8053],[-4.8489,6.923,161.0527],[-4.8502,6.9192,169.2986],[-4.8474,6.9071,171.6696],[-4.841,6.8947,143.8634],[-4.8401,6.8857,137.6371],[-4.8344,6.8751,132.7155],[-4.8366,6.8714,138.0917],[-4.8353,6.8678,137.0786],[-4.8195,6.8767,135.0305],[-4.8087,6.871,122.5084],[-4.7929,6.8753,118.1216],[-4.7918,6.8795,116.6786],[-4.7935,6.885,121.4139],[-4.8013,6.8975,120.9916],[-4.8026,6.9039,124.4462],[-4.8022,6.9096,121.7356],[-4.7976,6.9191,122.3831],[-4.8012,6.9258,127.7159],[-4.8011,6.9307,128.451],[-4.8069,6.936,132.3214],[-4.7966,6.9546,150.896],[-4.7786,6.979,142.848],[-4.7779,6.9818,142.6545],[-4.784,6.9955,160.4895],[-4.7843,7.0004,165.1694],[-4.7913,7.0081,182.4474],[-4.808,7.0411,170.8629],[-4.7931,7.0512,184.9846],[-4.7832,7.0559,165.3728],[-4.7809,7.0588,163.0131],[-4.7721,7.0615,158.4983],[-4.769,7.0731,157.3542],[-4.7678,7.0914,148.4986],[-4.7593,7.1329,167.0095],[-4.7518,7.1508,169.0529],[-4.7491,7.1776,170.1713],[-4.7455,7.1858,182.5046],[-4.7412,7.2063,207.71],[-4.7343,7.2163,202.5994],[-4.7104,7.2322,188.2397],[-4.7014,7.2361,200.7141],[-4.7021,7.2399,211.6162],[-4.7123,7.254,227.241],[-4.7118,7.2612,239.9626]]]]}}