{"type": "Feature","bbox": [-4.7866,5.2315,-4.2617,5.561],"geometry": {"type": "MultiPolygon","coordinates": [[[[-4.4196,5.5224,34.0505],[-4.4889,5.5212,74.9134],[-4.6426,5.539,78.8281],[-4.7041,5.561,54.1169],[-4.7375,5.4983,18.6003],[-4.7866,5.3284,12.4088],[-4.7652,5.3198,11.299],[-4.7572,5.3131,35.6345],[-4.74,5.2901,31.9608],[-4.7339,5.2848,16.0675],[-4.7316,5.2794,0.0],[-4.723,5.2689,0.0],[-4.7005,5.2616,3.4756],[-4.6878,5.2379,7.1297],[-4.6809,5.2318,0.0],[-4.6785,5.2315,0.0],[-4.6487,5.2409,0.0],[-4.6276,5.2525,0.0],[-4.6227,5.2524,0.0],[-4.6219,5.2466,0.0],[-4.6185,5.2432,0.0],[-4.6048,5.2407,0.0],[-4.5958,5.241,0.0],[-4.5925,5.2473,0.0],[-4.6022,5.2545,0.0],[-4.6009,5.259,0.0],[-4.605,5.2675,0.0],[-4.5377,5.2728,0.0],[-4.5231,5.2687,18.9062],[-4.5078,5.2589,0.0],[-4.501,5.2592,0.0],[-4.4968,5.2661,0.0],[-4.4925,5.267,0.0],[-4.4847,5.2597,0.0],[-4.4766,5.2571,0.0],[-4.4748,5.2588,0.0],[-4.4739,5.2648,0.0],[-4.4587,5.2747,7.2758],[-4.3455,5.2786,0.0],[-4.319,5.3135,0.0],[-4.2941,5.307,0.0],[-4.2701,5.4293,11.6784],[-4.2675,5.4344,13.3143],[-4.2672,5.4414,16.7754],[-4.2692,5.4445,13.8482],[-4.2671,5.4469,10.4989],[-4.265,5.4546,18.9991],[-4.2617,5.4571,26.5854],[-4.2705,5.4824,38.1486],[-4.3061,5.5002,33.667],[-4.3433,5.5115,19.2023],[-4.4064,5.518,26.4827],[-4.4196,5.5224,34.0505]]]]}
,"properties": {"GID_3": "CIV.7.2.1_1","GID_0": "CIV","country": "Côted'Ivoire","GID_1": "CIV.7_1","province": "Lagunes","NL_NAME_1": "NA","GID_2": "CIV.7.2_1","county": "GrandsPonts","NL_NAME_2": "NA","city": "Dabou","VARNAME_3": "NA","NL_NAME_3": "NA","TYPE_3": "Département","ENGTYPE_3": "Department","CC_3": "NA","HASC_3": "NA","name": "Dabou.city","area_km2": 1505.311,"hist_schema_id": "Elevation0-9000","hist_area_km2": {"0": 216.468,"25": 374.187,"50": 475.534,"75": 343.379,"100": 91.923,"125": 3.82}}}