{"type":"Feature","properties":{"GID_2":"CIV.6.3_1","GID_0":"CIV","country":"Côted'Ivoire","GID_1":"CIV.6_1","province":"Lacs","NL_NAME_1":"NA","county":"Moronou","VARNAME_2":"NA","NL_NAME_2":"NA","TYPE_2":"Région","ENGTYPE_2":"Region","CC_2":"NA","HASC_2":"CI.LA.MN","name":"Moronou.county"},
"geometry":{"type": "MultiPolygon","coordinates": [[[[-4.6845,6.2872,65.1948],[-4.684,6.2833,52.1942],[-4.5773,6.2613,111.688],[-4.5691,6.2609,116.1411],[-4.566,6.2628,105.4318],[-4.5503,6.2608,124.7688],[-4.5045,6.2428,144.9525],[-4.4979,6.2421,136.3746],[-4.4914,6.2424,140.3887],[-4.4845,6.2449,144.0818],[-4.4785,6.2503,157.4496],[-4.4592,6.2463,128.3851],[-4.4332,6.2457,131.3775],[-4.4228,6.2679,129.2046],[-4.3965,6.2503,111.0275],[-4.3909,6.2354,110.1453],[-4.3839,6.229,103.1876],[-4.3621,6.2198,96.7057],[-4.3547,6.2182,99.6154],[-4.342,6.2027,93.8097],[-4.3325,6.203,92.328],[-4.295,6.1937,91.7551],[-4.2872,6.1964,92.2688],[-4.2823,6.2004,88.966],[-4.2676,6.1954,75.4403],[-4.26,6.1912,78.5204],[-4.2541,6.1914,71.1875],[-4.245,6.1838,67.1943],[-4.2375,6.1815,76.313],[-4.2325,6.1878,62.7204],[-4.2324,6.1914,75.9813],[-4.218,6.2003,97.8127],[-4.2061,6.1972,107.4346],[-4.1836,6.1969,74.3332],[-4.1675,6.1915,59.2385],[-4.1586,6.1952,53.8073],[-4.1583,6.2027,55.0483],[-4.1536,6.209,54.9105],[-4.1542,6.2194,55.2061],[-4.1531,6.2219,55.3086],[-4.1454,6.2306,60.4471],[-4.1419,6.2322,61.1719],[-4.1512,6.24,64.6167],[-4.1513,6.2456,62.2853],[-4.1461,6.253,61.6232],[-4.1416,6.2561,63.5996],[-4.1454,6.255,62.0485],[-4.1493,6.2612,62.4375],[-4.1439,6.2676,64.1976],[-4.1449,6.27,63.4181],[-4.1542,6.274,87.8879],[-4.1584,6.2956,71.268],[-4.1541,6.3153,86.4979],[-4.1571,6.3332,69.9486],[-4.1527,6.3422,71.2493],[-4.1551,6.3515,78.3571],[-4.1601,6.3565,81.1011],[-4.1591,6.3605,71.9546],[-4.1633,6.3664,73.5005],[-4.1638,6.369,72.6681],[-4.1613,6.3735,74.3026],[-4.1633,6.3852,82.6331],[-4.1577,6.394,79.58],[-4.1565,6.4015,75.2905],[-4.1471,6.4247,81.8402],[-4.1403,6.4293,81.1601],[-4.1388,6.4364,76.8397],[-4.1145,6.4508,95.4082],[-4.1126,6.4583,86.6139],[-4.108,6.4648,84.1882],[-4.1054,6.4777,82.8554],[-4.1071,6.4854,87.7462],[-4.1043,6.4942,94.8809],[-4.1064,6.5021,107.9047],[-4.1055,6.5047,87.3039],[-4.0914,6.5116,89.0046],[-4.0784,6.5248,89.3444],[-4.0576,6.5551,93.5137],[-4.0509,6.5587,95.0383],[-4.0429,6.5596,95.6044],[-4.0281,6.5555,104.7209],[-4.0145,6.5607,111.2199],[-3.9847,6.5606,123.7906],[-3.9757,6.5624,115.2054],[-3.9574,6.5468,133.3539],[-3.9343,6.5402,138.1789],[-3.9144,6.5441,156.7881],[-3.893,6.5573,137.1358],[-3.8651,6.5656,146.4194],[-3.8498,6.5728,146.7042],[-3.8334,6.5763,142.5631],[-3.8144,6.5852,144.8824],[-3.8067,6.5855,133.333],[-3.7949,6.5889,130.3012],[-3.7699,6.6221,115.0217],[-3.774,6.6403,119.1669],[-3.7725,6.6476,120.7679],[-3.78,6.6546,128.7278],[-3.789,6.6708,122.3865],[-3.7917,6.6711,118.7212],[-3.7968,6.6756,126.053],[-3.7946,6.6791,123.278],[-3.7826,6.687,125.3058],[-3.7768,6.6967,124.7018],[-3.7716,6.6973,125.273],[-3.7645,6.7024,125.4931],[-3.7647,6.7038,119.5284],[-3.773,6.7176,120.0085],[-3.7743,6.7259,129.0939],[-3.7887,6.736,125.8505],[-3.7884,6.7451,125.2224],[-3.7925,6.7542,132.0606],[-3.7991,6.7607,124.718],[-3.7936,6.7659,133.2244],[-3.7769,6.7727,125.4611],[-3.762,6.7735,127.707],[-3.7585,6.7775,124.1024],[-3.7587,6.7862,129.0771],[-3.7622,6.7982,125.5461],[-3.7616,6.8029,122.4551],[-3.7475,6.8152,137.26],[-3.7465,6.8212,125.615],[-3.754,6.8344,152.1443],[-3.7671,6.8439,126.8453],[-3.7787,6.8574,126.0404],[-3.7788,6.8625,124.6243],[-3.7628,6.8842,125.3653],[-3.7431,6.9052,132.746],[-3.7345,6.9115,132.3717],[-3.7326,6.9272,130.5128],[-3.7416,6.9439,134.8836],[-3.7382,6.9526,137.2177],[-3.7399,6.9592,146.8086],[-3.7474,6.9614,145.6762],[-3.7548,6.9594,150.8345],[-3.7625,6.9519,132.1733],[-3.7707,6.9337,125.7244],[-3.7751,6.9305,133.5464],[-3.7792,6.9357,131.0533],[-3.7833,6.938,129.6733],[-3.7871,6.949,137.2526],[-3.79,6.9522,138.3436],[-3.8073,6.9589,131.3377],[-3.8118,6.9616,136.7538],[-3.8157,6.9668,139.5178],[-3.8313,6.9664,138.9643],[-3.838,6.9814,144.6536],[-3.8447,6.9889,150.7305],[-3.8527,6.9912,165.3357],[-3.8626,6.9906,172.7041],[-3.8751,6.9855,179.3735],[-3.8798,6.9851,200.7844],[-3.8925,6.9916,185.423],[-3.9035,6.9899,166.6681],[-3.9082,6.9875,162.7804],[-3.9145,6.9774,157.777],[-3.9233,6.9757999999999996,174.1594],[-3.9477,6.9899,204.9828],[-3.9517,6.9889,211.4772],[-3.9668,6.9933,199.9878],[-3.9782,6.9922,187.0352],[-4.0019,6.9985,193.6976],[-4.0116,7.0044,202.1305],[-4.0335,6.9985,227.027],[-4.3341,6.8297,90.433],[-4.3244,6.822,100.9313],[-4.3239,6.8189,99.1078],[-4.3335,6.8076,92.7095],[-4.3417,6.7946,94.2699],[-4.3478,6.7925,93.9655],[-4.3544,6.7957,91.8514],[-4.3555,6.7981,93.0658],[-4.3643,6.7998,96.2203],[-4.3687,6.7975,94.2065],[-4.3731,6.7884,91.6103],[-4.3764,6.7852,103.3042],[-4.3876,6.7897,90.3249],[-4.3936,6.7995,90.1949],[-4.401,6.8022,87.7565],[-4.4035,6.8029,87.9031],[-4.4073,6.7946,93.5245],[-4.4093,6.7942,92.8548],[-4.4144,6.7986,89.5527],[-4.4239,6.8016,86.2111],[-4.4236,6.7979,90.9888],[-4.4204,6.7945,89.2748],[-4.4226,6.7892,88.5929],[-4.4266,6.7873,91.1548],[-4.4292,6.7831,97.0607],[-4.426,6.7733,89.6777],[-4.4304,6.766,97.2429],[-4.4347,6.7659,112.8284],[-4.4488,6.7721,94.0839],[-4.4529,6.7672,90.3396],[-4.4597,6.768,91.1665],[-4.4658,6.772,89.6808],[-4.4681,6.7774,88.8268],[-4.4703,6.7711,87.9895],[-4.4648,6.7609,87.5617],[-4.4559,6.7549,91.1303],[-4.433,6.754,88.6492],[-4.4284,6.7488,89.4756],[-4.4245,6.7474,85.2958],[-4.4234,6.7456,87.5517],[-4.4242,6.7413,92.1893],[-4.4332,6.7377,86.9743],[-4.4369,6.7386,86.345],[-4.4378,6.7354,86.3505],[-4.4297,6.7233,83.4536],[-4.4296,6.7167,85.4685],[-4.4311,6.7146,110.8908],[-4.4392,6.7159,94.8444],[-4.4457,6.7231,88.2966],[-4.4542,6.728,85.2014],[-4.4594,6.7356,86.2949],[-4.4625,6.7358,86.8242],[-4.4682,6.7283,84.9118],[-4.4701,6.7091,86.0334],[-4.475,6.7069,82.7756],[-4.482,6.7074,84.1878],[-4.4847,6.7153,84.9847],[-4.4878,6.7165,85.0986],[-4.4889,6.7148,84.8885],[-4.4853,6.7073,85.3217],[-4.4845,6.6981,89.461],[-4.4866,6.6894,88.8511],[-4.4926,6.6822,94.1826],[-4.4976,6.683,93.1748],[-4.5039,6.6881,87.8028],[-4.5137,6.7101,83.9861],[-4.5163,6.7099,82.2203],[-4.5265,6.6918,79.9619],[-4.5299,6.6921,86.8963],[-4.5342,6.6933,91.9349],[-4.5537,6.7204,83.1082],[-4.5679,6.7226,82.5696],[-4.5697,6.7208,79.9805],[-4.5678,6.7134,107.0202],[-4.559,6.7077,80.6365],[-4.5532,6.6978,90.7067],[-4.5418,6.6859,77.3716],[-4.544,6.6817,83.1626],[-4.5608,6.6779,82.0419],[-4.5368,6.6219,139.6021],[-4.5074,6.5468,112.2955],[-4.5123,6.5431,112.7694],[-4.6648,6.5761,84.7742],[-4.735,6.6038,76.7214],[-4.7367,6.6,79.3708],[-4.7418,6.5976,73.6945],[-4.7549,6.5959,71.4248],[-4.759,6.5968,82.4025],[-4.7668,6.6023,70.5976],[-4.7705,6.6024,70.7345],[-4.7721,6.598,72.1678],[-4.7684,6.5929,69.8059],[-4.7547,6.584,64.1823],[-4.7543,6.5808,81.1377],[-4.7599,6.5742,69.4075],[-4.7516,6.5615,68.9007],[-4.7504,6.5554,64.8064],[-4.754,6.5488,72.3536],[-4.7657,6.5515,66.1934],[-4.7694,6.5506,68.4908],[-4.7747,6.5523,67.9949],[-4.7809,6.5521,68.1326],[-4.7806,6.5444,72.8364],[-4.7774,6.5353,65.0206],[-4.7732,6.5307,67.4381],[-4.7729,6.5275,92.8247],[-4.7892,6.5087,66.3733],[-4.7861,6.5035,64.1405],[-4.7812,6.4995,61.955],[-4.7824,6.4935,67.3184],[-4.7887,6.4904,66.9858],[-4.7716,6.4859,64.6629],[-4.7687,6.4917,62.9099],[-4.7569,6.4946,64.1628],[-4.7522,6.4924,86.5864],[-4.7499,6.4882,66.2349],[-4.7445,6.4844,66.169],[-4.7323,6.4788,65.8761],[-4.7268,6.4739,62.2851],[-4.7282,6.4661,82.144],[-4.7235,6.4595,63.9315],[-4.7245,6.4563,65.909],[-4.7301,6.4529,68.7371],[-4.7338,6.4525,64.5205],[-4.7382,6.4555,76.2397],[-4.7407,6.4425,66.1907],[-4.7309,6.4433,63.2339],[-4.7128,6.4362,73.2877],[-4.7125,6.4329,71.6257],[-4.72,6.4244,64.931],[-4.7234,6.4227,64.1145],[-4.7237,6.4201,67.3549],[-4.7175,6.4149,65.3623],[-4.7141,6.4156,62.2996],[-4.7,6.4127,62.0212],[-4.6957,6.4083,60.777],[-4.693,6.4015,69.0992],[-4.7044,6.3978,65.0187],[-4.7131,6.4005,64.9175],[-4.7154,6.3999,67.3566],[-4.7163,6.3945,60.0219],[-4.7029,6.3925,61.9897],[-4.6905,6.3852,61.7008],[-4.6915,6.3796,62.8833],[-4.7002,6.3782,59.9659],[-4.7064,6.3718,62.602],[-4.7057,6.3675,62.6548],[-4.7071,6.3668,56.8893],[-4.7084,6.3601,65.047],[-4.7127,6.3589,66.5291],[-4.7133,6.357,58.9542],[-4.711,6.353,59.7273],[-4.7005,6.3502,61.9612],[-4.6979,6.3488,67.7756],[-4.6973,6.3465,69.6779],[-4.7036,6.3367,58.3278],[-4.7182,6.3332,61.9818],[-4.7183,6.3304,57.6563],[-4.7131,6.3236,71.3579],[-4.7142,6.3197,72.1486],[-4.7232,6.3195,62.3564],[-4.7214,6.3126,61.9702],[-4.7197,6.3119,68.8479],[-4.7,6.3134,65.5344],[-4.6945,6.3065,63.6318],[-4.6867,6.3007,57.4716],[-4.6879,6.2948,52.7665],[-4.6845,6.2872,65.1948]]]]}}