{"type": "Feature","bbox": [-6.3193,8.7658,-5.3306,9.9097],"geometry": {"type": "MultiPolygon","coordinates": [[[[-5.7107,8.7732,305.327],[-5.7093,8.7763,320.0135],[-5.7033,8.7761,324.7438],[-5.7035,8.7813,335.842],[-5.6643,8.8402,374.2195],[-5.6515,8.8387,342.5135],[-5.6477,8.8348,342.0293],[-5.6119,8.8424,377.2247],[-5.601,8.8461,349.5957],[-5.5936,8.8522,345.6033],[-5.5939,8.8587,347.6004],[-5.5873,8.8708,381.8504],[-5.5795,8.8744,356.8259],[-5.5743,8.8752,351.9039],[-5.5613,8.8716,340.4924],[-5.5574,8.8749,360.7511],[-5.5409,8.8746,356.9223],[-5.513,8.8788,315.0317],[-5.5037,8.8763,307.8627],[-5.4932,8.8711,275.677],[-5.4891,8.8718,281.9341],[-5.483,8.8657,276.9885],[-5.4736,8.8601,276.6518],[-5.4642,8.8661,273.6872],[-5.4537,8.869,283.1232],[-5.4468,8.873,286.3727],[-5.4439,8.8834,277.8603],[-5.4518,8.8933,290.5003],[-5.4627,8.8972,285.0166],[-5.4768,8.8978,276.7631],[-5.4847,8.9059,289.9401],[-5.4883,8.9132,281.3803],[-5.4844,8.914,277.6158],[-5.4659,8.9024,278.0764],[-5.4587,8.9025,276.693],[-5.4564,8.9044,273.6123],[-5.4541,8.9169,281.2353],[-5.4501,8.9236,288.2265],[-5.4503,8.9273,290.6306],[-5.4521,8.9304,295.8946],[-5.4568,8.9327,284.5856],[-5.4727,8.9373,278.4555],[-5.4674,8.9465,287.0591],[-5.4651,8.9588,281.954],[-5.4675,8.9729,283.025],[-5.4634,8.9735,277.4305],[-5.4585,8.9635,282.9747],[-5.4521,8.9599,279.4016],[-5.4428,8.9672,282.6025],[-5.4398,8.9706,280.6978],[-5.4385,8.9751,280.4494],[-5.4393,8.9837,296.4037],[-5.4496,8.9927,288.4606],[-5.4567,8.9921,281.3911],[-5.4526,8.9956,279.1783],[-5.4424,8.9974,279.0257],[-5.4181,8.9838,278.0345],[-5.4142,8.9845,281.839],[-5.4087,8.9895,290.4398],[-5.4088,8.9972,290.5169],[-5.4129,9.004,279.0168],[-5.4223,9.0117,277.8444],[-5.4296,9.0237,295.7799],[-5.4368,9.0299,300.903],[-5.4473,9.0363,292.4988],[-5.461,9.0397,281.772],[-5.4647,9.0421,294.7553],[-5.4751,9.0439,279.9075],[-5.4813,9.0473,281.9958],[-5.4895,9.0602,289.4997],[-5.4902,9.0651,290.5709],[-5.4798,9.0771,295.1317],[-5.4824,9.0833,290.4221],[-5.4826,9.0889,281.8924],[-5.4807,9.0908,286.2482],[-5.4748,9.0876,286.7971],[-5.4635,9.0867,291.4951],[-5.4577,9.0885,281.4496],[-5.4451,9.0963,293.5622],[-5.4425,9.1006,297.5681],[-5.4428,9.1069,293.4906],[-5.4491,9.1224,284.6305],[-5.4486,9.1253,282.3136],[-5.4285,9.1437,302.8606],[-5.4291,9.1511,295.7044],[-5.4331,9.1537,282.6864],[-5.4359,9.158,287.33],[-5.4226,9.1676,288.3473],[-5.4199,9.1715,290.5289],[-5.42,9.1776,284.6448],[-5.4286,9.186,286.9471],[-5.4293,9.1891,285.261],[-5.424,9.1878,288.0861],[-5.4195,9.1886,293.5326],[-5.4169,9.194,290.5035],[-5.4295,9.1987,290.3848],[-5.4345,9.2021,288.9527],[-5.4323,9.2043,287.3386],[-5.4277,9.2038,284.5563],[-5.4134,9.1988,286.7618],[-5.4036,9.2039,296.9396],[-5.4046,9.2078,296.7012],[-5.3984,9.2121,292.4849],[-5.3947,9.2201,305.1082],[-5.3963,9.2266,302.0125],[-5.3936,9.2346,295.2852],[-5.3983,9.2388,288.2123],[-5.3917,9.2484,285.638],[-5.3848,9.2552,296.7831],[-5.3812,9.2668,303.4032],[-5.3815,9.2807,289.2919],[-5.3748,9.2828,298.6068],[-5.3722,9.2853,306.8509],[-5.3715,9.2886,304.8698],[-5.3759,9.2972,289.7317],[-5.3821,9.304,293.1105],[-5.3806,9.307,287.2012],[-5.3718,9.3018,288.2357],[-5.3671,9.3031,297.0225],[-5.3603,9.31,294.1658],[-5.3589,9.3166,292.4608],[-5.3522,9.3191,299.1808],[-5.3501,9.3219,295.6418],[-5.3501,9.3252,291.816],[-5.3554,9.3326,295.2014],[-5.3445,9.3371,298.963],[-5.3426,9.3423,300.9161],[-5.3495,9.3467,291.4849],[-5.3442,9.3494,286.1642],[-5.3426,9.3562,291.3699],[-5.3345,9.3599,302.4963],[-5.3312,9.3674,291.4144],[-5.3306,9.3743,290.2578],[-5.3349,9.3764,299.8809],[-5.3578,9.378,319.1102],[-5.3979,9.3719,329.4715],[-5.4024,9.3746,329.1049],[-5.4088,9.385,343.733],[-5.4207,9.3904,344.5195],[-5.4146,9.4351,325.5607],[-5.4216,9.4445,331.5959],[-5.4283,9.4466,340.3823],[-5.4426,9.4579,353.3645],[-5.448,9.4693,356.3553],[-5.4489,9.4752,361.0673],[-5.4539,9.4805,366.1164],[-5.4578,9.4833,348.5849],[-5.4637,9.4831,350.9469],[-5.4713,9.4862,367.5455],[-5.4832,9.4873,338.5031],[-5.4912,9.4849,318.9802],[-5.4959,9.4808,319.3625],[-5.4989,9.475,320.8088],[-5.5024,9.4745,318.9091],[-5.5055,9.4754,322.6894],[-5.5151,9.4848,337.3547],[-5.516,9.4908,337.1097],[-5.5142,9.4991,319.6532],[-5.5064,9.5015,325.8],[-5.4989,9.5178,337.4481],[-5.4953,9.5326,344.722],[-5.4874,9.5435,360.6968],[-5.4859,9.5494,346.9844],[-5.4856,9.5598,347.3063],[-5.4904,9.5701,328.8814],[-5.4939,9.5842,326.6251],[-5.4914,9.589,336.3708],[-5.4807,9.5979,322.6093],[-5.4703,9.6097,323.4073],[-5.4655,9.6181,321.4164],[-5.4599,9.623,312.9007],[-5.4557,9.6309,316.4427],[-5.4434,9.6335,310.2187],[-5.4389,9.638,309.729],[-5.4365,9.6437,306.2172],[-5.4372,9.6456,306.1611],[-5.4537,9.6532,320.6002],[-5.4581,9.6588,336.4782],[-5.4536,9.6615,334.3943],[-5.4392,9.682,319.0916],[-5.4381,9.6865,318.5641],[-5.4395,9.7021,300.5428],[-5.4513,9.7132,302.2328],[-5.4588,9.7092,302.2737],[-5.4668,9.7095,301.7693],[-5.4717,9.7151,303.3257],[-5.4665,9.7251,301.7965],[-5.451,9.7242,303.1207],[-5.4646,9.731,307.8616],[-5.4625,9.7401,303.3878],[-5.464,9.7468,303.4283],[-5.4683,9.7542,303.8273],[-5.4946,9.7381,301.4952],[-5.5036,9.7429,303.6465],[-5.512,9.7409,304.3958],[-5.5161,9.734,306.5081],[-5.5245,9.7403,303.6971],[-5.5368,9.7353,305.2446],[-5.5513,9.7333,305.0985],[-5.5488,9.7222,304.4796],[-5.5523,9.7192,302.3307],[-5.5569,9.7216,305.2329],[-5.564,9.7293,306.0751],[-5.5688,9.7381,307.4608],[-5.564,9.7441,306.8639],[-5.5708,9.7429,307.6757],[-5.5754,9.733,307.6909],[-5.5865,9.7386,305.9004],[-5.5941,9.7391,306.5168],[-5.6033,9.7437,309.1512],[-5.6127,9.7363,312.0133],[-5.6183,9.7422,307.6677],[-5.6192,9.7555,307.4885],[-5.6232,9.7601,307.7788],[-5.6284,9.7592,308.7816],[-5.6319,9.7531,315.3485],[-5.6377,9.7548,318.526],[-5.64,9.7612,306.9447],[-5.6406,9.7701,306.7306],[-5.6501,9.7668,312.2036],[-5.6513,9.7698,309.3304],[-5.6488,9.755,324.9847],[-5.6525,9.7514,316.7896],[-5.6596,9.75,308.1642],[-5.6601,9.7409,319.3881],[-5.6646,9.7367,331.054],[-5.6683,9.7373,313.3202],[-5.6713,9.7402,312.9958],[-5.67,9.7482,308.711],[-5.6767,9.7617,309.9924],[-5.6794,9.7634,310.3389],[-5.6886,9.7628,310.1586],[-5.7034,9.7675,311.6434],[-5.7082,9.7731,310.1943],[-5.706,9.7873,308.1302],[-5.7127,9.7909,307.9954],[-5.7105,9.7744,310.1786],[-5.7125,9.7724,315.1487],[-5.7187,9.7754,316.5718],[-5.7267,9.7664,328.9152],[-5.7293,9.7667,331.5579],[-5.7327,9.7696,316.2878],[-5.7347,9.7808,308.9209],[-5.7507,9.7658,310.4892],[-5.7503,9.7546,334.834],[-5.7538,9.7511,318.7252],[-5.758,9.7497,313.3206],[-5.7574,9.7465,316.6164],[-5.7587,9.745,326.4122],[-5.7621,9.7416,316.522],[-5.7694,9.743,311.9221],[-5.7808,9.7243,315.6022],[-5.7795,9.7208,313.9536],[-5.7849,9.7065,318.1842],[-5.7877,9.7027,321.3466],[-5.7926,9.7035,315.8321],[-5.7972,9.7062,314.7168],[-5.8064,9.7184,333.4861],[-5.8159,9.7241,327.9128],[-5.8227,9.7256,335.5908],[-5.8317,9.724,338.6256],[-5.8298,9.7354,341.0523],[-5.8318,9.7479,350.8208],[-5.8271,9.7562,365.8166],[-5.8238,9.77,350.7365],[-5.8301,9.7914,351.6389],[-5.8288,9.8138,348.3219],[-5.8513,9.8795,321.5461],[-5.8556,9.8979,323.7761],[-5.8612,9.9033,315.2656],[-5.8638,9.9015,316.9683],[-5.8663,9.9023,316.858],[-5.8679,9.9097,314.3434],[-5.8782,9.9032,317.7479],[-5.8759,9.8986,323.9219],[-5.8764,9.8957,323.6109],[-5.8829,9.8946,317.7847],[-5.8822,9.888,320.303],[-5.8865,9.8817,325.0186],[-5.8901,9.8797,329.3634],[-5.8931,9.88,321.895],[-5.8959,9.876,329.8564],[-5.9012,9.8759,323.5408],[-5.9034,9.8719,323.0786],[-5.9147,9.8774,320.5672],[-5.9168,9.8733,330.7891],[-5.9198,9.8719,324.4727],[-5.923,9.8729,320.3641],[-5.9316,9.8642,324.5479],[-5.9366,9.8685,320.535],[-5.9385,9.8663,323.9743],[-5.953,9.8635,330.9197],[-5.9673,9.8721,324.187],[-5.98,9.8744,323.8399],[-5.9854,9.8771,325.1028],[-6.0016,9.8890999999999991,327.3274],[-6.0118,9.8943,326.3026],[-6.0204,9.8897,332.8789],[-6.0261,9.8894,333.984],[-6.03,9.8921,327.066],[-6.0346,9.8908,328.1066],[-6.043,9.8858,327.3847],[-6.0472,9.8752,334.8418],[-6.0483,9.8678,335.2345],[-6.055,9.8597,335.4432],[-6.0557,9.8561,331.5417],[-6.0427,9.8388,343.091],[-6.0234,9.8268,335.2359],[-6.0202,9.7942,333.2948],[-6.0298,9.7944,343.7617],[-6.0356,9.7923,344.7419],[-6.0448,9.7836,348.432],[-6.0686,9.7901,355.8455],[-6.0721,9.7942,345.5135],[-6.0763,9.7948,355.3875],[-6.0899,9.7928,346.6464],[-6.1036,9.7869,353.7251],[-6.1112,9.779,339.5227],[-6.1137,9.7726,343.1612],[-6.1105,9.7581,343.4822],[-6.1173,9.7466,344.0259],[-6.1177,9.7376,349.9422],[-6.1273,9.7264,348.6943],[-6.1205,9.6357,344.3605],[-6.1467,9.6158,351.1801],[-6.1433,9.5013,375.8928],[-6.1575,9.4596,368.9818],[-6.2734,9.4097,395.7719],[-6.2814,9.3799,386.9657],[-6.2844,9.3747,387.1823],[-6.2862,9.3647,380.7488],[-6.2814,9.3487,365.5],[-6.2714,9.3367,365.5],[-6.2741,9.3325,366.4468],[-6.2842,9.3265,366.3453],[-6.2867,9.3213,378.3292],[-6.2844,9.2848,377.0789],[-6.2895,9.2726,379.1033],[-6.2943,9.268,384.9626],[-6.3072,9.2385,385.638],[-6.3071,9.2333,381.0291],[-6.3095,9.2271,381.3351],[-6.3155,9.2174,376.5132],[-6.3193,9.2143,369.4159],[-6.3091,9.2042,371.8564],[-6.3013,9.2035,369.747],[-6.2964,9.2056,369.1656],[-6.2833,9.1992,364.869],[-6.2699,9.2047,366.572],[-6.2643,9.2032,365.4757],[-6.2589,9.204,364.2219],[-6.19,9.1527,376.0769],[-6.2685,9.0842,378.2014],[-6.2419,8.9979,361.8454],[-6.2132,8.9844,360.5619],[-6.2111,8.9808,364.1593],[-6.2139,8.9614,349.0002],[-6.2078,8.9557,353.794],[-6.1931,8.9508,347.5235],[-6.1751,8.9295,346.952],[-6.1618,8.9205,353.1653],[-6.1591,8.9162,348.3404],[-6.15,8.9093,348.5076],[-6.1453,8.8945,346.1672],[-6.1368,8.8889,345.5059],[-6.1276,8.8743,342.3147],[-6.1263,8.8701,340.7562],[-6.1275,8.8627,339.2476],[-6.1225,8.8602,345.8819],[-6.1068,8.8413,342.829],[-6.0953,8.8175,342.6363],[-6.0849,8.8144,345.1915],[-6.0802,8.8143,346.5525],[-6.0783,8.8167,345.9668],[-6.0731,8.8165,343.7789],[-6.0702,8.8118,336.7637],[-6.0696,8.8064,335.8936],[-6.0671,8.8042,335.9807],[-6.0643,8.806,341.886],[-6.0515,8.8038,333.2934],[-6.0434,8.8113,335.1618],[-6.0358,8.811,342.2633],[-6.0339,8.8143,335.0105],[-6.0205,8.8183,332.1588],[-6.0198,8.8131,331.2924],[-6.0147,8.8085,333.8709],[-6.0135,8.8103,331.7341],[-6.0073,8.8085,338.4515],[-6.0039,8.8125,332.4137],[-5.9882,8.813,334.1382],[-5.9852,8.8121,334.1935],[-5.9774,8.8033,331.3415],[-5.9719,8.8009,334.3552],[-5.9525,8.803,327.4572],[-5.9333,8.8088,327.3061],[-5.9155,8.803,321.307],[-5.9093,8.803,315.0166],[-5.9004,8.8085,315.1182],[-5.8894,8.807,317.4957],[-5.8899,8.8107,318.5565],[-5.8919,8.8138,315.0394],[-5.9198,8.8216,319.7327],[-5.9216,8.8238,319.2357],[-5.922,8.8378,326.9417],[-5.9255,8.8391,329.0508],[-5.9331,8.8331,324.0163],[-5.9441,8.8364,324.624],[-5.9505,8.8431,327.2908],[-5.9513,8.8503,325.1861],[-5.9548,8.8516,326.3341],[-5.9662,8.8652,324.006],[-5.9614,8.8695,328.5395],[-5.962,8.8719,324.5927],[-5.9748,8.8819,327.1714],[-5.9783,8.8778,336.7003],[-5.9821,8.8817,330.5377],[-5.9816,8.89,328.5169],[-5.9781,8.895,328.4802],[-5.9816,8.9002,324.8741],[-5.9803,8.9051,328.3762],[-5.9822,8.9078,321.3208],[-5.9893,8.914,322.8715],[-5.9925,8.9122,330.1758],[-5.9953,8.92,326.9007],[-5.9999,8.923,333.0443],[-5.9993,8.9196,328.6919],[-6.0062,8.919,331.8706],[-6.0111,8.9209,331.9835],[-6.0104,8.9254,326.1537],[-6.0148,8.9348,330.069],[-6.0147,8.9386,336.4053],[-6.0131,8.9413,336.2603],[-6.0065,8.9422,331.1215],[-6.0081,8.9446,331.4982],[-6.0147,8.946,328.5504],[-6.02,8.9492,329.771],[-6.0214,8.9539,329.3212],[-6.0152,8.9661,328.9868],[-6.017,8.9682,329.0432],[-6.0134,8.973,327.3437],[-6.0136,8.9854,330.1971],[-6.0113,9.0006,328.7712],[-6.0054,8.9993,330.0079],[-5.9991,8.994,341.8375],[-5.9971,8.9963,334.5753],[-5.9961,9.0073,330.9385],[-5.9936,9.0099,329.6099],[-5.9955,9.013,328.0036],[-5.9924,9.0234,337.4138],[-5.9894,9.0242,347.2555],[-5.9845,9.0228,334.5955],[-5.9823,9.0256,333.8448],[-5.9795,9.0234,333.2689],[-5.9796,9.031,330.3172],[-5.9742,9.035,333.071],[-5.9752,9.0392,331.375],[-5.9737,9.0417,332.8785],[-5.9716,9.0407,332.6943],[-5.9685,9.0452,341.2085],[-5.9655,9.0454,333.2679],[-5.9683,9.049,345.3238],[-5.9632,9.0608,340.5439],[-5.9606,9.0611,338.5339],[-5.9555,9.0567,334.1188],[-5.9534,9.0568,333.5209],[-5.9463,9.065,333.2719],[-5.9373,9.0708,342.9009],[-5.9284,9.0845,337.6328],[-5.9225,9.0974,353.938],[-5.9148,9.1057,356.0031],[-5.9157,9.1087,359.6169],[-5.9267,9.1188,344.3425],[-5.9309,9.1249,348.6807],[-5.9316,9.1296,347.7312],[-5.9267,9.144,350.7952],[-5.916,9.1547,362.8576],[-5.913,9.1621,360.239],[-5.9064,9.1661,363.4546],[-5.904,9.1695,364.6442],[-5.903,9.1806,369.3577],[-5.9075,9.1889,373.2097],[-5.9258,9.204,376.5295],[-5.9195,9.2463,377.3908],[-5.9399,9.2908,375.9934],[-5.9236,9.2957,401.3416],[-5.9129,9.3014,367.1528],[-5.8902,9.3238,367.0817],[-5.8865,9.3296,359.8186],[-5.8731,9.3391,374.0293],[-5.8584,9.3526,350.1487],[-5.848,9.3592,345.7161],[-5.8456,9.3577,353.0562],[-5.8421,9.3496,351.8049],[-5.8366,9.3501,346.9408],[-5.8294,9.3442,348.5818],[-5.8074,9.3346,337.6283],[-5.8031,9.33,341.4406],[-5.7962,9.3328,340.9815],[-5.7878,9.3318,344.1109],[-5.7825,9.3257,337.0184],[-5.7774,9.3268,340.9931],[-5.7739,9.323,343.9428],[-5.757,9.3239,333.0352],[-5.7545,9.3208,328.4994],[-5.7444,9.3164,321.5],[-5.7247,9.2951,319.0877],[-5.7202,9.2948,313.9813],[-5.7092,9.2879,310.1316],[-5.7039,9.2876,308.9613],[-5.6992,9.281,309.6984],[-5.6901,9.2807,308.8425],[-5.6862,9.264,304.0039],[-5.6824,9.26,302.6362],[-5.6767,9.2576,303.451],[-5.6751,9.2546,305.1078],[-5.665,9.2544,301.7484],[-5.6653,9.2505,301.4203],[-5.6629,9.2472,300.4305],[-5.6529,9.2434,299.7091],[-5.6463,9.2306,301.1171],[-5.6404,9.2302,298.1618],[-5.6358,9.2254,298.947],[-5.634,9.2183,301.0948],[-5.6224,9.2154,297.293],[-5.6184,9.2125,297.0571],[-5.6127,9.2021,296.5286],[-5.6118,9.1839,295.535],[-5.6275,9.1552,323.8115],[-5.6366,9.1337,314.4647],[-5.649,9.128,307.7394],[-5.6587,9.1254,347.8669],[-5.6626,9.1267,332.9363],[-5.6799,9.1195,328.1754],[-5.6863,9.1144,337.9848],[-5.6905,9.0872,324.0063],[-5.6979,9.0781,335.7617],[-5.7149,9.0648,342.6663],[-5.719,9.0599,335.6555],[-5.7205,9.0455,341.1362],[-5.7175,9.0259,388.4222],[-5.7174,9.0042,384.5459],[-5.7166,9.0005,373.9937],[-5.7043,8.9949,369.9644],[-5.7006,8.958,389.6203],[-5.7039,8.9129,364.1761],[-5.7078,8.8886,371.606],[-5.7122,8.8758,370.0685],[-5.7197,8.8633,337.6644],[-5.7526,8.8499,331.0801],[-5.7572,8.8361,326.1921],[-5.7512,8.8178,318.9925],[-5.7399,8.803,322.2286],[-5.7353,8.7835,315.0835],[-5.7326,8.7792,313.6097],[-5.7252,8.7708,312.9455],[-5.7229,8.7706,317.3881],[-5.7173,8.7658,307.3687],[-5.7129,8.7672,304.8741],[-5.7107,8.7732,305.327]]]]}
,"properties": {"GID_3": "CIV.10.2.2_1","GID_0": "CIV","country": "Côted'Ivoire","GID_1": "CIV.10_1","province": "Savanes","NL_NAME_1": "NA","GID_2": "CIV.10.2_1","county": "Poro","NL_NAME_2": "NA","city": "Korhogo","VARNAME_3": "NA","NL_NAME_3": "NA","TYPE_3": "Département","ENGTYPE_3": "Department","CC_3": "NA","HASC_3": "NA","name": "Korhogo.city","area_km2": 7320.999,"hist_schema_id": "Elevation0-9000","hist_area_km2": {"275": 87.028,"300": 382.43,"325": 1207.7,"350": 2722.128,"375": 2192.862,"400": 602.932,"425": 101.363,"450": 11.065,"475": 5.229,"500": 3.117,"525": 2.593,"550": 1.694,"575": 0.774,"600": 0.084}}}