{"type":"Feature","properties":{"GID_3":"CIV.2.2.3_1","GID_0":"CIV","country":"Côted'Ivoire","GID_1":"CIV.2_1","province":"Bas-Sassandra","NL_NAME_1":"NA","GID_2":"CIV.2.2_1","county":"Nawa","NL_NAME_2":"NA","city":"Méagui","VARNAME_3":"NA","NL_NAME_3":"NA","TYPE_3":"Département","ENGTYPE_3":"Department","CC_3":"NA","HASC_3":"NA","name":"Méagui.city"},
"geometry":{"type": "MultiPolygon","coordinates": [[[[-6.4316,5.4999,63.6743],[-6.4498,5.5153,80.8617],[-6.458,5.5632,89.1938],[-6.5031,5.5538,66.5131],[-6.5405,5.536,91.907],[-6.5744,5.4718,126.8956],[-6.6316,5.4664,121.2622],[-6.6922,5.4432,176.4734],[-6.7321,5.4223,148.3007],[-6.7305,5.4193,133.8202],[-6.7332,5.4033,133.9024],[-6.73,5.4001,131.2913],[-6.7308,5.3804,142.4297],[-6.7194,5.3615,125.5155],[-6.7148,5.3608,124.0594],[-6.7114,5.3566,133.3847],[-6.7011,5.35,113.4986],[-6.6992,5.3454,114.6639],[-6.6911,5.3436,119.3725],[-6.6819,5.3454,114.1762],[-6.6759,5.3411,99.4561],[-6.6742,5.3356,94.1758],[-6.672,5.3343,95.3215],[-6.6689,5.3361,86.3597],[-6.6554,5.3295,83.72],[-6.4998,5.3331,94.3762],[-6.4607,5.3087,101.1619],[-6.4316,5.4999,63.6743]]]]}}