{"type": "Feature","bbox": [-8.1529,8.5086,-6.7416,9.9693],"geometry": {"type": "MultiPolygon","coordinates": [[[[-7.1264,9.0253,338.4182],[-7.119,9.0376,344.7849],[-7.1111,9.0469,346.4609],[-7.1021,9.047,343.8696],[-7.0672,9.0284,355.5766],[-7.0556,9.0122,358.6051],[-7.0509,9.0034,363.0297],[-7.0472,8.9873,363.2383],[-7.0379,8.9744,384.2553],[-7.0264,8.9708,388.2165],[-7.0202,8.9653,402.6727],[-6.9932,8.9705,421.0206],[-6.9866,8.9702,424.4679],[-6.9756,8.9667,419.1484],[-6.9724,8.9631,405.6958],[-6.9671,8.9617,405.8719],[-6.9547,8.9645,401.3619],[-6.9451,8.9702,397.7095],[-6.9266,8.9525,391.5539],[-6.9204,8.9418,386.1968],[-6.9146,8.9375,389.885],[-6.9058,8.9344,376.9254],[-6.9085,8.9739,378.0235],[-6.9109,8.984,378.5277],[-6.9102,9.0004,379.834],[-6.908,9.008,378.8347],[-6.9107,9.0141,379.7144],[-6.9075,9.0337,392.9644],[-6.9049,9.0381,390.2731],[-6.9037,9.0468,384.4724],[-6.9011,9.052,382.9323],[-6.897,9.0524,390.4694],[-6.8873,9.0492,406.6601],[-6.8613,9.068,420.9294],[-6.848,9.0647,386.7771],[-6.8416,9.0652,604.0079],[-6.8329,9.072,598.1808],[-6.7816,9.0965,423.1714],[-6.7767,9.1008,457.8429],[-6.7681,9.1292,463.1479],[-6.7542,9.2766,408.1909],[-6.7629,9.2816,442.1772],[-6.7658,9.2849,428.2289],[-6.7854,9.2822,431.9407],[-6.7952,9.2873,423.9163],[-6.7977,9.292,431.0015],[-6.7937,9.3011,431.3394],[-6.7924,9.3194,454.9642],[-6.7884,9.3252,446.5115],[-6.8177,9.3495,520.9431],[-6.8176,9.3514,480.7194],[-6.8086,9.3567,483.7057],[-6.7999,9.3692,566.5518],[-6.789,9.4429,560.2645],[-6.7913,9.4955,426.8014],[-6.752,9.5253,398.7479],[-6.7753,9.5435,411.1984],[-6.777,9.5472,398.3062],[-6.7759,9.554,400.0539],[-6.7773,9.5565,405.4103],[-6.781,9.5544,409.8465],[-6.7898,9.5555,408.1994],[-6.7926,9.5615,409.6536],[-6.7984,9.5655,407.1424],[-6.7958,9.5721,420.3369],[-6.7919,9.5749,420.8337],[-6.79,9.5791,418.317],[-6.79,9.585,423.507],[-6.7746,9.5968,439.2794],[-6.7779,9.5996,431.313],[-6.781,9.6138,423.4002],[-6.7773,9.6208,417.7587],[-6.7757,9.6374,409.2301],[-6.7779,9.6431,409.7511],[-6.7776,9.6483,407.7954],[-6.7671,9.6558,408.2915],[-6.7639,9.6604,402.8294],[-6.7623,9.6646,405.073],[-6.7653,9.6731,405.7983],[-6.7635,9.6828,399.1033],[-6.7596,9.6883,395.6918],[-6.7462,9.6945,399.8627],[-6.7458,9.6983,393.3391],[-6.7501,9.7019,390.5535],[-6.7598,9.706,393.1519],[-6.7497,9.7319,401.9487],[-6.7493,9.7378,406.216],[-6.7436,9.7438,408.8979],[-6.7416,9.7489,413.711],[-6.745,9.7533,413.4869],[-6.7695,9.7702,433.3018],[-6.76,9.8103,459.475],[-6.7544,9.8645,457.6454],[-6.772,9.8993,441.2008],[-6.7821,9.9081,423.6521],[-6.7874,9.912,420.7975],[-6.7942,9.9128,410.7404],[-6.8182,9.9305,390.7104],[-6.8454,9.9457,377.2294],[-6.8638,9.959,371.2425],[-6.8779,9.9618,368.7479],[-6.8784,9.9537,366.6054],[-6.8892,9.9538,392.194],[-6.9491,9.9656,393.7523],[-6.9591,9.9693,374.3344],[-6.9641,9.9664,368.7873],[-6.9666,9.9579,369.1203],[-6.9657,9.9505,369.2452],[-6.9622,9.9412,371.8038],[-6.9701,9.9339,374.7203],[-6.973,9.926,378.2071],[-6.9757,9.9233,381.0275],[-6.9748,9.9177,384.1631],[-6.9818,9.9099,387.8187],[-6.9909,9.8957,392.7252],[-6.9965,9.8941,393.2554],[-6.9996,9.8895,404.7386],[-7.0086,9.8855,410.626],[-7.0157,9.8843,414.7334],[-7.0351,9.8857,506.6477],[-7.044,9.882,510.0147],[-7.0481,9.8819,490.126],[-7.0608,9.888,460.0678],[-7.0665,9.8858,443.803],[-7.0777,9.898,424.6755],[-7.0937,9.9072,396.4973],[-7.0994,9.9062,401.9974],[-7.1011,9.902,399.8586],[-7.1062,9.9013,408.0322],[-7.111,9.8982,418.7245],[-7.1165,9.8988,418.2162],[-7.1318,9.8946,430.7636],[-7.1496,9.8845,441.844],[-7.1591,9.8758,452.0078],[-7.1619,9.8643,460.7764],[-7.1715,9.8525,472.0706],[-7.1883,9.8383,507.678],[-7.2426,9.8553,416.1038],[-7.2606,9.8043,410.9606],[-7.2825,9.7663,418.2361],[-7.3011,9.7609,430.9363],[-7.3341,9.7552,408.5322],[-7.341,9.7534,398.4942],[-7.3451,9.7491,400.9498],[-7.3559,9.7486,390.679],[-7.359,9.7468,393.6019],[-7.3621,9.7306,391.061],[-7.3564,9.7131,390.0047],[-7.4016,9.7051,424.338],[-7.4148,9.7041,421.294],[-7.4643,9.7115,421.14],[-7.4906,9.723,418.2999],[-7.5247,9.7327,413.5521],[-7.5282,9.7371,414.1464],[-7.5446,9.7447,399.1429],[-7.5526,9.7434,403.1946],[-7.5632,9.7449,394.2765],[-7.5729,9.7473,387.3933],[-7.583,9.753,382.1368],[-7.5813,9.7619,377.4986],[-7.5747,9.7689,387.0001],[-7.5703,9.7767,383.86],[-7.5636,9.7759,392.8873],[-7.5598,9.7797,384.4666],[-7.5554,9.7891,376.459],[-7.5568,9.799,376.4689],[-7.5512,9.8075,375.2312],[-7.5527,9.8163,371.2657],[-7.5477,9.8183,373.9419],[-7.5488,9.8289,376.1589],[-7.5433,9.8356,375.0031],[-7.5532,9.8446,373.0415],[-7.5573,9.8514,372.3378],[-7.5586,9.8584,370.3911],[-7.5684,9.8575,371.2786],[-7.5715,9.8657,370.4233],[-7.5608,9.8817,372.9136],[-7.5601,9.8865,373.5822],[-7.565,9.895,368.6958],[-7.5542,9.8997,386.1073],[-7.5599,9.9084,369.6451],[-7.5673,9.9082,368.3969],[-7.5668,9.9199,368.6297],[-7.5691,9.9255,368.529],[-7.5618,9.9332,368.4359],[-7.5714,9.9357,368.2423],[-7.574,9.9394,368.6176],[-7.5691,9.9407,370.3589],[-7.5741,9.9488,366.8109],[-7.5734,9.9519,366.7124],[-7.5817,9.9556,369.1002],[-7.5869,9.9617,366.9251],[-7.5949,9.9658,368.4625],[-7.6153,9.9676,374.8629],[-7.6287,9.9666,377.5984],[-7.6383,9.9624,377.8595],[-7.6482,9.9522,377.6708],[-7.651,9.942,381.9037],[-7.6666,9.9402,381.7859],[-7.6778,9.9358,384.8062],[-7.6787,9.9381,385.7546],[-7.6864,9.939,390.7786],[-7.7036,9.9385,394.1776],[-7.7117,9.9307,404.9618],[-7.7271,9.9257,400.076],[-7.7357,9.9178,404.4279],[-7.7382,9.9106,413.0753],[-7.7812,9.9074,436.0629],[-7.7993,9.9104,430.9716],[-7.8093,9.9089,407.6036],[-7.8177,9.9015,423.0576],[-7.8277,9.896,438.9132],[-7.8391,9.8937,440.8044],[-7.9679,9.8807,441.4035],[-8.006,9.8777,446.2314],[-8.0358,9.8781,432.3693],[-8.0441,9.8724,423.5281],[-8.0512,9.8765,419.1533],[-8.0616,9.8747,409.6461],[-8.0725,9.8683,406.5461],[-8.0799,9.86,406.0029],[-8.1087,9.852,414.0468],[-8.1087,9.8456,409.0315],[-8.113,9.8388,400.5374],[-8.1068,9.833,396.3274],[-8.1015,9.8326,395.308],[-8.1051,9.8223,395.718],[-8.1045,9.8134,395.4648],[-8.1062,9.8079,391.4942],[-8.1161,9.8117,394.1223],[-8.1187,9.8069,390.4207],[-8.1181,9.8039,390.13],[-8.1093,9.7978,395.5009],[-8.1096,9.7953,396.3233],[-8.1205,9.791,410.6067],[-8.1207,9.7791,415.6393],[-8.1135,9.7647,402.4301],[-8.1153,9.7629,402.0285],[-8.1279,9.7615,414.6578],[-8.1298,9.7583,411.0027],[-8.1236,9.7531,399.515],[-8.1295,9.7415,422.7607],[-8.1242,9.7354,405.4539],[-8.1271,9.7295,416.6802],[-8.1232,9.7085,402.2257],[-8.1251,9.7023,396.9446],[-8.1316,9.702,420.2222],[-8.1364,9.6905,412.737],[-8.1332,9.6861,429.6535],[-8.1333,9.6797,425.563],[-8.1294,9.6711,405.2156],[-8.1306,9.6688,405.9142],[-8.1353,9.6684,419.8907],[-8.1367,9.6666,415.1629],[-8.13,9.6638,404.9432],[-8.1277,9.6594,405.6908],[-8.1278,9.6548,402.4313],[-8.1328,9.647,408.1454],[-8.1336,9.6367,412.8911],[-8.1422,9.6315,421.2583],[-8.1462,9.6256,417.2787],[-8.1518,9.6254,436.6776],[-8.1523,9.6231,429.6718],[-8.1436,9.6129,408.733],[-8.1476,9.6081,408.2425],[-8.1529,9.5891,412.9141],[-8.1463,9.5831,401.5799],[-8.1443,9.5736,417.5243],[-8.1465,9.5695,416.6793],[-8.1499,9.5686,422.2919],[-8.1518,9.5661,415.9398],[-8.1507,9.5603,423.4445],[-8.1519,9.5562,430.9272],[-8.1475,9.5426,404.3581],[-8.1499,9.5367,420.7325],[-8.1492,9.5321,410.5251],[-8.1425,9.5311,404.6193],[-8.1329,9.525,410.0515],[-8.1359,9.5213,411.3338],[-8.1376,9.5149,421.9122],[-8.1333,9.5066,440.0905],[-8.1341,9.5038,438.6293],[-8.1286,9.4953,419.447],[-8.124,9.4915,430.2838],[-8.1232,9.4858,441.6184],[-8.1161,9.4783,425.8472],[-8.1152,9.4719,424.6364],[-8.1116,9.4658,431.0856],[-8.1084,9.4644,424.467],[-8.1066,9.4582,428.9945],[-8.1016,9.4556,426.3326],[-8.0989,9.4471,436.4373],[-8.0836,9.4296,444.9381],[-8.0811,9.4243,443.5764],[-8.0735,9.4199,424.9377],[-8.0603,9.4018,451.5899],[-8.047,9.4002,437.6095],[-8.0113,9.4016,448.4702],[-7.9993,9.398,450.5392],[-7.9876,9.3969,473.358],[-7.9832,9.3944,480.9817],[-7.9681,9.396,469.9982],[-7.9425,9.406,468.8441],[-7.9157,9.4195,444.4268],[-7.8917,9.4169,444.045],[-7.887,9.4242,456.373],[-7.8831,9.4356,457.1314],[-7.8722,9.4362,454.3308],[-7.8653,9.4333,433.2128],[-7.8579,9.433,427.9721],[-7.85,9.4377,421.7971],[-7.8489,9.4289,421.3474],[-7.8503,9.4255,420.5213],[-7.8554,9.4265,422.1092],[-7.8555,9.4173,422.2592],[-7.8577,9.4127,428.3326],[-7.8561,9.4099,423.8858],[-7.8626,9.3925,427.963],[-7.8665,9.3754,425.2202],[-7.8756,9.3665,427.7081],[-7.8828,9.3505,433.8317],[-7.8875,9.346,431.9106],[-7.8885,9.3423,434.0733],[-7.8864,9.3365,430.5118],[-7.8865,9.3124,447.9267],[-7.8848,9.3041,452.0143],[-7.8874,9.2906,439.8508],[-7.8914,9.2805,441.8431],[-7.8953,9.2776,448.9814],[-7.9008,9.2636,437.6334],[-7.9065,9.2573,456.3064],[-7.9155,9.2356,456.0571],[-7.9257,9.2173,454.4544],[-7.926,9.2129,443.0654],[-7.9199,9.1869,470.9273],[-7.9149,9.179,470.5542],[-7.9078,9.1729,458.9527],[-7.8819,9.1577,462.5944],[-7.8702,9.1675,474.5411],[-7.853,9.1778,463.3786],[-7.84,9.1786,490.717],[-7.8331,9.1748,484.09],[-7.8321,9.1688,480.196],[-7.8392,9.1531,486.6954],[-7.8378,9.1505,485.365],[-7.8272,9.149,488.3634],[-7.8121,9.1405,470.2414],[-7.812,9.1292,476.0021],[-7.8081,9.125,465.6547],[-7.8014,9.1226,461.6039],[-7.788,9.1061,443.9877],[-7.7776,9.1023,450.1472],[-7.7705,9.0971,441.7209],[-7.7615,9.0965,437.399],[-7.7552,9.0889,460.7152],[-7.7416,9.0838,427.9995],[-7.7365,9.0781,454.6725],[-7.7373,9.0752,459.7082],[-7.7396,9.0742,464.9973],[-7.7056,9.0636,433.7262],[-7.6915,9.0529,433.3206],[-7.6846,9.0416,415.0625],[-7.6851,9.029,428.1732],[-7.6819,9.0125,419.4498],[-7.6787,9.0059,421.9043],[-7.6784,8.9978,413.4644],[-7.6808,8.9827,416.7179],[-7.6777,8.9672,412.6162],[-7.6753,8.9633,415.1786],[-7.6527,8.9564,410.095],[-7.6451,8.9615,412.0161],[-7.6415,8.9619,418.8891],[-7.6378,8.9517,416.4586],[-7.6209,8.9483,414.2628],[-7.6179,8.9455,419.1237],[-7.6017,8.9407,402.7498],[-7.5838,8.9261,407.969],[-7.573,8.9265,393.9298],[-7.5695,8.911,387.6221],[-7.5604,8.9056,395.0096],[-7.5603,8.903,392.817],[-7.5654,8.8976,394.2524],[-7.545,8.8781,388.6516],[-7.5471,8.872,385.236],[-7.5463,8.8697,389.6692],[-7.5495,8.8664,396.5151],[-7.5478,8.8594,391.6904],[-7.5405,8.8522,377.9428],[-7.5388,8.8454,393.619],[-7.5267,8.8411,380.178],[-7.5141,8.834,374.9887],[-7.5103,8.8352,384.937],[-7.4996,8.828,383.3331],[-7.4923,8.8193,383.526],[-7.4772,8.8078,373.2631],[-7.4634,8.7882,380.3035],[-7.456,8.7816,373.7714],[-7.4531,8.7769,379.2209],[-7.4353,8.7643,378.0533],[-7.4329,8.7644,380.7089],[-7.4261,8.7562,373.1822],[-7.4185,8.7602,378.9327],[-7.4132999999999996,8.76,369.188],[-7.4057,8.7559,366.4001],[-7.4119,8.7503,361.9574],[-7.4122,8.7463,360.4919],[-7.4102,8.7419,363.5403],[-7.4058,8.7378,363.142],[-7.3976,8.7412,363.1167],[-7.3952,8.7391,359.3751],[-7.3937,8.7314,361.7836],[-7.3908,8.7311,363.2644],[-7.3908,8.7268,370.2387],[-7.3833,8.7203,354.8373],[-7.3835,8.7171,354.4181],[-7.3792,8.7145,354.9877],[-7.3768,8.7094,353.3986],[-7.3794,8.7072,352.6408],[-7.3774,8.6921,344.7048],[-7.3737,8.6828,348.2962],[-7.365,8.6792,344.7627],[-7.3531,8.6829,335.9198],[-7.3516,8.6792,339.4743],[-7.3414,8.6744,344.0461],[-7.3299,8.6791,348.1331],[-7.3163,8.6754,328.1713],[-7.3092,8.6778,341.2997],[-7.2901,8.6689,328.3861],[-7.2836,8.6678,319.5862],[-7.2748,8.6608,334.3734],[-7.2645,8.6483,317.0768],[-7.2592,8.6469,315.8758],[-7.2524,8.6392,321.9556],[-7.2512,8.6341,318.2896],[-7.2477,8.6296,314.401],[-7.2403,8.624,315.6248],[-7.2372,8.6146,320.1326],[-7.2332,8.6097,323.6145],[-7.2324,8.6063,319.692],[-7.2356,8.6016,325.9628],[-7.2364,8.5921,312.7573],[-7.2302,8.5825,321.8777],[-7.2289,8.5773,313.8089],[-7.2189,8.5657,320.6023],[-7.2196,8.5602,296.344],[-7.2251,8.5522,306.8262],[-7.2247,8.5491,296.8029],[-7.2157,8.5453,308.7831],[-7.2139,8.5414,303.9624],[-7.2134,8.5286,306.3009],[-7.2077,8.5195,303.7767],[-7.2024,8.5143,293.1964],[-7.1828,8.5086,286.2668],[-7.1791,8.51,286.1544],[-7.1852,8.5205,289.3452],[-7.1775,8.5265,302.4099],[-7.1783,8.5309,303.106],[-7.1862,8.5362,298.8087],[-7.1801,8.5432,303.1403],[-7.1882,8.5506,290.3475],[-7.1981,8.5687,289.9016],[-7.2008,8.5765,296.6942],[-7.1934,8.5912,302.1958],[-7.1941,8.5958,291.1998],[-7.1981,8.5994,297.1389],[-7.1965,8.6044,314.2172],[-7.1981,8.618,310.8092],[-7.2027,8.6266,295.9012],[-7.2062,8.6291,296.7303],[-7.2092,8.6288,301.0602],[-7.2124,8.6262,296.434],[-7.2129,8.6293,300.4739],[-7.2029,8.6462,298.1062],[-7.2034,8.653,311.0592],[-7.2102,8.6577,299.5111],[-7.2027,8.6746,315.2821],[-7.2033,8.6783,305.8985],[-7.208,8.6841,300.088],[-7.2071,8.6877,300.6385],[-7.2012,8.6941,310.4725],[-7.1942,8.7113,312.2571],[-7.1997,8.7198,302.9744],[-7.1993,8.7332,305.5227],[-7.1927,8.7345,315.6548],[-7.1922,8.7375,303.0831],[-7.1883,8.7382,300.6214],[-7.1879,8.7409,302.6458],[-7.1977,8.7551,301.0806],[-7.1955,8.7628,305.4102],[-7.1911,8.7691,300.7921],[-7.1869,8.7709,305.1999],[-7.1797,8.7791,311.8845],[-7.1825,8.7819,308.6556],[-7.1896,8.7827,304.5926],[-7.1974,8.7898,305.535],[-7.1968,8.7945,306.0309],[-7.1881,8.8022,312.858],[-7.1888,8.8052,315.0756],[-7.1919,8.8063,307.6511],[-7.1977,8.8191,305.2323],[-7.2048,8.8227,304.5609],[-7.2039,8.8246,305.6321],[-7.1963,8.8274,311.9249],[-7.1918,8.832,316.3448],[-7.19,8.8372,314.8473],[-7.1909,8.8417,313.7898],[-7.1941,8.8434,315.7997],[-7.2038,8.8424,307.726],[-7.2055,8.8547,312.4062],[-7.2035,8.8635,315.2603],[-7.2053,8.8667,315.8931],[-7.21,8.8669,306.9239],[-7.2163,8.8704,308.8852],[-7.2179,8.8745,311.2695],[-7.2171,8.8781,309.6696],[-7.2138,8.8733,312.9392],[-7.21,8.8736,315.9177],[-7.2079,8.8766,325.0497],[-7.208,8.8852,320.3318],[-7.2119,8.8882,316.5015],[-7.2124,8.8935,310.6514],[-7.207,8.9136,318.5521],[-7.2085,8.918,333.2943],[-7.2196,8.9227,313.0218],[-7.2229,8.9292,324.8525],[-7.2236,8.9363,317.1245],[-7.2209,8.9474,323.7748],[-7.2171,8.9498,330.2109],[-7.2042,8.9497,339.8024],[-7.1765,8.9461,357.489],[-7.1732,8.9491,366.524],[-7.1667,8.9881,340.3404],[-7.1511,8.9972,329.2197],[-7.1469,8.995,343.5266],[-7.1422,8.9956,342.585],[-7.1448,8.9994,332.7103],[-7.1417,9.008,347.9633],[-7.1264,9.0253,338.4182]]]]}
,"properties": {"GID_2": "CIV.4.2_1","GID_0": "CIV","country": "Côted'Ivoire","GID_1": "CIV.4_1","province": "Denguélé","NL_NAME_1": "NA","county": "Kabadougou","VARNAME_2": "NA","NL_NAME_2": "NA","TYPE_2": "Région","ENGTYPE_2": "Region","CC_2": "NA","HASC_2": "CI.DE.KB","name": "Kabadougou.county","area_km2": 14077.23,"hist_schema_id": "Elevation0-9000","hist_area_km2": {"275": 1.24,"300": 66.88,"325": 199.15,"350": 515.04,"375": 1123.58,"400": 2301.37,"425": 3621.42,"450": 2934.35,"475": 1456.44,"500": 785.33,"525": 434.67,"550": 278.43,"575": 181.71,"600": 93.57,"625": 39.5,"650": 20.73,"675": 11.06,"700": 5.35,"725": 3.18,"750": 1.76,"775": 1.53,"800": 0.46,"825": 0.36}}}