{"type": "Feature","id": "3446","bbox": [-7.08532,6.24667,-5.93185,7.7856],"geometry": {"type": "Polygon","coordinates": [[[-6.45885,7.74097,313.2815],[-6.48169,7.74268,318.6469],[-6.63042,7.7856,317.6601],[-6.99722,7.7641,273.884],[-7.02564,7.75767,277.2444],[-7.04765,7.74446,273.0529],[-7.07163,7.71948,244.1485],[-7.0708,7.70808,242.1278],[-7.07132,7.6972,241.5723],[-7.07396,7.6871,235.3689],[-7.07912,7.6779,236.1598],[-7.07256,7.66183,246.7077],[-7.0616,7.61801,238.2991],[-7.05489,7.60899,255.7905],[-7.03298,7.61576,232.47],[-7.02181,7.61576,228.0],[-7.01262,7.59814,233.1177],[-6.99091,7.59543,233.1518],[-6.9829,7.58915,244.4152],[-6.98259,7.56928,234.2934],[-6.99742,7.55882,233.9643],[-7.01525,7.55057,226.0874],[-7.02388,7.53763,230.196],[-7.01809,7.51373,240.2358],[-7.01706,7.5035,237.1794],[-7.01809,7.50034,226.402],[-7.02047,7.49851,228.2022],[-7.02285,7.49577,226.9481],[-7.02388,7.48983,234.59],[-7.02099,7.48616,240.6356],[-7.0075,7.47836,229.9337],[-7.00342,7.47246,225.8713],[-7.0059,7.44554,225.2148],[-7.02311,7.43456,225.1241],[-7.04259,7.42792,230.6438],[-7.05179,7.4141,223.3414],[-7.05489,7.40296,230.5585],[-7.06171,7.39319,229.2068],[-7.06853,7.38536,227.4728],[-7.0738,7.3766,233.2533],[-7.0785,7.37477,236.9414],[-7.08321,7.37206,221.0021],[-7.08532,7.36601,219.5258],[-7.08445,7.3594,220.8153],[-7.08031,7.34885,225.3532],[-7.07111,7.29896,224.1639],[-7.06925,7.27444,212.5],[-7.0754,7.25708,219.6269],[-7.08047,7.24648,235.6961],[-7.07855,7.23542,216.0949],[-7.07416,7.2248,211.9762],[-7.07163,7.21548,211.0],[-7.07855,7.1814,224.639],[-7.07912,7.1708,220.5325],[-7.04068,7.07905,232.6668],[-7.03928,7.06388,233.0109],[-7.04259,7.04975,236.2529],[-7.06011,6.9928,199.5],[-7.06481,6.96123,200.9809],[-7.06476,6.95007,204.908],[-7.06274,6.9295,208.6088],[-7.04796,6.90746,213.0851],[-7.04982,6.89731,194.6311],[-7.05365,6.89234,200.9755],[-7.05747,6.88622,198.6514],[-7.06202,6.87527,192.5],[-7.06191,6.86728,193.476],[-7.06016,6.85945,199.5465],[-7.05571,6.85067,199.8474],[-7.05199,6.84516,197.0412],[-7.04796,6.84098,195.9842],[-7.04341,6.83865,192.7374],[-7.02326,6.83144,192.5222],[-7.01696,6.8263,202.8411],[-7.00967,6.81933,194.9128],[-6.99701,6.80375,189.5],[-6.99143,6.79403,189.5],[-6.98698,6.78225,208.6181],[-6.96993,6.69675,197.3048],[-6.97055,6.69094,212.6963],[-6.97174,6.68548,204.2972],[-6.9736,6.68052,210.4418],[-6.97593,6.67587,194.8966],[-6.97815,6.66254,195.6789],[-6.9752,6.63399,195.2045],[-7.00647,6.58626,209.2665],[-7.00988,6.56903,189.5],[-7.00652,6.56516,189.5],[-6.99742,6.55787,189.5],[-6.96363,6.52901,202.3382],[-6.95536,6.511,189.5],[-6.95355,6.49968,189.5],[-6.95319,6.49144,189.5],[-6.95355,6.48454,189.5],[-6.95494,6.4795,189.5],[-6.95722,6.47609,190.2444],[-6.96094,6.47361,189.5],[-6.97081,6.47066,189.5],[-6.97613,6.46966,189.5],[-6.9814,6.46694,189.5],[-6.98595,6.46328,189.5],[-6.99045,6.45552,189.5],[-6.99024,6.45002,189.5],[-6.96983,6.39803,220.4935],[-6.85418,6.25954,201.1243],[-6.83981,6.24977,191.6683],[-6.82844,6.24667,199.3627],[-6.68478,6.24753,179.7756],[-6.67507,6.24962,171.1748],[-6.66452,6.25559,194.453],[-6.59001,6.31098,176.442],[-6.58184,6.31564,171.192],[-6.57058,6.31137,173.6765],[-6.52081,6.28127,213.7906],[-6.50303,6.27569,204.8925],[-6.48593,6.27584,234.7031],[-6.42454,6.30075,196.5862],[-6.39994,6.30478,230.7357],[-6.37043,6.30858,239.1441],[-6.33379,6.31835,226.8695],[-6.30341,6.33101,233.7302],[-6.2861,6.33504,228.4784],[-6.27189,6.33698,227.5814],[-6.2216,6.33341,227.6615],[-6.2108,6.33558,208.1156],[-6.20181,6.34047,221.9261],[-6.14357,6.38896,236.3742],[-6.13939,6.39121,228.4538],[-6.13458,6.39168,237.4177],[-6.12957,6.39059,230.6009],[-6.12471,6.38858,219.7377],[-6.10631,6.37889,220.1147],[-6.09856,6.37367,190.6416],[-6.09215,6.37796,192.3474],[-6.08399,6.38858,207.9268],[-6.05991,6.43475,226.1094],[-6.05112,6.45948,196.291],[-6.04079,6.51976,207.4053],[-6.0888,6.56973,246.3003],[-6.09541,6.60404,250.0933],[-6.09159,6.62838,257.4795],[-6.12631,6.67618,243.4126],[-6.16507,6.72763,250.0945],[-6.17303,6.76447,272.0524],[-6.17344,6.7984,242.9823],[-6.17556,6.81514,245.4899],[-6.21204,6.88948,234.0289],[-6.21778,6.91183,266.1359],[-6.2199,6.93183,232.3288],[-6.21866,6.96629,242.1175],[-6.21644,6.98342,258.5449],[-6.21111,7.00043,271.459],[-6.1984,7.01376,258.3891],[-6.01836,7.12936,222.8854],[-5.9964,7.13316,240.3143],[-5.96792,7.13559,208.5958],[-5.9547,7.13814,196.501],[-5.9472,7.14124,177.1328],[-5.94519,7.14892,176.44],[-5.94255,7.1531,176.2567],[-5.93185,7.16535,178.1125],[-5.97144,7.18421,176.7788],[-5.99635,7.18762,186.1497],[-5.99965,7.1891,189.2383],[-6.01846,7.20369,176.0485],[-6.03035,7.2085,177.5827],[-6.07603,7.23287,183.7404],[-6.10239,7.24248,184.719],[-6.10869,7.24573,183.0889],[-6.11221,7.24902,181.8571],[-6.11458,7.2532,185.6739],[-6.11944,7.26669,200.4639],[-6.12724,7.27692,188.025],[-6.17184,7.28811,240.6687],[-6.19137,7.29012,263.5728],[-6.20491,7.28981,261.3417],[-6.21101,7.28888,258.1797],[-6.22052,7.28509,282.6481],[-6.22357,7.28129,291.7851],[-6.22465,7.27578,280.1427],[-6.22445,7.24736,271.7863],[-6.22667,7.23209,269.7636],[-6.23287,7.21796,267.5215],[-6.25318,7.21292,256.4802],[-6.27369,7.21083,295.3654],[-6.30077,7.21114,292.7084],[-6.33441,7.21726,276.3506],[-6.3493,7.21796,274.6001],[-6.35834,7.22183,264.3976],[-6.36485,7.2269,278.8304],[-6.371,7.23519,253.3172],[-6.37839,7.24333,270.6469],[-6.38785,7.25126,257.368],[-6.3972,7.2525,279.3504],[-6.40976,7.24871,254.4711],[-6.42071,7.24271,262.0926],[-6.44355,7.23395,244.4991],[-6.44578,7.25483,251.8466],[-6.39798,7.34963,247.7775],[-6.34485,7.42947,278.8287],[-6.33235,7.45267,282.8628],[-6.32516,7.47797,297.4356],[-6.31442,7.50021,294.3961],[-6.30077,7.51125,291.2457],[-6.10575,7.6184,202.9005],[-6.12357,7.64346,214.3766],[-6.14037,7.65431,204.3918],[-6.16693,7.66253,208.3776],[-6.20481,7.67821,219.5585],[-6.2139,7.68441,213.2981],[-6.21835,7.69015,210.1523],[-6.22191,7.72103,238.305],[-6.22341,7.72645,248.0748],[-6.22538,7.73129,242.3936],[-6.23675,7.7502,228.8814],[-6.24884,7.77673,235.4344],[-6.27959,7.77798,250.1739],[-6.42872,7.74237,308.6919],[-6.45885,7.74097,313.2815]]]}
,"properties": {"ISO3166-1-Alpha-3": "CIV","country": "Ivory Coast","fill": "#00F","name": "Haut-Sassandra","area_km2": 15271.41,"hist_schema_id": "Elevation0-9000","hist_area_km2": {"175": 251.89,"200": 1781.7,"225": 3915.52,"250": 4325.85,"275": 3068.76,"300": 1470.74,"325": 370.1,"350": 57.93,"375": 13.83,"400": 5.76,"425": 3.34,"450": 2.19,"475": 1.39,"500": 1.2,"525": 0.86,"550": 0.25}}}