{"type":"Feature","properties":{"GID_3":"CIV.9.2.1_1","GID_0":"CIV","country":"Côted'Ivoire","GID_1":"CIV.9_1","province":"Sassandra-Marahoué","NL_NAME_1":"NA","GID_2":"CIV.9.2_1","county":"Marahoué","NL_NAME_2":"NA","city":"Bouaflé","VARNAME_3":"NA","NL_NAME_3":"NA","TYPE_3":"Département","ENGTYPE_3":"Department","CC_3":"NA","HASC_3":"NA","name":"Bouaflé.city"},
"geometry":{"type": "MultiPolygon","coordinates": [[[[-6.206,6.8933,234.1675],[-6.1746,6.817,240.0449],[-6.1706,6.7422,248.3253],[-6.1492,6.7063,281.8546],[-6.157,6.6782,261.4852],[-6.1091,6.6783,238.359],[-6.0748,6.672,225.7633],[-6.0461,6.6639,259.159],[-6.0262,6.6616,223.7135],[-5.8832,6.7453,233.147],[-5.7468,6.7947,237.6571],[-5.7418,6.7956,219.8049],[-5.7318,6.7933,207.8059],[-5.6999,6.8032,185.0338],[-5.6032,6.7749,176.8379],[-5.6004,6.7713,176.2454],[-5.5971,6.7709,180.3286],[-5.5847,6.7777,178.5636],[-5.5672,6.781,168.8404],[-5.558,6.7788,167.8091],[-5.5546,6.7811,166.0328],[-5.5481,6.7803,167.9307],[-5.5445,6.7833,161.2454],[-5.5406,6.7827,161.1343],[-5.5306,6.7848,165.8938],[-5.5263,6.7891,158.031],[-5.5103,6.7899,158.5923],[-5.5061,6.7921,157.5378],[-5.4949,6.7929,156.9121],[-5.4803,6.7922,150.4747],[-5.4774,6.7907,156.7977],[-5.4607,6.7938,148.5544],[-5.4554,6.7989,149.0305],[-5.4629,6.8046,148.6546],[-5.4815,6.8126,146.8269],[-5.4839,6.8206,147.3622],[-5.4815,6.8307,147.4333],[-5.4854,6.845,149.9409],[-5.4837,6.8523,161.6979],[-5.486,6.8577,156.6367],[-5.4929,6.8631,157.1104],[-5.5107,6.867,148.8579],[-5.5174,6.8763,154.9884],[-5.5211,6.885,153.0657],[-5.5189,6.89,153.4042],[-5.5199,6.8947,156.8028],[-5.5273,6.9019,152.606],[-5.5281,6.9072,152.9365],[-5.5263,6.9125,152.7658],[-5.5193,6.9161,160.4525],[-5.513,6.9235,156.7052],[-5.5053,6.9261,156.7643],[-5.5013,6.9309,157.8093],[-5.4981,6.9461,162.8947],[-5.4995,6.9531,162.4655],[-5.499,6.9659,177.8779],[-5.4953,6.984,193.9352],[-5.4964,6.9889,187.9601],[-5.4897,7.0024,167.8193],[-5.484,7.007,168.0319],[-5.4794,7.025,164.2525],[-5.4739,7.0311,187.2115],[-5.4691,7.0331,181.5],[-5.4587,7.0285,181.5],[-5.456,7.0288,181.5],[-5.4475,7.0356,181.5],[-5.448,7.0387,181.5],[-5.4492,7.0408,181.5],[-5.4675,7.0458,181.5],[-5.4843,7.0532,181.5],[-5.4872,7.0569,181.5],[-5.4935,7.1059,181.5],[-5.4921,7.1106,181.5],[-5.4885,7.1134,181.5],[-5.4848,7.1266,181.5],[-5.479,7.1365,181.5],[-5.4802,7.1399,181.5],[-5.5216,7.1593,181.5],[-5.5382,7.1578,181.5],[-5.5504,7.1437,181.9478],[-5.5849,7.1435,181.5],[-5.6073,7.1597,181.5],[-5.5962,7.1733,181.5],[-5.5959,7.1783,181.5],[-5.5981,7.187,181.5],[-5.6066,7.192,181.5],[-5.6199,7.1945,181.5],[-5.636,7.2023,181.5],[-5.6489,7.2048,181.5],[-5.666,7.2201,181.5],[-5.6688,7.2257,181.5],[-5.6688,7.235,181.5],[-5.6635,7.2384,181.5],[-5.6534,7.2337,181.5],[-5.6502,7.2344,181.5],[-5.6482,7.2375,181.5],[-5.6468,7.25,181.5],[-5.6471,7.2758,191.8933],[-5.6682,7.295,181.5],[-5.6723,7.2972,181.5],[-5.6795,7.2981,181.5],[-5.6958,7.3066,181.5],[-5.7149,7.3233,181.5],[-5.7137,7.3283,181.5],[-5.6905,7.3414,181.5],[-5.6865,7.3453,186.2599],[-5.6832,7.3546,181.5],[-5.6874,7.3617,181.5],[-5.6949,7.3669,181.5],[-5.7082,7.3656,181.5],[-5.7145,7.3687,181.5],[-5.7227,7.3808,181.5],[-5.7269,7.4066,181.5],[-5.7261,7.4104,181.5],[-5.7204,7.4169,181.5],[-5.718,7.4308,181.5],[-5.7107,7.4433,195.2584],[-5.7107,7.461,184.6572],[-5.7268,7.4716,181.5],[-5.7335,7.4858,189.2963],[-5.734,7.4968,181.5],[-5.7445,7.4979,184.5558],[-5.7544,7.495,185.263],[-5.7592,7.4989,204.6711],[-5.7768,7.4901,230.2438],[-5.7829,7.4928,236.4391],[-5.7978,7.486,253.3345],[-5.7999,7.4834,261.591],[-5.8021,7.4601,232.4512],[-5.8076,7.4408,234.1084],[-5.7996,7.4279,209.5308],[-5.81,7.4213,219.2851],[-5.826,7.3966,268.6255],[-5.8358,7.3746,219.8564],[-5.8419,7.3707,215.8365],[-5.8409,7.3618,209.5798],[-5.8323,7.3433,209.7816],[-5.8499,7.3312,217.8101],[-5.8534,7.3168,241.0025],[-5.8564,7.314,249.1453],[-5.8758,7.3096,253.8339],[-5.8969,7.309,226.0465],[-5.8964,7.2987,220.5696],[-5.8841,7.2734,213.6999],[-5.8993,7.2549,233.2756],[-5.9133,7.2529,218.4507],[-5.9192,7.2457,210.6796],[-5.9256,7.2437,214.0311],[-5.9287,7.2395,212.7809],[-5.9269,7.2262,203.7605],[-5.93,7.219,203.5279],[-5.93,7.2077,198.0025],[-5.9278,7.1949,189.394],[-5.9291,7.1872,184.5943],[-5.927,7.1772,192.0808],[-5.9294,7.174,173.2739],[-5.9986,7.165,207.6389],[-6.1963,7.0165,262.5124],[-6.1972,7.0033,276.5345],[-6.1962,6.9953,280.5935],[-6.206,6.8933,234.1675]]]]}}