{"type": "Feature","bbox": [-3.9539,5.2205,-3.4278,5.9176],"geometry": {"type": "MultiPolygon","coordinates": [[[[-3.8248,5.3774,21.7184],[-3.8214,5.3733,14.2283],[-3.7992,5.3642,0.0],[-3.7789,5.3524,0.0],[-3.7673,5.3398,0.0],[-3.752,5.3309,0.0],[-3.748,5.3158,0.0],[-3.7442,5.31,0.0],[-3.7279,5.3031,0.0],[-3.7194,5.297,0.0],[-3.7218,5.2881,2.6842],[-3.7304,5.273,0.0],[-3.731,5.251,0.0],[-3.7214,5.2418,3.8282],[-3.7186,5.2298,0.0],[-3.719,5.2217,1.2327],[-3.7172,5.2205,3.3252],[-3.7149,5.2206,2.478],[-3.7093,5.2298,0.479],[-3.6991,5.2357,3.8907],[-3.6899,5.2314,2.2507],[-3.6817,5.2312,2.0585],[-3.6728,5.234,0.5],[-3.6691,5.2395,2.6018],[-3.6667,5.2495,6.4276],[-3.6624,5.2571,1.5592],[-3.6554,5.2589,2.9265],[-3.6551,5.2639,6.3618],[-3.6453,5.2616,5.4747],[-3.6351,5.2537,6.7915],[-3.6317,5.253,7.4281],[-3.6243,5.2565,11.3643],[-3.6205,5.2618,20.3188],[-3.6138,5.267,7.7226],[-3.6138,5.2706,16.495],[-3.6194,5.2784,12.2149],[-3.6214,5.2843,11.135],[-3.623,5.2974,12.678],[-3.6177,5.3038,13.1044],[-3.618,5.3066,7.2823],[-3.6225,5.3114,16.6861],[-3.6298,5.3136,23.8226],[-3.6316,5.3158,22.5506],[-3.6325,5.3231,16.4574],[-3.6404,5.3397,19.7412],[-3.6411,5.3465,21.5847],[-3.6395,5.3586,7.9991],[-3.6442,5.4001,20.9418],[-3.6599,5.4179,13.3715],[-3.662,5.4252,14.1132],[-3.6527,5.4691,22.3511],[-3.6583,5.4842,21.9393],[-3.6526,5.4952,16.7763],[-3.6523,5.4985,11.8308],[-3.6558,5.5052,7.8911],[-3.6523,5.5081,11.3274],[-3.6424,5.5122,33.6158],[-3.6343,5.5268,20.1426],[-3.6277,5.5309,23.4047],[-3.6187,5.5401,21.112],[-3.6141,5.5542,21.3821],[-3.6097,5.5608,21.8742],[-3.6108,5.5668,15.9239],[-3.6081,5.5722,18.8475],[-3.5965,5.5768,14.5921],[-3.5895,5.5859,20.7758],[-3.5814,5.5923,25.9897],[-3.5804,5.5953,17.5568],[-3.5815,5.6034,10.5085],[-3.5865,5.6199,42.0094],[-3.5813,5.6321,21.2756],[-3.5557,5.6461,57.7136],[-3.5454,5.6621,22.9871],[-3.5347,5.6726,24.8974],[-3.5269,5.6844,23.96],[-3.5218,5.682,55.5953],[-3.5096,5.6866,20.233],[-3.4862,5.7165,43.1895],[-3.4847,5.7205,51.4371],[-3.4858,5.7304,18.8135],[-3.4846,5.7322,40.5569],[-3.4669,5.7427,45.9946],[-3.4563,5.7535,37.5926],[-3.4425,5.7637,37.2911],[-3.4278,5.7681,77.6255],[-3.4332,5.7786,36.7525],[-3.4371,5.7803,58.196],[-3.4434,5.7794,44.3879],[-3.4544,5.781,44.3367],[-3.4554,5.7867,87.7124],[-3.4596,5.7946,74.7466],[-3.4488,5.8298,83.2316],[-3.451,5.8391,61.5709],[-3.4469,5.842,50.9559],[-3.4495,5.8495,114.4334],[-3.4521,5.8512,113.5873],[-3.5269,5.8667,126.2334],[-3.5351,5.875,117.0565],[-3.5437,5.8774,123.4948],[-3.5557,5.8741,104.8615],[-3.5704,5.8744,107.7101],[-3.5803,5.877,99.7523],[-3.5959,5.8722,84.1454],[-3.6056,5.8646,90.2657],[-3.678,5.8793,93.3788],[-3.7063,5.8914,73.8885],[-3.708,5.8992,72.8565],[-3.7177,5.9104,64.5695],[-3.73,5.9176,52.1643],[-3.7368,5.9174,51.8651],[-3.7417,5.9156,51.3356],[-3.7514,5.9071,66.0259],[-3.7563,5.8935,55.4634],[-3.7597,5.8905,54.2495],[-3.7707,5.8858,46.2685],[-3.7803,5.8772,52.2351],[-3.7949,5.8698,51.4778],[-3.7985,5.8635,45.1524],[-3.811,5.8551,47.0832],[-3.8147,5.8509,49.4975],[-3.8175,5.8441,41.4571],[-3.8226,5.8421,37.312],[-3.8293,5.8337,41.5598],[-3.8368,5.8288,51.0196],[-3.8385,5.8262,45.6693],[-3.8385,5.8203,42.7647],[-3.8455,5.8153,41.5953],[-3.8568,5.8146,43.4601],[-3.8791,5.8024,43.1209],[-3.8856,5.8103,38.941],[-3.8846,5.8153,33.5564],[-3.889,5.8187,35.8467],[-3.8981,5.8189,36.7974],[-3.9045,5.8126,32.7658],[-3.9087,5.8028,34.7776],[-3.9086,5.7939,29.8914],[-3.9154,5.7886,37.5586],[-3.9117,5.7782,30.5125],[-3.9131,5.7749,39.3411],[-3.9245,5.7615,29.4415],[-3.9258,5.7615,30.3832],[-3.9226,5.7682,35.0593],[-3.9249,5.7718,34.5537],[-3.9388,5.7676,32.0113],[-3.9413,5.762,25.6298],[-3.9467,5.7584,22.6428],[-3.9483,5.7511,22.8772],[-3.9475,5.7438,21.2027],[-3.9528,5.7407,26.6285],[-3.9539,5.7347,29.1743],[-3.951,5.7273,28.2985],[-3.9395,5.7189,21.2547],[-3.9363,5.7182,35.8988],[-3.9363,5.7161,34.4608],[-3.9327,5.7122,21.2859],[-3.9353,5.7065,20.214],[-3.9361,5.6898,20.2641],[-3.9436,5.6849,38.4315],[-3.9437,5.6826,45.3867],[-3.94,5.6778,24.6372],[-3.9438,5.669,21.4603],[-3.9383,5.6659,23.0607],[-3.9295,5.6393,18.3771],[-3.9356,5.6363,20.0508],[-3.9335,5.6318,16.9849],[-3.9351,5.6258,17.9216],[-3.9343,5.6218,18.6144],[-3.9301,5.616,17.2851],[-3.9371,5.5985,19.0752],[-3.9229,5.5782,22.7473],[-3.9213,5.5731,16.086],[-3.9219,5.5653,13.018],[-3.9172,5.5625,15.5286],[-3.9121,5.5643,18.7348],[-3.9082,5.5637,22.2974],[-3.9029,5.5575,22.125],[-3.8966,5.5546,32.1378],[-3.8784,5.5257,30.9131],[-3.8717,5.5221,16.2158],[-3.8708,5.5105,19.3331],[-3.8684,5.504,17.3385],[-3.862,5.5086,13.5253],[-3.8567,5.5071,16.0592],[-3.8462,5.5089,14.3984],[-3.8428,5.5067,37.5843],[-3.8389,5.497,23.586],[-3.8389,5.4929,16.905],[-3.8312,5.4869,17.7676],[-3.8284,5.4719,14.247],[-3.8251,5.4645,9.3574],[-3.8271,5.459,12.5172],[-3.8312,5.4551,14.552],[-3.8293,5.4513,11.6927],[-3.8288,5.4435,12.8564],[-3.8249,5.4415,12.7269],[-3.8227,5.4337,14.5761],[-3.8193,5.4354,9.9092],[-3.8165,5.4345,9.9513],[-3.8137,5.4328,12.0647],[-3.814,5.4292,10.8696],[-3.8109,5.4262,23.4624],[-3.8144,5.4226,21.8217],[-3.8141,5.4164,16.865],[-3.8168,5.4148,15.2333],[-3.8185,5.4092,13.1936],[-3.8242,5.4008,15.9436],[-3.8251,5.3945,21.9778],[-3.8288,5.3897,21.0824],[-3.8251,5.3866,22.2822],[-3.8248,5.3774,21.7184]]]]}
,"properties": {"GID_3": "CIV.7.3.3_1","GID_0": "CIV","country": "Côted'Ivoire","GID_1": "CIV.7_1","province": "Lagunes","NL_NAME_1": "NA","GID_2": "CIV.7.3_1","county": "LaMé","NL_NAME_2": "NA","city": "Alépé","VARNAME_3": "NA","NL_NAME_3": "NA","TYPE_3": "Département","ENGTYPE_3": "Department","CC_3": "NA","HASC_3": "NA","name": "Alépé.city","area_km2": 2216.996,"hist_schema_id": "Elevation0-9000","hist_area_km2": {"0": 140.17,"25": 454.285,"50": 459.315,"75": 574.672,"100": 365.401,"125": 158.862,"150": 55.475,"175": 8.817}}}