{"type":"Feature","properties":{"GID_3":"CIV.3.2.4_1","GID_0":"CIV","country":"Côted'Ivoire","GID_1":"CIV.3_1","province":"Comoé","NL_NAME_1":"NA","GID_2":"CIV.3.2_1","county":"SudComoé","NL_NAME_2":"NA","city":"Bonoua","VARNAME_3":"NA","NL_NAME_3":"NA","TYPE_3":"Département","ENGTYPE_3":"Department","CC_3":"NA","HASC_3":"NA","name":"Bonoua.city"},
"geometry":{"type": "MultiPolygon","coordinates": [[[[-3.4338,5.6467,131.1264],[-3.4314,5.7648,81.2859],[-3.4278,5.7681,77.6255],[-3.4425,5.7637,37.2911],[-3.4563,5.7535,37.5926],[-3.4669,5.7427,45.9946],[-3.4846,5.7322,40.5569],[-3.4858,5.7304,18.8135],[-3.4847,5.7205,51.4371],[-3.4862,5.7165,43.1895],[-3.5096,5.6866,20.233],[-3.5218,5.682,55.5953],[-3.5269,5.6844,23.96],[-3.5347,5.6726,24.8974],[-3.5454,5.6621,22.9871],[-3.5557,5.6461,57.7136],[-3.5813,5.6321,21.2756],[-3.5865,5.6199,42.0094],[-3.5815,5.6034,10.5085],[-3.5804,5.5953,17.5568],[-3.5814,5.5923,25.9897],[-3.5895,5.5859,20.7758],[-3.5965,5.5768,14.5921],[-3.6081,5.5722,18.8475],[-3.6108,5.5668,15.9239],[-3.6097,5.5608,21.8742],[-3.6141,5.5542,21.3821],[-3.6187,5.5401,21.112],[-3.6277,5.5309,23.4047],[-3.6343,5.5268,20.1426],[-3.6424,5.5122,33.6158],[-3.6523,5.5081,11.3274],[-3.6558,5.5052,7.8911],[-3.6523,5.4985,11.8308],[-3.6526,5.4952,16.7763],[-3.6583,5.4842,21.9393],[-3.6527,5.4691,22.3511],[-3.662,5.4252,14.1132],[-3.6599,5.4179,13.3715],[-3.6442,5.4001,20.9418],[-3.6395,5.3586,7.9991],[-3.6411,5.3465,21.5847],[-3.6404,5.3397,19.7412],[-3.6325,5.3231,16.4574],[-3.6316,5.3158,22.5506],[-3.6298,5.3136,23.8226],[-3.6225,5.3114,16.6861],[-3.618,5.3066,7.2823],[-3.6177,5.3038,13.1044],[-3.623,5.2974,12.678],[-3.6214,5.2843,11.135],[-3.6194,5.2784,12.2149],[-3.6138,5.2706,16.495],[-3.6138,5.267,7.7226],[-3.6205,5.2618,20.3188],[-3.6243,5.2565,11.3643],[-3.6317,5.253,7.4281],[-3.6351,5.2537,6.7915],[-3.6453,5.2616,5.4747],[-3.6551,5.2639,6.3618],[-3.6554,5.2589,2.9265],[-3.6624,5.2571,1.5592],[-3.6667,5.2495,6.4276],[-3.6691,5.2395,2.6018],[-3.6728,5.234,0.5],[-3.6817,5.2312,2.0585],[-3.6899,5.2314,2.2507],[-3.6991,5.2357,3.8907],[-3.7093,5.2298,0.479],[-3.7149,5.2206,2.478],[-3.7172,5.2205,3.3252],[-3.6778,5.2083,4.1976],[-3.6638,5.2024,9.8243],[-3.6635,5.1829,1.1112],[-3.594,5.1729,4.961],[-3.5918,5.1713,0.0],[-3.5479,5.1688,12.9384],[-3.4878,5.198,9.0302],[-3.4848,5.2046,6.7758],[-3.4729,5.2065,12.7565],[-3.4527,5.216,14.4814],[-3.3805,5.1861,9.4328],[-3.3746,5.2043,14.2982],[-3.3952,5.2433,70.3358],[-3.3978,5.2775,86.542],[-3.464,5.2796,101.2923],[-3.44,5.3398,68.2823],[-3.4338,5.6467,131.1264]]]]}}