{"type": "Feature","bbox": [-7.6385,6.2697,-6.9715,6.9691],"geometry": {"type": "MultiPolygon","coordinates": [[[[-6.9923,6.5584,189.5],[-7.0159,6.5719,189.5],[-7.0201,6.5794,189.5],[-7.0202,6.5878,189.5],[-7.0027,6.6039,189.5],[-6.9956,6.6079,191.0092],[-6.988,6.6185,189.5],[-6.9835,6.6415,189.5],[-6.9836,6.6567,189.5],[-6.9898,6.6648,189.5],[-6.9913,6.6728,189.5],[-6.9863,6.6869,189.5],[-6.9715,6.7073,189.5],[-6.9743,6.7131,189.5],[-6.9786,6.7171,190.7672],[-6.9872,6.7198,189.5],[-6.9899,6.723,189.5],[-6.9888,6.7288,189.5],[-6.9827,6.7384,189.5],[-6.9819,6.7454,198.8674],[-6.9898,6.7666,189.5],[-6.9961,6.7742,189.5],[-6.9948,6.7925,189.5],[-6.9982,6.8159,190.5028],[-7.0041,6.8275,189.5],[-7.0081,6.8333,191.4906],[-7.0178,6.8388,198.5392],[-7.0258,6.8399,194.9831],[-7.0403,6.8388,195.5197],[-7.0607,6.8477,197.3177],[-7.0634,6.8508,193.8182],[-7.061,6.8595,199.5465],[-7.0614,6.8729,193.4857],[-7.0641,6.8828,193.0],[-7.0609,6.8906,196.9257],[-7.0464,6.8976,200.6303],[-7.0428,6.9054,201.3371],[-7.0435,6.9123,199.1721],[-7.0413,6.9202,199.6086],[-7.044,6.9284,202.8085],[-7.0516,6.9327,201.9132],[-7.0586,6.9336,201.3968],[-7.0643,6.9405,197.0],[-7.0756,6.9424,205.5203],[-7.0773,6.9485,209.9274],[-7.0995,6.9509,205.3991],[-7.1038,6.9474,207.0258],[-7.1102,6.9534,209.3351],[-7.1152,6.9528,209.0929],[-7.1563,6.9691,220.227],[-7.4002,6.962,297.7781],[-7.4757,6.9485,262.8393],[-7.58,6.9416,256.937],[-7.6297,6.847,223.2466],[-7.637,6.8436,219.9278],[-7.6385,6.8391,223.383],[-7.6336,6.8348,229.0519],[-7.6269,6.8361,219.1863],[-7.6199,6.8287,223.3889],[-7.6111,6.8286,219.7657],[-7.6066,6.8193,219.1336],[-7.6075,6.8098,217.9231],[-7.606,6.802,221.2327],[-7.6035,6.7979,220.8637],[-7.5982,6.8027,219.4819],[-7.5948,6.8035,215.2797],[-7.5897,6.7891,223.6252],[-7.587,6.7874,224.3192],[-7.5797,6.7961,213.3456],[-7.571,6.7929,216.7204],[-7.5772,6.7745,214.0336],[-7.5808,6.772,214.2334],[-7.5862,6.7569,222.5707],[-7.589,6.7536,218.832],[-7.5871,6.7401,211.7031],[-7.585,6.7373,216.5644],[-7.5806,6.7359,210.7887],[-7.5793,6.7287,207.0583],[-7.5773,6.7261,212.873],[-7.57,6.7276,211.5658],[-7.5625,6.707,217.2601],[-7.5676,6.7024,221.5802],[-7.5659,6.6946,217.1162],[-7.5536,6.6929,209.6523],[-7.5477,6.6895,208.748],[-7.5487,6.6858,210.2981],[-7.5427,6.6678,216.1127],[-7.5024,6.6453,230.4236],[-7.4956,6.6446,259.0202],[-7.4082,6.6023,236.0495],[-7.3262,6.5483,219.4995],[-7.3103,6.5363,228.6373],[-7.26,6.4687,224.4993],[-7.2461,6.4619,206.1632],[-7.1925,6.4025,204.6697],[-7.1677,6.3274,195.0679],[-7.1268,6.2697,189.5],[-7.1236,6.4593,236.6225],[-6.9923,6.5584,189.5]]]]}
,"properties": {"GID_3": "CIV.8.2.2_1","GID_0": "CIV","country": "Côted'Ivoire","GID_1": "CIV.8_1","province": "Montagnes","NL_NAME_1": "NA","GID_2": "CIV.8.2_1","county": "Guémon","NL_NAME_2": "NA","city": "Duékoué","VARNAME_3": "NA","NL_NAME_3": "NA","TYPE_3": "Département","ENGTYPE_3": "Department","CC_3": "NA","HASC_3": "NA","name": "Duékoué.city","area_km2": 3044.442,"hist_schema_id": "Elevation0-9000","hist_area_km2": {"200": 343.765,"225": 1220.429,"250": 1201.349,"275": 245.77,"300": 26.141,"325": 4.42,"350": 1.41,"375": 0.632,"400": 0.295,"425": 0.168,"475": 0.042}}}