{"type": "Feature","bbox": [-6.7151,8.4156,-5.9935,9.2157],"geometry": {"type": "MultiPolygon","coordinates": [[[[-6.6995,9.0861,347.5629],[-6.7016,9.0827,346.5841],[-6.7025,9.0574,345.4231],[-6.7073,9.0471,353.0251],[-6.7007,9.037,351.0799],[-6.7089,9.0105,345.7914],[-6.7083,9.0034,345.1295],[-6.7113,8.9993,344.0016],[-6.7099,8.995,344.9632],[-6.7057,8.9907,343.6051],[-6.7097,8.9845,346.7415],[-6.7001,8.9794,341.8409],[-6.7003,8.9773,344.8454],[-6.7054,8.9729,343.6868],[-6.7133,8.9704,338.1078],[-6.7151,8.9668,341.0178],[-6.7082,8.956,346.1278],[-6.7033,8.9532,337.2311],[-6.7018,8.9479,336.1754],[-6.706,8.9385,335.9412],[-6.7052,8.9354,337.9706],[-6.6989,8.9334,336.9799],[-6.6919,8.9186,336.6419],[-6.6807,8.9174,330.5612],[-6.6786,8.9189,334.6877],[-6.6785,8.9266,334.1706],[-6.6745,8.9242,331.3658],[-6.6695,8.9246,342.0798],[-6.6666,8.9262,339.8161],[-6.6641,8.9325,331.3615],[-6.6535,8.9309,328.4552],[-6.6411,8.9353,332.3909],[-6.6289,8.9313,333.2939],[-6.6251,8.9225,330.8006],[-6.6213,8.9192,327.3671],[-6.6174,8.9193,331.3051],[-6.6143,8.9228,324.0603],[-6.6057,8.9214,330.5465],[-6.6025,8.9302,326.9555],[-6.5932,8.9349,324.7189],[-6.5911,8.9378,331.3667],[-6.5876,8.9354,324.6184],[-6.5836,8.937,324.8417],[-6.5849,8.9312,329.1134],[-6.5838,8.9278,326.2195],[-6.5812,8.9254,331.1008],[-6.5775,8.9257,340.0507],[-6.576,8.9356,320.2736],[-6.5696,8.9413,321.8537],[-6.5634,8.9366,324.4809],[-6.5574,8.9351,320.5737],[-6.5508,8.9263,326.8741],[-6.5503,8.9215,320.7254],[-6.5578,8.909,319.8999],[-6.5545,8.9049,321.1204],[-6.5485,8.9017,319.1175],[-6.5446,8.894,319.682],[-6.5347,8.8891,330.5281],[-6.5295,8.8909,325.2576],[-6.5227,8.8896,319.3989],[-6.5198,8.8825,317.7469],[-6.5026,8.8759,320.2809],[-6.4896,8.8635,315.5898],[-6.487,8.8603,315.6995],[-6.4875,8.8557,315.7959],[-6.4849,8.8524,314.9736],[-6.4808,8.8525,312.6427],[-6.4782,8.8549,314.1418],[-6.4726,8.8399,310.5409],[-6.4644,8.8348,317.8442],[-6.4644,8.8314,312.4778],[-6.4652,8.8281,311.8013],[-6.4768,8.8293,315.4756],[-6.4803,8.8266,315.0852],[-6.4826,8.82,316.5023],[-6.4784,8.8176,315.9127],[-6.4693,8.818,311.8645],[-6.4677,8.813,314.7901],[-6.4628,8.8084,313.459],[-6.4613,8.8031,315.3938],[-6.4527,8.7987,317.5544],[-6.452,8.7955,314.6121],[-6.4496,8.7939,312.3034],[-6.4403,8.7981,316.4295],[-6.4342,8.8047,315.0481],[-6.4361,8.8116,311.6777],[-6.4353,8.8132,308.3185],[-6.4276,8.8153,310.0046],[-6.422,8.8098,306.8769],[-6.4206,8.8053,308.455],[-6.4219,8.8008,305.4313],[-6.4187,8.7975,306.7428],[-6.4087,8.7957,310.4393],[-6.4035,8.7909,306.5805],[-6.4048,8.7863,302.8205],[-6.4126,8.7812,305.4402],[-6.4148,8.7764,307.3685],[-6.4139,8.7682,312.186],[-6.4048,8.7628,306.7233],[-6.4143,8.7591,304.0654],[-6.4236,8.7469,310.1334],[-6.4195,8.7345,311.5595],[-6.4196,8.7304,308.0911],[-6.4216,8.7267,299.2505],[-6.4328,8.7213,312.8342],[-6.4338,8.7191,305.877],[-6.4334,8.7164,310.4372],[-6.4195,8.7141,302.8762],[-6.4193,8.7118,301.5357],[-6.4227,8.7102,300.419],[-6.4261,8.7128,301.4756],[-6.4346,8.7129,303.4376],[-6.4391,8.7238,306.9263],[-6.4435,8.7248,304.8341],[-6.4457,8.7234,300.4745],[-6.4452,8.7166,302.1407],[-6.4506,8.7185,309.9305],[-6.4565,8.7181,313.0825],[-6.4608,8.7153,305.4218],[-6.4669,8.6997,303.8425],[-6.4662,8.6908,302.2321],[-6.4611,8.6872,307.0439],[-6.4472,8.6841,299.443],[-6.4643,8.6755,297.4],[-6.4762,8.6776,296.7906],[-6.4789,8.6742,302.5368],[-6.4654,8.6565,311.272],[-6.4622,8.6585,316.067],[-6.4616,8.6611,301.4582],[-6.4637,8.6665,298.3236],[-6.4601,8.6643,299.478],[-6.456,8.6509,294.1238],[-6.4476,8.6429,302.5861],[-6.446,8.6387,295.3517],[-6.4463,8.6359,295.6595],[-6.4519,8.6362,297.4244],[-6.459,8.6318,291.5125],[-6.4654,8.6319,294.2255],[-6.4682,8.627,292.9962],[-6.4734,8.6229,297.3845],[-6.4737,8.6191,296.8549],[-6.4784,8.6119,302.877],[-6.4763,8.6077,302.704],[-6.468,8.6062,301.1372],[-6.4546,8.6104,306.9357],[-6.4462,8.6225,300.6185],[-6.4441,8.6048,292.8237],[-6.4384,8.6002,297.5429],[-6.4373,8.5977,296.5959],[-6.4472,8.5946,286.2149],[-6.4484,8.5922,304.4869],[-6.4487,8.5892,307.4411],[-6.4432,8.581,291.1089],[-6.4537,8.5771,295.5144],[-6.4573,8.5731,299.2297],[-6.4482,8.5608,300.6805],[-6.4433,8.5617,299.419],[-6.4391,8.568,290.4428],[-6.4337,8.5479,287.3304],[-6.4331,8.534,290.6948],[-6.4257,8.5244,287.3217],[-6.4278,8.5181,288.3892],[-6.432,8.5124,286.2722],[-6.4355,8.5136,289.0678],[-6.4398,8.5061,288.7633],[-6.4423,8.5135,285.2174],[-6.4457,8.5169,285.7159],[-6.4496,8.5181,283.8157],[-6.4565,8.5132,291.5076],[-6.459,8.511,293.2114],[-6.4588,8.5047,287.1965],[-6.4623,8.502,288.3437],[-6.4615,8.4943,283.5491],[-6.4524,8.4815,303.1878],[-6.4347,8.4804,288.2381],[-6.4296,8.4776,283.8036],[-6.4324,8.4687,295.7349],[-6.4318,8.4562,281.5373],[-6.4339,8.4523,290.0695],[-6.4248,8.4446,284.0292],[-6.4194,8.4451,282.6951],[-6.4178,8.4426,282.2567],[-6.4189,8.4344,285.8583],[-6.4159,8.4285,281.9794],[-6.4145,8.417,287.3685],[-6.4123,8.4157,281.467],[-6.4073,8.4194,277.4421],[-6.3976,8.4209,279.5303],[-6.3797,8.4156,283.0305],[-6.3718,8.4263,282.6036],[-6.3624,8.4273,287.1941],[-6.3538,8.4445,290.5934],[-6.3486,8.4473,286.9585],[-6.34,8.4473,305.8815],[-6.3369,8.4491,301.5143],[-6.3269,8.4615,292.9932],[-6.3125,8.474,298.2158],[-6.3,8.4798,310.9924],[-6.2979,8.4824,310.7423],[-6.2869,8.4855,320.4898],[-6.2764,8.4974,323.1795],[-6.2495,8.5136,340.131],[-6.2353,8.5285,338.8238],[-6.2243,8.5244,352.2135],[-6.2197,8.5255,349.8186],[-6.2117,8.531,346.5031],[-6.2003,8.5294,355.3772],[-6.1909,8.5324,363.8694],[-6.1879,8.5363,375.787],[-6.1874,8.5509,385.4683],[-6.1806,8.5646,391.3229],[-6.1732,8.5727,378.7211],[-6.1675,8.582,379.1745],[-6.1585,8.5894,392.8441],[-6.1456,8.6095,395.0085],[-6.129,8.6258,388.371],[-6.1251,8.6258,384.0273],[-6.116,8.6295,406.9751],[-6.1067,8.6362,414.0515],[-6.0813,8.6486,406.4288],[-6.0717,8.6504,389.5762],[-6.0448,8.662,393.3522],[-6.0372,8.6601,394.8445],[-6.0118,8.6635,389.69],[-5.9935,8.675,393.7711],[-5.9987,8.6849,398.3462],[-5.9996,8.6951,383.8437],[-6.0232,8.7329,379.162],[-6.0643,8.806,341.886],[-6.0671,8.8042,335.9807],[-6.0696,8.8064,335.8936],[-6.0702,8.8118,336.7637],[-6.0731,8.8165,343.7789],[-6.0783,8.8167,345.9668],[-6.0802,8.8143,346.5525],[-6.0849,8.8144,345.1915],[-6.0953,8.8175,342.6363],[-6.1068,8.8413,342.829],[-6.1225,8.8602,345.8819],[-6.1275,8.8627,339.2476],[-6.1263,8.8701,340.7562],[-6.1276,8.8743,342.3147],[-6.1368,8.8889,345.5059],[-6.1453,8.8945,346.1672],[-6.15,8.9093,348.5076],[-6.1591,8.9162,348.3404],[-6.1618,8.9205,353.1653],[-6.1751,8.9295,346.952],[-6.1931,8.9508,347.5235],[-6.2078,8.9557,353.794],[-6.2139,8.9614,349.0002],[-6.2111,8.9808,364.1593],[-6.2132,8.9844,360.5619],[-6.2419,8.9979,361.8454],[-6.2685,9.0842,378.2014],[-6.19,9.1527,376.0769],[-6.2589,9.204,364.2219],[-6.2643,9.2032,365.4757],[-6.2699,9.2047,366.572],[-6.2833,9.1992,364.869],[-6.2964,9.2056,369.1656],[-6.3013,9.2035,369.747],[-6.3091,9.2042,371.8564],[-6.3193,9.2143,369.4159],[-6.334,9.2157,373.2971],[-6.3386,9.2137,373.6981],[-6.344,9.2138,370.9254],[-6.3478,9.2105,372.217],[-6.3494,9.205,371.5144],[-6.3479,9.195,382.1758],[-6.3501,9.1899,382.1639],[-6.3495,9.184,389.5377],[-6.345,9.1747,398.8203],[-6.3791,9.1269,378.7106],[-6.4352,9.1052,381.2526],[-6.4415,9.1013,369.6913],[-6.4505,9.0875,359.2199],[-6.469,9.0715,359.4537],[-6.4716,9.0608,346.0619],[-6.4649,9.0523,340.2604],[-6.4648,9.0502,340.0393],[-6.4693,9.0493,348.6596],[-6.473,9.0543,348.6399],[-6.4828,9.0595,363.2655],[-6.4862,9.0647,358.1662],[-6.4889,9.0861,384.5452],[-6.4912,9.0932,370.2586],[-6.503,9.1006,372.7842],[-6.5161,9.1237,374.8984],[-6.5217,9.129,377.1384],[-6.5236,9.1348,390.0475],[-6.5236,9.1475,394.2637],[-6.5268,9.1534,388.3151],[-6.5799,9.1499,397.7502],[-6.5469,9.0836,396.9373],[-6.6007,9.0879,383.1912],[-6.6024,9.0915,381.1604],[-6.6073,9.0952,383.1974],[-6.6127,9.0962,376.0872],[-6.617,9.0964,378.7307],[-6.6304,9.0915,369.3932],[-6.6416,9.0968,368.8165],[-6.6522,9.1053,362.8212],[-6.6614,9.0987,356.439],[-6.6679,9.0881,352.5541],[-6.6786,9.0886,355.6261],[-6.6932,9.0869,347.4252],[-6.697,9.085,349.4908],[-6.6995,9.0861,347.5629]]]]}
,"properties": {"GID_3": "CIV.12.2.1_1","GID_0": "CIV","country": "Côted'Ivoire","GID_1": "CIV.12_1","province": "Woroba","NL_NAME_1": "NA","GID_2": "CIV.12.2_1","county": "Béré","NL_NAME_2": "NA","city": "Dianra","VARNAME_3": "NA","NL_NAME_3": "NA","TYPE_3": "Département","ENGTYPE_3": "Department","CC_3": "NA","HASC_3": "NA","name": "Dianra.city","area_km2": 3137.378,"hist_schema_id": "Elevation0-9000","hist_area_km2": {"275": 16.546,"300": 193.455,"325": 636.488,"350": 1018.927,"375": 895.283,"400": 313.728,"425": 51.562,"450": 10.719,"475": 0.377,"500": 0.147,"525": 0.105,"550": 0.042}}}