{"type": "Feature","id": "3449","bbox": [-4.32248,7.05448,-2.50633,9.94893],"geometry": {"type": "Polygon","coordinates": [[[-3.60626,9.91818,339.7056],[-3.62334,9.92175,400.6578],[-3.63401,9.92924,371.4346],[-3.64055,9.93738,328.3167],[-3.64817,9.94459,330.5413],[-3.66166,9.94893,347.8272],[-3.66504,9.9466,366.1258],[-3.67432,9.93526,343.9722],[-3.67964,9.93221,363.8008],[-3.68595,9.93345,363.3862],[-3.69899,9.94079,355.6178],[-3.70646,9.94182,345.7978],[-3.75504,9.93588,384.8997],[-3.76961,9.93133,360.2687],[-3.77974,9.92469,330.6842],[-3.79576,9.90767,329.8475],[-3.80426,9.90139,323.9793],[-3.82348,9.8957,341.0663],[-3.88971,9.89446,336.7679],[-3.89162,9.8939,337.1893],[-3.91009,9.8884899999999991,307.6897],[-3.94774,9.86436,322.3673],[-3.96918,9.85899,298.5499],[-3.98404,9.85116,314.3672],[-3.98825,9.8348,275.638],[-3.99461,9.82077,288.6837],[-4.02667,9.82031,265.4731],[-4.03497,9.81762,261.9157],[-4.05032,9.81031,261.9274],[-4.05135,9.80757,262.4607],[-4.05171,9.80235,259.2555],[-4.05368,9.79762,258.166],[-4.05988,9.79628,272.9367],[-4.06572,9.79809,288.4641],[-4.07615,9.8038,281.3784],[-4.13305,9.82041,316.9031],[-4.15026,9.81829,320.3785],[-4.16829,9.80483,313.6188],[-4.19697,9.76496,286.9351],[-4.21542,9.75486,268.6893],[-4.25309,9.75005,250.4079],[-4.27033,9.74393,231.2701],[-4.28364,9.73202,249.7826],[-4.27919,9.73114,246.9491],[-4.26751,9.72726,226.3246],[-4.29779,9.69584,235.4026],[-4.3033,9.68672,238.0003],[-4.30345,9.67791,244.5171],[-4.30048,9.6543,237.6534],[-4.30299,9.64171,243.1616],[-4.31593,9.61662,236.9009],[-4.32248,9.60898,216.905],[-4.31025,9.60391,215.5494],[-4.26581,9.54492,217.0473],[-4.25805,9.53908,213.403],[-4.2503,9.53487,215.3334],[-4.24436,9.52895,237.7409],[-4.24193,9.51792,235.3899],[-4.24193,9.50728,220.4774],[-4.2409,9.49924,222.5546],[-4.2378,9.49203,221.9861],[-4.23139,9.48379,220.2162],[-4.20431,9.45839,221.0721],[-4.1964,9.44457,219.155],[-4.19139,9.41183,215.298],[-4.18199,9.39563,214.4025],[-4.17987,9.38821,221.3607],[-4.18106,9.38033,216.7449],[-4.18617,9.37002,211.8069],[-4.18736,9.36028,214.172],[-4.1885,9.35656,224.6825],[-4.19093,9.35132,224.8892],[-4.19315,9.3446,229.6439],[-4.19356,9.33638,231.3657],[-4.19093,9.32749,216.6729],[-4.1869,9.32289,218.8029],[-4.18271,9.3199,223.2581],[-4.17987,9.31589,217.8961],[-4.17713,9.29892,213.501],[-4.18039,9.28796,223.327],[-4.18524,9.27734,210.3578],[-4.18736,9.26127,213.223],[-4.18555,9.25385,216.391],[-4.18163,9.24502,214.855],[-4.17713,9.23729,215.4494],[-4.17367,9.23334,214.4172],[-4.16194,9.22892,218.7496],[-4.1594,9.23207,219.0278],[-4.15873,9.23923,208.2869],[-4.15253,9.24701,205.9579],[-4.13393,9.25654,212.5547],[-4.11843,9.26127,208.9047],[-4.10902,9.2622,213.0257],[-4.10189,9.26194,205.9685],[-4.096,9.26287,208.7224],[-4.09052,9.2675,216.6166],[-4.06318,9.24409,208.5362],[-4.03647,9.22652,209.0977],[-3.99544,9.21807,216.4794],[-3.97502,9.20828,206.6573],[-3.96422,9.20603,207.215],[-3.95647,9.20145,212.3159],[-3.95332,9.19102,205.3197],[-3.9513,9.17954,216.4299],[-3.94712,9.1719,214.5423],[-3.93962,9.17014,224.2007],[-3.90955,9.1719,210.4072],[-3.89363,9.16549,205.8402],[-3.90588,9.13203,213.6507],[-3.89188,9.11665,202.8013],[-3.8957,9.11472,204.1266],[-3.89684,9.11469,202.1851],[-3.89735,9.1141,202.1851],[-3.89932,9.11045,199.7505],[-3.8788,9.11316,209.5583],[-3.86252,9.11921,202.8656],[-3.85079,9.11913,201.7668],[-3.84408,9.10363,203.7728],[-3.84361,9.07803,215.9714],[-3.85131,9.07647,218.3683],[-3.86242,9.08854,202.3719],[-3.87203,9.10363,199.6403],[-3.8818,9.08043,203.8235],[-3.88531,9.05836,198.4088],[-3.87787,9.04183,201.894],[-3.84227,9.03317,200.7994],[-3.82573,9.02715,197.0566],[-3.81074,9.01829,200.0179],[-3.8031,9.00741,196.7601],[-3.80537,8.99377,208.6826],[-3.81612,8.9895,194.3623],[-3.83069,8.98906,203.6026],[-3.84408,8.98695,211.9848],[-3.86867,8.97658,203.5577],[-3.88991,8.96374,201.5547],[-3.89766,8.94628,192.9719],[-3.88195,8.92207,207.8397],[-3.86583,8.90798,197.6859],[-3.83586,8.87295,196.7924],[-3.81674,8.85721,198.8836],[-3.81674,8.84977,207.9028],[-3.82573,8.84869,195.7112],[-3.82924,8.84654,197.7747],[-3.83162,8.84266,192.2337],[-3.83725,8.8361,205.2664],[-3.83322,8.83463,196.8206],[-3.83255,8.83416,196.8206],[-3.83271,8.83292,193.7181],[-3.83105,8.82928,198.1937],[-3.8185,8.83039,218.0371],[-3.80465,8.82342,199.9555],[-3.79348,8.81158,194.5197],[-3.78883,8.79825,193.9722],[-3.79121,8.77636,200.7157],[-3.79777,8.77251,190.581],[-3.80769,8.77722,201.5679],[-3.8202,8.78086,192.4891],[-3.82594,8.77412,197.3395],[-3.85157,8.73368,187.4849],[-3.87043,8.71895,192.6475],[-3.87358,8.7103,226.2109],[-3.85777,8.70577,198.4364],[-3.86614,8.69704,193.9949],[-3.87947,8.69332,188.6375],[-3.90955,8.69273,189.8665],[-3.9266,8.68717,192.9541],[-3.93652,8.67337,203.3991],[-3.94712,8.63748,185.6558],[-3.93714,8.62903,213.2325],[-3.93172,8.61389,201.7283],[-3.92707,8.60873,199.9325],[-3.92102,8.58663,193.3477],[-3.92288,8.57263,208.1083],[-3.95079,8.55175,179.5941],[-3.95818,8.5385,189.1019],[-3.97544,8.5331,178.3533],[-3.98128,8.52762,182.4281],[-3.97874,8.50977,207.2349],[-3.94211,8.4894,192.8557],[-3.93286,8.46959,175.9187],[-3.9373,8.45672,189.9133],[-3.94371,8.43824,181.6919],[-3.96464,8.43135,175.9918],[-3.97828,8.42874,188.8742],[-3.98128,8.43204,178.6364],[-3.98784,8.41892,183.4294],[-3.98572,8.41101,186.3572],[-3.97962,8.40491,178.9093],[-3.97445,8.39727,189.5693],[-3.97208,8.3961,200.7667],[-3.96805,8.39644,200.7655],[-3.96371,8.39561,191.8089],[-3.96076,8.39106,186.21],[-3.9605,8.38362,182.9756],[-3.96298,8.37939,180.4212],[-3.96608,8.37649,182.2431],[-3.96763,8.37308,174.1341],[-3.97032,8.36412,192.2605],[-3.97461,8.3614,174.9354],[-3.97456,8.35794,182.5358],[-3.96422,8.3467,194.8429],[-3.95916,8.339,182.8549],[-3.95735,8.32936,174.2225],[-3.95983,8.31885,175.2089],[-3.96763,8.30851,185.5254],[-3.98226,8.30585,179.2357],[-4.03197,8.30626,172.7981],[-4.04267,8.30479,171.0263],[-4.04174,8.29513,186.5733],[-4.0375,8.28102,178.7013],[-4.03647,8.27097,169.8128],[-4.03125,8.26417,172.437],[-4.00773,8.25007,176.4919],[-4.00174,8.24025,173.2495],[-4.00432,8.22839,177.3577],[-4.01931,8.20774,179.42],[-4.02282,8.19555,175.7641],[-4.01993,8.18376,175.9949],[-4.01249,8.18074,179.3977],[-4.00246,8.17991,170.2856],[-3.99182,8.17475,174.8742],[-3.95358,8.12782,175.6125],[-3.9403,8.11609,183.0707],[-3.94278,8.11098,190.6591],[-3.95058,8.09997,169.6463],[-3.95456,8.09563,185.0245],[-3.97714,8.10284,173.9733],[-3.9943,8.08969,168.2011],[-4.00531,8.06517,168.265],[-4.01011,8.02832,191.9217],[-4.016,7.98329,166.5098],[-4.0099,7.96683,167.1605],[-3.99544,7.96714,164.8593],[-3.97828,7.97207,162.3405],[-3.96422,7.96931,166.5739],[-3.9543,7.96897,167.0905],[-3.94386,7.97652,160.5912],[-3.9342,7.97776,167.9785],[-3.9266,7.95846,168.5228],[-3.92903,7.94928,159.3634],[-3.93694,7.93957,159.9123],[-3.95456,7.92494,164.3016],[-3.96825,7.91864,161.1687],[-3.97735,7.91624,161.3038],[-3.97657,7.91295,169.8224],[-3.96076,7.90383,165.1181],[-3.94614,7.89867,157.7465],[-3.91647,7.89166,163.2613],[-3.90614,7.88334,166.6807],[-3.89301,7.8944,168.7462],[-3.87994,7.88505,165.8234],[-3.8757,7.8774,164.0753],[-3.86955,7.86629,158.1596],[-3.86459,7.84921,161.7744],[-3.86697,7.84371,156.197],[-3.87234,7.83771,159.5837],[-3.87653,7.83151,165.382],[-3.87513,7.82531,154.5923],[-3.86821,7.81671,158.7984],[-3.86583,7.81237,154.363],[-3.85963,7.79275,159.7235],[-3.86139,7.78567,153.801],[-3.87203,7.78092,157.737],[-3.87203,7.7741,152.7847],[-3.84976,7.77376,156.4162],[-3.834,7.7703,154.1897],[-3.82346,7.76022,162.9524],[-3.81674,7.73997,153.6942],[-3.80589,7.74498,151.8008],[-3.79633,7.74467,152.1041],[-3.78832,7.74028,151.3621],[-3.78201,7.73315,157.3766],[-3.76217,7.73524,149.0828],[-3.74005,7.73284,174.1679],[-3.72713,7.72204,153.6474],[-3.73483,7.69901,152.5596],[-3.72589,7.6661,153.3649],[-3.71473,7.65488,149.0078],[-3.68982,7.65059,156.4497],[-3.67809,7.64408,172.0924],[-3.67421,7.62979,156.2891],[-3.67318,7.61553,148.9196],[-3.66967,7.60899,148.1677],[-3.65788,7.60517,162.9474],[-3.65189,7.59651,159.2244],[-3.64683,7.58729,157.9515],[-3.63804,7.58168,150.8507],[-3.59835,7.59181,149.9509],[-3.57872,7.58713,154.8742],[-3.57035,7.55747,162.3317],[-3.57582,7.54546,147.2676],[-3.59546,7.52641,151.1825],[-3.59391,7.51683,150.4208],[-3.58595,7.51096,148.3047],[-3.57407,7.50561,150.9259],[-3.56115,7.50158,145.1678],[-3.54988,7.49975,143.2155],[-3.54141,7.49562,153.3996],[-3.53712,7.48952,144.683],[-3.53381,7.48171,143.25],[-3.5119,7.44952,145.2633],[-3.5089,7.44887,149.9216],[-3.50275,7.40795,145.9635],[-3.50565,7.39208,140.2075],[-3.52198,7.38368,145.2637],[-3.52027,7.36077,144.0978],[-3.53505,7.33792,147.4626],[-3.50317,7.34785,150.0669],[-3.49836,7.34878,150.9433],[-3.4949,7.34823,148.8992],[-3.47888,7.34304,150.6016],[-3.47257,7.34475,148.1548],[-3.46379,7.33932,147.3002],[-3.45976,7.33963,149.1922],[-3.4549,7.34126,148.9017],[-3.44932,7.3394,149.9724],[-3.44296,7.33529,151.6929],[-3.43072,7.32898,149.3518],[-3.42462,7.32387,152.0962],[-3.42059,7.31875,181.8962],[-3.40534,7.26777,200.131],[-3.40333,7.26351,187.2873],[-3.40043,7.25901,194.74],[-3.39682,7.25483,209.5199],[-3.38684,7.24581,214.5432],[-3.37056,7.2269,237.535],[-3.36457,7.22449,230.5969],[-3.35961,7.22519,210.8436],[-3.35589,7.22837,208.517],[-3.34995,7.2362,190.6488],[-3.34173,7.24948,213.8306],[-3.32891,7.2501,190.1544],[-3.30757,7.247,160.6992],[-3.23507,7.22465,224.476],[-3.22308,7.21749,228.8136],[-3.20055,7.20013,223.8441],[-3.16696,7.17964,262.2728],[-3.15115,7.16566,262.7737],[-3.13947,7.15248,272.9757],[-3.09792,7.07342,223.9626],[-3.09663,7.05497,230.4912],[-3.09659,7.05448,230.4912],[-3.09547,7.05518,220.2339],[-3.04593,7.07125,239.5756],[-3.04087,7.07833,226.3382],[-3.0326,7.12835,257.0485],[-3.02754,7.13843,273.7467],[-2.9817,7.19553,258.4868],[-2.97281,7.21496,269.4766],[-2.97209,7.2286,242.7415],[-2.97653,7.23672,249.7376],[-2.98322,7.24499,250.9875],[-2.98953,7.25894,276.4942],[-2.99046,7.27067,275.9823],[-2.94152,7.57716,234.2555],[-2.92816,7.61768,214.0979],[-2.85594,7.77157,310.173],[-2.85207,7.77813,330.8059],[-2.84202,7.79027,329.3742],[-2.83817,7.79684,329.8197],[-2.83791,7.80226,316.7078],[-2.84083,7.81523,303.4064],[-2.84,7.82025,303.6218],[-2.8314,7.82836,307.2408],[-2.80915,7.84169,343.6559],[-2.80119,7.85022,364.4579],[-2.79789,7.86128,333.0452],[-2.79355,7.93595,340.5544],[-2.79063,7.94329,362.1375],[-2.78435,7.94401,360.873],[-2.77768,7.93962,332.6169],[-2.77262,7.93394,331.2926],[-2.77122,7.93073,338.73],[-2.75489,7.94437,323.9771],[-2.70926,7.99672,323.8951],[-2.69086,8.00974,304.8092],[-2.63118,8.02959,322.3787],[-2.61056,8.04,376.9395],[-2.60069,8.05295,350.3734],[-2.59976,8.07039,322.0142],[-2.60622,8.09431,325.028],[-2.61945,8.1231,292.4194],[-2.62188,8.13573,271.3515],[-2.61764,8.15149,285.5298],[-2.61066,8.16485,270.6367],[-2.60425,8.17079,289.2477],[-2.59599,8.17028,292.6259],[-2.58327,8.16433,295.0904],[-2.57175,8.16312,269.3214],[-2.55811,8.16769,272.7403],[-2.5132,8.19402,256.4349],[-2.50633,8.20927,259.3493],[-2.55235,8.48937,251.543],[-2.59836,8.76947,221.8206],[-2.60312,8.78515,198.7107],[-2.61216,8.78096,193.636],[-2.61238,8.78132,193.465],[-2.61723,8.78918,199.583],[-2.61464,8.80192,204.4073],[-2.60725,8.80856,204.5136],[-2.59666,8.8144,205.4217],[-2.59557,8.82807,199.55],[-2.61593,8.89783,208.3709],[-2.61717,8.91501,197.1802],[-2.61945,8.92362,195.8133],[-2.62503,8.92599,194.4057],[-2.63175,8.92698,204.846],[-2.63769,8.93147,207.6255],[-2.6533,8.97839,204.4524],[-2.65433,8.99883,198.6157],[-2.66079,9.0149,201.733],[-2.68606,9.02826,203.1767],[-2.71133,9.03389,209.1835],[-2.73696,9.03513,207.5595],[-2.75081,9.03741,204.4354],[-2.75866,9.04286,220.9055],[-2.76507,9.04947,219.2027],[-2.77484,9.05498,206.7232],[-2.76543,9.06911,207.5124],[-2.7613,9.0848,209.7041],[-2.75939,9.13482,210.3352],[-2.7552,9.14314,210.2337],[-2.73391,9.16484,212.2142],[-2.7165,9.20027,209.7824],[-2.70482,9.2184,209.6788],[-2.67309,9.23489,206.3345],[-2.66115,9.25391,211.2531],[-2.65981,9.2729,217.906],[-2.67552,9.2815,213.2768],[-2.69298,9.28533,208.9021],[-2.70714,9.29564,219.4191],[-2.715,9.31106,218.0735],[-2.71334,9.32992,214.2287],[-2.70306,9.34326,215.9178],[-2.68942,9.34953,216.4673],[-2.67753,9.357,216.5078],[-2.67242,9.37403,216.6759],[-2.67242,9.401,217.4082],[-2.67738,9.41777,218.9126],[-2.67867,9.42555,217.2998],[-2.67459,9.45749,247.3352],[-2.67567,9.47172,223.32],[-2.68921,9.48872,216.8985],[-2.72048,9.45922,244.6883],[-2.74492,9.40811,254.6761],[-2.76368,9.39188,277.5101],[-2.7876,9.39372,260.9569],[-2.81042,9.41111,323.4496],[-2.91015,9.54273,286.7953],[-2.95989,9.63861,326.5279],[-2.97782,9.68517,319.885],[-2.98999,9.70843,323.2081],[-3.00568,9.72416,336.8175],[-3.02464,9.72861,316.9565],[-3.05906,9.71856,319.2471],[-3.07709,9.71941,292.567],[-3.09456,9.73385,279.7923],[-3.10438,9.75713,302.0572],[-3.11691,9.80529,324.8136],[-3.13694,9.82953,342.8624],[-3.16011,9.8347,326.3028],[-3.18257,9.83516,342.7055],[-3.20001,9.84537,326.0408],[-3.2044,9.86537,313.5991],[-3.20223,9.88896,316.333],[-3.20256,9.90823,285.369],[-3.21476,9.91562,282.4423],[-3.23024,9.90472,291.9535],[-3.26406,9.85707,282.2411],[-3.27786,9.84346,296.1123],[-3.30173,9.84113,314.5846],[-3.31181,9.85413,284.5497],[-3.31357,9.87457,311.2729],[-3.31274,9.89451,331.3916],[-3.31718,9.90133,320.0623],[-3.32752,9.8973,319.3182],[-3.33925,9.8901,335.9867],[-3.34834,9.88699,338.1029],[-3.35902,9.8925,341.4889],[-3.37656,9.90849,331.9],[-3.38917,9.91325,357.4232],[-3.54647,9.92614,389.9151],[-3.60626,9.91818,339.7056]]]}
,"properties": {"ISO3166-1-Alpha-3": "CIV","country": "Ivory Coast","fill": "#000","name": "Zanzan","area_km2": 38000.0,"hist_schema_id": "Elevation0-9000","hist_area_km2": {"150": 277.63,"175": 1107.39,"200": 2752.83,"225": 4547.15,"250": 5420.45,"275": 5342.68,"300": 5254.2,"325": 4917.79,"350": 3924.58,"375": 2288.5,"400": 1166.0,"425": 491.83,"450": 172.95,"475": 100.16,"500": 69.4,"525": 47.7,"550": 33.43,"575": 24.52,"600": 17.86,"625": 13.77,"650": 9.51,"675": 8.02,"700": 7.12,"725": 4.53}}}