{"type": "Feature","bbox": [-4.3114,7.0626,-2.4949,9.9571],"geometry": {"type": "MultiPolygon","coordinates": [[[[-2.8735,7.7189,349.2821],[-2.8693,7.7323,299.5308],[-2.8506,7.7619,342.4809],[-2.8486,7.7802,336.4331],[-2.8352,7.7936,349.4802],[-2.8261,7.8057,334.9637],[-2.8304,7.8205,286.6523],[-2.8251,7.8244,286.4109],[-2.8291,7.8337,294.729],[-2.8292,7.8427,291.7617],[-2.8329,7.8486,295.2161],[-2.8252,7.8682,298.219],[-2.8217,7.8949,328.815],[-2.8221,7.9124,320.747],[-2.8103,7.9385,362.4898],[-2.81,7.9595,372.5909],[-2.8086,7.9656,458.5644],[-2.8037,7.9724,396.1327],[-2.7931,7.9837,331.4152],[-2.7717,7.9971,351.3109],[-2.7516,8.0018,350.8256],[-2.7127,8.0172,339.3589],[-2.6956,8.0298,309.8781],[-2.6921,8.0296,321.9709],[-2.662,8.0421,337.3122],[-2.6527,8.0422,354.9591],[-2.6367,8.0547,320.5698],[-2.6314,8.0532,323.9861],[-2.6362,8.0671,323.0465],[-2.6341,8.0913,297.68],[-2.6299,8.1151,275.652],[-2.625,8.125,270.4728],[-2.6225,8.1265,274.1291],[-2.621,8.1312,265.8718],[-2.6148,8.1376,266.2091],[-2.6085,8.1519,258.7228],[-2.6018,8.1536,261.7604],[-2.5913,8.1515,255.4218],[-2.5899,8.1524,258.0605],[-2.5875,8.1498,255.4337],[-2.5851,8.1505,257.3929],[-2.5762,8.1448,252.598],[-2.5697,8.1455,250.598],[-2.5654,8.1493,248.8618],[-2.5614,8.1473,247.3402],[-2.5597,8.1434,247.651],[-2.5582,8.1462,246.8633],[-2.5554,8.1469,245.3651],[-2.5448,8.1757,279.4157],[-2.5179,8.1908,263.9494],[-2.509,8.1934,272.843],[-2.4949,8.2052,256.2722],[-2.4977,8.2448,304.2874],[-2.5,8.2565,304.6902],[-2.5014,8.3074,283.587],[-2.5044,8.334,305.2288],[-2.5164,8.3831,238.8592],[-2.5175,8.4017,227.0714],[-2.5244,8.4406,217.8188],[-2.533,8.4809,234.8058],[-2.5396,8.5005,238.35],[-2.549,8.5423,225.122],[-2.5621,8.6149,242.5673],[-2.5626,8.6289,254.7161],[-2.5671,8.6596,242.6318],[-2.5739,8.6909,259.6284],[-2.5734,8.7006,254.4217],[-2.5872,8.7786,199.8163],[-2.5937,8.7883,194.0643],[-2.6174,8.787,196.1082],[-2.629,8.7946,193.1151],[-2.6217,8.8071,195.8699],[-2.5989,8.8215,193.1598],[-2.5963,8.8263,194.6817],[-2.5965,8.8319,194.2472],[-2.601,8.8407,193.7338],[-2.6004,8.8429,197.174],[-2.6035,8.8439,196.983],[-2.6073,8.8478,192.3356],[-2.6175,8.8699,194.4492],[-2.6229,8.878,194.6842],[-2.6213,8.8916,198.4336],[-2.6159,8.9115,213.3224],[-2.6181,8.9219,196.6338],[-2.627,8.9297,200.0705],[-2.6448,8.936,197.9783],[-2.6513,8.944,200.8378],[-2.6578,8.9837,195.7541],[-2.6541,9.0074,197.4357],[-2.6597,9.0069,206.4368],[-2.6614,9.0127,203.4228],[-2.6645,9.0163,203.9404],[-2.6727,9.0202,203.752],[-2.6862,9.0185,203.2052],[-2.6886,9.016,206.7522],[-2.6887,9.0188,204.6371],[-2.6942,9.0191,202.1312],[-2.7018,9.0153,205.1711],[-2.7035,9.0162,207.0572],[-2.7024,9.0196,204.3464],[-2.705,9.021,203.5796],[-2.7155,9.0174,206.9979],[-2.72,9.0121,209.1396],[-2.7198,9.017,206.2091],[-2.714,9.0218,206.2078],[-2.7141,9.0242,206.6183],[-2.7275,9.0273,206.3939],[-2.7605,9.0256,205.9373],[-2.7721,9.0327,208.3318],[-2.7736,9.0448,208.8158],[-2.7792,9.0518,210.2959],[-2.7794,9.0504,209.1831],[-2.7808,9.0507,210.2959],[-2.78,9.0529,211.9665],[-2.7812,9.055,211.3254],[-2.782,9.0531,209.451],[-2.7827,9.0548,211.3254],[-2.7819,9.0563,210.4641],[-2.7835,9.0609,207.0894],[-2.7819,9.0649,209.4287],[-2.769,9.0789,209.412],[-2.7656,9.0879,209.8195],[-2.7677,9.1131,209.8258],[-2.7711,9.1148,206.888],[-2.7676,9.1149,210.9286],[-2.7686,9.1204,207.676],[-2.7724,9.1275,207.6352],[-2.7746,9.1373,204.028],[-2.7791,9.1373,209.4701],[-2.776,9.1383,208.5873],[-2.7746,9.1377,204.028],[-2.7741,9.1424,211.2286],[-2.7719,9.1455,207.4349],[-2.7636,9.151,205.2729],[-2.7486,9.1552,210.5099],[-2.7503,9.1579,209.5788],[-2.7472,9.1557,208.003],[-2.7429,9.1561,208.4138],[-2.7369,9.1595,208.8363],[-2.7323,9.1654,210.2462],[-2.7226,9.1865,209.8744],[-2.7211,9.1932,212.6429],[-2.7223,9.1926,209.9633],[-2.7228,9.1958,208.3315],[-2.7255,9.1958,210.5819],[-2.7236,9.197,209.3901],[-2.7242,9.2002,209.0519],[-2.7204,9.195,212.4723],[-2.718,9.2015,208.3227],[-2.7188,9.2028,210.7967],[-2.7168,9.2034,205.4275],[-2.7161,9.2067,210.3747],[-2.7137,9.2081,210.2386],[-2.7143,9.2095,210.72],[-2.6979,9.218,205.3989],[-2.6921,9.2262,206.107],[-2.6619,9.2401,211.6148],[-2.6566,9.2556,211.5531],[-2.6767,9.2803,213.8479],[-2.6849,9.287,208.3743],[-2.6932,9.2844,208.9021],[-2.7011,9.2857,208.5923],[-2.7106,9.2912,210.7082],[-2.7175,9.3001,212.4203],[-2.7182,9.3066,208.1697],[-2.7213,9.3129,214.2085],[-2.7214,9.3255,217.6336],[-2.7195,9.3347,209.6212],[-2.7112,9.3389,216.0],[-2.7031,9.3393,209.2221],[-2.6946,9.3512,214.864],[-2.6811,9.3613,208.8934],[-2.6752,9.3763,211.5269],[-2.6736,9.3874,211.1267],[-2.6772,9.4071,212.408],[-2.6862,9.4241,215.0533],[-2.6886,9.4325,216.5074],[-2.6901,9.4524,211.9198],[-2.6845,9.4745,210.6782],[-2.6838,9.4839,214.4119],[-2.6871,9.4914,215.4178],[-2.7072,9.4748,245.7102],[-2.7248,9.451,229.1017],[-2.7313,9.4396,238.9321],[-2.7359,9.4366,239.6561],[-2.7534,9.4096,263.2019],[-2.7632,9.4011,281.77],[-2.7711,9.4021,298.1259],[-2.7872,9.4098,288.1731],[-2.7987,9.4193,301.8823],[-2.8472,9.4709,340.2799],[-2.8687,9.4901,332.2154],[-2.9012,9.531,268.8117],[-2.9255,9.5737,253.8133],[-2.9424,9.6086,281.4404],[-2.9661,9.6467,311.6411],[-2.9775,9.672,338.0132],[-2.9847,9.6946,323.6857],[-2.9952,9.7197,325.9051],[-3.0067,9.7374,323.1726],[-3.0128,9.743,303.5717],[-3.0172,9.7433,297.2507],[-3.0483,9.7188,295.3413],[-3.0601,9.7195,311.4399],[-3.0662,9.7233,314.986],[-3.0878,9.758,316.1456],[-3.0916,9.7611,320.5424],[-3.0943,9.7712,333.0635],[-3.095,9.7909,287.7975],[-3.1005,9.8012,310.2457],[-3.1081,9.8093,318.2975],[-3.1151,9.8229,325.5072],[-3.1206,9.8396,326.1224],[-3.1255,9.8446,333.9813],[-3.1372,9.8482,309.4958],[-3.1651,9.8424,322.9742],[-3.1842,9.8429,330.8286],[-3.187,9.8449,324.2598],[-3.1944,9.8567,325.8084],[-3.1943,9.896,291.7423],[-3.1924,9.9149,275.4842],[-3.1955,9.9275,276.2591],[-3.2013,9.9274,266.1501],[-3.2041,9.9247,271.74],[-3.2094,9.9244,285.2647],[-3.2143,9.9209,287.7356],[-3.2162,9.9087,279.613],[-3.225,9.8991,272.5489],[-3.2357,9.8975,272.8842],[-3.2398,9.8952,284.1679],[-3.2527,9.8763,291.7601],[-3.2625,9.8717,291.5803],[-3.2789,9.853,281.34],[-3.2812,9.8516,291.4477],[-3.2889,9.8565,283.642],[-3.296,9.8532,283.2981],[-3.3119,9.8533,286.5725],[-3.3185,9.8591,296.3028],[-3.3198,9.8653,297.3586],[-3.3116,9.8811,325.129],[-3.3101,9.8883,332.3044],[-3.3107,9.8949,327.2758],[-3.3153,9.9015,317.5573],[-3.3204,9.9023,312.6818],[-3.3433,9.8906,323.8019],[-3.3496,9.8911,331.6222],[-3.3567,9.8986,328.3652],[-3.3668,9.9041,327.1624],[-3.3972,9.9165,359.5642],[-3.4047,9.9161,368.9994],[-3.4208,9.9114,351.6876],[-3.4698,9.9251,386.5784],[-3.492,9.923,405.7297],[-3.5039,9.9248,464.1442],[-3.5234,9.9244,477.7982],[-3.5494,9.9263,379.3213],[-3.5686,9.9254,360.6871],[-3.5797,9.9222,387.2786],[-3.5993,9.9197,352.8737],[-3.6323,9.9527,338.5986],[-3.6417,9.9571,345.2174],[-3.6486,9.9556,338.5358],[-3.6738,9.9401,355.614],[-3.6809,9.9392,343.3034],[-3.7086,9.9425,339.8874],[-3.7116,9.9399,322.2249],[-3.7269,9.9391,338.6561],[-3.752,9.9316,361.4858],[-3.7724,9.9229,356.2955],[-3.7886,9.912,330.2229],[-3.8092,9.8883,324.7376],[-3.9004,9.9006,310.4578],[-3.9048,9.893,308.3843],[-3.9187,9.8789,318.939],[-3.9284,9.8794,303.8123],[-3.937,9.8714,320.1497],[-3.9449,9.8724,309.2693],[-3.9581,9.8702,314.5782],[-3.9619,9.8734,303.5153],[-3.9644,9.8733,302.0747],[-3.969,9.8695,294.2214],[-3.9729,9.8695,312.4594],[-3.9745,9.8667,309.3745],[-3.9737,9.8628,307.1804],[-3.9781,9.8523,305.9543],[-3.9728,9.8435,290.9267],[-3.9753,9.8386,297.9881],[-3.981,9.833,280.5992],[-3.9876,9.8296,275.3367],[-3.9932,9.8293,270.015],[-4.0002,9.8314,273.667],[-4.0086,9.8365,269.3723],[-4.0171,9.8338,277.9898],[-4.0306,9.8342,264.7893],[-4.0356,9.8306,264.7214],[-4.0445,9.8184,277.2409],[-4.0429,9.8016,278.3631],[-4.0635,9.7991,282.6906],[-4.0663,9.8015,283.3356],[-4.0789,9.8045,283.7189],[-4.0921,9.814,289.2164],[-4.1092,9.821,308.5181],[-4.1234,9.8317,311.7006],[-4.1301,9.8319,305.4562],[-4.1354,9.8295,317.8207],[-4.1408,9.8227,313.3742],[-4.1452,9.812,307.5627],[-4.1671,9.7973,302.3839],[-4.1732,9.7826,308.547],[-4.1804,9.7753,308.3128],[-4.2091,9.762,296.1361],[-4.2276,9.762,265.8381],[-4.2353,9.7544,259.7301],[-4.2524,9.7535,242.9563],[-4.2588,9.7561,229.8691],[-4.2636,9.7546,235.8765],[-4.2688,9.7582,232.2434],[-4.2711,9.757,236.8672],[-4.2777,9.7396,236.2502],[-4.2767,9.7373,231.9508],[-4.2672,9.7373,231.196],[-4.2655,9.736,228.6964],[-4.2657,9.7336,231.9478],[-4.2713,9.725,234.1457],[-4.27,9.7198,231.8296],[-4.271,9.7138,228.7126],[-4.2756,9.7086,234.3218],[-4.2751,9.7006,228.1952],[-4.2795,9.6989,233.6153],[-4.2844,9.6912,235.9733],[-4.2801,9.6839,228.7626],[-4.2838,9.676,223.2438],[-4.2895,9.6692,234.806],[-4.2872,9.6626,223.8485],[-4.2896,9.6554,223.3782],[-4.2888,9.6499,223.6429],[-4.2909,9.6379,225.2695],[-4.3004,9.6221,219.0216],[-4.3114,9.6086,219.968],[-4.2716,9.551,216.7939],[-4.2591,9.5438,215.2546],[-4.2493,9.5347,214.0266],[-4.2449,9.5232,222.7704],[-4.2456,9.5132,221.0888],[-4.2491,9.5,215.5271],[-4.2476,9.491,215.9622],[-4.2411,9.4856,217.2616],[-4.2386,9.4753,212.085],[-4.2233,9.4659,215.5924],[-4.2145,9.4581,211.6378],[-4.2021,9.4549,220.6186],[-4.1964,9.4457,220.8786],[-4.1997,9.4204,214.5092],[-4.2024,9.4116,218.0108],[-4.1972,9.4038,215.2599],[-4.187,9.4019,209.5109],[-4.1806,9.3954,217.0276],[-4.1837,9.3837,217.1631],[-4.1897,9.3761,218.4886],[-4.189,9.364,213.7901],[-4.1919,9.3547,223.6365],[-4.1984,9.3462,225.312],[-4.2096,9.3428,215.6117],[-4.21,9.3375,215.3042],[-4.1782,9.298,213.5301],[-4.1726,9.2796,209.4972],[-4.1797,9.2725,211.5046],[-4.193,9.267,212.7031],[-4.1978,9.2584,213.4327],[-4.1949,9.2488,209.2634],[-4.1811,9.2406,216.2269],[-4.1708,9.2286,208.4762],[-4.1682,9.23,212.9813],[-4.1647,9.2382,210.0913],[-4.154,9.2478,211.0276],[-4.1424,9.252,206.4946],[-4.134,9.2607,209.0103],[-4.128,9.2611,207.534],[-4.1086,9.2577,207.4709],[-4.0932,9.2602,207.7765],[-4.0818,9.2584,204.6608],[-4.0773,9.2485,212.099],[-4.0687,9.2427,208.8458],[-4.0588,9.2411,209.769],[-4.0454,9.2224,207.7555],[-4.0379,9.2159,208.7909],[-4.0315,9.2201,209.0799],[-4.0201,9.2181,207.6166],[-4.0138,9.2145,212.5092],[-4.0089,9.2086,203.2662],[-3.9871,9.2116,204.0458],[-3.9605,9.2084,203.9822],[-3.9527,9.1894,204.0526],[-3.9445,9.1821,206.5545],[-3.9343,9.1759,202.3632],[-3.913,9.1766,206.4396],[-3.8964,9.1806,201.8649],[-3.8884,9.1739,201.5989],[-3.8907,9.1693,205.3267],[-3.9104,9.1507,205.6692],[-3.9121,9.1428,202.8471],[-3.9098,9.1246,204.4769],[-3.9055,9.1149,200.5059],[-3.8935,9.1127,201.083],[-3.8842,9.1144,202.4308],[-3.8788,9.1187,201.9588],[-3.8762,9.1262,200.0544],[-3.8727,9.1285,200.7776],[-3.8558,9.1282,200.2335],[-3.8473,9.1207,211.9188],[-3.8516,9.1126,202.6576],[-3.8472,9.0968,201.0666],[-3.8489,9.0859,200.6918],[-3.8538,9.0782,214.0761],[-3.8601,9.0785,224.3186],[-3.8669,9.0842,201.8357],[-3.8734,9.0946,200.3924],[-3.8818,9.1032,199.9253],[-3.8899,9.0957,199.0872],[-3.8893,9.0707,199.816],[-3.8952,9.0657,206.3585],[-3.9049,9.0631,201.3352],[-3.8929,9.0564,199.6758],[-3.8874,9.0586,196.5071],[-3.8807,9.0579,201.2724],[-3.8739,9.0498,212.5556],[-3.8559,9.0342,199.0584],[-3.8347,9.0317,197.2569],[-3.8207,9.0265,196.2772],[-3.8099,9.0203,198.3377],[-3.8028,9.0135,220.111],[-3.8003,9.0034,196.7274],[-3.8071,8.9954,214.735],[-3.8238,8.9867,195.5041],[-3.834,8.9791,195.8477],[-3.8422,8.9786,193.3109],[-3.8508,8.9743,196.5993],[-3.8707,8.9538,203.438],[-3.8909,8.9625,200.1757],[-3.8961,8.9589,199.4561],[-3.8887,8.9481,193.0848],[-3.886,8.9348,195.8456],[-3.8797,8.9271,191.8091],[-3.8509,8.9168,195.2894],[-3.8448,8.9069,197.0221],[-3.8441,8.8928,206.4535],[-3.8418,8.886,194.5093],[-3.832,8.884,191.6435],[-3.8231,8.8771,197.6373],[-3.818,8.8683,196.7747],[-3.8057,8.8547,200.0404],[-3.8117,8.8493,202.4673],[-3.8251,8.8476,195.7112],[-3.8308,8.8439,193.0057],[-3.8243,8.8317,197.9394],[-3.8178,8.8383,189.8133],[-3.8041,8.8344,197.865],[-3.7933,8.8259,198.2126],[-3.7896,8.8126,200.7217],[-3.7784,8.7925,190.122],[-3.7757,8.783,189.6597],[-3.7779,8.7729,194.5203],[-3.7881,8.7675,196.839],[-3.8003,8.7675,219.9211],[-3.8048,8.7725,219.4273],[-3.8054,8.7799,194.5743],[-3.8135,8.7821,206.0209],[-3.8246,8.7781,195.9555],[-3.8255,8.7667,189.2124],[-3.8181,8.7598,193.9427],[-3.817,8.7502,187.9812],[-3.8221,8.7415,197.2207],[-3.8434,8.7281,200.6728],[-3.8539,8.7268,199.6239],[-3.859,8.7305,198.6824],[-3.8704,8.7278,190.9131],[-3.8684,8.7129,195.8308],[-3.8643,8.707,186.8586],[-3.8567,8.7061,190.9681],[-3.8506,8.7017,192.6686],[-3.8496,8.6942,196.7004],[-3.8846,8.693,192.6804],[-3.892,8.6864,185.5653],[-3.9015,8.6814,195.6101],[-3.9185,8.6844,194.1499],[-3.9252,8.6786,189.712],[-3.9299,8.6662,185.8176],[-3.9316,8.6342,193.2028],[-3.9289,8.6278,196.3691],[-3.9295,8.6213,183.1237],[-3.9186,8.6109,184.9375],[-3.9109,8.5905,184.7318],[-3.905,8.5842,187.7309],[-3.9034,8.5784,185.4131],[-3.9203,8.5715,195.2581],[-3.9257,8.5661,192.8692],[-3.9322,8.5632,195.6295],[-3.9359,8.5578,187.873],[-3.9428,8.552,184.9937],[-3.9526,8.549,179.6921],[-3.9655,8.5489,183.394],[-3.9721,8.5453,181.6926],[-3.9771,8.5396,188.4481],[-3.9806,8.5243,181.977],[-3.979,8.5166,179.9637],[-3.9746,8.5112,190.377],[-3.9663,8.5083,182.5461],[-3.9572,8.5097,187.9464],[-3.9502,8.5076,186.6702],[-3.9265,8.4957,180.489],[-3.9274,8.486,183.8689],[-3.9358,8.4709,187.3947],[-3.9363,8.4539,188.9425],[-3.9379,8.4479,181.6433],[-3.9561,8.4354,176.5826],[-3.9706,8.4314,177.7698],[-3.9761,8.4308,176.8996],[-3.9808,8.4342,180.2852],[-3.993,8.4347,180.0269],[-3.9956,8.4315,188.1017],[-3.9965,8.4243,187.7145],[-3.9927,8.4193,175.6562],[-3.99,8.4057,179.0513],[-3.9863,8.4005,187.5689],[-3.9732,8.4022,181.8617],[-3.9505,8.3987,178.5565],[-3.9484,8.3947,184.3721],[-3.9542,8.3795,178.382],[-3.9584,8.3762,177.1168],[-3.9736,8.3746,178.5197],[-3.9789,8.3726,176.1535],[-3.9823,8.3669,173.0126],[-3.9814,8.3631,181.783],[-3.9764,8.3581,182.5358],[-3.9739,8.3524,183.0497],[-3.9517,8.346,176.3957],[-3.9527,8.3388,177.581],[-3.9595,8.3249,176.2669],[-3.9612,8.3071,179.0234],[-3.9669,8.2972,179.2322],[-3.9706,8.2969,173.5979],[-3.9861,8.3021,182.999],[-4.0,8.3047,176.0307],[-4.0079,8.3082,181.5374],[-4.0163,8.3054,177.6677],[-4.0332,8.3086,174.5661],[-4.047,8.3072,172.6542],[-4.0551,8.2942,183.4736],[-4.0558,8.2879,177.1359],[-4.0463,8.2793,174.2734],[-4.0305,8.2607,179.5011],[-4.0113,8.2465,170.5298],[-4.0024,8.2334,181.3637],[-4.0023,8.2282,179.9255],[-4.0077,8.2194,177.3498],[-4.0212,8.2065,180.599],[-4.0294,8.1921,174.2133],[-4.0288,8.1851,206.4695],[-4.0249,8.1784,174.7748],[-4.0188,8.1733,183.1619],[-4.0076,8.1755,170.0915],[-3.9757,8.1661,170.0713],[-3.9755,8.1608,175.5148],[-3.9725,8.1551,172.6698],[-3.9578,8.1421,167.1726],[-3.9572,8.1367,176.1932],[-3.952,8.1345,175.0489],[-3.9464,8.129,166.7369],[-3.9458,8.1238,167.6859],[-3.9375,8.1236,169.7087],[-3.9284,8.1209,167.0825],[-3.9271,8.1138,167.0249],[-3.9296,8.1054,164.9735],[-3.9351,8.1039,165.5042],[-3.9512,8.1057,174.7465],[-3.9645,8.1098,171.9745],[-3.9867,8.1088,183.9147],[-3.9976,8.1003,165.1373],[-3.9992,8.0944,165.1163],[-3.9977,8.0897,165.2264],[-4.0005,8.0774,165.1006],[-4.005,8.0714,165.3209],[-4.0117,8.067,175.769],[-4.0135,8.0513,177.5234],[-4.0109,8.0463,173.0054],[-4.0015,8.0408,166.941],[-4.0008,8.0434,177.953],[-3.9963,8.0422,168.4524],[-3.9813,8.0322,168.9312],[-3.9684,8.032,171.7082],[-3.9654,8.0294,173.6353],[-3.9634,8.0182,191.2375],[-3.9646,8.0153,191.5889],[-3.9688,8.0123,192.9563],[-3.9752,8.0138,172.7897],[-3.9868,8.0135,170.4851],[-3.9898,8.0119,167.2043],[-4.0003,8.0011,166.0782],[-4.0082,7.9978,166.0704],[-4.0143,7.9907,177.8851],[-4.0164,7.9816,167.2573],[-4.0089,7.9572,162.8712],[-4.0052,7.9542,167.2155],[-4.0002,7.953,168.4622],[-3.9943,7.9562,173.7064],[-3.9809,7.9691,164.8358],[-3.9734,7.971,163.596],[-3.9614,7.9689,166.0782],[-3.9284,7.9779,167.1904],[-3.9242,7.975,166.897],[-3.9202,7.9654,160.9551],[-3.9203,7.9623,161.2236],[-3.9243,7.9553,162.9454],[-3.931,7.9482,158.2701],[-3.9406,7.9417,171.1415],[-3.944,7.9296,163.5254],[-3.9462,7.9276,162.6048],[-3.9584,7.9218,168.2981],[-3.9703,7.9191,163.1308],[-3.9741,7.9165,165.4379],[-3.9898,7.916,164.7933],[-3.9933,7.9119,166.2351],[-3.9939,7.9072,159.5925],[-3.9899,7.9025,168.6494],[-3.9868,7.9024,164.8373],[-3.9838,7.9,161.9012],[-3.9497,7.8937,162.3469],[-3.9357,7.8936,161.2403],[-3.921,7.8851,159.3484],[-3.9113,7.8829,160.2914],[-3.9035,7.8851,162.5957],[-3.8949,7.8848,161.1367],[-3.8805,7.8795,157.7434],[-3.8704,7.8652,158.3961],[-3.865,7.8603,157.9034],[-3.8634,7.8486,155.0411],[-3.8677,7.8416,158.4364],[-3.8759,7.8332,167.272],[-3.8784,7.824,166.3811],[-3.8776,7.82,157.2409],[-3.8741,7.8152,164.1268],[-3.8608,7.8069,154.8033],[-3.859,7.8023,153.8184],[-3.8623,7.7985,155.4009],[-3.8693,7.7831,152.8198],[-3.877,7.7764,159.1906],[-3.8776,7.7749,158.0498],[-3.874,7.7695,158.2293],[-3.8551,7.7696,160.0777],[-3.8449,7.7721,155.6656],[-3.8289,7.765,157.0551],[-3.8269,7.7627,156.2871],[-3.8282,7.7596,155.244],[-3.8333,7.7548,154.4993],[-3.8326,7.7468,154.5714],[-3.8296,7.7418,155.3425],[-3.8209,7.7375,157.4446],[-3.8037,7.7418,156.6035],[-3.788,7.7382,154.2312],[-3.7816,7.7349,155.8693],[-3.7615,7.7374,155.3644],[-3.7549,7.7319,163.1681],[-3.7424,7.7338,176.5411],[-3.7369,7.7401,152.7152],[-3.7325,7.736,149.8286],[-3.7285,7.7216,149.3141],[-3.7324,7.7139,157.2772],[-3.7308,7.7061,150.6003],[-3.7351,7.6888,152.165],[-3.7346,7.6772,155.1227],[-3.7315,7.6654,159.7571],[-3.7079,7.6481,158.499],[-3.6979,7.6479,147.7943],[-3.681,7.6399,148.5424],[-3.6837,7.6285,152.0544],[-3.6831,7.6252,154.0294],[-3.6667,7.6058,147.2307],[-3.6611,7.5883,153.4717],[-3.6562,7.5803,151.1475],[-3.6484,7.5757,146.3168],[-3.6422,7.5752,162.6823],[-3.6356,7.5773,146.9208],[-3.6167,7.5919,147.9078],[-3.6088,7.594,145.865],[-3.5966,7.5922,150.7848],[-3.5824,7.5824,155.4947],[-3.5791,7.577,146.2982],[-3.5748,7.5542,160.4759],[-3.5852,7.5416,161.1444],[-3.5919,7.5371,158.349],[-3.5993,7.5345,151.721],[-3.603,7.5278,155.0368],[-3.6033,7.5231,151.4659],[-3.6014,7.5199,160.5205],[-3.5923,7.5164,149.6155],[-3.5895,7.5109,147.4804],[-3.5837,7.5095,148.781],[-3.5749,7.5013,160.139],[-3.5586,7.496,149.0721],[-3.5399,7.4925,142.9485],[-3.5333,7.4789,143.7543],[-3.5317,7.4678,146.8128],[-3.5262,7.4591,147.5359],[-3.5137,7.4489,159.8494],[-3.5071,7.4398,143.8212],[-3.5021,7.4263,144.9277],[-3.5032,7.403,141.339],[-3.5049,7.3953,141.2532],[-3.5141,7.3886,142.1549],[-3.5222,7.3732,146.0204],[-3.5222,7.3642,145.3047],[-3.5178,7.3523,150.3548],[-3.5023,7.352,148.629],[-3.4963,7.3533,148.1499],[-3.4876,7.3477,149.3055],[-3.4786,7.3458,148.8116],[-3.479,7.3543,147.3458],[-3.4754,7.3546,147.2433],[-3.4724,7.3499,151.0689],[-3.469,7.3484,150.3676],[-3.4648,7.3529,149.5452],[-3.4616,7.35,147.6037],[-3.4602,7.3434,148.0268],[-3.4584,7.3424,148.6355],[-3.4555,7.3446,146.9862],[-3.4568,7.3517,149.1657],[-3.4527,7.3537,149.5982],[-3.4501,7.3492,149.3218],[-3.4478,7.3393,149.9724],[-3.4422,7.3421,151.708],[-3.4364,7.3405,150.1208],[-3.436,7.3353,148.2839],[-3.428,7.3259,144.7363],[-3.425,7.3188,162.7748],[-3.4207,7.3021,164.039],[-3.4209,7.2948,177.927],[-3.4123,7.2701,175.6587],[-3.3986,7.2466,186.4666],[-3.3916,7.2398,188.0582],[-3.3871,7.2403,212.9149],[-3.2985,7.2742,164.2807],[-3.2925,7.29,161.8605],[-3.2917,7.2976,157.8866],[-3.2955,7.3096,161.3189],[-3.2992,7.3155,161.6801],[-3.3079,7.3221,155.5545],[-3.3094,7.3252,153.5744],[-3.3076,7.3272,159.2348],[-3.2988,7.3298,162.9679],[-3.279,7.3319,166.7351],[-3.2724,7.3316,164.9826],[-3.263,7.3272,180.5292],[-3.2514,7.3259,170.6629],[-3.2465,7.3221,175.8762],[-3.2449,7.3185,186.3926],[-3.2405,7.2432,195.1102],[-3.236,7.2339,206.8617],[-3.2313,7.2288,221.9502],[-3.2209,7.2217,228.1854],[-3.2181,7.217,225.2913],[-3.2174,7.1887,211.9024],[-3.1914,7.1739,247.3868],[-3.1807,7.1734,231.5212],[-3.138,7.1414,263.9858],[-3.1357,7.1363,250.2512],[-3.1283,7.1288,243.2246],[-3.1134,7.1069,212.672],[-3.0752,7.0626,246.0659],[-3.0321,7.0717,235.2218],[-3.0236,7.1425,260.0125],[-2.9827,7.1947,267.4173],[-2.9534,7.2392,245.7386],[-2.9597,7.2509,264.2367],[-2.9782,7.2721,273.7089],[-2.9696,7.3331,310.0078],[-2.9484,7.43,264.7946],[-2.9473,7.4565,239.2708],[-2.9347,7.4865,243.2682],[-2.9235,7.6086,236.1369],[-2.8735,7.7189,349.2821]]]]}
,"properties": {"GID_1": "CIV.14_1","GID_0": "CIV","country": "Côted'Ivoire","province": "Zanzan","VARNAME_1": "NA","NL_NAME_1": "NA","TYPE_1": "District","ENGTYPE_1": "District","CC_1": "NA","HASC_1": "CI.ZA","ISO_1": "CI-ZZ","name": "Zanzan.province","area_km2": 38028.5,"hist_schema_id": "Elevation0-9000","hist_area_km2": {"150": 297.27,"175": 1084.67,"200": 2634.54,"225": 4560.29,"250": 5490.29,"275": 5421.78,"300": 5286.66,"325": 4890.0,"350": 3906.87,"375": 2289.16,"400": 1166.14,"425": 491.81,"450": 173.03,"475": 100.12,"500": 69.35,"525": 47.66,"550": 33.33,"575": 24.61,"600": 17.96,"625": 13.77,"650": 9.51,"675": 8.02,"700": 7.12,"725": 4.53}}}