{"type":"Feature","properties":{"GID_3":"CIV.14.2.2_1","GID_0":"CIV","country":"Côted'Ivoire","GID_1":"CIV.14_1","province":"Zanzan","NL_NAME_1":"NA","GID_2":"CIV.14.2_1","county":"Gontougo","NL_NAME_2":"NA","city":"Koun-Fao","VARNAME_3":"NA","NL_NAME_3":"NA","TYPE_3":"Département","ENGTYPE_3":"Department","CC_3":"NA","HASC_3":"NA","name":"Koun-Fao.city"},
"geometry":{"type": "MultiPolygon","coordinates": [[[[-3.3414,7.6562,181.8911],[-3.3782,7.6669,205.7905],[-3.452,7.7017,198.9571],[-3.4484,7.7066,200.0285],[-3.4311,7.7459,209.0078],[-3.4234,7.7592,225.141],[-3.4215,7.7645,212.4572],[-3.4203,7.7861,199.869],[-3.4095,7.8062,231.8874],[-3.402,7.8272,235.3398],[-3.4002,7.8368,230.5349],[-3.4004,7.8479,242.6509],[-3.4022,7.851,246.4403],[-3.4088,7.853,244.474],[-3.4184,7.8648,241.0289],[-3.4202,7.8694,222.7273],[-3.4195,7.8748,216.7753],[-3.4255,7.8849,203.9666],[-3.4273,7.8933,196.6306],[-3.4379,7.8952,201.4044],[-3.4429,7.8928,193.6282],[-3.4469,7.8959,190.2742],[-3.4501,7.8893,185.3115],[-3.4556,7.8837,187.2807],[-3.4702,7.8801,192.104],[-3.4762,7.8738,183.2506],[-3.4801,7.8741,182.3529],[-3.4812,7.876,181.379],[-3.4838,7.8756,180.9847],[-3.4908,7.8698,188.8166],[-3.502,7.8691,187.7606],[-3.5128,7.8728,183.8385],[-3.5219,7.8708,179.6412],[-3.5256,7.8718,180.3255],[-3.5269,7.8751,177.458],[-3.5254,7.8778,183.2593],[-3.5265,7.8835,184.9277],[-3.5273,7.886,182.2772],[-3.5304,7.8875,189.0448],[-3.5645,7.8896,197.8046],[-3.5747,7.8871,189.1887],[-3.581,7.8881,185.139],[-3.5833,7.892,188.5319],[-3.5884,7.8955,184.5165],[-3.5891,7.9043,179.9272],[-3.5946,7.915,179.7625],[-3.5946,7.9213,183.8627],[-3.6018,7.9285,183.794],[-3.603,7.9318,186.6601],[-3.6006,7.9397,190.8376],[-3.6052,7.943,188.6043],[-3.6097,7.9493,184.1727],[-3.6246,7.9584,185.8163],[-3.627,7.9576,185.3843],[-3.633,7.9623,190.4826],[-3.6387,7.9622,190.8369],[-3.6447,7.9489,190.9378],[-3.6474,7.9469,192.3926],[-3.6707,7.9437,203.4961],[-3.6998,7.9434,216.5539],[-3.7198,7.9386,248.3324],[-3.7231,7.9364,237.3578],[-3.7291,7.922,265.1008],[-3.7354,7.9163,250.543],[-3.7598,7.9023,227.9543],[-3.7871,7.8932,202.8846],[-3.7914,7.8907,196.1168],[-3.7949,7.8838,194.5383],[-3.8083,7.8771,187.5307],[-3.813,7.8769,187.3261],[-3.8145,7.8718,182.576],[-3.812,7.8687,186.8094],[-3.811,7.8637,189.292],[-3.8188,7.8549,176.0893],[-3.8227,7.8438,181.4151],[-3.8356,7.8232,173.269],[-3.8468,7.8115,164.8703],[-3.8488,7.7982,162.888],[-3.8522,7.7952,161.2999],[-3.8616,7.7951,158.6033],[-3.8645,7.7925,156.8913],[-3.8693,7.7831,152.8198],[-3.8776,7.7749,158.0498],[-3.874,7.7695,158.2293],[-3.8551,7.7696,160.0777],[-3.8449,7.7721,155.6656],[-3.8289,7.765,157.0551],[-3.8269,7.7627,156.2871],[-3.8282,7.7596,155.244],[-3.8333,7.7548,154.4993],[-3.8326,7.7468,154.5714],[-3.8296,7.7418,155.3425],[-3.8209,7.7375,157.4446],[-3.8037,7.7418,156.6035],[-3.788,7.7382,154.2312],[-3.7816,7.7349,155.8693],[-3.7615,7.7374,155.3644],[-3.7549,7.7319,163.1681],[-3.7424,7.7338,176.5411],[-3.7369,7.7401,152.7152],[-3.7325,7.736,149.8286],[-3.7285,7.7216,149.3141],[-3.7324,7.7139,157.2772],[-3.7308,7.7061,150.6003],[-3.7351,7.6888,152.165],[-3.7346,7.6772,155.1227],[-3.7315,7.6654,159.7571],[-3.7079,7.6481,158.499],[-3.6979,7.6479,147.7943],[-3.681,7.6399,148.5424],[-3.6837,7.6285,152.0544],[-3.6831,7.6252,154.0294],[-3.6667,7.6058,147.2307],[-3.6611,7.5883,153.4717],[-3.6562,7.5803,151.1475],[-3.6484,7.5757,146.3168],[-3.6422,7.5752,162.6823],[-3.6356,7.5773,146.9208],[-3.6167,7.5919,147.9078],[-3.6088,7.594,145.865],[-3.5966,7.5922,150.7848],[-3.5824,7.5824,155.4947],[-3.5791,7.577,146.2982],[-3.5748,7.5542,160.4759],[-3.5852,7.5416,161.1444],[-3.5919,7.5371,158.349],[-3.5993,7.5345,151.721],[-3.603,7.5278,155.0368],[-3.6033,7.5231,151.4659],[-3.6014,7.5199,160.5205],[-3.5923,7.5164,149.6155],[-3.5895,7.5109,147.4804],[-3.5837,7.5095,148.781],[-3.5749,7.5013,160.139],[-3.5586,7.496,149.0721],[-3.5399,7.4925,142.9485],[-3.5333,7.4789,143.7543],[-3.5317,7.4678,146.8128],[-3.5262,7.4591,147.5359],[-3.5137,7.4489,159.8494],[-3.5071,7.4398,143.8212],[-3.5021,7.4263,144.9277],[-3.5032,7.403,141.339],[-3.5049,7.3953,141.2532],[-3.5141,7.3886,142.1549],[-3.5222,7.3732,146.0204],[-3.5222,7.3642,145.3047],[-3.5178,7.3523,150.3548],[-3.5023,7.352,148.629],[-3.4963,7.3533,148.1499],[-3.4876,7.3477,149.3055],[-3.4786,7.3458,148.8116],[-3.479,7.3543,147.3458],[-3.4754,7.3546,147.2433],[-3.4724,7.3499,151.0689],[-3.469,7.3484,150.3676],[-3.4648,7.3529,149.5452],[-3.4616,7.35,147.6037],[-3.4602,7.3434,148.0268],[-3.4584,7.3424,148.6355],[-3.4555,7.3446,146.9862],[-3.4568,7.3517,149.1657],[-3.4527,7.3537,149.5982],[-3.4501,7.3492,149.3218],[-3.4478,7.3393,149.9724],[-3.4422,7.3421,151.708],[-3.4364,7.3405,150.1208],[-3.436,7.3353,148.2839],[-3.428,7.3259,144.7363],[-3.425,7.3188,162.7748],[-3.4207,7.3021,164.039],[-3.4209,7.2948,177.927],[-3.4123,7.2701,175.6587],[-3.403,7.2532,193.026],[-3.3934,7.2404,187.0973],[-3.3871,7.2403,212.9149],[-3.2985,7.2742,164.2807],[-3.2925,7.29,161.8605],[-3.2917,7.2976,157.8866],[-3.2955,7.3096,161.3189],[-3.2992,7.3155,161.6801],[-3.3079,7.3221,155.5545],[-3.3094,7.3252,153.5744],[-3.3076,7.3272,159.2348],[-3.2988,7.3298,162.9679],[-3.279,7.3319,166.7351],[-3.2724,7.3316,164.9826],[-3.263,7.3272,180.5292],[-3.2514,7.3259,170.6629],[-3.2465,7.3221,175.8762],[-3.2449,7.3185,186.3926],[-3.2405,7.2432,195.1102],[-3.236,7.2339,206.8617],[-3.2313,7.2288,221.9502],[-3.2209,7.2217,228.1854],[-3.2181,7.217,225.2913],[-3.2174,7.1887,211.9024],[-3.1914,7.1739,247.3868],[-3.1807,7.1734,231.5212],[-3.138,7.1414,263.9858],[-3.1357,7.1363,250.2512],[-3.1283,7.1288,243.2246],[-3.1134,7.1069,212.672],[-3.0752,7.0626,246.0659],[-3.0321,7.0717,235.2218],[-3.0236,7.1425,260.0125],[-2.9827,7.1947,267.4173],[-2.9534,7.2392,245.7386],[-2.9597,7.2509,264.2367],[-2.9782,7.2721,273.7089],[-2.9699,7.3316,308.799],[-2.9856,7.3357,318.4114],[-2.9969,7.3462,287.6986],[-3.0101,7.3295,322.0586],[-3.0318,7.3184,312.9496],[-3.0369,7.3125,324.1516],[-3.0399,7.3111,336.3338],[-3.0483,7.3153,307.8199],[-3.0692,7.3465,271.4427],[-3.0723,7.3533,273.8168],[-3.0785,7.3786,250.5729],[-3.079,7.4,222.6696],[-3.0828,7.4183,212.6289],[-3.085,7.4232,211.8661],[-3.0949,7.4326,200.6138],[-3.0957,7.437,207.7893],[-3.0882,7.4407,217.686],[-3.0894,7.4497,218.5672],[-3.0864,7.4546,237.0336],[-3.0839,7.4641,250.1573],[-3.0852,7.4802,236.5168],[-3.0895,7.4914,217.024],[-3.0943,7.495,219.5073],[-3.1096,7.5226,181.4721],[-3.0908,7.5221,185.8508],[-3.0844,7.5241,184.6873],[-3.0711,7.5318,192.5168],[-3.0611,7.5346,205.6903],[-3.05,7.5426,195.3143],[-3.0289,7.5456,195.8292],[-3.0338,7.585,222.3543],[-3.0422,7.5843,207.6839],[-3.0458,7.5871,221.0482],[-3.0606,7.5878,244.175],[-3.0902,7.5829,207.5168],[-3.0901,7.5872,216.0948],[-3.0854,7.5982,208.1598],[-3.0866,7.6115,213.3034],[-3.0892,7.6179,224.4777],[-3.0899,7.6272,236.8911],[-3.0938,7.6341,246.1175],[-3.096,7.6438,232.8589],[-3.1141,7.6475,222.7588],[-3.1258,7.6463,221.385],[-3.1306,7.6481,213.5376],[-3.133,7.6511,228.6231],[-3.1348,7.6603,217.2829],[-3.1392,7.664,208.9761],[-3.1488,7.6651,205.3697],[-3.1525,7.6603,207.738],[-3.156,7.6605,206.6934],[-3.1624,7.6565,208.0549],[-3.1704,7.6584,202.65],[-3.1759,7.6566,202.2097],[-3.1763,7.6513,202.822],[-3.1786,7.6486,201.1733],[-3.1943,7.6479,211.8142],[-3.2082,7.6336,230.5517],[-3.2261,7.6205,214.0485],[-3.2311,7.6243,217.7481],[-3.2378,7.6333,208.4467],[-3.2374,7.6399,214.9915],[-3.2405,7.6571,203.6176],[-3.2572,7.6734,196.9292],[-3.2712,7.6725,199.6003],[-3.2716,7.6749,201.3308],[-3.2823,7.6705,195.4537],[-3.2868,7.672,194.2428],[-3.2898,7.6707,205.6304],[-3.2945,7.6738,192.9807],[-3.3038,7.674,196.4806],[-3.3113,7.6824,194.4099],[-3.3142,7.6757,197.4003],[-3.3189,7.6772,189.8449],[-3.33,7.6701,188.9434],[-3.3318,7.661,185.1762],[-3.3349,7.6574,187.7098],[-3.3414,7.6562,181.8911]]]]}}