{"type": "Feature","id": "3441","bbox": [-8.48545,6.58595,-6.98259,8.16707],"geometry": {"type": "Polygon","coordinates": [[[-7.20992,7.98863,345.2483],[-7.23948,7.99484,328.428],[-7.24847,8.01308,333.103],[-7.28226,8.06754,364.5494],[-7.28547,8.07165,375.2152],[-7.28929,8.07483,367.4802],[-7.32598,8.09834,408.5247],[-7.34283,8.1064,417.54],[-7.37781,8.11462,416.3321],[-7.38562,8.11759,413.7898],[-7.39099,8.12131,407.2889],[-7.39409,8.12534,415.7525],[-7.39895,8.13426,440.42],[-7.40288,8.13906,422.6212],[-7.40804,8.14421,412.9622],[-7.41864,8.15149,420.7614],[-7.43388,8.16475,395.7996],[-7.44101,8.16707,397.586],[-7.44969,8.16676,409.0219],[-7.45491,8.16374,389.4202],[-7.45879,8.1601,401.7897],[-7.46478,8.1525,396.6911],[-7.47166,8.14591,407.3709],[-7.48742,8.13426,414.6782],[-7.4946,8.1279,411.95],[-7.49744,8.12465,412.6703],[-7.49956,8.12155,419.0591],[-7.50313,8.11493,447.5522],[-7.51222,8.08103,472.7744],[-7.51357,8.05581,442.68],[-7.51264,8.04977,436.5786],[-7.51078,8.04465,439.367],[-7.50799,8.04062,427.4589],[-7.50199,8.03408,426.8136],[-7.50049,8.03168,435.2515],[-7.49992,8.02967,448.5565],[-7.50085,8.02788,460.0239],[-7.50551,8.02114,451.0106],[-7.50737,8.01649,429.6275],[-7.5083,8.01114,426.5439],[-7.50804,8.00571,439.8358],[-7.50711,8.00204,450.3567],[-7.50633,8.00018,431.6508],[-7.50003,7.98941,459.3907],[-7.49889,7.98639,456.7788],[-7.4977,7.98189,431.1669],[-7.49662,7.95083,410.0837],[-7.49538,7.94556,394.3873],[-7.49527,7.94021,382.1361],[-7.49688,7.93502,377.0013],[-7.50396,7.92921,369.5957],[-7.50912,7.9258,368.2339],[-7.51259,7.92246,365.0309],[-7.51326,7.91856,375.5093],[-7.51171,7.91438,384.9669],[-7.50974,7.91042,377.9889],[-7.50861,7.9067,393.4429],[-7.51062,7.9036,381.1154],[-7.51414,7.90143,375.3003],[-7.51724,7.89895,379.8083],[-7.52059,7.89531,378.6862],[-7.5237,7.89094,375.1648],[-7.52793,7.88613,379.8293],[-7.53424,7.88582,388.6875],[-7.53941,7.88404,380.3214],[-7.54364,7.88156,383.389],[-7.55336,7.87257,387.5038],[-7.56307,7.86681,385.1344],[-7.5701,7.8652,383.8035],[-7.57744,7.86474,406.9234],[-7.58602,7.86567,384.967],[-7.59491,7.86208,388.3135],[-7.60214,7.86146,387.9442],[-7.60664,7.86254,394.6047],[-7.60943,7.86691,421.1062],[-7.61155,7.87195,396.202],[-7.61511,7.87528,433.3301],[-7.61806,7.87513,413.298],[-7.62136,7.8721,405.5357],[-7.62467,7.86815,423.0203],[-7.62984,7.86427,409.7518],[-7.64079,7.8534,422.0072],[-7.65604,7.84534,404.0269],[-7.66312,7.84293,411.663],[-7.66849,7.84278,404.6852],[-7.67134,7.8458,403.7021],[-7.67418,7.84968,403.8618],[-7.67728,7.85293,405.1362],[-7.68131,7.85409,407.2245],[-7.68865,7.84665,424.1608],[-7.69268,7.8458,415.9632],[-7.69629,7.84774,408.7382],[-7.69914,7.85727,408.4771],[-7.70213,7.86161,415.9065],[-7.70777,7.8651,428.0934],[-7.712,7.86854,425.6408],[-7.71609,7.87381,432.838],[-7.72363,7.87939,439.0995],[-7.74053,7.88482,442.8449],[-7.7612,7.88815,439.6459],[-7.77148,7.89125,429.7467],[-7.7767,7.89554,429.191],[-7.77898,7.89996,430.0858],[-7.78704,7.91251,428.2073],[-7.79009,7.91631,429.6358],[-7.79737,7.92282,437.0616],[-7.79975,7.9275,431.004],[-7.80156,7.93277,439.9783],[-7.80399,7.93766,439.8425],[-7.80931,7.94052,431.127],[-7.8136,7.94362,430.6093],[-7.82099,7.95021,437.6942],[-7.82528,7.95303,435.4387],[-7.8305,7.95504,435.5974],[-7.83536,7.95791,431.2308],[-7.84233,7.95985,434.3],[-7.84595,7.96225,435.4896],[-7.84647,7.96621,436.4101],[-7.84466,7.97016,437.7101],[-7.84337,7.97435,435.6387],[-7.84435,7.97863,435.3879],[-7.85024,7.98592,434.0631],[-7.85236,7.99057,438.1653],[-7.8537,7.9953,452.7066],[-7.85551,7.99972,435.0745],[-7.85577,8.00018,435.0745],[-7.85582,8.00026,435.0745],[-7.85628,8.00049,433.9928],[-7.87065,8.01377,437.6415],[-7.88373,8.01866,440.0273],[-7.8907,8.01781,440.1984],[-7.89515,8.01393,443.125],[-7.89856,8.0085,441.0906],[-7.90527,8.00716,441.4398],[-7.92853,8.01091,444.1114],[-7.94687,8.01866,443.2831],[-7.96564,8.02693,454.6155],[-7.96264,8.01517,446.8457],[-7.98036,8.01657,442.2003],[-7.9925,8.02416,457.7737],[-8.00217,8.03243,473.2852],[-8.01199,8.03556,452.6907],[-8.05384,8.02876,474.5295],[-8.06909,8.02928,462.7569],[-8.06723,8.02075,469.2772],[-8.06888,7.99657,487.193],[-8.07911,7.95765,509.3087],[-8.12888,7.88257,487.6122],[-8.1312,7.84242,506.3229],[-8.12376,7.83203,540.6567],[-8.10144,7.81281,556.4003],[-8.09632,7.8019,557.2331],[-8.09826,7.79188,594.6818],[-8.10392,7.78635,601.2439],[-8.11048,7.78242,519.766],[-8.11513,7.77689,557.1432],[-8.11901,7.76082,516.5438],[-8.12263,7.72749,589.5363],[-8.12738,7.71302,524.6142],[-8.15952,7.67633,521.4912],[-8.16019,7.67219,507.7693],[-8.1574,7.66238,531.2313],[-8.15802,7.65824,501.2036],[-8.16211,7.65416,481.073],[-8.17342,7.6478,439.5524],[-8.17787,7.64388,452.6918],[-8.19787,7.61855,448.4026],[-8.20262,7.60719,448.146],[-8.20303,7.59959,448.2892],[-8.19978,7.58336,471.884],[-8.20024,7.57633,456.4844],[-8.22898,7.5443,351.5011],[-8.26536,7.56006,512.546],[-8.30324,7.58931,454.7768],[-8.33677,7.59783,531.0925],[-8.37227,7.58729,544.9741],[-8.39088,7.58579,583.5779],[-8.4148,7.61292,1604.3267],[-8.44002,7.5999,913.677],[-8.48545,7.55799,766.0728],[-8.44364,7.53711,403.7357],[-8.42561,7.50192,451.1858],[-8.40514,7.43128,368.7542],[-8.39305,7.33433,359.5946],[-8.38767,7.31496,342.5073],[-8.38106,7.30302,342.3623],[-8.36401,7.27888,328.0267],[-8.35755,7.26571,327.8808],[-8.34969,7.2347,324.1035],[-8.34499,7.2268,324.2137],[-8.333,7.21186,326.5991],[-8.32897,7.20401,319.5825],[-8.32845,7.19739,332.3264],[-8.33057,7.18473,329.8314],[-8.32975,7.17832,326.7183],[-8.32623,7.17207,358.7744],[-8.3115,7.15729,310.6715],[-8.30535,7.1469,315.5003],[-8.30262,7.1376,306.1301],[-8.30122,7.11321,292.4496],[-8.28411,7.01787,248.8317],[-8.28665,6.99379,243.9182],[-8.29414,6.98438,246.5128],[-8.31455,6.96857,248.6511],[-8.31998,6.95999,243.5638],[-8.32122,6.94226,239.2816],[-8.31998,6.92583,240.8228],[-8.32091,6.91017,244.6149],[-8.33367,6.88258,239.5038],[-8.32876,6.87509,234.9267],[-8.3206,6.86966,236.8167],[-8.31572,6.86382,236.0238],[-8.31497,6.85028,233.4847],[-8.31662,6.83628,238.9295],[-8.32499,6.80625,238.3806],[-8.3375,6.77726,233.5244],[-8.35176,6.75535,237.0786],[-8.44165,6.65531,228.1293],[-8.43496,6.65259,231.1866],[-8.33698,6.58999,302.6254],[-8.32768,6.58619,266.5711],[-8.32034,6.58595,256.8018],[-8.30928,6.59386,252.6622],[-8.30122,6.59781,256.6671],[-8.28851,6.60223,255.303],[-8.28179,6.60332,254.5802],[-8.2575,6.62234,281.7444],[-8.25016,6.62598,255.749],[-8.24934,6.6321,267.4813],[-8.24954,6.63693,305.0209],[-8.25037,6.6422,292.7106],[-8.24975,6.64771,257.5664],[-8.24768,6.65422,263.3629],[-8.24799,6.6598,252.0207],[-8.25011,6.66797,267.9822],[-8.24768,6.67014,266.8059],[-8.23719,6.66859,253.7601],[-8.23197,6.66944,254.7236],[-8.22722,6.67083,264.6569],[-8.21709,6.67246,289.0941],[-8.21358,6.6751,305.2652],[-8.21399,6.682,266.9311],[-8.2206,6.6959,257.0455],[-8.22164,6.69985,256.3842],[-8.21843,6.70559,257.8368],[-8.19838,6.71786,270.4139],[-8.19239,6.71809,264.4918],[-8.19006,6.71504,274.1217],[-8.1896,6.71078,267.5012],[-8.18753,6.70698,271.0251],[-8.18386,6.70473,279.7311],[-8.17813,6.70528,328.3752],[-8.17208,6.70915,313.8768],[-8.16428,6.71701,299.6726],[-8.16004,6.72794,260.8451],[-8.15647,6.74827,263.3182],[-8.15616,6.75819,261.8984],[-8.15404,6.76238,268.2966],[-8.14252,6.7709,266.1576],[-8.13699,6.77868,261.9921],[-8.13115,6.7814,261.7759],[-8.11947,6.78822,271.7818],[-8.11022,6.79566,268.3429],[-8.10226,6.8,269.3561],[-8.09622,6.80227,263.2768],[-8.09208,6.80475,265.6834],[-8.09141,6.81088,268.95],[-8.10092,6.83524,263.8307],[-8.10351,6.83858,266.7333],[-8.10712,6.8392,265.7013],[-8.11033,6.84013,268.6102],[-8.11193,6.84385,268.6662],[-8.11177,6.84888,268.7422],[-8.11002,6.85519,268.9593],[-8.10185,6.87209,269.0034],[-8.09751,6.88537,266.9153],[-8.10061,6.89227,271.6544],[-8.09937,6.89545,266.2089],[-8.09177,6.8987,267.763],[-8.08625,6.90219,265.7587],[-8.0818,6.90847,272.3908],[-8.07927,6.91358,272.3504],[-8.07622,6.91663,273.3307],[-8.0711,6.91524,267.2739],[-8.06289,6.9171,269.4279],[-8.05152,6.92307,272.2827],[-8.01209,6.96069,270.3577],[-7.98966,6.96836,280.7253],[-7.96388,6.95735,274.1366],[-7.95902,6.95433,276.0088],[-7.9509,6.94828,276.299],[-7.92977,6.92888,304.5561],[-7.92119,6.92353,310.6224],[-7.91375,6.92028,307.7341],[-7.89974,6.91795,311.4213],[-7.87551,6.9111,310.0639],[-7.86802,6.90699,312.3749],[-7.863,6.90258,332.4128],[-7.8584,6.89327,305.8785],[-7.84703,6.86155,310.6125],[-7.84275,6.85503,304.2107],[-7.8335,6.84625,326.3826],[-7.81913,6.84323,298.9189],[-7.8027,6.84191,308.0083],[-7.63563,6.84423,223.3543],[-7.62214,6.84702,226.8125],[-7.61806,6.89917,234.76],[-7.6163,6.90614,231.9168],[-7.60379,6.92927,237.1456],[-7.53941,6.93906,270.1728],[-7.43388,6.93953,289.877],[-7.42365,6.94108,279.1978],[-7.39523,6.94875,284.8032],[-7.30133,6.96425,263.5389],[-7.28774,6.96394,274.8247],[-7.28164,6.96332,263.2349],[-7.24774,6.95511,251.097],[-7.17106,6.96317,220.2165],[-7.16062,6.96278,225.5134],[-7.15591,6.96045,224.6591],[-7.13137,6.94394,214.6965],[-7.11669,6.93787,235.076],[-7.06967,6.92981,205.7401],[-7.06274,6.9295,208.6088],[-7.06476,6.95007,204.908],[-7.06481,6.96123,200.9809],[-7.06011,6.9928,199.5],[-7.04259,7.04975,236.2529],[-7.03928,7.06388,233.0109],[-7.04068,7.07905,232.6668],[-7.07912,7.1708,220.5325],[-7.07855,7.1814,224.639],[-7.07163,7.21548,211.0],[-7.07416,7.2248,211.9762],[-7.07855,7.23542,216.0949],[-7.08047,7.24648,235.6961],[-7.0754,7.25708,219.6269],[-7.06925,7.27444,212.5],[-7.07111,7.29896,224.1639],[-7.08031,7.34885,225.3532],[-7.08445,7.3594,220.8153],[-7.08532,7.36601,219.5258],[-7.08321,7.37206,221.0021],[-7.0785,7.37477,236.9414],[-7.0738,7.3766,233.2533],[-7.06853,7.38536,227.4728],[-7.06171,7.39319,229.2068],[-7.05489,7.40296,230.5585],[-7.05179,7.4141,223.3414],[-7.04259,7.42792,230.6438],[-7.02311,7.43456,225.1241],[-7.0059,7.44554,225.2148],[-7.00342,7.47246,225.8713],[-7.0075,7.47836,229.9337],[-7.02099,7.48616,240.6356],[-7.02388,7.48983,234.59],[-7.02285,7.49577,226.9481],[-7.02047,7.49851,228.2022],[-7.01809,7.50034,226.402],[-7.01706,7.5035,237.1794],[-7.01809,7.51373,240.2358],[-7.02388,7.53763,230.196],[-7.01525,7.55057,226.0874],[-6.99742,7.55882,233.9643],[-6.98259,7.56928,234.2934],[-6.9829,7.58915,244.4152],[-6.99091,7.59543,233.1518],[-7.01262,7.59814,233.1177],[-7.02181,7.61576,228.0],[-7.03298,7.61576,232.47],[-7.05489,7.60899,255.7905],[-7.0616,7.61801,238.2991],[-7.07256,7.66183,246.7077],[-7.07912,7.6779,236.1598],[-7.07396,7.6871,235.3689],[-7.07132,7.6972,241.5723],[-7.0708,7.70808,242.1278],[-7.07163,7.71948,244.1485],[-7.08264,7.74578,240.9291],[-7.08904,7.78046,245.7717],[-7.09277,7.8458,250.8123],[-7.09483,7.85285,248.9745],[-7.10377,7.86355,253.8779],[-7.10584,7.87373,251.1755],[-7.1047,7.88985,249.9859],[-7.10274,7.89639,256.8066],[-7.09897,7.90383,260.8188],[-7.08868,7.9167,250.6478],[-7.07855,7.92611,254.8492],[-7.07173,7.93797,252.0426],[-7.07163,7.95846,253.8453],[-7.08383,7.98925,261.3309],[-7.20992,7.98863,345.2483]]]}
,"properties": {"ISO3166-1-Alpha-3": "CIV","country": "Ivory Coast","fill": "#FF0","name": "Dix-Huit Montagnes","area_km2": 16687.69,"hist_schema_id": "Elevation0-9000","hist_area_km2": {"200": 41.35,"225": 371.81,"250": 1315.57,"275": 2318.8,"300": 2068.42,"325": 1733.1,"350": 1309.3,"375": 781.05,"400": 504.68,"425": 489.27,"450": 589.34,"475": 661.04,"500": 634.69,"525": 569.8,"550": 476.44,"575": 374.9,"600": 339.57,"625": 279.55,"650": 241.22,"675": 211.78,"700": 190.62,"725": 173.56,"750": 158.39,"775": 142.02,"800": 124.79,"825": 110.56,"850": 97.87,"875": 86.39,"900": 70.34,"925": 57.08,"950": 42.89,"975": 34.38,"1000": 25.64,"1025": 17.72,"1050": 12.97,"1075": 8.43,"1100": 6.68,"1125": 4.37,"1150": 2.84,"1175": 1.77,"1200": 1.18,"1225": 1.3,"1250": 1.03,"1275": 0.61,"1300": 0.48,"1325": 0.61,"1350": 0.4,"1375": 0.21,"1400": 0.29,"1425": 0.17,"1450": 0.23}}}