{"type":"Feature","properties":{"featurecla":"River","scalerank":6,"rivernum":273,"dissolve":"273River","name":"Sassandra4","name_alt":null,"note":null,"min_zoom":5.0,"strokeweig":0.25,"name_en":"Sassandra","min_label":6.0},
"geometry":{"type": "LineString","coordinates": [[-7.0718261718749886,7.71942780155662,244.1485],[-7.0709472656249943,7.7080264343691169,242.1278],[-7.071533203125,7.6971377624941084,244.6017],[-7.0741455078124886,7.6870303406191169,244.5513],[-7.079345703125,7.67780182499412,236.1598],[-7.07275390625,7.66181061405662,246.7077],[-7.061767578125,7.6179385437441169,238.2991],[-7.0551025390624886,7.60895416874412,255.2495],[-7.0331298828124886,7.61566803593162,232.47],[-7.02197265625,7.61566803593162,228.0],[-7.0127929687499773,7.59808991093162,233.1177],[-6.9911621093749829,7.5953311218691084,230.6191],[-6.9830810546874886,7.58905670780662,237.7627],[-6.9827636718749773,7.5692080749941084,234.2934],[-6.9976074218749886,7.5587100281191084,235.4387],[-7.0154296874999886,7.5505557312441169,226.0874],[-7.0240234374999773,7.53754303593162,230.196],[-7.018310546875,7.5136904968691169,240.2358],[-7.0171874999999773,7.5034365906191169,237.1794],[-7.018310546875,7.50031159061912,226.402],[-7.0206054687499773,7.49848053593162,228.2022],[-7.0229980468749886,7.4957217468691084,226.9481],[-7.0240234374999773,7.4897647156191169,234.59],[-7.0210937499999773,7.4861026062441169,240.6356],[-7.0076660156249773,7.4782901062441169,231.3989],[-7.0036132812499829,7.47235748905662,225.3425],[-7.0060546874999829,7.4454287781191084,225.2148],[-7.0232910156249773,7.43451569218162,225.1241],[-7.042724609375,7.4278506531191084,232.8143],[-7.052001953125,7.4140811218691169,223.3414],[-7.0551025390624886,7.40289948124412,230.4667],[-7.0618652343749773,7.39313385624412,229.2068],[-7.0687011718749773,7.38532135624412,227.4728],[-7.073974609375,7.37653229374412,233.2533],[-7.0786621093749886,7.37470123905662,236.9414],[-7.0833496093749773,7.37201569218162,221.0021],[-7.0855468749999773,7.36591217655662,219.5258],[-7.0845703124999773,7.35932037968162,220.8153],[-7.0804199218749773,7.34882233280662,225.3532],[-7.0712890625,7.29889557499412,224.1639],[-7.0694335937499773,7.27435944218162,222.2185],[-7.0755371093749773,7.25702545780662,219.6269],[-7.0806640624999773,7.24640534061912,235.6961],[-7.0787109374999773,7.2353701843691169,217.889],[-7.0743164062499773,7.2247256531191084,211.9762],[-7.0718261718749886,7.21539948124412,214.0967],[-7.0787109374999773,7.18134186405662,224.639],[-7.079345703125,7.17072174686912,220.5325],[-7.0408691406249773,7.0789736999941084,232.6668],[-7.0395019531249829,7.0638369812441084,233.0109],[-7.0423339843749773,7.04181549686912,231.4476]]}}