{"type":"Feature","properties":{"GID_3":"CIV.6.2.2_1","GID_0":"CIV","country":"Côted'Ivoire","GID_1":"CIV.6_1","province":"Lacs","NL_NAME_1":"NA","GID_2":"CIV.6.2_1","county":"Iffou","NL_NAME_2":"NA","city":"M'Bahiakro","VARNAME_3":"NA","NL_NAME_3":"NA","TYPE_3":"Département","ENGTYPE_3":"Department","CC_3":"NA","HASC_3":"NA","name":"M'Bahiakro.city"},
"geometry":{"type": "MultiPolygon","coordinates": [[[[-4.6577,7.4726,181.9176],[-4.6468,7.4757,197.9501],[-4.6399,7.47,208.4223],[-4.6324,7.4593,203.9715],[-4.6234,7.4563,203.9106],[-4.6201,7.4531,202.0212],[-4.6121,7.4411,193.0269],[-4.6054,7.436,189.9535],[-4.5987,7.4173,164.2521],[-4.5972,7.4061,156.7395],[-4.5945,7.4028,154.1378],[-4.5841,7.3976,151.4843],[-4.5666,7.3834,147.8357],[-4.5566,7.3624,140.6294],[-4.5299,7.3766,181.1041],[-4.5159,7.3762,159.3114],[-4.505,7.3806,161.4609],[-4.4994,7.3855,158.593],[-4.4784,7.4196,160.5032],[-4.4674,7.4331,148.8583],[-4.4612,7.4383,154.7675],[-4.4266,7.4423,160.6271],[-4.401,7.4374,140.1001],[-4.3854,7.4298,132.9983],[-4.3817,7.4301,139.9154],[-4.3757,7.416,133.528],[-4.3685,7.4111,127.0262],[-4.3645,7.41,121.5195],[-4.3495,7.4149,120.4028],[-4.3421,7.4042,124.8973],[-4.3406,7.3945,129.4038],[-4.3294,7.4014,134.6815],[-4.3076,7.4073,137.0358],[-4.2804,7.4218,127.8371],[-4.2658,7.4241,131.1449],[-4.2052,7.421,161.7711],[-4.176,7.4163,176.8206],[-4.1549,7.4064,185.978],[-4.1465,7.4009,197.2703],[-4.1203,7.3725,221.2974],[-4.112,7.3683,231.0537],[-4.0995,7.3583,217.067],[-4.0786,7.349,189.8447],[-4.0679,7.3524,216.0809],[-4.0523,7.3478,228.7947],[-4.0416,7.3538,224.1133],[-4.0287,7.3575,220.1518],[-4.0064,7.361,177.8173],[-4.0017,7.3527,177.793],[-4.0002,7.3435,175.0624],[-3.9965,7.3421,178.0495],[-3.9845,7.3485,180.789],[-3.9682,7.36,187.094],[-3.9529,7.3811,210.0767],[-3.9543,7.4206,217.8418],[-3.9586,7.4285,198.2363],[-3.9642,7.4352,199.4626],[-3.9717,7.4396,210.8322],[-3.9758,7.4401,211.8858],[-3.9899,7.4579,267.1667],[-3.9939,7.4587,247.1124],[-4.0003,7.457,225.1372],[-4.0051,7.4699,229.8895],[-4.0273,7.4968,248.0899],[-4.1052,7.5259,184.906],[-4.1101,7.5328,186.6521],[-4.1164,7.5369,174.2602],[-4.1432,7.6943,182.9527],[-4.2571,7.9234,173.2351],[-4.2648,7.9155,208.5681],[-4.3036,7.8563,153.3452],[-4.3569,7.8536,176.8498],[-4.4461,7.8177,197.416],[-4.4823,7.8166,213.6017],[-4.4982,7.8224,239.5669],[-4.5046,7.8205,216.2442],[-4.5102,7.8236,224.9363],[-4.5183,7.8226,245.0538],[-4.5246,7.8249,259.7625],[-4.5308,7.8307,249.9361],[-4.5339,7.8307,246.6082],[-4.5392,7.8186,240.253],[-4.5495,7.8029,231.2321],[-4.5496,7.7996,222.711],[-4.5426,7.7863,217.2273],[-4.5428,7.7796,212.5793],[-4.5252,7.7554,185.8751],[-4.5231,7.7448,186.3628],[-4.5184,7.7369,180.7172],[-4.5193,7.7306,180.1233],[-4.5158,7.7081,174.4281],[-4.5125,7.6983,170.344],[-4.5104,7.6784,167.0917],[-4.5033,7.6694,177.2461],[-4.4972,7.6441,163.2517],[-4.4992,7.6399,160.3896],[-4.4984,7.6233,155.8439],[-4.5051,7.6152,151.7876],[-4.5095,7.6152,149.6089],[-4.5164,7.6121,148.0081],[-4.5216,7.6069,140.6225],[-4.5313,7.605,140.3317],[-4.538,7.6087,142.5518],[-4.5439,7.6185,145.0947],[-4.5581,7.6213,142.349],[-4.562,7.6193,150.4349],[-4.5704,7.6221,146.5175],[-4.5758,7.6219,144.0533],[-4.5835,7.6137,147.2656],[-4.5971,7.6045,150.195],[-4.5998,7.5948,151.4496],[-4.6025,7.5907,150.8691],[-4.6025,7.5855,153.8911],[-4.6084,7.5819,151.2095],[-4.6105,7.5755,151.6958],[-4.626,7.5707,152.6864],[-4.6286,7.5677,152.6328],[-4.6325,7.5674,155.2234],[-4.6364,7.5649,155.7281],[-4.6447,7.5665,156.0212],[-4.651,7.5654,156.195],[-4.6597,7.5548,156.1356],[-4.6557,7.5465,157.6562],[-4.6593,7.5399,158.0488],[-4.6685,7.532,161.7744],[-4.6744,7.5058,171.6916],[-4.6783,7.4978,179.9921],[-4.6757,7.4849,173.5794],[-4.6731,7.4823,174.2302],[-4.6686,7.4814,176.1164],[-4.6577,7.4726,181.9176]]]]}}