{"type":"Feature","properties":{"GID_3":"CIV.3.2.7_1","GID_0":"CIV","country":"Côted'Ivoire","GID_1":"CIV.3_1","province":"Comoé","NL_NAME_1":"NA","GID_2":"CIV.3.2_1","county":"SudComoé","NL_NAME_2":"NA","city":"Tiapoum","VARNAME_3":"NA","NL_NAME_3":"NA","TYPE_3":"Département","ENGTYPE_3":"Department","CC_3":"NA","HASC_3":"NA","name":"Tiapoum.city"},
"geometry":{"type": "MultiPolygon","coordinates": [[[[-2.7398,5.4099,24.9509],[-2.8834,5.4058,90.2598],[-2.8833,5.2661,89.567],[-2.9601,5.2623,77.9885],[-3.0408,5.2623,119.6101],[-3.1277,5.2775,67.9907],[-3.1675,5.2011,39.0607],[-3.1972,5.1096,4.4992],[-3.1107,5.0921,12.8809],[-3.1115,5.1107,10.9282],[-3.1089,5.1102,6.1014],[-3.109,5.116,5.2468],[-3.1017,5.1124,0.0],[-3.0964,5.1133,3.6352],[-3.0943,5.1154,4.0134],[-3.0851,5.1119,8.3754],[-3.0724,5.1131,1.7831],[-3.0713,5.1141,0.103],[-3.0718,5.1194,0.0],[-3.0689,5.1213,2.0279],[-3.0623,5.1218,1.1496],[-3.0519,5.116,0.3876],[-3.0483,5.1204,4.9495],[-3.042,5.1166,3.3824],[-3.034,5.1181,1.2204],[-3.0275,5.117,3.5259],[-3.0233,5.1197,1.6986],[-3.019,5.116,0.7252],[-3.0118,5.1129,3.1251],[-3.0044,5.1124,0.5965],[-2.9881,5.0955,0.6905],[-2.9762,5.0871,1.3059],[-2.9651,5.0879,1.4412],[-2.9491,5.0841,5.2599],[-2.9416,5.094,0.1996],[-2.9296,5.0967,1.5],[-2.93,5.1007,1.3364],[-2.9343,5.1026,1.9228],[-2.9328,5.1054,0.9364],[-2.9358,5.1095,0.9418],[-2.9346,5.1108,8.0359],[-2.9366,5.11,0.9418],[-2.9417,5.112,0.0],[-2.9431,5.1143,0.9203],[-2.9399,5.1205,0.8136],[-2.9399,5.1252,0.7329],[-2.9354,5.1256,2.5186],[-2.934,5.1223,6.3048],[-2.931,5.1231,7.8875],[-2.9282,5.1208,5.2011],[-2.9218,5.1223,7.6484],[-2.9104,5.1205,9.2728],[-2.9061,5.1235,7.3846],[-2.9021,5.1212,4.7983],[-2.896,5.1228,7.6306],[-2.8917,5.1195,6.3802],[-2.8906,5.1268,7.9232],[-2.884,5.1238,12.9338],[-2.8816,5.1268,6.3171],[-2.8768,5.1281,6.8112],[-2.8693,5.1228,4.5827],[-2.8634,5.1231,9.5109],[-2.8585,5.1161,2.7342],[-2.8542,5.1156,5.754],[-2.8524,5.1108,11.2395],[-2.8444,5.1073,5.7761],[-2.8381,5.1096,9.7026],[-2.8409,5.1146,12.0963],[-2.8366,5.1152,5.3346],[-2.8351,5.1207,6.316],[-2.8322,5.1214,4.2954],[-2.8273,5.1199,4.3227],[-2.8242,5.1161,12.9597],[-2.8235,5.1113,6.7693],[-2.8188,5.1095,6.5772],[-2.8176,5.1056,11.3495],[-2.8145,5.1073,7.0241],[-2.8167,5.111,7.8355],[-2.8135,5.1134,7.3946],[-2.8102,5.1063,3.8281],[-2.8083,5.1065,4.9305],[-2.8061,5.1116,3.6275],[-2.8014,5.1077,4.5856],[-2.7906,5.107,16.1204],[-2.7857,5.1176,7.0694],[-2.784,5.1096,4.8737],[-2.7804,5.1124,12.3814],[-2.7787,5.111,6.3466],[-2.7718,5.1113,5.6579],[-2.7686,5.1087,7.6185],[-2.7662,5.1095,4.2212],[-2.7658,5.1058,5.485],[-2.7637,5.1037,10.5224],[-2.7602,5.1035,6.443],[-2.7599,5.1014,4.3473],[-2.758,5.1012,5.1825],[-2.7541,5.1166,6.1036],[-2.7511,5.1149,7.4542],[-2.7473,5.1168,5.6884],[-2.7422,5.1139,5.5293],[-2.7406,5.1158,7.5677],[-2.7405,5.1248,4.1037],[-2.7352,5.1322,5.8414],[-2.7328,5.1321,4.1942],[-2.7327,5.1345,4.6232],[-2.731,5.1347,5.1027],[-2.7277,5.1314,4.3784],[-2.7277,5.137,4.9381],[-2.7248,5.1372,3.5164],[-2.7238,5.1409,4.4811],[-2.7272,5.1401,4.7509],[-2.7267,5.1446,5.3755],[-2.7301,5.1482,7.1744],[-2.731,5.1518,5.2466],[-2.733,5.1514,5.6396],[-2.734,5.1486,7.1516],[-2.7365,5.1487,6.454],[-2.7416,5.1557,5.4148],[-2.7358,5.1623,8.4989],[-2.7406,5.1611,6.0307],[-2.7456,5.1669,6.297],[-2.7412,5.1757,6.7156],[-2.7421,5.1811,9.0016],[-2.7459,5.1842,9.4822],[-2.7458,5.1873,13.3913],[-2.7495,5.1945,7.2485],[-2.7476,5.2021,9.5685],[-2.7571,5.2005,10.4626],[-2.7601,5.2069,7.1361],[-2.7603,5.212,15.8664],[-2.7634,5.2134,13.0211],[-2.7648,5.2169,30.999],[-2.7635,5.2185,10.9081],[-2.757,5.2184,17.6232],[-2.7591,5.2215,8.5896],[-2.7578,5.2256,11.0694],[-2.7588,5.2284,16.471],[-2.7609,5.2297,8.1346],[-2.7598,5.2323,7.2464],[-2.7567,5.2304,14.3742],[-2.7554,5.233,11.4571],[-2.7589,5.2353,9.85],[-2.7649,5.2348,19.0399],[-2.7658,5.2363,9.6642],[-2.7624,5.2457,12.2237],[-2.7596,5.2458,11.094],[-2.7589,5.2419,17.7016],[-2.7547,5.2422,9.7906],[-2.7549,5.245,10.0599],[-2.7608,5.2498,14.0001],[-2.7563,5.2497,9.5209],[-2.7549,5.2462,7.9659],[-2.7533,5.2488,10.7818],[-2.7546,5.2532,12.4123],[-2.7574,5.2559,9.8144],[-2.7639,5.2552,11.2586],[-2.7655,5.2599,11.2129],[-2.7687,5.2577,12.2819],[-2.7728,5.2584,10.7603],[-2.7759,5.2653,8.7335],[-2.7773,5.2631,8.1432],[-2.7789,5.2636,8.1432],[-2.7793,5.266,11.8337],[-2.7741,5.2676,10.4362],[-2.77,5.2666,15.9648],[-2.7693,5.2682,8.9104],[-2.7731,5.2687,10.4362],[-2.7748,5.2738,13.0447],[-2.7815,5.2773,12.0747],[-2.7853,5.2859,11.7727],[-2.7844,5.2925,11.1903],[-2.7812,5.2947,9.5349],[-2.7721,5.2928,9.2585],[-2.7695,5.2946,8.6561],[-2.7664,5.3052,11.4808],[-2.768,5.3072,11.6167],[-2.7661,5.3172,11.7069],[-2.7707,5.3232,15.5474],[-2.7718,5.329,33.2796],[-2.7774,5.3309,10.5354],[-2.7742,5.3364,11.5248],[-2.7706,5.3354,19.8082],[-2.7761,5.3421,11.3027],[-2.7767,5.3464,12.7795],[-2.7697,5.3522,11.9277],[-2.7688,5.3566,11.663],[-2.7644,5.3561,15.2377],[-2.7557,5.3438,12.422],[-2.7422,5.3451,13.4164],[-2.7384,5.3472,50.8088],[-2.7349,5.3433,14.4835],[-2.7266,5.3409,12.3088],[-2.7206,5.3459,15.9559],[-2.7263,5.346,81.9952],[-2.7264,5.3792,98.2072],[-2.732,5.396,69.4541],[-2.7398,5.4099,24.9509]]]]}}