{"type":"Feature","properties":{"GID_3":"CIV.4.2.5_1","GID_0":"CIV","country":"Côted'Ivoire","GID_1":"CIV.4_1","province":"Denguélé","NL_NAME_1":"NA","GID_2":"CIV.4.2_1","county":"Kabadougou","NL_NAME_2":"NA","city":"Seguelon","VARNAME_3":"NA","NL_NAME_3":"NA","TYPE_3":"Département","ENGTYPE_3":"Department","CC_3":"NA","HASC_3":"NA","name":"Seguelon.city"},
"geometry":{"type": "MultiPolygon","coordinates": [[[[-7.2978,9.4988,445.3025],[-7.2993,9.4982,442.9293],[-7.298,9.4921,437.7432],[-7.2904,9.4824,454.3369],[-7.2856,9.4705,453.3097],[-7.2635,9.434,506.1522],[-7.2645,9.4293,512.0333],[-7.2632,9.4105,470.714],[-7.2742,9.4077,438.0304],[-7.2995,9.4075,425.4796],[-7.3123,9.3922,405.5916],[-7.3199,9.3864,396.3235],[-7.3328,9.388,419.2527],[-7.337,9.3799,434.2921],[-7.3428,9.3804,440.5806],[-7.3576,9.3693,437.6376],[-7.3628,9.3722,432.2485],[-7.37,9.3719,422.7543],[-7.3762,9.3674,432.6452],[-7.3775,9.3641,426.9005],[-7.3714,9.3552,401.5198],[-7.3688,9.3408,412.4595],[-7.3693,9.3311,390.7913],[-7.363,9.3171,392.4551],[-7.3644,9.3045,388.6681],[-7.3609,9.2959,393.7089],[-7.3596,9.2849,386.7193],[-7.3569,9.2778,383.3036],[-7.3484,9.2692,377.4312],[-7.3443,9.2564,370.6427],[-7.341,9.2524,374.5956],[-7.3385,9.2522,366.4382],[-7.3346,9.2557,364.5946],[-7.3235,9.2591,366.4024],[-7.3157,9.2546,361.4837],[-7.3071,9.238,348.3583],[-7.3019,9.2374,357.1489],[-7.2867,9.2397,380.1806],[-7.265,9.2343,379.95],[-7.2586,9.2336,375.8392],[-7.2546,9.2348,375.3417],[-7.2482,9.2318,371.3764],[-7.2461,9.228,368.6069],[-7.2283,9.2218,352.6651],[-7.2242,9.2224,358.4577],[-7.2163,9.227,348.0994],[-7.1686,9.2271,355.5738],[-7.161,9.2248,362.0042],[-7.1557,9.2111,349.6494],[-7.1381,9.2121,367.9653],[-7.0986,9.1929,383.8921],[-7.0922,9.1918,383.3883],[-7.0709,9.1957,410.2747],[-7.0559,9.1931,395.0199],[-7.0559,9.1882,393.0628],[-7.0111,9.26,417.306],[-7.0036,9.2933,398.9787],[-6.9517,9.3379,480.8524],[-6.8903,9.3576,517.5573],[-6.9269,9.3741,490.9733],[-6.9612,9.3845,563.3506],[-7.0058,9.3956,524.194],[-7.0418,9.4091,426.2237],[-7.0447,9.4081,421.0033],[-7.0625,9.4118,398.0955],[-7.0829,9.4137,390.627],[-7.0875,9.4195,394.7111],[-7.0914,9.421,405.1893],[-7.1004,9.4367,468.0024],[-7.1074,9.4412,472.7015],[-7.1112,9.4419,468.7764],[-7.1142,9.4457,483.9205],[-7.1153,9.4511,500.2827],[-7.1133,9.4606,546.946],[-7.1137,9.4672,574.2676],[-7.1204,9.4728,547.7821],[-7.1277,9.4749,596.3373],[-7.135,9.4742,692.1776],[-7.1494,9.4933,607.8708],[-7.1778,9.5208,425.3773],[-7.1865,9.5325,399.6077],[-7.1923,9.5312,399.1289],[-7.2052,9.5332,418.0114],[-7.2226,9.5321,380.9052],[-7.2279,9.5345,383.2175],[-7.2323,9.5319,389.1001],[-7.2358,9.5323,389.6476],[-7.242,9.5363,390.3127],[-7.2504,9.5357,400.5487],[-7.2551,9.5293,399.452],[-7.2606,9.5268,405.6724],[-7.2664,9.5176,414.0093],[-7.289,9.5024,518.8463],[-7.2978,9.4988,445.3025]]]]}}