{"type": "Feature","id": "3431","bbox": [-6.9475,8.52925,-3.78883,10.72648],"geometry": {"type": "Polygon","coordinates": [[[-6.25602,10.51161,332.4168],[-6.26129,10.51409,329.0983],[-6.26093,10.52915,339.3036],[-6.25623,10.53724,335.2498],[-6.23793,10.55194,316.7906],[-6.23137,10.56024,320.1772],[-6.23003,10.57204,318.7638],[-6.23287,10.58411,312.7909],[-6.23866,10.59798,315.8926],[-6.2307,10.60692,313.0446],[-6.2198,10.61186,315.0435],[-6.20977,10.61775,314.4833],[-6.20445,10.62961,313.8727],[-6.20781,10.63754,315.9667],[-6.2169,10.64509,314.4049],[-6.22775,10.65085,311.3265],[-6.24662,10.65762,327.7745],[-6.24946,10.6656,319.6483],[-6.24445,10.70687,316.4735],[-6.24584,10.72074,335.6901],[-6.25597,10.72648,342.8322],[-6.28,10.72327,329.4529],[-6.30356,10.71317,357.6999],[-6.32222,10.70048,327.5968],[-6.3417,10.69144,328.9092],[-6.36754,10.69227,331.1135],[-6.38805,10.69552,333.8117],[-6.40981,10.69439,346.2271],[-6.42702,10.68609,350.742],[-6.434,10.66793,336.3366],[-6.43586,10.62871,340.0082],[-6.43069,10.61496,328.9919],[-6.41906,10.6077,337.6591],[-6.40666,10.60186,344.7657],[-6.39922,10.59248,326.9654],[-6.40278,10.56912,340.3406],[-6.42149,10.55659,349.6875],[-6.44598,10.55225,351.9129],[-6.46696,10.55354,360.9363],[-6.52138,10.56421,354.2156],[-6.53755,10.56969,338.1872],[-6.57807,10.59114,346.4172],[-6.59858,10.60491,350.8182],[-6.61362,10.61847,343.2583],[-6.63398,10.65302,329.4942],[-6.64711,10.66134,320.1456],[-6.66917,10.65416,350.8036],[-6.66788,10.6509,351.5073],[-6.68194,10.62739,323.8302],[-6.68421,10.62656,325.1143],[-6.68897,10.607849999999999,337.4054],[-6.69109,10.58943,328.2442],[-6.68923,10.58093,325.1404],[-6.68561,10.57401,324.9779],[-6.68282,10.56597,324.5605],[-6.68778,10.52047,343.3403],[-6.69755,10.4883,344.4871],[-6.69579,10.4712,326.8093],[-6.68308,10.45169,436.2644],[-6.67563,10.44786,357.0978],[-6.66463,10.44456,333.0736],[-6.65398,10.44004,355.414],[-6.64778,10.4327,353.3104],[-6.64794,10.42187,343.9132],[-6.65305,10.41306,368.279],[-6.65961,10.40536,349.1682],[-6.66396,10.398,343.7408],[-6.66827,10.36584,343.6928],[-6.6562,10.35415,330.9181],[-6.6391,10.31847,329.0012],[-6.63223,10.30808,338.2128],[-6.62819,10.29185,332.7419],[-6.62794,10.28402,333.4554],[-6.63062,10.27121,333.0724],[-6.63114,10.26508,334.5236],[-6.63016,10.25873,333.1905],[-6.62783,10.25206,335.5659],[-6.61931,10.24366,338.1695],[-6.61326,10.23901,335.5396],[-6.58184,10.22979,336.2026],[-6.5805,10.22359,343.5509],[-6.58504,10.20186,355.5478],[-6.58556,10.18943,386.0689],[-6.58287,10.1723,382.4066],[-6.58349,10.16718,369.9806],[-6.5867,10.16377,360.4879],[-6.59042,10.16072,354.7629],[-6.67186,10.1169,354.9855],[-6.71165,10.10424,358.5899],[-6.72281,10.10238,355.1005],[-6.72896,10.10215,368.0378],[-6.73651,10.10339,367.7882],[-6.74452,10.10602,366.7146],[-6.75542,10.11179,378.6052],[-6.76715,10.12225,385.5614],[-6.77749,10.14096,342.9557],[-6.8149,10.13427,343.4031],[-6.82829,10.13535,344.4376],[-6.85531,10.13093,343.0663],[-6.87319,10.1221,342.8923],[-6.88492,10.10729,343.978],[-6.87712,10.09812,372.5423],[-6.87619,10.09323,380.5991],[-6.87676,10.08541,362.14],[-6.88001,10.07716,378.8174],[-6.88849,10.06406,355.8626],[-6.89267,10.05445,367.8723],[-6.89469,10.04164,371.3416],[-6.89459,10.03373,378.015],[-6.89733,10.02512,377.4292],[-6.89965,10.01952,385.4236],[-6.92089,10.00006,386.9225],[-6.92864,9.99104,391.9186],[-6.94595,9.96497,383.8322],[-6.9475,9.96025,383.7499],[-6.94709,9.95552,387.8502],[-6.94213,9.9511,391.0652],[-6.93613,9.94908,401.5016],[-6.92983,9.94784,402.7517],[-6.80276,9.95187,452.0197],[-6.79671,9.95149,569.0436],[-6.79082,9.95025,621.5563],[-6.78591,9.94784,584.8058],[-6.78188,9.94459,503.6755],[-6.77842,9.93914,455.9559],[-6.77067,9.92014,467.774],[-6.76643,9.91392,465.2361],[-6.76214,9.90958,481.7737],[-6.75816,9.90694,485.6487],[-6.75449,9.90392,482.9209],[-6.75134,9.89911,519.3371],[-6.74886,9.89283,434.2338],[-6.74271,9.86793,434.2965],[-6.74018,9.86351,425.0372],[-6.73449,9.85568,515.2626],[-6.7332,9.85046,473.9132],[-6.73356,9.84426,476.4411],[-6.73945,9.8348,472.1416],[-6.74421,9.82968,465.1987],[-6.74834,9.82299,444.5394],[-6.75196,9.81299,459.1832],[-6.75485,9.79367,457.6053],[-6.75971,9.77785,472.8516],[-6.76054,9.7686,448.5782],[-6.75661,9.76287,422.4001],[-6.747,9.75682,414.9397],[-6.74286,9.75349,416.8091],[-6.74028,9.74915,413.711],[-6.74007,9.74333,418.6101],[-6.74193,9.73664,426.7539],[-6.74721,9.72811,414.202],[-6.75041,9.72129,417.3293],[-6.74989,9.7115,402.3494],[-6.74741,9.70592,405.4045],[-6.74436,9.70104,390.0689],[-6.74286,9.69685,402.1763],[-6.74379,9.69204,391.8094],[-6.75046,9.68654,398.7142],[-6.75511,9.68109,404.2774],[-6.75837,9.67411,419.2681],[-6.75981,9.66249,416.2812],[-6.76178,9.6544,428.5151],[-6.77697,9.63564,412.3806],[-6.77971,9.63135,416.4082],[-6.78591,9.61414,427.1491],[-6.79774,9.56533,407.6566],[-6.7795,9.55471,409.8465],[-6.77325,9.54872,406.7648],[-6.76452,9.53678,395.5701],[-6.75077,9.52539,398.7479],[-6.74483,9.52159,395.4474],[-6.74214,9.51885,397.3978],[-6.74085,9.51234,415.806],[-6.74147,9.50397,541.06],[-6.74545,9.49079,507.9863],[-6.74948,9.48425,477.5189],[-6.75423,9.48007,508.1389],[-6.75914,9.47813,484.8377],[-6.76354,9.47565,441.7704],[-6.76669,9.47185,509.3613],[-6.7685,9.46643,414.8661],[-6.77082,9.45446,448.9843],[-6.77284,9.44919,644.4246],[-6.77552,9.44501,578.7141],[-6.77868,9.44206,506.8653],[-6.781,9.43849,500.1125],[-6.78126,9.43446,480.9642],[-6.78007,9.42793,607.3787],[-6.77573,9.41653,563.3607],[-6.77382,9.40909,506.1998],[-6.77532,9.40069,464.0056],[-6.784,9.38759,540.1574],[-6.78359,9.37485,522.3192],[-6.78002,9.3561,497.7711],[-6.76819,9.31481,488.9358],[-6.75382,9.28889,426.3906],[-6.7502,9.28556,410.9644],[-6.74752,9.2816,402.8327],[-6.7409,9.27362,398.4285],[-6.73692,9.2706,398.5726],[-6.73491,9.26042,401.8089],[-6.73594,9.24406,435.3038],[-6.74741,9.18719,387.0731],[-6.74834,9.17352,410.9439],[-6.74038,9.15949,381.9015],[-6.73868,9.15179,376.751],[-6.73832,9.1459,387.6884],[-6.74659,9.11782,404.4444],[-6.71072,9.11309,356.9149],[-6.71858,9.10665,355.1329],[-6.71966,9.09709,383.2897],[-6.70803,9.08423,367.1961],[-6.70059,9.0774,356.319],[-6.69677,9.07523,358.8116],[-6.69114,9.07337,365.3782],[-6.60603,9.0673,402.537],[-6.59698,9.07035,398.5148],[-6.5867,9.07616,404.8776],[-6.56913,9.09105,431.7885],[-6.56324,9.10012,427.3637],[-6.56158,9.10727,441.0836],[-6.57032,9.1259,445.2225],[-6.57161,9.13102,431.0745],[-6.57182,9.13652,415.1578],[-6.57047,9.14164,435.5939],[-6.5682,9.14629,442.987],[-6.5652,9.15001,413.395],[-6.56153,9.15296,417.4077],[-6.55554,9.15536,415.669],[-6.54784,9.15701,417.3004],[-6.53399,9.15701,394.7947],[-6.52613,9.15551,407.2786],[-6.52024,9.15288,407.614],[-6.5097,9.14303,420.8946],[-6.50402,9.13466,401.8809],[-6.5005,9.12751,401.7544],[-6.49234,9.10603,415.7407],[-6.48738,9.09743,404.9995],[-6.48169,9.0895,369.0431],[-6.47456,9.08221,353.0683],[-6.47037,9.07919,369.0277],[-6.46567,9.07686,356.8524],[-6.46025,9.07547,363.0029],[-6.45136,9.0795,375.7665],[-6.44035,9.0881,395.2387],[-6.42025,9.11099,413.0745],[-6.40211,9.1359,422.8206],[-6.39653,9.1404,423.7278],[-6.38526,9.14505,428.3483],[-6.37772,9.14559,405.0545],[-6.37059,9.14706,401.2835],[-6.36501,9.15102,396.2623],[-6.35912,9.16182,431.2823],[-6.35348,9.18399,385.2452],[-6.34919,9.19409,389.1056],[-6.34661,9.19828,375.7592],[-6.33653,9.20564,391.9794],[-6.30909,9.21091,382.9479],[-6.28946,9.20579,379.8214],[-6.28377,9.20579,368.1628],[-6.27617,9.20494,377.5158],[-6.26444,9.20254,365.4757],[-6.24326,9.18998,380.9232],[-6.21923,9.15996,411.4019],[-6.21504,9.15148,416.9943],[-6.21427,9.14559,418.4952],[-6.21421,9.1397,426.1331],[-6.2153,9.13404,417.2691],[-6.21763,9.12924,429.4295],[-6.22083,9.1251,436.0095],[-6.23184,9.1151,439.7015],[-6.23799,9.10743,437.2386],[-6.25266,9.07996,402.7987],[-6.25421,9.07423,383.6463],[-6.25499,9.06846,368.7369],[-6.25483,9.0625,376.8769],[-6.25395,9.05738,399.1568],[-6.25225,9.05219,397.3616],[-6.2477,9.04286,365.7161],[-6.23737,9.02782,381.4952],[-6.23458,9.02247,385.8499],[-6.2291,9.00725,366.9403],[-6.22713,9.00353,371.4092],[-6.22486,9.00043,377.923],[-6.22465,9.0002,379.6764],[-6.2245,8.99997,379.6764],[-6.15933,8.95821,377.6046],[-6.1399,8.94876,374.6352],[-6.13515,8.94519,360.9898],[-6.13153,8.94015,358.9903],[-6.12931,8.93139,372.2747],[-6.12781,8.91842,385.9565],[-6.12636,8.91315,369.131],[-6.10869,8.877,354.2376],[-5.95635,8.64058,344.5138],[-5.94839,8.63601,334.2803],[-5.74231,8.5609,338.4881],[-5.61043,8.52925,260.7993],[-5.60237,8.53731,258.2024],[-5.60288,8.54571,271.6178],[-5.60464,8.55105,268.4789],[-5.60862,8.55416,277.7371],[-5.61379,8.55416,285.4076],[-5.61859,8.55323,271.341],[-5.62376,8.55323,260.8068],[-5.62779,8.55532,281.2934],[-5.63151,8.55795,285.7688],[-5.63451,8.56082,274.2929],[-5.63694,8.56446,263.5498],[-5.63782,8.56961,263.9969],[-5.63761,8.57542,263.3702],[-5.63668,8.58123,263.8962],[-5.63627,8.60885,264.07],[-5.63875,8.61413,279.0574],[-5.64226,8.61792,272.0071],[-5.64665,8.62056,285.6953],[-5.65161,8.62257,272.975],[-5.65688,8.62397,273.4547],[-5.66231,8.62469,291.3722],[-5.66774,8.62392,299.2908],[-5.67223,8.62175,307.9329],[-5.68029,8.61645,299.0634],[-5.68484,8.61575,306.7242],[-5.68867,8.61754,297.5732],[-5.69885,8.62787,313.2267],[-5.70169,8.63175,303.862],[-5.70262,8.63717,300.4125],[-5.70298,8.65332,302.8773],[-5.70143,8.65681,302.6609],[-5.69693,8.65805,305.8355],[-5.69295,8.66053,308.8964],[-5.69109,8.6689,307.9522],[-5.69078,8.67611,315.6347],[-5.68753,8.69474,306.6005],[-5.68856,8.7011,314.4611],[-5.69063,8.70629,312.8858],[-5.69352,8.71027,309.7345],[-5.69487,8.71469,305.5049],[-5.69404,8.71926,312.002],[-5.68805,8.72329,306.8124],[-5.67709,8.72352,307.3845],[-5.67234,8.725,306.0253],[-5.66903,8.7281,306.1127],[-5.66934,8.73409,309.0919],[-5.67265,8.73758,324.0768],[-5.68205,8.74231,322.7533],[-5.68469,8.74642,312.7804],[-5.68784,8.75711,305.7979],[-5.69063,8.76133,306.4167],[-5.69466,8.76427,305.2243],[-5.69941,8.76598,304.9127],[-5.70463,8.76481,312.029],[-5.70903,8.76091,319.8085],[-5.71228,8.75347,305.624],[-5.71709,8.74898,308.533],[-5.72019,8.74913,306.8236],[-5.72158,8.75487,312.149],[-5.72112,8.76339,309.7531],[-5.71099,8.79918,342.507],[-5.69693,8.83401,340.6506],[-5.69161,8.84114,357.3107],[-5.6837,8.84308,340.5389],[-5.6774,8.84308,358.6572],[-5.67161,8.84145,374.8193],[-5.66355,8.83618,365.8097],[-5.65833,8.83447,360.524],[-5.63973,8.83277,344.3953],[-5.62872,8.83029,379.4774],[-5.62309,8.83029,392.4389],[-5.61797,8.83145,381.7452],[-5.6128,8.83308,380.4071],[-5.60361,8.83726,362.578],[-5.59937,8.83982,361.1056],[-5.59554,8.84277,353.8746],[-5.58144,8.85644,359.315],[-5.57756,8.85946,355.0749],[-5.57307,8.86147,364.7657],[-5.5679,8.86318,360.3298],[-5.55699,8.86551,326.3339],[-5.53932,8.8669,319.711],[-5.53276,8.86644,322.9322],[-5.52464,8.86481,337.3765],[-5.51529,8.85969,314.169],[-5.50449,8.85868,285.2015],[-5.49906,8.85899,273.3578],[-5.49317,8.86272,272.3352],[-5.48366,8.86233,277.2769],[-5.47359,8.86594,275.4381],[-5.46666,8.86799,279.483],[-5.45927,8.87819,279.4027],[-5.46098,8.89072,274.2065],[-5.46697,8.89264,275.9545],[-5.48155,8.90251,281.1487],[-5.49198,8.91346,276.2361],[-5.48547,8.91865,278.071],[-5.45964,8.92641,282.3312],[-5.46522,8.96506,281.1252],[-5.44052,8.9801,283.9274],[-5.45509,8.99167,283.334],[-5.46098,8.99439,297.5151],[-5.46098,9.00059,306.6998],[-5.45023,9.00126,283.8519],[-5.43969,9.00028,281.3401],[-5.42977,8.9979,286.8871],[-5.42067,8.99439,283.9031],[-5.43721,9.02457,281.8235],[-5.4972,9.06335,280.8594],[-5.49571,9.08996,305.7465],[-5.47328,9.08627,292.7664],[-5.45788,9.10007,300.5285],[-5.44754,9.12254,291.563],[-5.43524,9.16642,292.3578],[-5.43499,9.18352,285.7112],[-5.44103,9.19859,298.1277],[-5.45478,9.21349,299.4589],[-5.42429,9.21163,298.9638],[-5.40527,9.2299,294.647],[-5.3955,9.25954,294.4457],[-5.39271,9.29168,314.7762],[-5.38656,9.31798,306.8427],[-5.37168,9.34449,300.0072],[-5.33809,9.3848,298.884],[-5.31618,9.37953,307.3549],[-5.2705,9.38666,334.0475],[-5.25825,9.38666,333.7559],[-5.25252,9.38542,347.7055],[-5.24668,9.38,339.7364],[-5.24053,9.3709,355.5806],[-5.21634,9.3131,360.4449],[-5.21355,9.30783,342.6926],[-5.20942,9.30287,353.6318],[-5.2013,9.29721,363.8809],[-5.19433,9.29504,370.0982],[-5.18756,9.29432,377.0812],[-5.18234,9.29582,367.2597],[-5.17779,9.29806,370.8637],[-5.17423,9.30093,386.7628],[-5.16663,9.30853,385.4678],[-5.16079,9.31566,383.4245],[-5.15609,9.31868,401.5786],[-5.14813,9.32054,393.0857],[-5.0456,9.30333,386.857],[-5.03057,9.29892,381.1686],[-5.01915,9.29331,341.8503],[-5.0161,9.28168,333.4851],[-5.01238,9.25104,333.3235],[-5.01243,9.23721,320.1767],[-5.0117,9.22993,320.3928],[-5.00953,9.22233,327.4911],[-5.004,9.21225,341.664],[-5.00054,9.20758,348.4482],[-4.99057,9.19828,334.593],[-4.98747,9.19432,327.8699],[-4.98488,9.19006,323.5256],[-4.97331,9.16073,309.2179],[-4.96819,9.15427,299.1156],[-4.96282,9.15001,311.7502],[-4.9576,9.14823,310.6602],[-4.94814,9.14381,290.8509],[-4.93708,9.1342,287.8983],[-4.93243,9.13203,292.1562],[-4.91734,9.1297,288.5967],[-4.91274,9.12782,284.1055],[-4.90463,9.12316,283.3184],[-4.89492,9.12154,293.8642],[-4.89088,9.11913,286.6075],[-4.88747,9.11588,278.8646],[-4.88468,9.11169,280.7032],[-4.88313,9.10355,274.7344],[-4.88282,9.09206,276.3517],[-4.89605,9.00059,297.4478],[-4.89595,9.00005,297.3114],[-4.89569,8.99943,297.3114],[-4.89512,8.99764,296.1343],[-4.89636,8.99082,300.8337],[-4.90039,8.98056,288.2448],[-4.91342,8.96157,285.1363],[-4.92117,8.95387,264.4655],[-4.92835,8.95093,268.3251],[-4.93605,8.94581,266.288],[-4.93605,8.90897,302.2382],[-4.57111,8.89731,331.109],[-4.55897,8.90354,348.8673],[-4.54724,8.90726,317.4794],[-4.54,8.90726,294.7717],[-4.53173,8.90501,307.0098],[-4.49515,8.89111,274.8322],[-4.49168,8.88832,296.6502],[-4.48858,8.88452,279.5937],[-4.48347,8.87584,268.7454],[-4.47489,8.87054,310.1229],[-4.46114,8.86489,301.2647],[-4.42761,8.8569,255.6655],[-4.4135,8.85155,261.3427],[-4.40451,8.84659,259.2119],[-4.39484,8.82882,266.2723],[-4.39154,8.82509,244.4387],[-4.38781,8.82192,256.3328],[-4.36988,8.8122,247.0709],[-4.36234,8.80577,262.4303],[-4.35934,8.80174,258.6215],[-4.35686,8.7974,270.8992],[-4.35366,8.78698,244.1033],[-4.34518,8.72678,229.4606],[-4.34353,8.72097,217.9973],[-4.34105,8.71546,229.4883],[-4.33619,8.71011,246.4821],[-4.33071,8.70779,265.8547],[-4.32441,8.70717,256.5629],[-4.30105,8.71244,255.4964],[-4.29351,8.71337,239.8293],[-4.28229,8.71337,231.8152],[-4.27573,8.71135,216.2751],[-4.27108,8.708,211.3736],[-4.26865,8.70358,219.2289],[-4.26663,8.69187,212.4187],[-4.26322,8.68575,222.0592],[-4.25738,8.67983,217.1221],[-4.23738,8.66859,206.6457],[-4.23253,8.66379,208.7459],[-4.22782,8.65324,209.9608],[-4.22416,8.64772,211.1796],[-4.21702,8.64167,226.7972],[-4.21072,8.63919,242.0415],[-4.20441,8.63888,252.3227],[-4.19894,8.63996,242.0402],[-4.18809,8.6443,223.1084],[-4.18137,8.64617,214.7282],[-4.17134,8.64717,204.0544],[-4.1653,8.64554,219.6219],[-4.16059,8.6426,223.5725],[-4.15232,8.63345,222.0374],[-4.14499,8.62756,216.1591],[-4.13817,8.6257,220.1944],[-4.13196,8.62562,242.6001],[-4.12602,8.62663,254.0373],[-4.1207,8.62834,257.123],[-4.11191,8.62857,279.2288],[-4.10065,8.62803,229.9826],[-4.07848,8.62314,243.6523],[-4.06665,8.62206,219.8385],[-4.05765,8.62211,276.0685],[-4.04019,8.62663,251.7202],[-4.03207,8.62741,231.4599],[-4.01952,8.62725,217.6965],[-4.0036,8.62345,207.3936],[-4.00009,8.62159,203.1235],[-3.99755,8.61955,225.951],[-3.98768,8.60816,206.1618],[-3.98246,8.60351,205.1273],[-3.97699,8.60203,212.4535],[-3.97172,8.60265,194.0322],[-3.95606,8.60878,187.6343],[-3.94645,8.61141,188.9077],[-3.93172,8.61389,201.7283],[-3.93714,8.62903,213.2325],[-3.94712,8.63748,185.6558],[-3.93652,8.67337,203.3991],[-3.9266,8.68717,192.9541],[-3.90955,8.69273,189.8665],[-3.87947,8.69332,188.6375],[-3.86614,8.69704,193.9949],[-3.85777,8.70577,198.4364],[-3.87358,8.7103,226.2109],[-3.87043,8.71895,192.6475],[-3.85157,8.73368,187.4849],[-3.82594,8.77412,197.3395],[-3.8202,8.78086,192.4891],[-3.80769,8.77722,201.5679],[-3.79777,8.77251,190.581],[-3.79121,8.77636,200.7157],[-3.78883,8.79825,193.9722],[-3.79348,8.81158,194.5197],[-3.80465,8.82342,199.9555],[-3.8185,8.83039,218.0371],[-3.83105,8.82928,198.1937],[-3.83271,8.83292,193.7181],[-3.83255,8.83416,196.8206],[-3.83322,8.83463,196.8206],[-3.83725,8.8361,205.2664],[-3.83162,8.84266,192.2337],[-3.82924,8.84654,197.7747],[-3.82573,8.84869,195.7112],[-3.81674,8.84977,207.9028],[-3.81674,8.85721,198.8836],[-3.83586,8.87295,196.7924],[-3.86583,8.90798,197.6859],[-3.88195,8.92207,207.8397],[-3.89766,8.94628,192.9719],[-3.88991,8.96374,201.5547],[-3.86867,8.97658,203.5577],[-3.84408,8.98695,211.9848],[-3.83069,8.98906,203.6026],[-3.81612,8.9895,194.3623],[-3.80537,8.99377,208.6826],[-3.8031,9.00741,196.7601],[-3.81074,9.01829,200.0179],[-3.82573,9.02715,197.0566],[-3.84227,9.03317,200.7994],[-3.87787,9.04183,201.894],[-3.88531,9.05836,198.4088],[-3.8818,9.08043,203.8235],[-3.87203,9.10363,199.6403],[-3.86242,9.08854,202.3719],[-3.85131,9.07647,218.3683],[-3.84361,9.07803,215.9714],[-3.84408,9.10363,203.7728],[-3.85079,9.11913,201.7668],[-3.86252,9.11921,202.8656],[-3.8788,9.11316,209.5583],[-3.89932,9.11045,199.7505],[-3.89735,9.1141,202.1851],[-3.89684,9.11469,202.1851],[-3.8957,9.11472,204.1266],[-3.89188,9.11665,202.8013],[-3.90588,9.13203,213.6507],[-3.89363,9.16549,205.8402],[-3.90955,9.1719,210.4072],[-3.93962,9.17014,224.2007],[-3.94712,9.1719,214.5423],[-3.9513,9.17954,216.4299],[-3.95332,9.19102,205.3197],[-3.95647,9.20145,212.3159],[-3.96422,9.20603,207.215],[-3.97502,9.20828,206.6573],[-3.99544,9.21807,216.4794],[-4.03647,9.22652,209.0977],[-4.06318,9.24409,208.5362],[-4.09052,9.2675,216.6166],[-4.096,9.26287,208.7224],[-4.10189,9.26194,205.9685],[-4.10902,9.2622,213.0257],[-4.11843,9.26127,208.9047],[-4.13393,9.25654,212.5547],[-4.15253,9.24701,205.9579],[-4.15873,9.23923,208.2869],[-4.1594,9.23207,219.0278],[-4.16194,9.22892,218.7496],[-4.17367,9.23334,214.4172],[-4.17713,9.23729,215.4494],[-4.18163,9.24502,214.855],[-4.18555,9.25385,216.391],[-4.18736,9.26127,213.223],[-4.18524,9.27734,210.3578],[-4.18039,9.28796,223.327],[-4.17713,9.29892,213.501],[-4.17987,9.31589,217.8961],[-4.18271,9.3199,223.2581],[-4.1869,9.32289,218.8029],[-4.19093,9.32749,216.6729],[-4.19356,9.33638,231.3657],[-4.19315,9.3446,229.6439],[-4.19093,9.35132,224.8892],[-4.1885,9.35656,224.6825],[-4.18736,9.36028,214.172],[-4.18617,9.37002,211.8069],[-4.18106,9.38033,216.7449],[-4.17987,9.38821,221.3607],[-4.18199,9.39563,214.4025],[-4.19139,9.41183,215.298],[-4.1964,9.44457,219.155],[-4.20431,9.45839,221.0721],[-4.23139,9.48379,220.2162],[-4.2378,9.49203,221.9861],[-4.2409,9.49924,222.5546],[-4.24193,9.50728,220.4774],[-4.24193,9.51792,235.3899],[-4.24436,9.52895,237.7409],[-4.2503,9.53487,215.3334],[-4.25805,9.53908,213.403],[-4.26581,9.54492,217.0473],[-4.31025,9.60391,215.5494],[-4.32248,9.60898,216.905],[-4.32255,9.6089,216.905],[-4.34968,9.62003,218.9512],[-4.36503,9.62417,224.88],[-4.36802,9.60838,220.4462],[-4.36782,9.59197,222.9286],[-4.37118,9.58296,227.2357],[-4.38487,9.58942,220.1536],[-4.39159,9.60029,220.1138],[-4.40017,9.63313,227.699],[-4.40911,9.64773,219.8941],[-4.43337,9.65347,229.5504],[-4.46921,9.65176,219.7733],[-4.50171,9.65502,222.7699],[-4.51592,9.67569,222.268],[-4.51365,9.69401,225.0426],[-4.50383,9.7199,222.2805],[-4.50161,9.73711,221.4204],[-4.50396,9.74202,220.2132],[-4.50995,9.74507,224.0861],[-4.51778,9.74662,231.0075],[-4.53595,9.74662,230.5238],[-4.5391,9.7447,226.1574],[-4.5399,9.74078,227.6967],[-4.54305,9.73401,228.2706],[-4.54796,9.72026,228.3293],[-4.54843,9.7068,224.7039],[-4.5522,9.69646,226.6253],[-4.56672,9.69241,226.6783],[-4.57832,9.69652,224.7646],[-4.59271,9.71783,227.3078],[-4.60403,9.72716,237.6207],[-4.61695,9.71385,229.6177],[-4.62873,9.7077,232.5553],[-4.64111,9.70602,230.6135],[-4.65581,9.70608,226.5313],[-4.65472,9.70354,225.7693],[-4.65826,9.6976,232.2775],[-4.66483,9.69086,232.498],[-4.67291,9.68559,228.2456],[-4.68108,9.68207,229.8134],[-4.6818,9.68285,227.1879],[-4.68154,9.68672,240.121],[-4.68661,9.69241,251.3937],[-4.7001,9.69791,247.7183],[-4.70547,9.7021,240.7603],[-4.70764,9.70977,243.5536],[-4.70909,9.72031,262.4711],[-4.71281,9.72685,253.8228],[-4.72438,9.73711,237.1135],[-4.73002,9.74424,238.6935],[-4.73332,9.74964,232.352],[-4.73834,9.75315,232.6659],[-4.74865,9.7545,233.7116],[-4.75859,9.75331,233.7707],[-4.76213,9.74995,239.3111],[-4.76045,9.74532,239.5258],[-4.75477,9.74021,240.0355],[-4.76996,9.73737,237.9094],[-4.78319,9.75837,236.4016],[-4.79645,9.7545,236.5082],[-4.79931,9.76253,237.2961],[-4.80123,9.76646,238.7799],[-4.81012,9.77434,236.02],[-4.81012,9.78178,238.4418],[-4.8004,9.78111,243.6399],[-4.7919,9.78235,240.8675],[-4.77591,9.78801,252.2226],[-4.78541,9.80483,241.3127],[-4.79032,9.82751,242.7792],[-4.79846,9.84253,239.8145],[-4.81756,9.83645,260.151],[-4.82427,9.85697,249.7055],[-4.83846,9.86945,248.6945],[-4.85833,9.8757,256.0135],[-4.88174,9.87741,256.8311],[-4.89006,9.8795,252.3554],[-4.8935,9.8842,267.8605],[-4.89802,9.88891,265.686],[-4.90939,9.89105,262.244],[-4.91709,9.88648,270.6974],[-4.92236,9.87746,269.029],[-4.92801,9.87095,269.1376],[-4.93667,9.874,269.5855],[-4.96607,9.90102,263.9102],[-4.96731,9.91237,265.2624],[-4.95295,9.95337,272.4626],[-4.95481,9.9597,271.897],[-4.96571,9.98311,272.6713],[-4.97693,9.99761,287.4861],[-4.9814,10.00774,265.6176],[-4.96021,10.00849,270.6096],[-4.95641,10.022,282.0659],[-4.96334,10.04032,273.9736],[-4.97452,10.05554,279.0692],[-4.98664,10.06326,271.4391],[-4.99979,10.06946,270.4183],[-5.01052,10.07905,270.8757],[-5.01558,10.09711,271.9241],[-5.02553,10.08874,281.8738],[-5.03723,10.08375,272.1131],[-5.04834,10.08535,272.622],[-5.05648,10.09711,277.8418],[-5.04287,10.10334,273.1612],[-5.04938,10.10535,275.7211],[-5.05514,10.10804,273.7213],[-5.0617,10.11006,272.7931],[-5.0701,10.11016,273.6238],[-5.06103,10.11845,279.8984],[-5.03759,10.12649,272.768],[-5.03946,10.13434,280.8429],[-5.06472,10.1508,278.2738],[-5.07072,10.16101,280.1248],[-5.06395,10.17904,274.8813],[-5.09072,10.17793,279.2319],[-5.09015,10.18881,280.8575],[-5.0816,10.2069,280.4837],[-5.08441,10.22744,288.8934],[-5.08733,10.22082,277.0468],[-5.09191,10.21434,275.8987],[-5.09785,10.20927,279.2539],[-5.1049,10.20695,277.7302],[-5.11707,10.20803,279.4517],[-5.11821,10.21248,278.4393],[-5.11441,10.21829,278.9237],[-5.1118,10.22372,280.958],[-5.1118,10.27865,280.4914],[-5.11919,10.29353,280.7793],[-5.11988,10.29398,283.3561],[-5.13568,10.30428,281.878],[-5.15206,10.30563,282.3875],[-5.1595,10.29232,292.6965],[-5.16844,10.29134,286.9873],[-5.21758,10.31994,297.1108],[-5.23355,10.31568,283.8945],[-5.2798,10.32242,296.3045],[-5.29665,10.32304,293.0272],[-5.30414,10.31842,310.1254],[-5.30921,10.31149,301.7176],[-5.31551,10.30526,289.1129],[-5.32709,10.30258,300.7209],[-5.33851,10.30221,291.9877],[-5.34378,10.30309,290.1241],[-5.34817,10.30599,292.7759],[-5.35334,10.30826,292.6573],[-5.35706,10.30439,294.3564],[-5.36083,10.29875,301.2202],[-5.36553,10.2957,308.9991],[-5.38574,10.29648,290.7698],[-5.40253,10.30056,292.589],[-5.41623,10.30754,292.2291],[-5.42698,10.31686,299.156],[-5.43008,10.32294,295.8628],[-5.43349,10.33188,299.6412],[-5.43783,10.34002,298.8137],[-5.44377,10.34353,292.0064],[-5.45302,10.34394,293.3378],[-5.45995,10.34516,293.3152],[-5.47416,10.35033,326.6181],[-5.47529,10.36771,295.2371],[-5.48749,10.39293,297.4039],[-5.50511,10.41557,295.9355],[-5.52258,10.42549,311.7493],[-5.54971,10.43564,327.5435],[-5.57172,10.44988,322.3177],[-5.58438,10.45425,305.3765],[-5.59405,10.45394,305.0205],[-5.6218,10.44693,311.7066],[-5.67756,10.44151,351.4628],[-5.80628,10.41347,337.4753],[-5.87806,10.37606,347.0309],[-5.8933,10.36503,344.5482],[-5.90483,10.34828,345.7738],[-5.90896,10.33007,353.6608],[-5.90473,10.27529,376.7501],[-5.9164,10.26664,358.4499],[-5.96302,10.28273,345.2107],[-5.97475,10.27364,352.433],[-5.97831,10.24863,349.4486],[-5.98524,10.22728,360.3401],[-5.99712,10.20819,369.1854],[-6.01593,10.18987,352.8994],[-6.10533,10.18928,369.0644],[-6.18088,10.21584,354.7904],[-6.19432,10.22418,341.0523],[-6.21401,10.24785,337.322],[-6.22481,10.25503,329.4015],[-6.24,10.25193,336.5057],[-6.24331,10.28901,344.6699],[-6.24067,10.30258,322.8869],[-6.22832,10.31609,335.0363],[-6.22589,10.31449,329.4564],[-6.22114,10.31035,320.8475],[-6.21437,10.3078,322.0427],[-6.20615,10.31082,321.9524],[-6.20398,10.31604,322.3873],[-6.20538,10.32263,332.0385],[-6.20781,10.32852,343.5796],[-6.20832,10.33198,353.8618],[-6.18393,10.35885,321.8368],[-6.19876,10.37082,325.2671],[-6.19566,10.38921,321.1335],[-6.18057,10.42022,339.8965],[-6.1969,10.43916,328.3156],[-6.20037,10.44877,324.6569],[-6.1982,10.4574,341.2003],[-6.1875,10.47541,325.2627],[-6.18579,10.48133,351.5243],[-6.19029,10.49114,332.1685],[-6.19613,10.49468,323.7722],[-6.20419,10.49437,336.3711],[-6.21566,10.49262,336.8885],[-6.22243,10.49463,347.2282],[-6.22817,10.50057,330.4383],[-6.23349,10.50758,331.2011],[-6.23866,10.51274,315.3601],[-6.24765,10.51383,325.6971],[-6.25602,10.51161,332.4168]]]}
,"properties": {"ISO3166-1-Alpha-3": "CIV","country": "Ivory Coast","fill": "#F0F","name": "Savanes","area_km2": 40273.26,"hist_schema_id": "Elevation0-9000","hist_area_km2": {"175": 7.36,"200": 363.81,"225": 1239.26,"250": 2115.93,"275": 2442.41,"300": 3538.01,"325": 6965.75,"350": 10755.43,"375": 7411.89,"400": 3435.74,"425": 1312.62,"450": 399.48,"475": 134.56,"500": 61.53,"525": 39.49,"550": 22.12,"575": 12.19,"600": 6.4,"625": 4.03,"650": 2.95,"675": 0.98,"700": 0.59,"725": 0.42}}}