{"type": "Feature","bbox": [-6.9591,8.5368,-3.7757,10.7366],"geometry": {"type": "MultiPolygon","coordinates": [[[[-5.6867,8.7548,306.3766],[-5.6811,8.7586,307.4836],[-5.7033,8.7761,324.7438],[-5.7035,8.7813,335.842],[-5.6643,8.8402,374.2195],[-5.6515,8.8387,342.5135],[-5.6477,8.8348,342.0293],[-5.6119,8.8424,377.2247],[-5.601,8.8461,349.5957],[-5.5936,8.8522,345.6033],[-5.5939,8.8587,347.6004],[-5.5873,8.8708,381.8504],[-5.5795,8.8744,356.8259],[-5.5743,8.8752,351.9039],[-5.5613,8.8716,340.4924],[-5.5574,8.8749,360.7511],[-5.5409,8.8746,356.9223],[-5.513,8.8788,315.0317],[-5.5037,8.8763,307.8627],[-5.4932,8.8711,275.677],[-5.4891,8.8718,281.9341],[-5.483,8.8657,276.9885],[-5.4736,8.8601,276.6518],[-5.4642,8.8661,273.6872],[-5.4537,8.869,283.1232],[-5.4468,8.873,286.3727],[-5.4439,8.8834,277.8603],[-5.4518,8.8933,290.5003],[-5.4627,8.8972,285.0166],[-5.4768,8.8978,276.7631],[-5.4847,8.9059,289.9401],[-5.4883,8.9132,281.3803],[-5.4844,8.914,277.6158],[-5.4659,8.9024,278.0764],[-5.4587,8.9025,276.693],[-5.4564,8.9044,273.6123],[-5.4541,8.9169,281.2353],[-5.4501,8.9236,288.2265],[-5.4503,8.9273,290.6306],[-5.4521,8.9304,295.8946],[-5.4568,8.9327,284.5856],[-5.4727,8.9373,278.4555],[-5.4674,8.9465,287.0591],[-5.4651,8.9588,281.954],[-5.4675,8.9729,283.025],[-5.4634,8.9735,277.4305],[-5.4585,8.9635,282.9747],[-5.4521,8.9599,279.4016],[-5.4428,8.9672,282.6025],[-5.4398,8.9706,280.6978],[-5.4385,8.9751,280.4494],[-5.4393,8.9837,296.4037],[-5.4496,8.9927,288.4606],[-5.4567,8.9921,281.3911],[-5.4526,8.9956,279.1783],[-5.4424,8.9974,279.0257],[-5.4181,8.9838,278.0345],[-5.4142,8.9845,281.839],[-5.4087,8.9895,290.4398],[-5.4088,8.9972,290.5169],[-5.4129,9.004,279.0168],[-5.4223,9.0117,277.8444],[-5.4296,9.0237,295.7799],[-5.4368,9.0299,300.903],[-5.4473,9.0363,292.4988],[-5.461,9.0397,281.772],[-5.4647,9.0421,294.7553],[-5.4751,9.0439,279.9075],[-5.4813,9.0473,281.9958],[-5.4895,9.0602,289.4997],[-5.4902,9.0651,290.5709],[-5.4798,9.0771,295.1317],[-5.4824,9.0833,290.4221],[-5.4826,9.0889,281.8924],[-5.4807,9.0908,286.2482],[-5.4748,9.0876,286.7971],[-5.4635,9.0867,291.4951],[-5.4577,9.0885,281.4496],[-5.4451,9.0963,293.5622],[-5.4425,9.1006,297.5681],[-5.4428,9.1069,293.4906],[-5.4491,9.1224,284.6305],[-5.4486,9.1253,282.3136],[-5.4285,9.1437,302.8606],[-5.4291,9.1511,295.7044],[-5.4331,9.1537,282.6864],[-5.4359,9.158,287.33],[-5.4226,9.1676,288.3473],[-5.4199,9.1715,290.5289],[-5.42,9.1776,284.6448],[-5.4286,9.186,286.9471],[-5.4293,9.1891,285.261],[-5.424,9.1878,288.0861],[-5.4195,9.1886,293.5326],[-5.4169,9.194,290.5035],[-5.4295,9.1987,290.3848],[-5.4345,9.2021,288.9527],[-5.4323,9.2043,287.3386],[-5.4277,9.2038,284.5563],[-5.4134,9.1988,286.7618],[-5.4036,9.2039,296.9396],[-5.4046,9.2078,296.7012],[-5.3984,9.2121,292.4849],[-5.3947,9.2201,305.1082],[-5.3963,9.2266,302.0125],[-5.3936,9.2346,295.2852],[-5.3983,9.2388,288.2123],[-5.3917,9.2484,285.638],[-5.3848,9.2552,296.7831],[-5.3812,9.2668,303.4032],[-5.3815,9.2807,289.2919],[-5.3748,9.2828,298.6068],[-5.3722,9.2853,306.8509],[-5.3715,9.2886,304.8698],[-5.3759,9.2972,289.7317],[-5.3821,9.304,293.1105],[-5.3806,9.307,287.2012],[-5.3718,9.3018,288.2357],[-5.3671,9.3031,297.0225],[-5.3603,9.31,294.1658],[-5.3589,9.3166,292.4608],[-5.3522,9.3191,299.1808],[-5.3501,9.3219,295.6418],[-5.3501,9.3252,291.816],[-5.3554,9.3326,295.2014],[-5.3445,9.3371,298.963],[-5.3426,9.3423,300.9161],[-5.3495,9.3467,291.4849],[-5.3442,9.3494,286.1642],[-5.3426,9.3562,291.3699],[-5.3345,9.3599,302.4963],[-5.3324,9.363,295.6016],[-5.3306,9.3743,290.2578],[-5.3226,9.3888,293.8249],[-5.3181,9.3896,296.6664],[-5.3003,9.3842,302.4165],[-5.2815,9.3923,310.0553],[-5.256,9.397,325.0406],[-5.246,9.397,317.9724],[-5.2382,9.4028,331.8849],[-5.208,9.4078,365.8088],[-5.2005,9.4245,337.5166],[-5.1943,9.4178,342.9081],[-5.1922,9.4087,347.0623],[-5.1892,9.3773,377.0251],[-5.1899,9.3687,354.093],[-5.1926,9.3621,338.8118],[-5.1837,9.3543,346.3867],[-5.1503,9.348,365.1096],[-5.1431,9.3399,365.0049],[-5.1286,9.3331,381.6174],[-5.1144,9.3293,419.1932],[-5.1018,9.3293,414.1002],[-5.0927,9.3358,395.5799],[-5.0831,9.334,388.8665],[-5.0779,9.3356,377.8417],[-5.0719,9.3348,378.8135],[-5.0542,9.3437,361.6974],[-5.0467,9.3422,360.0747],[-5.0347,9.3322,346.9161],[-5.0309,9.3316,346.6845],[-5.023,9.314,336.6869],[-5.0249,9.3074,338.505],[-5.0187,9.302,341.4314],[-5.0155,9.2932,328.7304],[-5.011,9.2869,334.5387],[-5.0138,9.2804,331.5835],[-5.0109,9.2724,336.4982],[-5.0131,9.259,327.3943],[-5.0117,9.248,332.1543],[-5.016,9.2283,323.6043],[-5.0101,9.2233,326.2814],[-4.9975,9.2193,313.5576],[-4.9896,9.2093,315.0138],[-4.9809,9.1923,306.2745],[-4.9804,9.1838,303.7876],[-4.9817,9.1794,296.7794],[-4.9859,9.175,295.9871],[-4.9827,9.1698,297.7466],[-4.9742,9.1641,303.6036],[-4.9654,9.1627,292.2307],[-4.9612,9.155,297.8141],[-4.9556,9.1546,291.0999],[-4.9525,9.1441,292.0046],[-4.9475,9.1387,292.9643],[-4.9401,9.1347,292.9147],[-4.9308,9.1324,287.5993],[-4.9261,9.1285,291.9457],[-4.9221,9.1303,288.7837],[-4.9169,9.1268,291.0642],[-4.9142,9.1272,283.6992],[-4.906,9.121,289.7276],[-4.8993,9.1203,296.5863],[-4.8935,9.1288,281.6939],[-4.8857,9.1113,280.7032],[-4.8846,9.099,278.0884],[-4.8929,9.0723,274.4904],[-4.8972,9.0525,272.575],[-4.8973,9.0454,272.2393],[-4.9036,9.0411,275.2632],[-4.9066,9.0276,271.5669],[-4.9059,9.0169,271.9174],[-4.9112,8.996,283.1252],[-4.9051,8.9942,270.9041],[-4.9132,8.9864,269.1848],[-4.9149,8.981,274.0618],[-4.9138,8.9714,268.9509],[-4.9256,8.9654,277.1114],[-4.9288,8.9541,271.8384],[-4.9392,8.9496,277.113],[-4.9427,8.942,266.5505],[-4.9466,8.942,268.1547],[-4.9488,8.9505,275.9835],[-4.9566,8.9495,262.986],[-4.9639,8.9415,268.077],[-4.9545,8.9223,261.9095],[-4.5691,8.9143,314.155],[-4.5608,8.9219,305.4578],[-4.5552,8.9199,303.975],[-4.5483,8.9115,305.4622],[-4.5425,8.9106,299.6368],[-4.5355,8.9064,297.6597],[-4.5128,8.9115,282.8711],[-4.4991,8.8926,272.1016],[-4.4977,8.8812,276.9117],[-4.4922,8.8768,289.1864],[-4.4779,8.8814,267.3737],[-4.471,8.8862,265.7193],[-4.4658,8.8847,275.1937],[-4.4611,8.886,259.7],[-4.4554,8.8799,260.76],[-4.4339,8.869,254.3492],[-4.4315,8.8609,246.795],[-4.4262,8.8566,250.6512],[-4.4183,8.8544,240.3344],[-4.4077,8.8657,242.0471],[-4.3875,8.8311,242.6747],[-4.3785,8.8185,238.6753],[-4.3835,8.8046,235.6891],[-4.3776,8.7946,225.0642],[-4.3798,8.7848,230.5172],[-4.3532,8.7263,234.0961],[-4.3476,8.7197,225.7092],[-4.3394,8.7213,229.2322],[-4.3324,8.7313,228.058],[-4.3244,8.7338,223.6973],[-4.3159,8.7317,229.3815],[-4.3033,8.737,229.8378],[-4.2982,8.7418,222.1539],[-4.2904,8.7366,217.9011],[-4.2856,8.741,217.8629],[-4.2816,8.7424,217.115],[-4.28,8.7396,213.8016],[-4.2818,8.7313,219.6475],[-4.2802,8.7264,221.7787],[-4.2726,8.7194,211.3562],[-4.2782,8.7169,220.0245],[-4.2772,8.7117,219.6347],[-4.273,8.706,218.8771],[-4.2686,8.704,216.4051],[-4.2644,8.7045,210.0877],[-4.2628,8.6867,222.0592],[-4.2568,8.685,213.7889],[-4.2499,8.6788,210.4998],[-4.2456,8.6717,207.5105],[-4.232,8.663,209.111],[-4.2228,8.6515,207.641],[-4.2155,8.6498,210.5026],[-4.2068,8.6547,221.45],[-4.2008,8.6646,206.5856],[-4.2021,8.668,204.9825],[-4.1953,8.6712,215.0128],[-4.1946,8.675,240.2479],[-4.1716,8.6601,204.6119],[-4.1729,8.6539,217.1025],[-4.172,8.6485,204.0544],[-4.1672,8.6462,216.838],[-4.1628,8.6516,215.7551],[-4.1608,8.6572,200.8296],[-4.1552,8.6602,203.4306],[-4.138,8.6505,204.3882],[-4.1294,8.6433,287.4396],[-4.1234,8.6418,221.4001],[-4.1128,8.6426,221.5401],[-4.1077,8.6454,210.3624],[-4.1061,8.6479,205.0654],[-4.0936,8.6431,211.1126],[-4.0903,8.6496,196.8793],[-4.0807,8.6484,196.7887],[-4.0767,8.6451,224.7868],[-4.0747,8.6517,201.0933],[-4.0783,8.6591,197.455],[-4.0717,8.6573,196.799],[-4.063,8.6461,197.2072],[-4.0564,8.6478,192.9448],[-4.0505,8.6415,220.8885],[-4.0467,8.6418,247.717],[-4.0342,8.6521,224.0536],[-4.0219,8.6489,199.4133],[-4.0008,8.638,196.8617],[-3.991,8.6421,196.9633],[-3.9842,8.6378,187.8431],[-3.9846,8.632,196.8254],[-3.9822,8.6281,187.818],[-3.977,8.6277,187.2633],[-3.9713,8.6231,188.4983],[-3.962,8.6266,189.2215],[-3.9521,8.6258,214.1242],[-3.9425,8.6352,192.0385],[-3.931,8.6394,201.0955],[-3.9299,8.6662,185.8176],[-3.9252,8.6786,189.712],[-3.9185,8.6844,194.1499],[-3.9015,8.6814,195.6101],[-3.892,8.6864,185.5653],[-3.8846,8.693,192.6804],[-3.8496,8.6942,196.7004],[-3.8506,8.7017,192.6686],[-3.8567,8.7061,190.9681],[-3.8643,8.707,186.8586],[-3.8684,8.7129,195.8308],[-3.8704,8.7278,190.9131],[-3.859,8.7305,198.6824],[-3.8539,8.7268,199.6239],[-3.8434,8.7281,200.6728],[-3.8221,8.7415,197.2207],[-3.817,8.7502,187.9812],[-3.8181,8.7598,193.9427],[-3.8255,8.7667,189.2124],[-3.8246,8.7781,195.9555],[-3.8135,8.7821,206.0209],[-3.8054,8.7799,194.5743],[-3.8048,8.7725,219.4273],[-3.8003,8.7675,219.9211],[-3.7881,8.7675,196.839],[-3.7779,8.7729,194.5203],[-3.7757,8.783,189.6597],[-3.7784,8.7925,190.122],[-3.7896,8.8126,200.7217],[-3.7933,8.8259,198.2126],[-3.8041,8.8344,197.865],[-3.8178,8.8383,189.8133],[-3.8243,8.8317,197.9394],[-3.8308,8.8439,193.0057],[-3.8251,8.8476,195.7112],[-3.8117,8.8493,202.4673],[-3.8057,8.8547,200.0404],[-3.818,8.8683,196.7747],[-3.8231,8.8771,197.6373],[-3.832,8.884,191.6435],[-3.8418,8.886,194.5093],[-3.8441,8.8928,206.4535],[-3.8448,8.9069,197.0221],[-3.8509,8.9168,195.2894],[-3.8797,8.9271,191.8091],[-3.886,8.9348,195.8456],[-3.8887,8.9481,193.0848],[-3.8961,8.9589,199.4561],[-3.8909,8.9625,200.1757],[-3.8707,8.9538,203.438],[-3.8508,8.9743,196.5993],[-3.8422,8.9786,193.3109],[-3.834,8.9791,195.8477],[-3.8238,8.9867,195.5041],[-3.8071,8.9954,214.735],[-3.8003,9.0034,196.7274],[-3.8028,9.0135,220.111],[-3.8099,9.0203,198.3377],[-3.8207,9.0265,196.2772],[-3.8347,9.0317,197.2569],[-3.8559,9.0342,199.0584],[-3.8739,9.0498,212.5556],[-3.8807,9.0579,201.2724],[-3.8874,9.0586,196.5071],[-3.8929,9.0564,199.6758],[-3.9049,9.0631,201.3352],[-3.8952,9.0657,206.3585],[-3.8893,9.0707,199.816],[-3.8899,9.0957,199.0872],[-3.8818,9.1032,199.9253],[-3.8734,9.0946,200.3924],[-3.8669,9.0842,201.8357],[-3.8601,9.0785,224.3186],[-3.8538,9.0782,214.0761],[-3.8489,9.0859,200.6918],[-3.8472,9.0968,201.0666],[-3.8516,9.1126,202.6576],[-3.8473,9.1207,211.9188],[-3.8558,9.1282,200.2335],[-3.8727,9.1285,200.7776],[-3.8762,9.1262,200.0544],[-3.8788,9.1187,201.9588],[-3.8842,9.1144,202.4308],[-3.8935,9.1127,201.083],[-3.9055,9.1149,200.5059],[-3.9098,9.1246,204.4769],[-3.9121,9.1428,202.8471],[-3.9104,9.1507,205.6692],[-3.8907,9.1693,205.3267],[-3.8884,9.1739,201.5989],[-3.8964,9.1806,201.8649],[-3.913,9.1766,206.4396],[-3.9343,9.1759,202.3632],[-3.9445,9.1821,206.5545],[-3.9527,9.1894,204.0526],[-3.9605,9.2084,203.9822],[-3.9871,9.2116,204.0458],[-4.0089,9.2086,203.2662],[-4.0138,9.2145,212.5092],[-4.0201,9.2181,207.6166],[-4.0315,9.2201,209.0799],[-4.0379,9.2159,208.7909],[-4.0454,9.2224,207.7555],[-4.0588,9.2411,209.769],[-4.0687,9.2427,208.8458],[-4.0773,9.2485,212.099],[-4.0818,9.2584,204.6608],[-4.0932,9.2602,207.7765],[-4.1086,9.2577,207.4709],[-4.128,9.2611,207.534],[-4.134,9.2607,209.0103],[-4.1424,9.252,206.4946],[-4.154,9.2478,211.0276],[-4.1647,9.2382,210.0913],[-4.1682,9.23,212.9813],[-4.1708,9.2286,208.4762],[-4.1811,9.2406,216.2269],[-4.1949,9.2488,209.2634],[-4.1978,9.2584,213.4327],[-4.193,9.267,212.7031],[-4.1797,9.2725,211.5046],[-4.1726,9.2796,209.4972],[-4.1782,9.298,213.5301],[-4.21,9.3375,215.3042],[-4.2096,9.3428,215.6117],[-4.1984,9.3462,225.312],[-4.1919,9.3547,223.6365],[-4.189,9.364,213.7901],[-4.1897,9.3761,218.4886],[-4.1837,9.3837,217.1631],[-4.1806,9.3954,217.0276],[-4.187,9.4019,209.5109],[-4.1972,9.4038,215.2599],[-4.2024,9.4116,218.0108],[-4.1997,9.4204,214.5092],[-4.1964,9.4457,220.8786],[-4.2021,9.4549,220.6186],[-4.2145,9.4581,211.6378],[-4.2233,9.4659,215.5924],[-4.2386,9.4753,212.085],[-4.2411,9.4856,217.2616],[-4.2476,9.491,215.9622],[-4.2491,9.5,215.5271],[-4.2456,9.5132,221.0888],[-4.2449,9.5232,222.7704],[-4.2493,9.5347,214.0266],[-4.2591,9.5438,215.2546],[-4.2716,9.551,216.7939],[-4.3114,9.6086,219.968],[-4.3187,9.5996,217.6354],[-4.3508,9.626,215.1912],[-4.3612,9.6262,218.1668],[-4.3708,9.6189,223.2808],[-4.3732,9.6122,220.5547],[-4.3714,9.6028,219.1754],[-4.3749,9.5965,220.0021],[-4.3802,9.5941,220.2228],[-4.3895,9.5945,218.4746],[-4.3944,9.597,220.5614],[-4.4043,9.6064,221.0076],[-4.4107,9.62,222.251],[-4.4171,9.6463,225.341],[-4.4202,9.6522,220.9664],[-4.4334,9.6623,220.7417],[-4.4376,9.6624,217.7849],[-4.4661,9.653,219.6544],[-4.4934,9.6515,221.7028],[-4.5001,9.6481,220.3773],[-4.5079,9.6467,225.7978],[-4.5142,9.656,222.4781],[-4.5189,9.6591,222.218],[-4.5194,9.6695,221.5355],[-4.5218,9.674,221.3615],[-4.5212,9.6809,222.3687],[-4.5233,9.6882,220.7015],[-4.5221,9.7053,225.1003],[-4.5098,9.7154,221.6101],[-4.5073,9.7199,221.3634],[-4.5054,9.7335,225.9029],[-4.5068,9.7398,221.7163],[-4.5095,9.7423,221.4266],[-4.5193,9.746,231.0075],[-4.5525,9.7455,226.2161],[-4.5593,9.7405,231.9468],[-4.5606,9.7377,229.5873],[-4.5547,9.725,228.559],[-4.547,9.7228,225.5716],[-4.5453,9.7197,226.0775],[-4.5475,9.7136,233.2736],[-4.5562,9.7003,221.7825],[-4.5648,9.6907,224.7224],[-4.571,9.6873,227.0551],[-4.5805,9.6878,231.1344],[-4.5902,9.694,233.3276],[-4.5917,9.7023,228.3985],[-4.6032,9.7153,224.1299],[-4.6095,9.7161,227.027],[-4.6128,9.7183,228.019],[-4.6147,9.7222,225.8277],[-4.6177,9.7226,225.8627],[-4.6198,9.72,225.4069],[-4.6191,9.7132,226.9667],[-4.623,9.71,227.9581],[-4.6283,9.7016,226.3072],[-4.6314,9.702,227.3402],[-4.6359,9.7065,229.2144],[-4.6445,9.7074,229.4263],[-4.6486,9.7142,237.8162],[-4.6528,9.7141,247.3775],[-4.6573,9.711,233.5912],[-4.6597,9.7062,225.7416],[-4.6591,9.6977,232.2775],[-4.6658,9.6888,230.7294],[-4.6688,9.6882,231.0836],[-4.6747,9.6906,240.343],[-4.6823,9.6792,230.0325],[-4.6924,9.6771,230.0797],[-4.6945,9.6782,230.343],[-4.6961,9.6864,233.2629],[-4.708,9.688,238.6221],[-4.7123,9.6943,234.5885],[-4.7205,9.716,235.5815],[-4.7248,9.7221,235.1225],[-4.7275,9.7298,234.081],[-4.7369,9.7356,231.0152],[-4.7387,9.7404,236.1618],[-4.7377,9.747,239.3384],[-4.741,9.7502,232.4051],[-4.7494,9.7527,234.5658],[-4.7715,9.7538,239.5495],[-4.7727,9.7487,240.399],[-4.771,9.7368,238.4397],[-4.7768,9.7362,235.5824],[-4.7851,9.7425,237.2685],[-4.7863,9.7548,241.2337],[-4.7901,9.7573,241.1373],[-4.8002,9.7552,249.5079],[-4.7991,9.7646,236.2664],[-4.8006,9.7692,238.5369],[-4.8039,9.7698,239.7537],[-4.8098,9.7681,242.0428],[-4.8181,9.7846,255.6173],[-4.8163,9.7865,244.9773],[-4.7907,9.7832,242.291],[-4.7887,9.7851,238.6587],[-4.7888,9.7879,248.2523],[-4.7931,9.7926,255.1964],[-4.7963,9.8006,244.0784],[-4.7931,9.8117,239.6558],[-4.7944,9.8176,242.7273],[-4.7936,9.8229,241.8711],[-4.7868,9.8302,239.6139],[-4.7887,9.8334,240.9583],[-4.796,9.8357,242.5341],[-4.8043,9.845,245.4152],[-4.8133,9.8425,239.923],[-4.8205,9.8423,238.8522],[-4.8295,9.8519,239.0899],[-4.8291,9.8621,238.577],[-4.8315,9.8638,239.4799],[-4.846,9.8683,245.6936],[-4.8517,9.865,251.7907],[-4.8572,9.8646,254.7586],[-4.8646,9.8725,246.3409],[-4.8803,9.8707,256.3782],[-4.8861,9.8786,256.2625],[-4.8942,9.8784,255.4231],[-4.9138,9.8936,259.2372],[-4.9196,9.892,259.8644],[-4.928,9.8861,264.5695],[-4.9307,9.883,262.5326],[-4.9313,9.8761,267.2279],[-4.9344,9.8735,264.4243],[-4.937,9.8737,265.9586],[-4.9409,9.8796,264.9465],[-4.956,9.8829,264.1499],[-4.9679,9.8924,267.1598],[-4.9727,9.9077,266.8895],[-4.9718,9.9103,264.6216],[-4.9649,9.9137,262.7036],[-4.9614,9.922,265.3167],[-4.9602,9.9297,262.0613],[-4.9646,9.9383,268.2957],[-4.9615,9.9434,266.5048],[-4.9583,9.9456,268.8865],[-4.9498,9.9472,265.657],[-4.9469,9.9525,268.8809],[-4.9488,9.9552,271.6656],[-4.9591,9.9591,276.1396],[-4.9631,9.9625,272.6608],[-4.9633,9.9698,265.5186],[-4.9667,9.9739,269.3556],[-4.9831,9.9806,265.8233],[-4.9878,9.9844,266.1976],[-4.9896,10.0066,273.2787],[-4.9883,10.0106,268.903],[-4.9862,10.0117,266.7245],[-4.9644,10.004,271.7694],[-4.9641,10.0084,269.1436],[-4.9684,10.0138,276.791],[-4.9615,10.0236,269.9708],[-4.9697,10.0299,270.1766],[-4.9717,10.0422,268.6003],[-4.9824,10.045,274.4293],[-4.9902,10.0517,267.8166],[-4.9937,10.0608,269.2924],[-5.0044,10.0656,268.7996],[-5.0123,10.0634,280.2802],[-5.0176,10.0649,277.9493],[-5.0212,10.0703,272.7739],[-5.0221,10.0736,280.6102],[-5.0201,10.0784,283.9626],[-5.0149,10.0828,270.2566],[-5.0092,10.0967,272.4036],[-5.0037,10.1039,270.1948],[-5.0104,10.1053,271.0872],[-5.0168,10.1008,268.9341],[-5.0231,10.1005,271.4375],[-5.0273,10.0985,269.4178],[-5.0414,10.0885,275.228],[-5.0451,10.081,278.1522],[-5.0525,10.0837,272.1482],[-5.063,10.0807,282.5758],[-5.0652,10.0851,281.4955],[-5.0632,10.0897,281.387],[-5.0473,10.1038,272.8601],[-5.0478,10.1061,272.2622],[-5.0517,10.1072,270.2931],[-5.0589,10.1048,278.0608],[-5.0663,10.108,273.5032],[-5.0765,10.1066,274.1694],[-5.08,10.109,277.2989],[-5.0817,10.1157,283.0237],[-5.0787,10.1239,281.4419],[-5.0739,10.1212,275.0208],[-5.0664,10.1241,272.3165],[-5.0631,10.1233,273.9211],[-5.0602,10.1186,281.1637],[-5.0572,10.1174,281.192],[-5.0544,10.1189,276.8154],[-5.0479,10.1188,273.6995],[-5.0441,10.1238,272.3094],[-5.0492,10.1317,275.0896],[-5.0682,10.1347,277.5581],[-5.0799,10.1423,286.201],[-5.0816,10.1479,280.8333],[-5.0803,10.1534,279.7795],[-5.0811,10.1571,289.7451],[-5.077,10.1639,292.6635],[-5.0736,10.1817,273.8658],[-5.0747,10.1829,279.1762],[-5.0955,10.1797,280.2792],[-5.1051,10.1756,275.9487],[-5.1104,10.1764,275.6777],[-5.1147,10.1813,293.2832],[-5.1116,10.1849,295.8133],[-5.0985,10.1878,288.4417],[-5.0913,10.201,286.8237],[-5.0885,10.2104,285.8044],[-5.0891,10.219,277.8685],[-5.0948,10.2268,282.5774],[-5.1025,10.2178,278.3526],[-5.1229,10.209,278.1866],[-5.1171,10.2236,280.2599],[-5.1088,10.229,280.6353],[-5.1072,10.238,280.6873],[-5.1138,10.2381,280.8354],[-5.1196,10.2422,281.7904],[-5.1209,10.2497,278.3853],[-5.1188,10.2564,278.1716],[-5.1067,10.2617,279.222],[-5.1002,10.2686,278.3994],[-5.099,10.2721,281.3284],[-5.1041,10.2756,280.5259],[-5.1205,10.2788,283.8897],[-5.1212,10.2825,279.3177],[-5.1146,10.2915,281.284],[-5.1111,10.3047,279.211],[-5.1147,10.3041,279.8169],[-5.1243,10.2985,293.0457],[-5.1287,10.3071,280.1159],[-5.1314,10.3079,281.2892],[-5.1325,10.3011,283.3215],[-5.1369,10.3003,279.7693],[-5.148,10.288,287.5043],[-5.1575,10.2839,285.1783],[-5.1709,10.2856,287.7054],[-5.175,10.2914,282.947],[-5.1876,10.2848,293.5444],[-5.1912,10.2907,281.9924],[-5.1872,10.299,282.0552],[-5.1961,10.3048,287.7428],[-5.206,10.3085,289.1477],[-5.208,10.3111,283.8001],[-5.2056,10.3161,283.9117],[-5.2069,10.3223,288.268],[-5.2101,10.3222,295.4166],[-5.2225,10.3094,283.861],[-5.2321,10.3156,283.8945],[-5.2593,10.3132,293.972],[-5.2664,10.3099,291.5685],[-5.2702,10.3148,288.1459],[-5.2786,10.3157,293.6352],[-5.2807,10.3141,285.9972],[-5.2813,10.3091,293.2001],[-5.2861,10.3094,297.5021],[-5.2954,10.3188,287.2414],[-5.3003,10.3199,308.5792],[-5.305,10.3184,310.1254],[-5.3081,10.3154,306.2388],[-5.3021,10.3121,299.711],[-5.3015,10.3084,292.5988],[-5.3039,10.3048,285.9572],[-5.3092,10.3079,296.7758],[-5.3139,10.3015,288.4803],[-5.3207,10.3015,295.3112],[-5.3297,10.2934,289.8039],[-5.3346,10.2933,289.5092],[-5.346,10.2999,292.8139],[-5.352,10.3017,289.8505],[-5.3529,10.3036,290.394],[-5.351,10.3061,291.8183],[-5.3547,10.3068,290.5183],[-5.3592,10.3042,295.8551],[-5.3651,10.2875,294.1703],[-5.3682,10.2853,294.4561],[-5.3742,10.2859,296.0529],[-5.3822,10.2946,290.2244],[-5.3917,10.2922,290.1969],[-5.3968,10.2953,292.8444],[-5.4072,10.2956,299.0382],[-5.4172,10.3061,299.5536],[-5.4232,10.3083,298.8932],[-5.4239,10.3178,297.3448],[-5.4282,10.3229,293.6229],[-5.4329,10.3226,294.3023],[-5.438,10.3192,293.5307],[-5.4408,10.32,296.8545],[-5.4444,10.3251,302.1641],[-5.4447,10.3325,292.0157],[-5.4467,10.3378,294.9522],[-5.4515,10.3414,292.424],[-5.4615,10.3421,303.1793],[-5.4681,10.3459,317.5358],[-5.4726,10.3522,328.1964],[-5.4672,10.3558,311.9902],[-5.4676,10.3581,311.5176],[-5.465,10.3608,304.9598],[-5.4699,10.3696,299.6486],[-5.4687,10.3733,295.996],[-5.4728,10.3768,294.3538],[-5.4788,10.3765,295.3076],[-5.4828,10.3736,306.5464],[-5.4881,10.3778,309.7996],[-5.4892,10.3804,309.8557],[-5.4865,10.3847,299.9294],[-5.4997,10.4082,305.0486],[-5.503,10.409,306.2881],[-5.5095,10.4167,296.9292],[-5.5091,10.4252,297.849],[-5.5138,10.423,311.3346],[-5.5175,10.4233,315.1348],[-5.5155,10.4284,304.933],[-5.5189,10.4333,297.3507],[-5.5245,10.4329,304.81],[-5.5339,10.438,311.9984],[-5.5536,10.4536,314.864],[-5.5631,10.4639,305.6016],[-5.5698,10.465,315.7175],[-5.5794,10.4615,320.6264],[-5.5896,10.4543,304.6561],[-5.597,10.4527,307.2462],[-5.6119,10.4541,316.4949],[-5.6263,10.4533,313.0912],[-5.6406,10.4582,316.2383],[-5.6534,10.4564,319.5737],[-5.6763,10.4629,334.1256],[-5.7008,10.4445,352.0909],[-5.7082,10.441,367.7343],[-5.7352,10.4375,364.9933],[-5.7458,10.4314,352.4691],[-5.7578,10.4314,348.2466],[-5.7725,10.4403,345.09],[-5.7774,10.4404,345.2826],[-5.7905,10.4344,344.4822],[-5.8042,10.4253,343.0672],[-5.8142,10.4229,340.3378],[-5.8203,10.4192,348.6599],[-5.8295,10.4032,338.8434],[-5.8289,10.3977,336.7374],[-5.8483,10.3827,339.2904],[-5.8649,10.3787,329.8072],[-5.8708,10.3807,333.8883],[-5.8843,10.3733,335.6132],[-5.8889,10.3676,342.6277],[-5.8883,10.3582,346.747],[-5.8934,10.3479,337.0829],[-5.8964,10.3365,343.5478],[-5.8955,10.3263,348.826],[-5.9061,10.3196,352.9894],[-5.9097,10.3114,362.5737],[-5.9111,10.3011,357.7333],[-5.9058,10.2844,365.1571],[-5.9092,10.2799,364.3934],[-5.9125,10.2774,366.2672],[-5.9246,10.2756,349.1471],[-5.9407,10.2835,352.4785],[-5.9573,10.2783,336.3156],[-5.964,10.2775,347.3365],[-5.971,10.2795,353.0399],[-5.9761,10.2778,341.5946],[-5.9745,10.2635,344.1023],[-5.9764,10.2532,358.18],[-5.9836,10.2395,350.4647],[-5.9871,10.2274,362.4193],[-5.9907,10.221,365.1884],[-6.0115,10.2037,364.6572],[-6.0232,10.1989,360.9802],[-6.0459,10.2014,347.8943],[-6.0512,10.2038,355.306],[-6.0607,10.2037,345.4176],[-6.0801,10.1986,375.6578],[-6.1009,10.1992,368.5978],[-6.1213,10.2051,347.6938],[-6.1495,10.221,349.4284],[-6.1581,10.2237,338.5035],[-6.1727,10.2226,335.3544],[-6.1835,10.2286,332.3331],[-6.1954,10.2387,325.3732],[-6.1936,10.2515,323.0406],[-6.1978,10.2529,324.5005],[-6.1997,10.257,323.3995],[-6.202,10.2579,323.1542],[-6.2173,10.2564,330.5986],[-6.2226,10.259,335.2811],[-6.2257,10.2817,325.2025],[-6.2314,10.2905,325.3117],[-6.2393,10.298,327.4656],[-6.2328,10.305,323.0455],[-6.219,10.3132,323.9129],[-6.2136,10.3147,323.9626],[-6.2051,10.3137,321.9103],[-6.1996,10.3025,322.0411],[-6.1948,10.3026,321.3806],[-6.1921,10.3125,320.9703],[-6.1855,10.3188,320.9944],[-6.1875,10.3225,321.2272],[-6.1928,10.3254,322.0142],[-6.1977,10.3328,333.2309],[-6.1983,10.3368,332.6741],[-6.1949,10.3447,328.6353],[-6.1916,10.3488,327.8914],[-6.1865,10.3496,323.024],[-6.1746,10.3611,320.4339],[-6.1672,10.3617,319.1118],[-6.1655,10.3633,319.7166],[-6.1666,10.3663,321.8908],[-6.1741,10.3676,321.0393],[-6.184,10.3721,321.0878],[-6.1875,10.3812,318.7153],[-6.1925,10.387,319.7007],[-6.1887,10.392,319.6237],[-6.1849,10.4092,316.7394],[-6.1776,10.4134,320.2659],[-6.1714,10.4082,318.102],[-6.1679,10.4088,316.4705],[-6.1641,10.4122,321.0842],[-6.1617,10.4186,318.8531],[-6.1637,10.424,318.7693],[-6.1685,10.4284,320.5068],[-6.1845,10.4372,335.0391],[-6.1874,10.4435,332.2313],[-6.19,10.4454,327.0401],[-6.1911,10.4606,329.2204],[-6.1889,10.4661,321.3853],[-6.1829,10.4724,319.9745],[-6.1683,10.4813,317.6518],[-6.1647,10.4855,317.2838],[-6.1704,10.4947,317.2708],[-6.1785,10.4976,316.8137],[-6.205,10.4965,334.9861],[-6.2086,10.5019,328.3223],[-6.2059,10.5085,317.91],[-6.2082,10.5131,317.2281],[-6.2203,10.5249,317.4385],[-6.2258,10.5226,315.7883],[-6.2319,10.5145,317.1729],[-6.2378,10.514,315.0453],[-6.246,10.5164,319.1889],[-6.2498,10.522,327.4642],[-6.2511,10.5273,326.4954],[-6.2464,10.5431,328.4149],[-6.2395,10.5501,322.1839],[-6.2262,10.5547,316.4078],[-6.2122,10.5705,315.2591],[-6.2103,10.5833,314.4405],[-6.2159,10.5823,315.9935],[-6.2153,10.5878,317.5555],[-6.21,10.5964,315.8574],[-6.2104,10.6004,314.7502],[-6.2127,10.6006,314.4229],[-6.2191,10.5973,314.0224],[-6.2216,10.5985,314.2531],[-6.2251,10.6094,315.2435],[-6.2232,10.6151,313.4927],[-6.2186,10.6201,314.1675],[-6.2151,10.6214,313.9852],[-6.2031,10.6205,314.2465],[-6.1981,10.622,313.6338],[-6.1885,10.6336,314.547],[-6.192,10.6403,313.6672],[-6.2006,10.6393,312.2834],[-6.2047,10.6428,311.8969],[-6.213,10.6462,313.1249],[-6.216,10.6506,311.696],[-6.2163,10.6543,312.4126],[-6.2221,10.6583,314.4802],[-6.2309,10.6573,317.8925],[-6.2354,10.6653,318.2593],[-6.2346,10.6704,315.1342],[-6.2255,10.6847,312.2072],[-6.2333,10.7,310.6337],[-6.2266,10.7041,312.4202],[-6.2195,10.7117,311.4429],[-6.2149,10.722,312.1037],[-6.2177,10.7263,310.5742],[-6.2464,10.7335,323.3317],[-6.2482,10.7361,321.8205],[-6.2564,10.7366,339.9509],[-6.2749,10.7298,326.9046],[-6.2832,10.7243,326.0178],[-6.2897,10.7232,336.7894],[-6.3106,10.7142,362.8403],[-6.3191,10.7074,336.0006],[-6.3505,10.6946,328.265],[-6.3538,10.7062,335.307],[-6.3607,10.7093,336.7689],[-6.3765,10.7103,334.1679],[-6.3825,10.7127,337.1702],[-6.3907,10.7103,333.0797],[-6.3967,10.7114,335.1632],[-6.4164,10.7007,343.6103],[-6.4196,10.6947,341.2548],[-6.4215,10.6775,355.4627],[-6.4203,10.6255,331.1156],[-6.4083,10.6246,334.3606],[-6.4004,10.6196,324.1447],[-6.3966,10.6136,326.5907],[-6.3965,10.6071,327.9172],[-6.4011,10.5985,329.5413],[-6.4152,10.59,345.061],[-6.4315,10.5726,346.3228],[-6.4442,10.5654,345.5507],[-6.4619,10.5648,358.8907],[-6.4907,10.5784,345.784],[-6.4996,10.5777,341.7401],[-6.5044,10.5748,340.6107],[-6.5399,10.5869,333.1349],[-6.5488,10.5942,342.8144],[-6.5528,10.603,336.4517],[-6.5586,10.6059,349.6714],[-6.5652,10.6129,340.2267],[-6.5735,10.6174,330.5925],[-6.5956,10.6219,329.0435],[-6.6112,10.6397,326.5851],[-6.616,10.6598,333.9234],[-6.6235,10.668,330.1918],[-6.6422,10.6722,320.1381],[-6.6447,10.6661,321.3645],[-6.6518,10.6593,323.4067],[-6.6586,10.6436,330.0576],[-6.6568,10.6405,321.8602],[-6.65,10.6425,319.613],[-6.6466,10.6392,320.3174],[-6.6492,10.6353,321.3635],[-6.6541,10.6329,319.6104],[-6.6677,10.6301,324.4242],[-6.6719,10.6263,323.9325],[-6.6734,10.6215,318.3762],[-6.6721,10.6153,322.4598],[-6.6771,10.5988,329.0714],[-6.6752,10.5969,321.0864],[-6.6692,10.5961,321.0799],[-6.6667,10.5922,322.7563],[-6.671,10.5725,325.1704],[-6.6692,10.5549,323.8107],[-6.6702,10.5499,321.877],[-6.664,10.5369,326.4905],[-6.6654,10.5344,324.3312],[-6.6741,10.5318,325.8521],[-6.6794,10.533,324.838],[-6.6815,10.5204,323.6317],[-6.6775,10.5077,327.6126],[-6.6848,10.4894,327.7945],[-6.6825,10.4866,325.5525],[-6.6767,10.4852,326.3422],[-6.6763,10.4826,327.8337],[-6.6812,10.47,330.5569],[-6.6792,10.4666,333.3999],[-6.675,10.4679,328.5631],[-6.6661,10.4571,330.3206],[-6.6589,10.4545,326.1373],[-6.6533,10.4571,328.1782],[-6.6487,10.4564,326.5958],[-6.6443,10.4535,327.2232],[-6.6434,10.4505,328.8737],[-6.6461,10.4446,338.7144],[-6.6445,10.4423,333.8973],[-6.6383,10.441,326.1262],[-6.6347,10.4426,330.7434],[-6.6313,10.442,328.013],[-6.6302,10.4388,326.936],[-6.6318,10.4259,332.5286],[-6.6376,10.4143,331.4009],[-6.6459,10.4041,332.736],[-6.6532,10.4001,328.614],[-6.6554,10.3959,331.4996],[-6.6541,10.3936,330.5154],[-6.6648,10.3819,344.356],[-6.65,10.3515,330.0367],[-6.647,10.3434,331.7169],[-6.6466,10.336,329.7797],[-6.6393,10.3287,330.6379],[-6.6382,10.3157,329.3089],[-6.6324,10.3123,331.9094],[-6.6329,10.2887,333.8546],[-6.6277,10.2779,332.2157],[-6.6328,10.272,339.6834],[-6.6313,10.2592,339.8987],[-6.6265,10.2499,333.0783],[-6.6163,10.2381,338.0715],[-6.6106,10.236,339.2756],[-6.599,10.2394,337.7054],[-6.5891,10.2321,342.2203],[-6.584,10.2252,348.3939],[-6.5882,10.19,372.0077],[-6.5842,10.1804,366.7487],[-6.5785,10.1727,380.5766],[-6.5784,10.1682,371.3735],[-6.5807,10.1646,365.3371],[-6.5977,10.1527,360.676],[-6.645,10.1334,372.4468],[-6.6608,10.129,377.3033],[-6.6955,10.1089,367.9157],[-6.706,10.1035,370.3242],[-6.7116,10.1024,358.8691],[-6.7453,10.1002,361.8162],[-6.7551,10.1046,396.8221],[-6.7648,10.12,393.0574],[-6.7796,10.1348,344.1719],[-6.7894,10.1353,342.7726],[-6.8025,10.1405,346.0825],[-6.8067,10.138,340.5616],[-6.81,10.1336,343.5273],[-6.8171,10.1399,347.2456],[-6.8263,10.1426,352.7672],[-6.8281,10.1405,348.7569],[-6.8281,10.1343,344.4376],[-6.8468,10.1331,341.7497],[-6.8583,10.1288,346.9597],[-6.8637,10.1235,342.0356],[-6.8718,10.125,343.0318],[-6.879,10.1105,347.9231],[-6.8832,10.1073,344.4398],[-6.8886,10.1062,344.8489],[-6.8949,10.1009,353.6426],[-6.91,10.0735,351.4639],[-6.9162,10.0712,362.964],[-6.9238,10.0645,358.763],[-6.928,10.0465,360.5056],[-6.9237,10.0348,353.9111],[-6.9246,10.0268,354.333],[-6.9311,10.0195,358.1339],[-6.9454,9.9959,363.3192],[-6.9504,9.9938,358.1483],[-6.9591,9.9723,369.072],[-6.9591,9.9693,374.3344],[-6.9491,9.9656,393.7523],[-6.8892,9.9538,392.194],[-6.8784,9.9537,366.6054],[-6.8779,9.9618,368.7479],[-6.8638,9.959,371.2425],[-6.8454,9.9457,377.2294],[-6.8182,9.9305,390.7104],[-6.7942,9.9128,410.7404],[-6.7874,9.912,420.7975],[-6.7821,9.9081,423.6521],[-6.772,9.8993,441.2008],[-6.7544,9.8645,457.6454],[-6.76,9.8103,459.475],[-6.7695,9.7702,433.3018],[-6.745,9.7533,413.4869],[-6.7416,9.7489,413.711],[-6.7436,9.7438,408.8979],[-6.7493,9.7378,406.216],[-6.7497,9.7319,401.9487],[-6.7598,9.706,393.1519],[-6.7501,9.7019,390.5535],[-6.7458,9.6983,393.3391],[-6.7462,9.6945,399.8627],[-6.7596,9.6883,395.6918],[-6.7635,9.6828,399.1033],[-6.7653,9.6731,405.7983],[-6.7623,9.6646,405.073],[-6.7639,9.6604,402.8294],[-6.7671,9.6558,408.2915],[-6.7776,9.6483,407.7954],[-6.7779,9.6431,409.7511],[-6.7757,9.6374,409.2301],[-6.7773,9.6208,417.7587],[-6.781,9.6138,423.4002],[-6.7779,9.5996,431.313],[-6.7746,9.5968,439.2794],[-6.79,9.585,423.507],[-6.79,9.5791,418.317],[-6.7919,9.5749,420.8337],[-6.7958,9.5721,420.3369],[-6.7984,9.5655,407.1424],[-6.7926,9.5615,409.6536],[-6.7898,9.5555,408.1994],[-6.781,9.5544,409.8465],[-6.7773,9.5565,405.4103],[-6.7759,9.554,400.0539],[-6.777,9.5472,398.3062],[-6.7753,9.5435,411.1984],[-6.752,9.5253,398.7479],[-6.7913,9.4955,426.8014],[-6.789,9.4429,560.2645],[-6.7999,9.3692,566.5518],[-6.8086,9.3567,483.7057],[-6.8176,9.3514,480.7194],[-6.8177,9.3495,520.9431],[-6.7884,9.3252,446.5115],[-6.7924,9.3194,454.9642],[-6.7937,9.3011,431.3394],[-6.7977,9.292,431.0015],[-6.7952,9.2873,423.9163],[-6.7854,9.2822,431.9407],[-6.7658,9.2849,428.2289],[-6.7629,9.2816,442.1772],[-6.7542,9.2766,408.1909],[-6.7681,9.1292,463.1479],[-6.7767,9.1008,457.8429],[-6.7816,9.0965,423.1714],[-6.7678,9.1013,402.1954],[-6.724,9.1096,366.097],[-6.697,9.085,349.4908],[-6.6932,9.0869,347.4252],[-6.6786,9.0886,355.6261],[-6.6679,9.0881,352.5541],[-6.6614,9.0987,356.439],[-6.6522,9.1053,362.8212],[-6.6416,9.0968,368.8165],[-6.6304,9.0915,369.3932],[-6.617,9.0964,378.7307],[-6.6127,9.0962,376.0872],[-6.6073,9.0952,383.1974],[-6.6024,9.0915,381.1604],[-6.6007,9.0879,383.1912],[-6.5469,9.0836,396.9373],[-6.5799,9.1499,397.7502],[-6.5268,9.1534,388.3151],[-6.5236,9.1475,394.2637],[-6.5236,9.1348,390.0475],[-6.5217,9.129,377.1384],[-6.5161,9.1237,374.8984],[-6.503,9.1006,372.7842],[-6.4912,9.0932,370.2586],[-6.4889,9.0861,384.5452],[-6.4862,9.0647,358.1662],[-6.4828,9.0595,363.2655],[-6.473,9.0543,348.6399],[-6.4693,9.0493,348.6596],[-6.4648,9.0502,340.0393],[-6.4649,9.0523,340.2604],[-6.4716,9.0608,346.0619],[-6.469,9.0715,359.4537],[-6.4505,9.0875,359.2199],[-6.4415,9.1013,369.6913],[-6.4352,9.1052,381.2526],[-6.3791,9.1269,378.7106],[-6.345,9.1747,398.8203],[-6.3495,9.184,389.5377],[-6.3501,9.1899,382.1639],[-6.3479,9.195,382.1758],[-6.3494,9.205,371.5144],[-6.3478,9.2105,372.217],[-6.344,9.2138,370.9254],[-6.3386,9.2137,373.6981],[-6.334,9.2157,373.2971],[-6.3193,9.2143,369.4159],[-6.3091,9.2042,371.8564],[-6.3013,9.2035,369.747],[-6.2964,9.2056,369.1656],[-6.2833,9.1992,364.869],[-6.2699,9.2047,366.572],[-6.2643,9.2032,365.4757],[-6.2589,9.204,364.2219],[-6.19,9.1527,376.0769],[-6.2685,9.0842,378.2014],[-6.2419,8.9979,361.8454],[-6.2132,8.9844,360.5619],[-6.2111,8.9808,364.1593],[-6.2139,8.9614,349.0002],[-6.2078,8.9557,353.794],[-6.1931,8.9508,347.5235],[-6.1751,8.9295,346.952],[-6.1618,8.9205,353.1653],[-6.1591,8.9162,348.3404],[-6.15,8.9093,348.5076],[-6.1453,8.8945,346.1672],[-6.1368,8.8889,345.5059],[-6.1276,8.8743,342.3147],[-6.1263,8.8701,340.7562],[-6.1275,8.8627,339.2476],[-6.1225,8.8602,345.8819],[-6.1068,8.8413,342.829],[-6.0953,8.8175,342.6363],[-6.0849,8.8144,345.1915],[-6.0802,8.8143,346.5525],[-6.0783,8.8167,345.9668],[-6.0731,8.8165,343.7789],[-6.0702,8.8118,336.7637],[-6.0696,8.8064,335.8936],[-6.0671,8.8042,335.9807],[-6.0643,8.806,341.886],[-6.0232,8.7329,379.162],[-5.9996,8.6951,383.8437],[-5.9987,8.6849,398.3462],[-5.9935,8.675,393.7711],[-5.9602,8.6537,346.4122],[-5.9199,8.6442,339.1888],[-5.9145,8.6399,339.178],[-5.9082,8.6466,343.5562],[-5.9047,8.6456,337.7533],[-5.8809,8.6337,346.8262],[-5.8584,8.6196,369.6542],[-5.8508,8.6171,349.1657],[-5.8254,8.6039,342.6702],[-5.8069,8.5918,373.7842],[-5.7129,8.5415,333.5706],[-5.6519,8.5368,284.1519],[-5.6119,8.537,269.2143],[-5.6118,8.5498,271.0412],[-5.6223,8.5532,271.9716],[-5.6252,8.5528,268.1714],[-5.6226,8.5465,259.8994],[-5.6245,8.5445,265.1665],[-5.6335,8.5493,262.5833],[-5.6423,8.55,260.6246],[-5.6443,8.5529,261.3391],[-5.6428,8.5556,264.301],[-5.6342,8.5605,274.2929],[-5.6335,8.5645,265.1574],[-5.6432,8.5711,262.5284],[-5.6374,8.5724,268.2682],[-5.637,8.5759,262.1551],[-5.6426,8.5811,261.4956],[-5.646,8.5902,263.372],[-5.6439,8.5917,262.7578],[-5.6374,8.5887,264.5541],[-5.6324,8.5887,269.3877],[-5.6275,8.5916,274.0451],[-5.6277,8.5981,265.71],[-5.6319,8.6053,269.8444],[-5.6316,8.6107,274.1273],[-5.6396,8.6167,278.3973],[-5.652,8.6183,266.4243],[-5.6568,8.6171,264.7572],[-5.6589,8.6206,282.0027],[-5.6638,8.622,276.1475],[-5.6674,8.6213,285.6874],[-5.6786,8.6124,295.1706],[-5.681,8.6053,285.0332],[-5.6901,8.617,295.0324],[-5.6966,8.62,302.4045],[-5.7012,8.6248,303.6741],[-5.6954,8.6302,321.318],[-5.6969,8.6355,308.608],[-5.7075,8.6507,303.9541],[-5.706,8.6538,302.0209],[-5.6919,8.6528,318.8029],[-5.6875,8.6571,319.4552],[-5.6871,8.6679,312.3586],[-5.6897,8.6715,307.6677],[-5.6849,8.673,311.1291],[-5.6827,8.6759,319.4092],[-5.6832,8.6847,319.2645],[-5.68,8.6874,323.5233],[-5.6804,8.6954,312.0414],[-5.6741,8.7029,328.5399],[-5.6754,8.7078,320.1409],[-5.6921,8.7169,315.0398],[-5.7011,8.7189,307.4854],[-5.6994,8.7222,306.3908],[-5.6953,8.7243,306.136],[-5.6897,8.7254,310.0275],[-5.6732,8.7245,306.0253],[-5.6647,8.7297,322.002],[-5.6651,8.7344,324.3397],[-5.6694,8.7381,319.5547],[-5.6936,8.7498,304.9745],[-5.6867,8.7548,306.3766]]]]}
,"properties": {"GID_1": "CIV.10_1","GID_0": "CIV","country": "Côted'Ivoire","province": "Savanes","VARNAME_1": "NA","NL_NAME_1": "NA","TYPE_1": "District","ENGTYPE_1": "District","CC_1": "NA","HASC_1": "CI.SV","ISO_1": "CI-SV","name": "Savanes.province","area_km2": 40465.69,"hist_schema_id": "Elevation0-9000","hist_area_km2": {"175": 8.55,"200": 385.6,"225": 1165.24,"250": 2089.22,"275": 2454.71,"300": 3568.24,"325": 6983.47,"350": 10802.6,"375": 7422.1,"400": 3455.03,"425": 1346.6,"450": 432.09,"475": 160.46,"500": 78.22,"525": 49.87,"550": 27.6,"575": 15.81,"600": 8.38,"625": 5.48,"650": 3.53,"675": 1.3,"700": 0.75,"725": 0.46,"750": 0.31}}}