{"type": "Feature","bbox": [-5.4151,7.758,-5.1491,8.0975],"geometry": {"type": "MultiPolygon","coordinates": [[[[-5.3321,7.758,326.5319],[-5.3259,7.7633,324.1188],[-5.3118,7.7636,311.3775],[-5.3056,7.768,319.487],[-5.2967,7.7705,316.4395],[-5.2913,7.7796,296.4382],[-5.2828,7.7773,307.047],[-5.2789,7.7779,307.2763],[-5.2433,7.809,286.7568],[-5.236,7.8014,297.4766],[-5.231,7.7986,330.5267],[-5.2272,7.799,324.5554],[-5.2214,7.8032,315.0576],[-5.2138,7.8217,287.3477],[-5.214,7.8271,295.726],[-5.2171,7.8309,303.3812],[-5.2167,7.8396,289.2128],[-5.2078,7.8611,272.7518],[-5.2005,7.8685,282.9078],[-5.1984,7.8797,288.4979],[-5.1991,7.8827,283.706],[-5.2118,7.8902,279.7185],[-5.2127,7.8935,270.2883],[-5.2114,7.8954,275.4056],[-5.203,7.8988,292.8042],[-5.196,7.9144,267.0513],[-5.1897,7.9164,276.1022],[-5.1828,7.9239,290.5797],[-5.1711,7.9434,300.3717],[-5.1664,7.946,298.1122],[-5.1548,7.9475,304.5041],[-5.151,7.9494,316.192],[-5.1491,7.9551,333.2482],[-5.2064,8.0133,310.2213],[-5.2128,8.0104,297.1547],[-5.2192,8.0103,291.3208],[-5.2277,8.0149,290.0867],[-5.2373,8.017,284.2092],[-5.2393,8.0196,268.7948],[-5.2369,8.0424,281.6722],[-5.2377,8.046,288.1083],[-5.2419,8.051,299.4472],[-5.2436,8.0623,303.6039],[-5.2464,8.0638,289.9643],[-5.2494,8.063,290.4416],[-5.2543,8.0562,288.6395],[-5.2626,8.0588,282.2129],[-5.2756,8.0594,277.6202],[-5.2823,8.0627,282.857],[-5.2866,8.0719,268.8874],[-5.3038,8.0896,255.1157],[-5.3087,8.0975,248.2794],[-5.3446,8.0938,237.4897],[-5.3504,8.0893,242.8032],[-5.3557,8.0726,253.8733],[-5.3585,8.0563,251.9915],[-5.3684,8.0312,255.8997],[-5.3741,7.9933,248.0054],[-5.3774,7.9841,243.4802],[-5.3773,7.9796,238.687],[-5.3705,7.9672,239.4084],[-5.371,7.9594,230.6145],[-5.3682,7.958,238.0766],[-5.3645,7.948,235.2259],[-5.3777,7.9177,231.9239],[-5.3962,7.9065,221.8153],[-5.4096,7.8899,221.5777],[-5.4151,7.8755,214.4715],[-5.4144,7.8645,236.3775],[-5.4058,7.8363,243.0132],[-5.3865,7.808,234.1353],[-5.3805,7.7903,242.35],[-5.3566,7.7713,277.0421],[-5.3489,7.7694,291.61],[-5.3321,7.758,326.5319]]]]}
,"properties": {"GID_3": "CIV.11.1.2_1","GID_0": "CIV","country": "Côted'Ivoire","GID_1": "CIV.11_1","province": "ValléeduBandama","NL_NAME_1": "NA","GID_2": "CIV.11.1_1","county": "Gbeke","NL_NAME_2": "NA","city": "Botro","VARNAME_3": "NA","NL_NAME_3": "NA","TYPE_3": "Département","ENGTYPE_3": "Department","CC_3": "NA","HASC_3": "NA","name": "Botro.city","area_km2": 646.0402,"hist_schema_id": "Elevation0-9000","hist_area_km2": {"225": 51.3066,"250": 201.1143,"275": 223.2625,"300": 134.6344,"325": 35.5334,"350": 0.189}}}