{"type": "Feature","bbox": [-5.2445,5.9818,-4.7466,6.382],"geometry": {"type": "MultiPolygon","coordinates": [[[[-5.2445,6.2168,165.932],[-5.1947,6.1684,187.7621],[-5.002,6.128,96.2274],[-4.9863,6.089,63.3075],[-5.0063,6.0605,74.7211],[-5.0308,6.0374,79.4159],[-5.0133,5.9818,86.6882],[-4.9982,5.991,65.3532],[-4.983,6.0145,68.9829],[-4.9754,6.0174,57.2829],[-4.9643,6.0179,49.2646],[-4.9546,6.0203,79.0795],[-4.9481,6.0271,85.0444],[-4.9455,6.028,64.326],[-4.9408,6.036,49.5879],[-4.9296,6.0423,38.3484],[-4.926,6.0364,44.4225],[-4.9193,6.036,37.7264],[-4.916,6.0336,37.5468],[-4.9123,6.0262,39.6965],[-4.9079,6.0099,40.0314],[-4.9025,6.0014,50.9419],[-4.8952,5.9964,56.1917],[-4.8882,5.9956,38.8538],[-4.8827,6.004,32.0],[-4.8765,6.0061,33.0276],[-4.8689,6.0037,34.9628],[-4.8676,5.999,37.2781],[-4.8614,5.9977,37.7091],[-4.8581,6.0023,46.584],[-4.8493,6.0061,64.1583],[-4.8383,6.0142,61.4553],[-4.8184,6.0343,46.5623],[-4.8166,6.0347,41.1582],[-4.8145,6.0308,37.6715],[-4.8103,6.029,38.1757],[-4.8092,6.0311,40.7398],[-4.8011,6.0338,41.3469],[-4.8008,6.036,39.6193],[-4.8069,6.0461,40.0047],[-4.8058,6.051,37.4961],[-4.801,6.0528,41.1025],[-4.7945,6.0459,39.102],[-4.7892,6.0451,41.5862],[-4.7854,6.0554,43.0563],[-4.7652,6.0634,43.895],[-4.7644,6.0656,42.1827],[-4.7669,6.07,53.204],[-4.7697,6.0711,60.659],[-4.7734,6.0755,56.3986],[-4.7727,6.0788,47.4633],[-4.7741,6.0823,51.203],[-4.7709,6.0922,41.5539],[-4.7662,6.0949,42.4365],[-4.7651,6.098,43.8506],[-4.7712,6.1141,44.2274],[-4.7687,6.1152,41.6656],[-4.7533,6.1131,44.9942],[-4.7479,6.1178,43.7174],[-4.7528,6.1265,43.5506],[-4.7531,6.1313,39.5566],[-4.7466,6.1419,46.5578],[-4.7507,6.1461,45.3031],[-4.7763,6.1582,45.6502],[-4.7815,6.1634,53.9209],[-4.7871,6.1622,44.2364],[-4.7945,6.1656,43.6669],[-4.7961,6.1681,43.9093],[-4.7943,6.1794,42.6971],[-4.7964,6.1844,50.0639],[-4.8023,6.1909,59.8936],[-4.802,6.1933,57.8762],[-4.7989,6.1975,46.7981],[-4.7941,6.2004,46.9775],[-4.7885,6.1979,43.4258],[-4.7822,6.2013,48.4485],[-4.8108,6.2071,47.1121],[-4.8231,6.2229,48.4841],[-4.8286,6.2344,49.2355],[-4.9236,6.2592,61.0581],[-4.9292,6.3042,73.5442],[-5.0504,6.3027,151.5864],[-5.095,6.289,122.1952],[-5.149,6.339,163.1816],[-5.1988,6.382,144.2644],[-5.2096,6.3809,132.3474],[-5.2445,6.2168,165.932]]]]}
,"properties": {"GID_3": "CIV.7.1.3_1","GID_0": "CIV","country": "Côted'Ivoire","GID_1": "CIV.7_1","province": "Lagunes","NL_NAME_1": "NA","GID_2": "CIV.7.1_1","county": "Agnéby-Tiassa","NL_NAME_2": "NA","city": "Taabo","VARNAME_3": "NA","NL_NAME_3": "NA","TYPE_3": "Département","ENGTYPE_3": "Department","CC_3": "NA","HASC_3": "NA","name": "Taabo.city","area_km2": 1158.2473,"hist_schema_id": "Elevation0-9000","hist_area_km2": {"25": 2.2351,"50": 174.0352,"75": 331.089,"100": 213.1269,"125": 222.126,"150": 129.1754,"175": 61.9455,"200": 13.0053,"225": 4.2369,"250": 2.0025,"275": 1.6231,"300": 1.4333,"325": 0.8642,"350": 0.6956,"375": 0.5902,"400": 0.0632}}}