{"type":"Feature","properties":{"GID_3":"CIV.6.1.4_1","GID_0":"CIV","country":"Côted'Ivoire","GID_1":"CIV.6_1","province":"Lacs","NL_NAME_1":"NA","GID_2":"CIV.6.1_1","county":"Bélier","NL_NAME_2":"NA","city":"Toumodi","VARNAME_3":"NA","NL_NAME_3":"NA","TYPE_3":"Département","ENGTYPE_3":"Department","CC_3":"NA","HASC_3":"NA","name":"Toumodi.city"},
"geometry":{"type": "MultiPolygon","coordinates": [[[[-5.0504,6.3027,151.5864],[-4.9292,6.3042,73.5442],[-4.9236,6.2592,61.0581],[-4.8245,6.2338,48.9617],[-4.8175,6.236,52.6353],[-4.8144,6.2407,52.8668],[-4.8192,6.2458,44.9256],[-4.819,6.2512,55.5439],[-4.8155,6.2516,54.1759],[-4.8081,6.2415,63.6883],[-4.8011,6.2401,75.4808],[-4.7925,6.2412,55.8618],[-4.7857,6.2381,66.1036],[-4.7446,6.246,65.1682],[-4.7379,6.2522,52.1604],[-4.7294,6.2514,55.9077],[-4.7217,6.2589,60.0438],[-4.7112,6.2641,63.3123],[-4.7016,6.2746,60.5946],[-4.7022,6.2825,52.9809],[-4.6907,6.2816,60.1192],[-4.684,6.2833,52.1942],[-4.6879,6.2948,52.7665],[-4.6867,6.3007,57.4716],[-4.6945,6.3065,63.6318],[-4.7,6.3134,65.5344],[-4.7197,6.3119,68.8479],[-4.7214,6.3126,61.9702],[-4.7232,6.3195,62.3564],[-4.7142,6.3197,72.1486],[-4.7131,6.3236,71.3579],[-4.7183,6.3304,57.6563],[-4.7182,6.3332,61.9818],[-4.7036,6.3367,58.3278],[-4.6973,6.3465,69.6779],[-4.6979,6.3488,67.7756],[-4.7005,6.3502,61.9612],[-4.711,6.353,59.7273],[-4.7133,6.357,58.9542],[-4.7127,6.3589,66.5291],[-4.7084,6.3601,65.047],[-4.7071,6.3668,56.8893],[-4.7057,6.3675,62.6548],[-4.7064,6.3718,62.602],[-4.7002,6.3782,59.9659],[-4.6915,6.3796,62.8833],[-4.6905,6.3852,61.7008],[-4.7029,6.3925,61.9897],[-4.7163,6.3945,60.0219],[-4.7154,6.3999,67.3566],[-4.7131,6.4005,64.9175],[-4.7044,6.3978,65.0187],[-4.693,6.4015,69.0992],[-4.6957,6.4083,60.777],[-4.7,6.4127,62.0212],[-4.7141,6.4156,62.2996],[-4.7175,6.4149,65.3623],[-4.7237,6.4201,67.3549],[-4.7234,6.4227,64.1145],[-4.72,6.4244,64.931],[-4.7125,6.4329,71.6257],[-4.7128,6.4362,73.2877],[-4.7309,6.4433,63.2339],[-4.7407,6.4425,66.1907],[-4.7382,6.4555,76.2397],[-4.7338,6.4525,64.5205],[-4.7301,6.4529,68.7371],[-4.7245,6.4563,65.909],[-4.7235,6.4595,63.9315],[-4.7282,6.4661,82.144],[-4.7268,6.4739,62.2851],[-4.7323,6.4788,65.8761],[-4.7445,6.4844,66.169],[-4.7499,6.4882,66.2349],[-4.7522,6.4924,86.5864],[-4.7569,6.4946,64.1628],[-4.7687,6.4917,62.9099],[-4.7716,6.4859,64.6629],[-4.7887,6.4904,66.9858],[-4.7824,6.4935,67.3184],[-4.7812,6.4995,61.955],[-4.7861,6.5035,64.1405],[-4.7892,6.5087,66.3733],[-4.7729,6.5275,92.8247],[-4.7732,6.5307,67.4381],[-4.7774,6.5353,65.0206],[-4.7806,6.5444,72.8364],[-4.7809,6.5521,68.1326],[-4.7747,6.5523,67.9949],[-4.7694,6.5506,68.4908],[-4.7657,6.5515,66.1934],[-4.754,6.5488,72.3536],[-4.7511,6.553,70.0406],[-4.75,6.5578,67.0158],[-4.7599,6.5742,69.4075],[-4.7543,6.5808,81.1377],[-4.7547,6.584,64.1823],[-4.7684,6.5929,69.8059],[-4.7721,6.598,72.1678],[-4.7693,6.6029,70.7345],[-4.813,6.625,71.5363],[-4.8324,6.6322,77.7482],[-4.8559,6.6329,81.2584],[-4.8659,6.6258,86.5818],[-4.8657,6.6216,87.0525],[-4.873,6.6154,93.6501],[-4.8845,6.6141,95.6804],[-4.8953,6.6154,96.6802],[-4.8995,6.6039,99.86],[-4.8987,6.6008,102.77],[-4.8901,6.5996,99.1991],[-4.8928,6.5977,100.0534],[-4.8976,6.5974,101.5892],[-4.904,6.6004,101.0087],[-4.9124,6.6019,101.9479],[-4.9138,6.5996,102.1723],[-4.9216,6.6036,105.2868],[-4.9273,6.6032,103.0313],[-4.9392,6.615,104.6965],[-4.9351,6.6292,98.9897],[-4.9323,6.6295,104.0932],[-4.9295,6.6271,105.7064],[-4.9243,6.6192,105.0959],[-4.9193,6.6224,111.9807],[-4.9214,6.6281,111.0886],[-4.9231,6.6449,105.8696],[-4.9261,6.6457,104.4763],[-4.9321,6.6429,108.1194],[-4.934,6.6456,108.2034],[-4.9308,6.6473,102.6564],[-4.9361,6.6511,107.047],[-4.9336,6.6564,109.5589],[-4.9352,6.659,106.0191],[-4.9518,6.6652,105.8618],[-4.9545,6.6693,107.0559],[-4.9495,6.6805,106.5017],[-4.9543,6.6857,107.7249],[-4.9535,6.6874,108.7971],[-4.9465,6.6883,108.7103],[-4.9449,6.6899,108.9942],[-4.9466,6.6979,112.4653],[-4.9392,6.7015,111.7911],[-4.9331,6.7024,118.0323],[-4.9316,6.7042,119.7649],[-4.9302,6.7075,128.0751],[-4.9299,6.7189,142.0394],[-4.9342,6.7214,111.0831],[-4.953,6.7242,113.3828],[-4.9593,6.7282,115.0226],[-4.9695,6.7414,113.5041],[-4.9682,6.7498,131.2084],[-4.9654,6.7547,131.2701],[-4.9682,6.7601,117.8451],[-4.9611,6.7655,117.6092],[-4.9756,6.7607,132.3544],[-5.0049,6.7591,162.005],[-5.026,6.7721,185.4581],[-5.039,6.7965,212.864],[-5.0424,6.8213,206.7553],[-5.0607,6.814,187.3503],[-5.0897,6.7963,187.7202],[-5.1077,6.7635,195.6501],[-5.1208,6.7531,185.5897],[-5.2167,6.6603,194.5165],[-5.2158,6.6574,189.1479],[-5.261,6.6481,170.6068],[-5.2639,6.6457,167.3967],[-5.2716,6.627,162.6284],[-5.2668,6.6237,176.4158],[-5.245,6.6163,199.303],[-5.2342,6.6165,217.018],[-5.2268,6.6145,215.9341],[-5.2087,6.6198,176.0105],[-5.2054,6.6191,173.0694],[-5.1923,6.6248,162.7736],[-5.1866,6.6234,159.9321],[-5.1587,6.6264,161.5454],[-5.1256,6.6157,148.3157],[-5.1217,6.6013,156.5692],[-5.1225,6.5968,156.5989],[-5.1114,6.5605,244.253],[-5.0991,6.5396,176.5504],[-5.0808,6.5274,181.835],[-5.0598,6.504,152.5495],[-5.0554,6.4848,142.4611],[-5.0545,6.4665,151.1684],[-5.0587,6.4438,122.7313],[-5.062,6.3984,134.2],[-5.0504,6.3027,151.5864]]]]}}