{"type": "Feature","bbox": [-5.4578,5.0962,-4.2165,5.8117],"geometry": {"type": "MultiPolygon","coordinates": [[[[-4.2609,5.3005,0.0],[-4.2941,5.307,0.0],[-4.2701,5.4293,11.6784],[-4.2675,5.4344,13.3143],[-4.2672,5.4414,16.7754],[-4.2692,5.4445,13.8482],[-4.2671,5.4469,10.4989],[-4.265,5.4546,18.9991],[-4.2617,5.4571,26.5854],[-4.2705,5.4824,38.1486],[-4.3061,5.5002,33.667],[-4.3433,5.5115,19.2023],[-4.4064,5.518,26.4827],[-4.4196,5.5224,34.0505],[-4.4889,5.5212,74.9134],[-4.6426,5.539,78.8281],[-4.7041,5.561,54.1169],[-4.69,5.5898,55.906],[-4.8572,5.5504,19.9766],[-4.8517,5.6146,1.8491],[-4.8379,5.6099,3.3599],[-4.83,5.6132,2.1695],[-4.8216,5.6319,12.8272],[-4.7928,5.6722,5.3314],[-4.8056,5.6872,10.3041],[-4.8167,5.6938,13.6737],[-4.8289,5.7216,15.7254],[-4.8897,5.7499,46.5513],[-4.9364,5.8117,79.3534],[-4.9992,5.6751,54.4203],[-4.9983,5.6197,44.3871],[-5.0016,5.615,50.5874],[-5.0238,5.5643,19.4861],[-5.0159,5.5585,23.0542],[-5.0122,5.5444,25.5717],[-5.0092,5.5389,33.8911],[-5.0101,5.5316,24.8468],[-5.0126,5.5291,20.6936],[-5.0107,5.5261,22.795],[-5.006,5.5035,29.4059],[-5.0101,5.4941,16.8576],[-5.0175,5.4862,15.207],[-5.0207,5.4796,15.8435],[-5.0223,5.46,15.0961],[-5.0267,5.4549,12.795],[-5.0286,5.4453,15.8906],[-5.0313,5.4412,16.7187],[-5.0311,5.4373,12.9749],[-5.0373,5.4302,13.2025],[-5.0448,5.4173,14.4487],[-5.0442,5.4101,9.6444],[-5.0468,5.4044,19.1082],[-5.0465,5.3973,14.7935],[-5.0554,5.3863,12.4576],[-5.0538,5.3805,13.5305],[-5.0548,5.3766,14.0824],[-5.0592,5.3632,11.1741],[-5.0629,5.3596,13.6615],[-5.0621,5.3499,11.2689],[-5.0592,5.3416,8.4588],[-5.0603,5.3397,12.4604],[-5.0579,5.3376,8.9223],[-5.0578,5.3323,14.1279],[-5.061,5.3277,12.7731],[-5.0663,5.3247,7.3643],[-5.0689,5.3196,6.4871],[-5.0696,5.1953,0.0],[-5.1097,5.1715,0.0],[-5.2113,5.2058,0.0],[-5.217,5.2041,6.1735],[-5.243,5.2125,0.0],[-5.2465,5.207,0.7344],[-5.3355,5.1474,0.0],[-5.4578,5.2175,27.5873],[-5.455,5.1719,54.8115],[-5.4532,5.0962,0.5584],[-5.2057,5.1232,6.3026],[-4.8324,5.1474,0.0],[-4.7874,5.1524,5.5616],[-4.7588,5.1537,0.0],[-4.656,5.1726,6.8254],[-4.6501,5.1724,1.766],[-4.6362,5.176,10.5935],[-4.5435,5.1879,6.1085],[-4.2165,5.2207,4.8779],[-4.2273,5.2382,8.7771],[-4.2357,5.2389,10.7324],[-4.2433,5.283,0.0],[-4.2467,5.2883,0.0],[-4.2514,5.2878,0.0],[-4.2535,5.2899,0.0],[-4.2543,5.2931,3.238],[-4.2519,5.2994,0.0],[-4.2609,5.3005,0.0]]]]}
,"properties": {"GID_2": "CIV.7.2_1","GID_0": "CIV","country": "Côted'Ivoire","GID_1": "CIV.7_1","province": "Lagunes","NL_NAME_1": "NA","county": "GrandsPonts","VARNAME_2": "NA","NL_NAME_2": "NA","TYPE_2": "Région","ENGTYPE_2": "Region","CC_2": "NA","HASC_2": "CI.LN.GP","name": "Grands_Ponts.county","area_km2": 4309.593,"hist_schema_id": "Elevation0-9000","hist_area_km2": {"0": 1387.469,"25": 1474.474,"50": 904.181,"75": 443.189,"100": 96.375,"125": 3.905}}}