{"type":"Feature","properties":{"GID_3":"CIV.9.1.3_1","GID_0":"CIV","country":"Côted'Ivoire","GID_1":"CIV.9_1","province":"Sassandra-Marahoué","NL_NAME_1":"NA","GID_2":"CIV.9.1_1","county":"Haut-Sassandra","NL_NAME_2":"NA","city":"Vavoua","VARNAME_3":"NA","NL_NAME_3":"NA","TYPE_3":"Département","ENGTYPE_3":"Department","CC_3":"NA","HASC_3":"NA","name":"Vavoua.city"},
"geometry":{"type": "MultiPolygon","coordinates": [[[[-7.0588,7.0488,201.7984],[-7.0517,7.0556,228.0346],[-7.0123,7.0621,250.6629],[-6.7381,7.0622,244.0995],[-6.4973,7.1083,229.8427],[-6.441,7.1099,244.8245],[-6.4408,7.2239,258.1682],[-6.435,7.228,261.3351],[-6.4241,7.2293,252.4],[-6.3693,7.2286,275.6627],[-6.3539,7.2309,270.1396],[-6.3721,7.2435,282.8621],[-6.38,7.252,281.5735],[-6.3864,7.2558,254.862],[-6.3997,7.2596,275.2003],[-6.4038,7.265,261.0239],[-6.3989,7.2819,257.2798],[-6.4019,7.2934,235.2562],[-6.3956,7.31,265.93],[-6.4018,7.3295,248.0078],[-6.4011,7.3388,236.2228],[-6.4034,7.3454,242.8127],[-6.4027,7.3617,242.5629],[-6.3965,7.3731,241.1413],[-6.4005,7.3841,244.5651],[-6.3868,7.4081,245.1544],[-6.3265,7.4553,279.2727],[-6.3295,7.5198,288.858],[-6.1123,7.6434,207.8435],[-6.1337,7.6542,204.4967],[-6.1683,7.661,207.5945],[-6.1734,7.6645,208.6946],[-6.1814,7.6739,209.734],[-6.2029,7.685,212.1435],[-6.2093,7.6852,216.3663],[-6.214,7.6871,217.6463],[-6.2168,7.6925,214.3426],[-6.21,7.7264,230.0865],[-6.2376,7.7566,237.7023],[-6.2382,7.7625,223.9982],[-6.2355,7.7738,237.3308],[-6.2493,7.7726,236.4551],[-6.2732,7.7766,249.3071],[-6.2866,7.7905,265.2341],[-6.2961,7.7935,260.4827],[-6.3032,7.7895,267.1772],[-6.3172,7.7932,272.5485],[-6.3282,7.7933,277.3636],[-6.3347,7.7874,281.9685],[-6.3469,7.7826,300.5311],[-6.3552,7.7725,297.8795],[-6.36,7.7761,297.7126],[-6.3714,7.7789,297.5429],[-6.3895,7.782,293.7907],[-6.4026,7.7815,313.7332],[-6.4086,7.7785,317.5859],[-6.4117,7.7724,316.9583],[-6.4194,7.7712,321.2504],[-6.4667,7.736,301.1874],[-6.4903,7.7397,314.5229],[-6.5258,7.7488,291.1673],[-6.5255,7.7536,297.3756],[-6.5289,7.7574,292.5636],[-6.5297,7.7655,302.7593],[-6.5333,7.7731,298.0719],[-6.5468,7.7771,312.3069],[-6.5543,7.7849,302.1107],[-6.5787,7.7857,333.0057],[-6.5857,7.7894,339.4144],[-6.6005,7.7917,344.747],[-6.617,7.7892,321.8625],[-6.6207,7.7859,318.8276],[-6.6231,7.7892,325.3598],[-6.6446,7.7975,344.1277],[-6.6612,7.7962,331.7394],[-6.677,7.7977,318.895],[-6.6831,7.7961,318.0148],[-6.687,7.7894,315.9659],[-6.6961,7.781,297.2488],[-6.7122,7.7711,285.001],[-6.7465,7.7791,315.2705],[-6.7559,7.7829,288.1441],[-6.7729,7.7859,303.2175],[-6.7884,7.7827,359.3592],[-6.795,7.7886,505.7348],[-6.8111,7.7921,338.6992],[-6.8219,7.7907,320.5724],[-6.8326,7.7918,298.2537],[-6.8502,7.7976,293.8174],[-6.8599,7.7881,283.1317],[-6.8681,7.7892,284.7751],[-6.8743,7.7933,274.8144],[-6.8994,7.7919,280.3987],[-6.9244,7.7929,293.0822],[-6.9362,7.7954,277.6076],[-6.9441,7.8006,286.2707],[-6.9537,7.8017,292.7956],[-6.9633,7.8064,301.103],[-6.983,7.8008,297.1052],[-7.0021,7.7914,306.7065],[-7.0136,7.7993,310.7653],[-7.05,7.6938,285.8951],[-7.0697,7.6873,241.7364],[-7.0774,7.6886,234.6292],[-7.0809,7.6792,240.7117],[-7.0748,7.6644,239.502],[-7.0685,7.6566,239.6658],[-7.0668,7.6497,234.824],[-7.0687,7.6432,230.5],[-7.0675,7.6364,238.4351],[-7.0559,7.6238,235.8854],[-7.0487,7.6216,234.1562],[-7.043,7.6069,234.0441],[-7.0333,7.6091,233.4409],[-7.0248,7.6134,235.897],[-7.0209,7.613,234.9407],[-7.0034,7.5905,228.8141],[-7.0032,7.5861,236.7206],[-6.9996,7.5844,231.8556],[-6.9948,7.5862,229.6597],[-6.9903,7.5844,231.0704],[-6.9862,7.5793,226.3169],[-6.9872,7.5711,235.9678],[-6.9855,7.5566,231.9921],[-6.9909,7.5521,230.1612],[-6.9981,7.5521,235.9026],[-7.0063,7.556,243.2106],[-7.0166,7.5546,237.8651],[-7.0301,7.5461,234.1772],[-7.0385,7.5427,230.6099],[-7.0449,7.5351,231.3448],[-7.045,7.529,227.6226],[-7.0255,7.5064,227.9183],[-7.0298,7.4887,226.5675],[-7.0244,7.4746,226.5458],[-7.0176,7.4644,225.6234],[-7.012,7.457,228.8119],[-7.0063,7.454,227.0314],[-7.0063,7.4378,224.6149],[-7.0203,7.4237,224.1718],[-7.0476,7.4194,225.7847],[-7.052,7.4152,223.3414],[-7.0479,7.4031,226.0163],[-7.0488,7.3979,225.1422],[-7.0561,7.3952,223.3152],[-7.0615,7.3891,233.7175],[-7.0646,7.3826,228.9639],[-7.0817,7.3806,226.89],[-7.0872,7.3709,219.8914],[-7.0849,7.3653,222.7332],[-7.0787,7.3616,216.0562],[-7.0637,7.3344,220.6599],[-7.0639,7.3258,228.9122],[-7.0722,7.307,228.5289],[-7.0725,7.2996,222.5294],[-7.0681,7.2888,225.4785],[-7.0675,7.283,222.7638],[-7.0724,7.2678,219.6063],[-7.0734,7.2609,215.4998],[-7.0723,7.2484,216.3326],[-7.0772,7.2308,217.0959],[-7.0763,7.22,216.6337],[-7.0714,7.2046,214.4724],[-7.0663,7.1981,215.957],[-7.0686,7.192,210.0],[-7.078,7.1925,217.1403],[-7.0869,7.188,215.3873],[-7.0913,7.1832,221.1092],[-7.091,7.1735,216.9096],[-7.0853,7.1639,218.3735],[-7.0791,7.1592,214.7427],[-7.0694,7.1565,215.1754],[-7.0638,7.1429,214.7991],[-7.0681,7.1323,216.0516],[-7.0682,7.11,211.6769],[-7.0524,7.095,206.2143],[-7.0476,7.0885,203.9148],[-7.0486,7.0823,209.4149],[-7.0571,7.0605,208.9895],[-7.0588,7.0488,201.7984]]]]}}