{"type": "Feature","bbox": [-4.7892,6.1815,-4.1135,6.7358],"geometry": {"type": "MultiPolygon","coordinates": [[[[-4.6842,6.2846,52.6332],[-4.684,6.2833,52.1942],[-4.5773,6.2613,111.688],[-4.5691,6.2609,116.1411],[-4.566,6.2628,105.4318],[-4.5503,6.2608,124.7688],[-4.5045,6.2428,144.9525],[-4.494,6.2419,159.6155],[-4.4845,6.2449,144.0818],[-4.4785,6.2503,157.4496],[-4.4592,6.2463,128.3851],[-4.4332,6.2457,131.3775],[-4.4228,6.2679,129.2046],[-4.3965,6.2503,111.0275],[-4.3909,6.2354,110.1453],[-4.3839,6.229,103.1876],[-4.3621,6.2198,96.7057],[-4.3547,6.2182,99.6154],[-4.342,6.2027,93.8097],[-4.3325,6.203,92.328],[-4.295,6.1937,91.7551],[-4.2872,6.1964,92.2688],[-4.2823,6.2004,88.966],[-4.2676,6.1954,75.4403],[-4.26,6.1912,78.5204],[-4.2541,6.1914,71.1875],[-4.245,6.1838,67.1943],[-4.2375,6.1815,76.313],[-4.2325,6.1878,62.7204],[-4.2324,6.1914,75.9813],[-4.218,6.2003,97.8127],[-4.2061,6.1972,107.4346],[-4.1836,6.1969,74.3332],[-4.1675,6.1915,59.2385],[-4.1586,6.1952,53.8073],[-4.1583,6.2027,55.0483],[-4.1536,6.209,54.9105],[-4.1542,6.2194,55.2061],[-4.1531,6.2219,55.3086],[-4.1454,6.2306,60.4471],[-4.1419,6.2322,61.1719],[-4.15,6.2384,64.712],[-4.1521,6.2425,62.2814],[-4.1475,6.2514,64.8694],[-4.1416,6.2561,63.5996],[-4.1454,6.255,62.0485],[-4.1493,6.2612,62.4375],[-4.1439,6.2676,64.1976],[-4.1449,6.27,63.4181],[-4.1542,6.274,87.8879],[-4.1584,6.2956,71.268],[-4.1541,6.3153,86.4979],[-4.1571,6.3332,69.9486],[-4.1527,6.3422,71.2493],[-4.1551,6.3515,78.3571],[-4.1601,6.3565,81.1011],[-4.1591,6.3605,71.9546],[-4.1633,6.3664,73.5005],[-4.1638,6.369,72.6681],[-4.1613,6.3735,74.3026],[-4.1633,6.3852,82.6331],[-4.1577,6.394,79.58],[-4.1565,6.4015,75.2905],[-4.1471,6.4247,81.8402],[-4.1403,6.4293,81.1601],[-4.1388,6.4364,76.8397],[-4.1145,6.4508,95.4082],[-4.1135,6.455,84.5008],[-4.1418,6.4688,112.913],[-4.3122,6.4992,152.719],[-4.4311,6.7146,110.8908],[-4.4392,6.7159,94.8444],[-4.4457,6.7231,88.2966],[-4.4542,6.728,85.2014],[-4.4594,6.7356,86.2949],[-4.4625,6.7358,86.8242],[-4.4682,6.7283,84.9118],[-4.4701,6.7091,86.0334],[-4.475,6.7069,82.7756],[-4.482,6.7074,84.1878],[-4.4847,6.7153,84.9847],[-4.4878,6.7165,85.0986],[-4.4889,6.7148,84.8885],[-4.4853,6.7073,85.3217],[-4.4845,6.6981,89.461],[-4.4866,6.6894,88.8511],[-4.4926,6.6822,94.1826],[-4.4976,6.683,93.1748],[-4.5039,6.6881,87.8028],[-4.5137,6.7101,83.9861],[-4.5163,6.7099,82.2203],[-4.5265,6.6918,79.9619],[-4.5299,6.6921,86.8963],[-4.5342,6.6933,91.9349],[-4.5537,6.7204,83.1082],[-4.5679,6.7226,82.5696],[-4.5698,6.7187,80.8665],[-4.5678,6.7134,107.0202],[-4.559,6.7077,80.6365],[-4.5532,6.6978,90.7067],[-4.5418,6.6859,77.3716],[-4.544,6.6817,83.1626],[-4.5608,6.6779,82.0419],[-4.5368,6.6219,139.6021],[-4.5074,6.5468,112.2955],[-4.5123,6.5431,112.7694],[-4.6648,6.5761,84.7742],[-4.735,6.6038,76.7214],[-4.7367,6.6,79.3708],[-4.7418,6.5976,73.6945],[-4.752,6.5962,70.5715],[-4.759,6.5968,82.4025],[-4.7693,6.6029,70.7345],[-4.7721,6.5996,71.4138],[-4.7665,6.5908,69.7725],[-4.7547,6.584,64.1823],[-4.7543,6.5808,81.1377],[-4.7599,6.5742,69.4075],[-4.75,6.5578,67.0158],[-4.7511,6.553,70.0406],[-4.754,6.5488,72.3536],[-4.7657,6.5515,66.1934],[-4.7694,6.5506,68.4908],[-4.7747,6.5523,67.9949],[-4.7809,6.5521,68.1326],[-4.7806,6.5444,72.8364],[-4.7774,6.5353,65.0206],[-4.7732,6.5307,67.4381],[-4.7729,6.5275,92.8247],[-4.7892,6.5087,66.3733],[-4.7861,6.5035,64.1405],[-4.7812,6.4995,61.955],[-4.7824,6.4935,67.3184],[-4.7887,6.4904,66.9858],[-4.7716,6.4859,64.6629],[-4.7687,6.4917,62.9099],[-4.7569,6.4946,64.1628],[-4.7522,6.4924,86.5864],[-4.7499,6.4882,66.2349],[-4.7445,6.4844,66.169],[-4.7323,6.4788,65.8761],[-4.7268,6.4739,62.2851],[-4.7282,6.4661,82.144],[-4.7235,6.4595,63.9315],[-4.7245,6.4563,65.909],[-4.7301,6.4529,68.7371],[-4.7338,6.4525,64.5205],[-4.7382,6.4555,76.2397],[-4.7407,6.4425,66.1907],[-4.7309,6.4433,63.2339],[-4.7128,6.4362,73.2877],[-4.7125,6.4329,71.6257],[-4.72,6.4244,64.931],[-4.7234,6.4227,64.1145],[-4.7237,6.4201,67.3549],[-4.7175,6.4149,65.3623],[-4.7141,6.4156,62.2996],[-4.7,6.4127,62.0212],[-4.6957,6.4083,60.777],[-4.693,6.4015,69.0992],[-4.7044,6.3978,65.0187],[-4.7131,6.4005,64.9175],[-4.7154,6.3999,67.3566],[-4.7163,6.3945,60.0219],[-4.7029,6.3925,61.9897],[-4.6905,6.3852,61.7008],[-4.6915,6.3796,62.8833],[-4.7002,6.3782,59.9659],[-4.7064,6.3718,62.602],[-4.7057,6.3675,62.6548],[-4.7071,6.3668,56.8893],[-4.7084,6.3601,65.047],[-4.7127,6.3589,66.5291],[-4.7133,6.357,58.9542],[-4.711,6.353,59.7273],[-4.7005,6.3502,61.9612],[-4.6979,6.3488,67.7756],[-4.6973,6.3465,69.6779],[-4.7036,6.3367,58.3278],[-4.7182,6.3332,61.9818],[-4.7183,6.3304,57.6563],[-4.7131,6.3236,71.3579],[-4.7142,6.3197,72.1486],[-4.7232,6.3195,62.3564],[-4.7214,6.3126,61.9702],[-4.7197,6.3119,68.8479],[-4.7,6.3134,65.5344],[-4.6945,6.3065,63.6318],[-4.6867,6.3007,57.4716],[-4.6879,6.2948,52.7665],[-4.6842,6.2846,52.6332]]]]}
,"properties": {"GID_3": "CIV.6.3.3_1","GID_0": "CIV","country": "Côted'Ivoire","GID_1": "CIV.6_1","province": "Lacs","NL_NAME_1": "NA","GID_2": "CIV.6.3_1","county": "Moronou","NL_NAME_2": "NA","city": "M’Batto","VARNAME_3": "NA","NL_NAME_3": "NA","TYPE_3": "Département","ENGTYPE_3": "Department","CC_3": "NA","HASC_3": "NA","name": "M’Batto.city","area_km2": 2446.191,"hist_schema_id": "Elevation0-9000","hist_area_km2": {"50": 15.405,"75": 360.61,"100": 806.792,"125": 892.539,"150": 345.922,"175": 20.309,"200": 3.244,"225": 1.032,"250": 0.274,"275": 0.063}}}