{"type": "Feature","bbox": [-3.5479,5.1096,-3.1277,5.3398],"geometry": {"type": "MultiPolygon","coordinates": [[[[-3.44,5.3398,68.2823],[-3.464,5.2796,101.2923],[-3.3978,5.2775,86.542],[-3.3952,5.2433,70.3358],[-3.3746,5.2043,14.2982],[-3.3805,5.1861,9.4328],[-3.4527,5.216,14.4814],[-3.4729,5.2065,12.7565],[-3.4848,5.2046,6.7758],[-3.4878,5.198,9.0302],[-3.5479,5.1688,12.9384],[-3.5179,5.1665,4.8704],[-3.4762,5.1607,9.2012],[-3.3987,5.1468,0.0],[-3.3846,5.1457,9.0257],[-3.2885,5.1271,1.4315],[-3.2868,5.1271,1.0491],[-3.286,5.129,1.7629],[-3.2807,5.129,2.5401],[-3.2765,5.124,1.6009],[-3.1972,5.1096,4.4992],[-3.1675,5.2011,39.0607],[-3.1277,5.2775,67.9907],[-3.1502,5.2793,15.6437],[-3.2585,5.3047,8.8622],[-3.3289,5.337,54.2794],[-3.44,5.3398,68.2823]]]]}
,"properties": {"GID_3": "CIV.3.2.2_1","GID_0": "CIV","country": "Côted'Ivoire","GID_1": "CIV.3_1","province": "Comoé","NL_NAME_1": "NA","GID_2": "CIV.3.2_1","county": "SudComoé","NL_NAME_2": "NA","city": "Adiake","VARNAME_3": "NA","NL_NAME_3": "NA","TYPE_3": "Département","ENGTYPE_3": "Department","CC_3": "NA","HASC_3": "NA","name": "Adiake.city","area_km2": 639.102,"hist_schema_id": "Elevation0-9000","hist_area_km2": {"0": 348.5869,"25": 116.6756,"50": 66.2513,"75": 63.4849,"100": 40.7676,"125": 3.3357}}}