{"type":"Feature","properties":{"ISO3166-1-Alpha-3":"CIV","country":"Ivory Coast","fill":"#FF0","id":"3450","name":"Vallée du Bandama"},
"geometry":{"type": "Polygon","coordinates": [[[-5.18756,9.29432,377.0812],[-5.19433,9.29504,370.0982],[-5.2013,9.29721,363.8809],[-5.20942,9.30287,353.6318],[-5.21355,9.30783,342.6926],[-5.21634,9.3131,360.4449],[-5.24053,9.3709,355.5806],[-5.24668,9.38,339.7364],[-5.25252,9.38542,347.7055],[-5.25825,9.38666,333.7559],[-5.2705,9.38666,334.0475],[-5.31618,9.37953,307.3549],[-5.33809,9.3848,298.884],[-5.37168,9.34449,300.0072],[-5.38656,9.31798,306.8427],[-5.39271,9.29168,314.7762],[-5.3955,9.25954,294.4457],[-5.40527,9.2299,294.647],[-5.42429,9.21163,298.9638],[-5.45478,9.21349,299.4589],[-5.44103,9.19859,298.1277],[-5.43499,9.18352,285.7112],[-5.43524,9.16642,292.3578],[-5.44754,9.12254,291.563],[-5.45788,9.10007,300.5285],[-5.47328,9.08627,292.7664],[-5.49571,9.08996,305.7465],[-5.4972,9.06335,280.8594],[-5.43721,9.02457,281.8235],[-5.42067,8.99439,283.9031],[-5.42977,8.9979,286.8871],[-5.43969,9.00028,281.3401],[-5.45023,9.00126,283.8519],[-5.46098,9.00059,306.6998],[-5.46098,8.99439,297.5151],[-5.45509,8.99167,283.334],[-5.44052,8.9801,283.9274],[-5.46522,8.96506,281.1252],[-5.45964,8.92641,282.3312],[-5.48547,8.91865,278.071],[-5.49198,8.91346,276.2361],[-5.48155,8.90251,281.1487],[-5.46697,8.89264,275.9545],[-5.46098,8.89072,274.2065],[-5.45927,8.87819,279.4027],[-5.46666,8.86799,279.483],[-5.47359,8.86594,275.4381],[-5.48366,8.86233,277.2769],[-5.49317,8.86272,272.3352],[-5.49906,8.85899,273.3578],[-5.50449,8.85868,285.2015],[-5.51529,8.85969,314.169],[-5.52464,8.86481,337.3765],[-5.53276,8.86644,322.9322],[-5.53932,8.8669,319.711],[-5.55699,8.86551,326.3339],[-5.5679,8.86318,360.3298],[-5.57307,8.86147,364.7657],[-5.57756,8.85946,355.0749],[-5.58144,8.85644,359.315],[-5.59554,8.84277,353.8746],[-5.59937,8.83982,361.1056],[-5.60361,8.83726,362.578],[-5.6128,8.83308,380.4071],[-5.61797,8.83145,381.7452],[-5.62309,8.83029,392.4389],[-5.62872,8.83029,379.4774],[-5.63973,8.83277,344.3953],[-5.65833,8.83447,360.524],[-5.66355,8.83618,365.8097],[-5.67161,8.84145,374.8193],[-5.6774,8.84308,358.6572],[-5.6837,8.84308,340.5389],[-5.69161,8.84114,357.3107],[-5.69693,8.83401,340.6506],[-5.71099,8.79918,342.507],[-5.72112,8.76339,309.7531],[-5.72158,8.75487,312.149],[-5.72019,8.74913,306.8236],[-5.71709,8.74898,308.533],[-5.71228,8.75347,305.624],[-5.70903,8.76091,319.8085],[-5.70463,8.76481,312.029],[-5.69941,8.76598,304.9127],[-5.69466,8.76427,305.2243],[-5.69063,8.76133,306.4167],[-5.68784,8.75711,305.7979],[-5.68469,8.74642,312.7804],[-5.68205,8.74231,322.7533],[-5.67265,8.73758,324.0768],[-5.66934,8.73409,309.0919],[-5.66903,8.7281,306.1127],[-5.67234,8.725,306.0253],[-5.67709,8.72352,307.3845],[-5.68805,8.72329,306.8124],[-5.69404,8.71926,312.002],[-5.69487,8.71469,305.5049],[-5.69352,8.71027,309.7345],[-5.69063,8.70629,312.8858],[-5.68856,8.7011,314.4611],[-5.68753,8.69474,306.6005],[-5.69078,8.67611,315.6347],[-5.69109,8.6689,307.9522],[-5.69295,8.66053,308.8964],[-5.69693,8.65805,305.8355],[-5.70143,8.65681,302.6609],[-5.70298,8.65332,302.8773],[-5.70262,8.63717,300.4125],[-5.70169,8.63175,303.862],[-5.69885,8.62787,313.2267],[-5.68867,8.61754,297.5732],[-5.68484,8.61575,306.7242],[-5.68029,8.61645,299.0634],[-5.67223,8.62175,307.9329],[-5.66774,8.62392,299.2908],[-5.66231,8.62469,291.3722],[-5.65688,8.62397,273.4547],[-5.65161,8.62257,272.975],[-5.64665,8.62056,285.6953],[-5.64226,8.61792,272.0071],[-5.63875,8.61413,279.0574],[-5.63627,8.60885,264.07],[-5.63668,8.58123,263.8962],[-5.63761,8.57542,263.3702],[-5.63782,8.56961,263.9969],[-5.63694,8.56446,263.5498],[-5.63451,8.56082,274.2929],[-5.63151,8.55795,285.7688],[-5.62779,8.55532,281.2934],[-5.62376,8.55323,260.8068],[-5.61859,8.55323,271.341],[-5.61379,8.55416,285.4076],[-5.60862,8.55416,277.7371],[-5.60464,8.55105,268.4789],[-5.60288,8.54571,271.6178],[-5.60237,8.53731,258.2024],[-5.61043,8.52925,260.7993],[-5.60505,8.51276,264.1986],[-5.52304,8.46618,260.4102],[-5.53415,8.45388,259.8456],[-5.54309,8.45008,255.3349],[-5.56774,8.45189,253.3535],[-5.58635,8.45819,253.2237],[-5.59534,8.45935,266.0094],[-5.60433,8.45721,255.0207],[-5.61373,8.45251,254.9284],[-5.61906,8.44783,253.4937],[-5.61585,8.44569,255.0721],[-5.60676,8.43812,256.411],[-5.5787,8.40484,251.4385],[-5.56774,8.39727,248.0],[-5.56304,8.39515,254.7963],[-5.55947,8.39044,250.3816],[-5.55493,8.38574,250.4771],[-5.54697,8.38362,252.5371],[-5.5125,8.38362,249.8057],[-5.50764,8.38083,241.2692],[-5.50568,8.37455,278.8856],[-5.50459,8.36778,253.8457],[-5.50258,8.36375,263.7844],[-5.45436,8.35251,236.2924],[-5.44796,8.35011,231.6246],[-5.42749,8.33582,237.5687],[-5.41612,8.33047,246.7314],[-5.41116,8.3273,242.941],[-5.40698,8.3228,235.6141],[-5.39675,8.30089,234.5748],[-5.39271,8.29487,231.9849],[-5.3815,8.28929,232.0558],[-5.36734,8.28536,227.5688],[-5.35406,8.27748,240.9721],[-5.34553,8.26012,227.0424],[-5.366,8.26012,223.1824],[-5.34739,8.21149,216.0614],[-5.34553,8.18593,214.2639],[-5.35918,8.16451,209.6038],[-5.37416,8.16451,210.9028],[-5.38879,8.16379,210.1974],[-5.40238,8.15924,210.4948],[-5.39122,8.13573,218.087],[-5.39328,8.12186,213.9378],[-5.40119,8.11284,208.2055],[-5.4138,8.11609,210.3843],[-5.42139,8.10245,201.6444],[-5.43524,8.10932,201.5886],[-5.45194,8.11367,197.3826],[-5.46646,8.11087,227.3366],[-5.47462,8.09563,216.5554],[-5.4909,8.09974,224.313],[-5.52072,8.10044,202.3352],[-5.53188,8.09726,202.6906],[-5.53746,8.09501,203.3897],[-5.53622,8.07956,209.1612],[-5.53679,8.07126,211.667],[-5.53989,8.06553,209.2099],[-5.54573,8.05915,205.5955],[-5.60392,8.02114,224.3135],[-5.62986,8.00998,240.0887],[-5.6728,8.00313,287.3817],[-5.70639,8.00556,324.1581],[-5.71585,8.00525,323.6196],[-5.73094,8.00344,311.4792],[-5.73993,8.00049,309.8536],[-5.74003,8.00018,310.8263],[-5.74014,8.00003,307.8581],[-5.74913,7.95303,286.7778],[-5.74882,7.94347,297.0079],[-5.74448,7.92549,279.5345],[-5.74096,7.91531,273.0523],[-5.73972,7.90965,270.9408],[-5.73951,7.90352,264.7332],[-5.74029,7.89779,240.4216],[-5.74329,7.88699,214.3218],[-5.74737,7.8773,260.7199],[-5.76184,7.85758,279.2211],[-5.76391,7.85293,278.9765],[-5.7683,7.83627,272.0104],[-5.76871,7.83019,270.1107],[-5.76794,7.81771,250.1848],[-5.76535,7.80684,232.5157],[-5.76008,7.79149,237.9119],[-5.76086,7.78381,251.0634],[-5.7638,7.77487,254.3126],[-5.77362,7.7603,236.6539],[-5.7791,7.75384,226.7583],[-5.79574,7.74392,231.7058],[-5.78344,7.70715,290.0618],[-5.78055,7.69031,267.0206],[-5.78613,7.62398,281.356],[-5.78489,7.61395,289.1627],[-5.78277,7.60721,268.152],[-5.77931,7.60388,272.8685],[-5.77481,7.6014,270.1436],[-5.76949,7.59961,275.1506],[-5.76339,7.5983,259.8203],[-5.75398,7.59,242.7656],[-5.74277,7.57533,240.8763],[-5.72375,7.53693,181.9564],[-5.71693,7.51931,182.0698],[-5.71404,7.50698,181.5],[-5.71605,7.50223,181.5],[-5.71915,7.49913,181.5],[-5.72339,7.49673,181.5],[-5.73326,7.49471,181.5],[-5.74215,7.49479,181.5],[-5.73812,7.47611,181.5],[-5.73569,7.47236,181.5],[-5.72215,7.45562,181.5],[-5.72975,7.39162,181.5],[-5.72773,7.37144,194.6638],[-5.72179,7.36369,191.617],[-5.71812,7.36141,198.5676],[-5.7083,7.35831,202.5313],[-5.70065,7.34994,185.3679],[-5.6989,7.34358,181.5],[-5.69962,7.33785,181.5],[-5.70262,7.33366,184.44],[-5.71068,7.32666,181.5],[-5.71404,7.32154,181.5],[-5.71326,7.31712,181.5],[-5.71104,7.31302,181.5],[-5.70365,7.30651,181.5],[-5.7004,7.30276,181.5],[-5.69693,7.29943,181.5],[-5.6929,7.29664,181.5],[-5.67802,7.29121,181.5],[-5.67223,7.28726,181.5],[-5.66717,7.28098,181.5],[-5.66045,7.26925,181.5],[-5.659,7.26312,181.5],[-5.66216,7.257,181.5],[-5.6328,7.25336,209.4717],[-5.61647,7.25367,213.2741],[-5.50144,7.28222,181.5],[-5.45989,7.2995,216.9036],[-5.45287,7.30074,207.971],[-5.44542,7.30043,227.1016],[-5.43648,7.29671,206.164],[-5.43028,7.29167,226.6299],[-5.42543,7.28609,194.1573],[-5.40522,7.25692,209.1993],[-5.3877,7.23775,246.9158],[-5.38181,7.23333,232.5887],[-5.37571,7.23008,235.2399],[-5.36941,7.22791,226.6771],[-5.36181,7.2276,244.8541],[-5.35251,7.22891,217.0258],[-5.32104,7.23736,203.0993],[-5.31442,7.23752,195.4652],[-5.29561,7.23449,206.1236],[-5.28859,7.23628,201.3114],[-5.28099,7.24124,209.1947],[-5.26254,7.2646,199.1242],[-5.25479,7.27235,194.4902],[-5.24259,7.27785,212.0882],[-5.23453,7.27873,200.8228],[-5.22719,7.2785,190.4879],[-5.2213,7.28036,182.6205],[-5.21572,7.28702,185.8857],[-5.20503,7.31054,186.1701],[-5.18689,7.33092,194.6729],[-5.07475,7.38492,261.0051],[-5.06436,7.3934,277.7884],[-5.05816,7.40084,284.3719],[-5.05594,7.40712,267.4229],[-5.04969,7.41986,285.3976],[-5.04571,7.42606,283.4362],[-5.041,7.43179,277.3974],[-5.03537,7.4373,297.6566],[-5.02886,7.44234,282.9025],[-5.01491,7.45073,268.1319],[-4.95853,7.47169,259.7982],[-4.94618,7.47921,247.1172],[-4.93822,7.48673,212.9793],[-4.92334,7.51435,217.45],[-4.90597,7.53577,245.4146],[-4.8943,7.54166,262.1879],[-4.87879,7.54561,219.1761],[-4.81967,7.54926,191.4798],[-4.81197,7.54871,183.4073],[-4.80365,7.54592,195.3258],[-4.79074,7.53802,175.2405],[-4.77239,7.51977,178.2799],[-4.76671,7.51605,188.8325],[-4.74123,7.51326,188.9445],[-4.66103,7.51621,167.0966],[-4.63969,7.54205,175.2004],[-4.61421,7.55998,169.0495],[-4.60863,7.56486,176.4644],[-4.59829,7.57618,172.7462],[-4.58878,7.58938,180.8895],[-4.58356,7.5952,187.8425],[-4.57793,7.59938,165.0557],[-4.5722,7.60155,177.0604],[-4.56605,7.60217,177.5093],[-4.55985,7.60171,153.8219],[-4.52801,7.59326,158.0914],[-4.52181,7.59303,156.6244],[-4.5169,7.59899,142.1253],[-4.51411,7.61008,154.3559],[-4.52941,7.72818,204.761],[-4.53235,7.73873,209.1626],[-4.53494,7.74446,198.4606],[-4.53638,7.76146,198.0305],[-4.52719,7.79978,218.7444],[-4.48843,7.80846,210.6635],[-4.48109,7.80857,193.0004],[-4.47076,7.80738,193.5646],[-4.45003,7.79978,186.4512],[-4.43706,7.79932,179.8618],[-4.42518,7.8004,172.0639],[-4.4088,7.80451,196.5978],[-4.39407,7.81105,198.5872],[-4.36823,7.8336,168.0676],[-4.28958,7.87195,190.2562],[-4.27113,7.88629,192.4169],[-4.21387,7.94773,231.8129],[-4.1917,7.9815,237.5453],[-4.18674,7.98646,219.9369],[-4.17858,7.99282,250.5128],[-4.15713,7.9991,231.5644],[-4.01011,8.02832,191.9217],[-4.00531,8.06517,168.265],[-3.9943,8.08969,168.2011],[-3.97714,8.10284,173.9733],[-3.95456,8.09563,185.0245],[-3.95058,8.09997,169.6463],[-3.94278,8.11098,190.6591],[-3.9403,8.11609,183.0707],[-3.95358,8.12782,175.6125],[-3.99182,8.17475,174.8742],[-4.00246,8.17991,170.2856],[-4.01249,8.18074,179.3977],[-4.01993,8.18376,175.9949],[-4.02282,8.19555,175.7641],[-4.01931,8.20774,179.42],[-4.00432,8.22839,177.3577],[-4.00174,8.24025,173.2495],[-4.00773,8.25007,176.4919],[-4.03125,8.26417,172.437],[-4.03647,8.27097,169.8128],[-4.0375,8.28102,178.7013],[-4.04174,8.29513,186.5733],[-4.04267,8.30479,171.0263],[-4.03197,8.30626,172.7981],[-3.98226,8.30585,179.2357],[-3.96763,8.30851,185.5254],[-3.95983,8.31885,175.2089],[-3.95735,8.32936,174.2225],[-3.95916,8.339,182.8549],[-3.96422,8.3467,194.8429],[-3.97456,8.35794,182.5358],[-3.97461,8.3614,174.9354],[-3.97032,8.36412,192.2605],[-3.96763,8.37308,174.1341],[-3.96608,8.37649,182.2431],[-3.96298,8.37939,180.4212],[-3.9605,8.38362,182.9756],[-3.96076,8.39106,186.21],[-3.96371,8.39561,191.8089],[-3.96805,8.39644,200.7655],[-3.97208,8.3961,200.7667],[-3.97445,8.39727,189.5693],[-3.97962,8.40491,178.9093],[-3.98572,8.41101,186.3572],[-3.98784,8.41892,183.4294],[-3.98128,8.43204,178.6364],[-3.97828,8.42874,188.8742],[-3.96464,8.43135,175.9918],[-3.94371,8.43824,181.6919],[-3.9373,8.45672,189.9133],[-3.93286,8.46959,175.9187],[-3.94211,8.4894,192.8557],[-3.97874,8.50977,207.2349],[-3.98128,8.52762,182.4281],[-3.97544,8.5331,178.3533],[-3.95818,8.5385,189.1019],[-3.95079,8.55175,179.5941],[-3.92288,8.57263,208.1083],[-3.92102,8.58663,193.3477],[-3.92707,8.60873,199.9325],[-3.93172,8.61389,201.7283],[-3.94645,8.61141,188.9077],[-3.95606,8.60878,187.6343],[-3.97172,8.60265,194.0322],[-3.97699,8.60203,212.4535],[-3.98246,8.60351,205.1273],[-3.98768,8.60816,206.1618],[-3.99755,8.61955,225.951],[-4.00009,8.62159,203.1235],[-4.0036,8.62345,207.3936],[-4.01952,8.62725,217.6965],[-4.03207,8.62741,231.4599],[-4.04019,8.62663,251.7202],[-4.05765,8.62211,276.0685],[-4.06665,8.62206,219.8385],[-4.07848,8.62314,243.6523],[-4.10065,8.62803,229.9826],[-4.11191,8.62857,279.2288],[-4.1207,8.62834,257.123],[-4.12602,8.62663,254.0373],[-4.13196,8.62562,242.6001],[-4.13817,8.6257,220.1944],[-4.14499,8.62756,216.1591],[-4.15232,8.63345,222.0374],[-4.16059,8.6426,223.5725],[-4.1653,8.64554,219.6219],[-4.17134,8.64717,204.0544],[-4.18137,8.64617,214.7282],[-4.18809,8.6443,223.1084],[-4.19894,8.63996,242.0402],[-4.20441,8.63888,252.3227],[-4.21072,8.63919,242.0415],[-4.21702,8.64167,226.7972],[-4.22416,8.64772,211.1796],[-4.22782,8.65324,209.9608],[-4.23253,8.66379,208.7459],[-4.23738,8.66859,206.6457],[-4.25738,8.67983,217.1221],[-4.26322,8.68575,222.0592],[-4.26663,8.69187,212.4187],[-4.26865,8.70358,219.2289],[-4.27108,8.708,211.3736],[-4.27573,8.71135,216.2751],[-4.28229,8.71337,231.8152],[-4.29351,8.71337,239.8293],[-4.30105,8.71244,255.4964],[-4.32441,8.70717,256.5629],[-4.33071,8.70779,265.8547],[-4.33619,8.71011,246.4821],[-4.34105,8.71546,229.4883],[-4.34353,8.72097,217.9973],[-4.34518,8.72678,229.4606],[-4.35366,8.78698,244.1033],[-4.35686,8.7974,270.8992],[-4.35934,8.80174,258.6215],[-4.36234,8.80577,262.4303],[-4.36988,8.8122,247.0709],[-4.38781,8.82192,256.3328],[-4.39154,8.82509,244.4387],[-4.39484,8.82882,266.2723],[-4.40451,8.84659,259.2119],[-4.4135,8.85155,261.3427],[-4.42761,8.8569,255.6655],[-4.46114,8.86489,301.2647],[-4.47489,8.87054,310.1229],[-4.48347,8.87584,268.7454],[-4.48858,8.88452,279.5937],[-4.49168,8.88832,296.6502],[-4.49515,8.89111,274.8322],[-4.53173,8.90501,307.0098],[-4.54,8.90726,294.7717],[-4.54724,8.90726,317.4794],[-4.55897,8.90354,348.8673],[-4.57111,8.89731,331.109],[-4.93605,8.90897,302.2382],[-4.93605,8.94581,266.288],[-4.92835,8.95093,268.3251],[-4.92117,8.95387,264.4655],[-4.91342,8.96157,285.1363],[-4.90039,8.98056,288.2448],[-4.89636,8.99082,300.8337],[-4.89512,8.99764,296.1343],[-4.89569,8.99943,297.3114],[-4.89595,9.00005,297.3114],[-4.89605,9.00059,297.4478],[-4.88282,9.09206,276.3517],[-4.88313,9.10355,274.7344],[-4.88468,9.11169,280.7032],[-4.88747,9.11588,278.8646],[-4.89088,9.11913,286.6075],[-4.89492,9.12154,293.8642],[-4.90463,9.12316,283.3184],[-4.91274,9.12782,284.1055],[-4.91734,9.1297,288.5967],[-4.93243,9.13203,292.1562],[-4.93708,9.1342,287.8983],[-4.94814,9.14381,290.8509],[-4.9576,9.14823,310.6602],[-4.96282,9.15001,311.7502],[-4.96819,9.15427,299.1156],[-4.97331,9.16073,309.2179],[-4.98488,9.19006,323.5256],[-4.98747,9.19432,327.8699],[-4.99057,9.19828,334.593],[-5.00054,9.20758,348.4482],[-5.004,9.21225,341.664],[-5.00953,9.22233,327.4911],[-5.0117,9.22993,320.3928],[-5.01243,9.23721,320.1767],[-5.01238,9.25104,333.3235],[-5.0161,9.28168,333.4851],[-5.01915,9.29331,341.8503],[-5.03057,9.29892,381.1686],[-5.0456,9.30333,386.857],[-5.14813,9.32054,393.0857],[-5.15609,9.31868,401.5786],[-5.16079,9.31566,383.4245],[-5.16663,9.30853,385.4678],[-5.17423,9.30093,386.7628],[-5.17779,9.29806,370.8637],[-5.18234,9.29582,367.2597],[-5.18756,9.29432,377.0812]]]}}