{"type":"Feature","properties":{"ISO3166-1-Alpha-3":"CIV","country":"Ivory Coast","fill":"#F00","id":"3452","name":"N'zi-Comoé"},
"geometry":{"type": "Polygon","coordinates": [[[-4.0099,7.96683,167.1605],[-4.016,7.98329,166.5098],[-4.01011,8.02832,191.9217],[-4.15713,7.9991,231.5644],[-4.17858,7.99282,250.5128],[-4.18674,7.98646,219.9369],[-4.1917,7.9815,237.5453],[-4.21387,7.94773,231.8129],[-4.27113,7.88629,192.4169],[-4.28958,7.87195,190.2562],[-4.36823,7.8336,168.0676],[-4.39407,7.81105,198.5872],[-4.4088,7.80451,196.5978],[-4.42518,7.8004,172.0639],[-4.43706,7.79932,179.8618],[-4.45003,7.79978,186.4512],[-4.47076,7.80738,193.5646],[-4.48109,7.80857,193.0004],[-4.48843,7.80846,210.6635],[-4.52719,7.79978,218.7444],[-4.53638,7.76146,198.0305],[-4.53494,7.74446,198.4606],[-4.53235,7.73873,209.1626],[-4.52941,7.72818,204.761],[-4.51411,7.61008,154.3559],[-4.5169,7.59899,142.1253],[-4.52181,7.59303,156.6244],[-4.52801,7.59326,158.0914],[-4.55985,7.60171,153.8219],[-4.56605,7.60217,177.5093],[-4.5722,7.60155,177.0604],[-4.57793,7.59938,165.0557],[-4.58356,7.5952,187.8425],[-4.58878,7.58938,180.8895],[-4.59829,7.57618,172.7462],[-4.60863,7.56486,176.4644],[-4.61421,7.55998,169.0495],[-4.63969,7.54205,175.2004],[-4.66103,7.51621,167.0966],[-4.63695,7.47027,211.2754],[-4.63462,7.46407,209.7319],[-4.63209,7.44895,209.3927],[-4.67064,7.44911,194.4986],[-4.69658,7.44234,213.7921],[-4.7094,7.43637,214.9722],[-4.72583,7.42683,218.7075],[-4.73048,7.41665,222.2712],[-4.73162,7.40611,208.5694],[-4.70893,7.28067,226.6579],[-4.70836,7.26917,224.109],[-4.75952,7.10453,160.9303],[-4.76789,7.08585,149.956],[-4.77058,7.07613,150.8599],[-4.80143,7.0275,176.3193],[-4.81482,7.01523,195.4891],[-4.8174,7.01035,193.6588],[-4.81823,7.00515,198.2835],[-4.81787,7.00058,200.6172],[-4.8175,6.99919,195.0949],[-4.80841,6.97707,172.7848],[-4.79942,6.95325,155.6771],[-4.80004,6.94751,142.2405],[-4.80159,6.9402,135.2299],[-4.8082,6.925,148.7474],[-4.80872,6.91811,135.1569],[-4.80763,6.91136,128.6071],[-4.80148,6.897,125.6432],[-4.80107,6.88963,127.7656],[-4.8036,6.88242,122.8024],[-4.80717,6.87782,128.3873],[-4.81089,6.87426,121.2945],[-4.81967,6.8693,121.3084],[-4.91114,6.82796,162.4528],[-4.91879,6.82796,163.61],[-4.92334,6.82894,144.6185],[-4.9314,6.83292,157.1448],[-4.95403,6.82142,120.5],[-4.95517,6.81638,136.8437],[-4.95527,6.81204,124.2607],[-4.95915,6.7886,134.5112],[-4.9716,6.74819,113.1678],[-4.96716,6.73375,116.9989],[-4.96163,6.72995,114.5024],[-4.95383,6.72282,113.9165],[-4.9437,6.71592,118.7356],[-4.94122,6.71008,116.1202],[-4.94194,6.70543,112.2019],[-4.94463,6.70101,112.1638],[-4.94742,6.68939,107.8501],[-4.95321,6.6775,106.908],[-4.95403,6.66533,105.5603],[-4.95135,6.65856,116.0198],[-4.93863,6.6443,110.9242],[-4.93212,6.64112,105.7606],[-4.92602,6.63965,102.9458],[-4.92308,6.63616,102.9866],[-4.92137,6.63143,102.0904],[-4.92086,6.62637,110.5714],[-4.92184,6.62257,116.0339],[-4.92494,6.62032,105.0959],[-4.92706,6.61745,109.1129],[-4.92711,6.60784,100.4544],[-4.92148,6.59999,99.7231],[-4.91631,6.5951,111.619],[-4.91042,6.59262,114.9093],[-4.90504,6.59177,112.8164],[-4.89998,6.59216,99.542],[-4.89647,6.59464,97.133],[-4.89533,6.59913,100.7434],[-4.89548,6.60378,97.774],[-4.89445,6.60768,99.0723],[-4.89088,6.61032,99.0033],[-4.88541,6.61117,94.3517],[-4.87316,6.61187,99.1884],[-4.86794,6.61319,93.2301],[-4.86375,6.61559,98.2642],[-4.85616,6.62179,111.113],[-4.85182,6.62443,102.3938],[-4.84711,6.62652,86.3518],[-4.8419,6.62753,79.4238],[-4.83704,6.62799,79.7215],[-4.82309,6.62505,73.1821],[-4.81812,6.62536,75.2462],[-4.81337,6.62644,75.2083],[-4.80903,6.62621,77.0131],[-4.7402,6.60115,67.1872],[-4.76614,6.59479,69.5767],[-4.76851,6.59138,66.9158],[-4.76934,6.58766,73.8449],[-4.76593,6.58471,72.9285],[-4.76355,6.58107,69.4513],[-4.76273,6.57167,69.2751],[-4.76061,6.56655,70.6684],[-4.75787,6.56167,75.591],[-4.75596,6.55407,76.7241],[-4.75818,6.55019,68.4977],[-4.76247,6.54823,67.2061],[-4.77807,6.55081,69.9678],[-4.78391,6.54849,66.7743],[-4.78557,6.5442,84.8372],[-4.78691,6.52924,70.6024],[-4.79136,6.51394,71.826],[-4.79311,6.5027,70.8714],[-4.79384,6.4888,80.9353],[-4.79079,6.48314,81.3609],[-4.78629,6.48043,65.7059],[-4.78081,6.48074,78.9406],[-4.77575,6.48229,79.3852],[-4.76619,6.48617,90.3464],[-4.76118,6.48694,72.5214],[-4.74578,6.48299,63.1305],[-4.73968,6.47888,65.9829],[-4.7343,6.47175,73.3413],[-4.72898,6.4556,74.5791],[-4.72852,6.44769,61.9139],[-4.73151,6.4439,65.2295],[-4.73503,6.44297,60.5396],[-4.73823,6.43777,82.9112],[-4.73741,6.43366,89.5045],[-4.73337,6.43085,69.233],[-4.728,6.42938,65.7304],[-4.72294,6.42527,64.8483],[-4.72211,6.41922,63.4053],[-4.72273,6.40992,66.808],[-4.72108,6.40509,73.9073],[-4.71653,6.40284,61.7589],[-4.70537,6.4023,60.4003],[-4.70165,6.40067,58.3503],[-4.70196,6.39726,65.705],[-4.70547,6.39455,67.1734],[-4.71053,6.39168,68.8719],[-4.70986,6.38834,67.821],[-4.69963,6.37878,63.0964],[-4.69803,6.37351,70.8037],[-4.69906,6.36669,64.6099],[-4.70206,6.35902,91.2871],[-4.70475,6.34395,63.9207],[-4.70774,6.33605,61.1405],[-4.71188,6.33132,71.4897],[-4.71544,6.32822,58.8282],[-4.72459,6.30858,62.1488],[-4.72335,6.30533,67.8503],[-4.71922,6.30416,84.2264],[-4.70888,6.30571,64.4605],[-4.70382,6.30533,64.4299],[-4.69973,6.30184,60.7441],[-4.69699,6.29615,73.654],[-4.6942,6.28817,59.9686],[-4.69503,6.28414,65.3951],[-4.70154,6.28205,57.5093],[-4.463,6.22401,145.51],[-4.4321,6.27608,144.9202],[-4.42776,6.27887,124.8323],[-4.42218,6.27949,148.4031],[-4.41505,6.27437,127.0823],[-4.41112,6.26972,138.8271],[-4.40828,6.26442,119.1648],[-4.40425,6.25473,111.9156],[-4.4011,6.25117,115.3306],[-4.3973699999999996,6.24784,108.8521],[-4.38378,6.24086,118.1281],[-4.35919,6.22456,105.5182],[-4.35169,6.21797,104.4213],[-4.34761,6.2151,116.5689],[-4.34125,6.21213,111.9882],[-4.30777,6.20422,126.1429],[-4.27459,6.19267,90.1311],[-4.25309,6.1881,68.4614],[-4.24824,6.18539,67.4398],[-4.22653,6.19019,71.6029],[-4.14659,6.23425,59.4136],[-4.14478,6.24846,78.3726],[-4.14499,6.26132,62.2575],[-4.14643,6.26685,69.2585],[-4.15057,6.27639,73.5031],[-4.15532,6.29781,64.4382],[-4.15419,6.30819,76.1671],[-4.15434,6.31936,79.1418],[-4.15305,6.3307,78.737799999999993],[-4.15305,6.33675,79.5857],[-4.15584,6.35413,82.3426],[-4.15615,6.36049,73.4222],[-4.15543,6.37313,78.6861],[-4.15057,6.39571,91.1079],[-4.14225,6.41488,91.9641],[-4.13672,6.42302,98.766],[-4.1114,6.45049,83.9346],[-4.10711,6.45839,83.5064],[-4.10442,6.46563,87.6275],[-4.10323,6.47082,84.6055],[-4.09765,6.47694,100.211],[-4.08866,6.48345,106.6173],[-4.0344,6.50154,126.3505],[-3.77488,6.62714,122.0839],[-3.77757,6.63236,122.1862],[-3.78232,6.64698,129.1395],[-3.78888,6.65985,125.7827],[-3.8031,6.67114,146.5443],[-3.77204,6.68424,151.1037],[-3.77044,6.70582,123.5251],[-3.79627,6.7599,125.8572],[-3.7539,6.80108,131.8111],[-3.75163,6.80832,126.2424],[-3.74015,6.81504,138.2253],[-3.75008,6.82961,152.6364],[-3.76672,6.84382,126.8453],[-3.77519,6.84927,127.1912],[-3.77255,6.86527,138.0137],[-3.76144,6.88322,130.9946],[-3.74801,6.89785,127.7114],[-3.73829,6.90389,133.0797],[-3.72972,6.91201,137.5821],[-3.73168,6.93012,131.6967],[-3.74124,6.94893,126.5029],[-3.75535,6.95914,150.8345],[-3.76165,6.93632,141.792],[-3.77126,6.93723,133.9408],[-3.78077,6.9534,141.5232],[-3.77519,6.97901,131.5466],[-3.75163,7.00012,128.6725],[-3.71437,7.00632,127.7579],[-3.70284,7.01714,145.0136],[-3.69463,7.02893,132.4577],[-3.68419,7.03962,130.3732],[-3.66595,7.04727,137.7589],[-3.63432,7.05115,137.1317],[-3.6213,7.06047,143.9224],[-3.61877,7.08205,141.3554],[-3.58306,7.07078,142.5437],[-3.56998,7.07184,135.4344],[-3.57717,7.08825,136.0097],[-3.57148,7.0906,139.4413],[-3.56714,7.09406,139.2386],[-3.56445,7.0991,136.6272],[-3.56352,7.10623,132.9417],[-3.56755,7.11161,132.0109],[-3.57582,7.11001,135.6666],[-3.5829,7.10559,132.8133],[-3.58337,7.10251,141.1998],[-3.6122,7.1076,140.6943],[-3.62311,7.11269,142.9498],[-3.63184,7.123,139.3032],[-3.63603,7.13292,139.1295],[-3.64528,7.16535,135.0084],[-3.64548,7.17762,146.0379],[-3.63716,7.19098,160.9527],[-3.62492,7.19775,135.8903],[-3.61448,7.19447,135.7076],[-3.61132,7.17762,161.54],[-3.59928,7.18297,137.8884],[-3.59313,7.18662,139.7496],[-3.5891,7.19274,140.9774],[-3.58337,7.20556,139.7865],[-3.57996,7.21811,149.3583],[-3.58058,7.22863,143.571],[-3.58264,7.23953,147.2088],[-3.58347,7.26876,148.2854],[-3.58233,7.27475,141.9081],[-3.55608,7.28005,155.4493],[-3.53593,7.28085,148.5706],[-3.52828,7.28589,157.132],[-3.52198,7.30113,143.4651],[-3.52632,7.30098,155.7777],[-3.52735,7.30219,156.3545],[-3.5273,7.30459,153.276],[-3.52818,7.30798,154.9733],[-3.53531,7.30395,151.2775],[-3.54244,7.30113,151.2514],[-3.54461,7.32315,148.3302],[-3.53505,7.33792,147.4626],[-3.52027,7.36077,144.0978],[-3.52198,7.38368,145.2637],[-3.50565,7.39208,140.2075],[-3.50275,7.40795,145.9635],[-3.5089,7.44887,149.9216],[-3.5119,7.44952,145.2633],[-3.53381,7.48171,143.25],[-3.53712,7.48952,144.683],[-3.54141,7.49562,153.3996],[-3.54988,7.49975,143.2155],[-3.56115,7.50158,145.1678],[-3.57407,7.50561,150.9259],[-3.58595,7.51096,148.3047],[-3.59391,7.51683,150.4208],[-3.59546,7.52641,151.1825],[-3.57582,7.54546,147.2676],[-3.57035,7.55747,162.3317],[-3.57872,7.58713,154.8742],[-3.59835,7.59181,149.9509],[-3.63804,7.58168,150.8507],[-3.64683,7.58729,157.9515],[-3.65189,7.59651,159.2244],[-3.65788,7.60517,162.9474],[-3.66967,7.60899,148.1677],[-3.67318,7.61553,148.9196],[-3.67421,7.62979,156.2891],[-3.67809,7.64408,172.0924],[-3.68982,7.65059,156.4497],[-3.71473,7.65488,149.0078],[-3.72589,7.6661,153.3649],[-3.73483,7.69901,152.5596],[-3.72713,7.72204,153.6474],[-3.74005,7.73284,174.1679],[-3.76217,7.73524,149.0828],[-3.78201,7.73315,157.3766],[-3.78832,7.74028,151.3621],[-3.79633,7.74467,152.1041],[-3.80589,7.74498,151.8008],[-3.81674,7.73997,153.6942],[-3.82346,7.76022,162.9524],[-3.834,7.7703,154.1897],[-3.84976,7.77376,156.4162],[-3.87203,7.7741,152.7847],[-3.87203,7.78092,157.737],[-3.86139,7.78567,153.801],[-3.85963,7.79275,159.7235],[-3.86583,7.81237,154.363],[-3.86821,7.81671,158.7984],[-3.87513,7.82531,154.5923],[-3.87653,7.83151,165.382],[-3.87234,7.83771,159.5837],[-3.86697,7.84371,156.197],[-3.86459,7.84921,161.7744],[-3.86955,7.86629,158.1596],[-3.8757,7.8774,164.0753],[-3.87994,7.88505,165.8234],[-3.89301,7.8944,168.7462],[-3.90614,7.88334,166.6807],[-3.91647,7.89166,163.2613],[-3.94614,7.89867,157.7465],[-3.96076,7.90383,165.1181],[-3.97657,7.91295,169.8224],[-3.97735,7.91624,161.3038],[-3.96825,7.91864,161.1687],[-3.95456,7.92494,164.3016],[-3.93694,7.93957,159.9123],[-3.92903,7.94928,159.3634],[-3.9266,7.95846,168.5228],[-3.9342,7.97776,167.9785],[-3.94386,7.97652,160.5912],[-3.9543,7.96897,167.0905],[-3.96422,7.96931,166.5739],[-3.97828,7.97207,162.3405],[-3.99544,7.96714,164.8593],[-4.0099,7.96683,167.1605]]]}}