{"type": "Feature","bbox": [-6.381,7.7371,-5.3372,8.675],"geometry": {"type": "MultiPolygon","coordinates": [[[[-6.2316,7.7489,226.9622],[-6.2205,7.739,230.0266],[-6.2127,7.7371,235.3636],[-6.2073,7.7515,236.3326],[-6.2033,7.7559,252.9924],[-6.202,7.7664,243.9748],[-6.1995,7.7716,247.0054],[-6.1915,7.7773,256.9682],[-6.1896,7.7825,258.7495],[-6.1884,7.8018,271.257],[-6.1796,7.8054,287.7866],[-6.1705,7.8203,305.4077],[-6.1669,7.8228,312.9048],[-6.16,7.8323,328.0857],[-6.1564,7.8347,327.0103],[-6.1439,7.8383,384.6633],[-6.141,7.8416,343.4685],[-6.1392,7.8463,332.3821],[-6.1402,7.8586,332.7077],[-6.137,7.8623,326.5491],[-6.1294,7.8654,307.5906],[-6.1272,7.8682,313.1359],[-6.128,7.8735,309.6722],[-6.1189,7.8887,294.1523],[-6.1162,7.8985,295.3737],[-6.1162,7.92,286.6248],[-6.1139,7.923,292.5678],[-6.1109,7.9366,279.5626],[-6.1081,7.9386,279.0907],[-6.0833,7.9465,266.5799],[-6.0696,7.9316,265.1162],[-6.0672,7.9229,254.7993],[-6.0645,7.9204,255.5731],[-6.0636,7.9113,260.9474],[-6.067,7.9078,255.6986],[-6.0679,7.9042,256.1435],[-6.0624,7.9002,258.4071],[-6.0509,7.8988,248.6785],[-6.0459,7.897,254.3486],[-6.0425,7.8936,249.3963],[-6.0247,7.8881,245.641],[-6.0287,7.8858,264.1168],[-6.0173,7.8726,245.4702],[-6.0153,7.866,239.8835],[-6.0097,7.8608,243.0479],[-6.0075,7.8606,237.7464],[-6.0032,7.8627,241.2382],[-5.9936,7.8628,251.718],[-5.9885,7.8657,256.7566],[-5.9795,7.8922,252.2001],[-5.972,7.9072,259.438],[-5.9648,7.9117,263.4612],[-5.9642,7.9171,266.0139],[-5.9373,7.9288,274.8419],[-5.9337,7.9321,263.0573],[-5.922,7.9358,276.4318],[-5.9136,7.9444,272.7258],[-5.907,7.9561,276.01],[-5.9036,7.9588,280.8192],[-5.7512,7.9998,276.7635],[-5.743,7.9981,306.9134],[-5.684,7.9992,267.7018],[-5.6801,7.9959,279.2952],[-5.5718,8.0117,193.1906],[-5.5707,8.0194,197.4823],[-5.5638,8.0246,199.1129],[-5.5566,8.0257,198.1787],[-5.5633,8.0324,202.0818],[-5.5638,8.0361,194.6332],[-5.5509,8.0342,196.7622],[-5.5487,8.0359,198.026],[-5.5465,8.0453,198.922],[-5.5473,8.0509,196.8452],[-5.5451,8.0549,195.9791],[-5.5313,8.0598,196.7647],[-5.53,8.062,199.1191],[-5.5324,8.0754,196.1122],[-5.5213,8.0757,196.5633],[-5.5237,8.0866,195.4891],[-5.5217,8.0942,198.6065],[-5.5227,8.1004,198.3343],[-5.5305,8.1094,198.0797],[-5.5294,8.1143,197.1573],[-5.5245,8.1172,194.6641],[-5.5162,8.1199,197.2262],[-5.5094,8.1067,198.7385],[-5.4993,8.105,198.6547],[-5.4951,8.1064,203.9386],[-5.4894,8.1149,196.3083],[-5.4854,8.1175,196.9349],[-5.4809,8.1155,196.2518],[-5.4783,8.1117,198.0801],[-5.4759,8.1029,199.9597],[-5.4701,8.103,201.6317],[-5.4637,8.1005,202.8978],[-5.4601,8.1081,198.0648],[-5.4526,8.1108,204.2841],[-5.4442,8.1099,203.3248],[-5.4416,8.1083,203.2818],[-5.4344,8.1086,202.8922],[-5.4326,8.102,205.4601],[-5.4234,8.0998,209.7046],[-5.4218,8.1003,205.3107],[-5.4228,8.1084,204.1161],[-5.4188,8.1129,208.4281],[-5.4142,8.1122,205.9939],[-5.4051,8.1046,214.192],[-5.4021,8.1047,216.3463],[-5.3974,8.1086,207.795],[-5.3964,8.1151,211.4492],[-5.4005,8.1206,209.6627],[-5.3979,8.1404,208.1288],[-5.4076,8.1534,209.2803],[-5.4049,8.1627,210.9198],[-5.3992,8.1649,204.475],[-5.397,8.1633,206.3583],[-5.3885,8.1645,210.1974],[-5.3805,8.1615,206.4622],[-5.3704,8.166,209.884],[-5.3615,8.1612,208.1109],[-5.3578,8.1623,209.0124],[-5.3494,8.1745,214.1507],[-5.3507,8.18,209.5694],[-5.3548,8.1843,212.6884],[-5.3569,8.1927,216.9122],[-5.3549,8.2029,223.0881],[-5.3472,8.2127,221.7966],[-5.3466,8.2175,220.3803],[-5.349,8.2202,221.318],[-5.3534,8.2213,222.7877],[-5.358,8.2274,222.8002],[-5.3666,8.2329,224.9786],[-5.37,8.2416,223.2782],[-5.3731,8.2448,223.8307],[-5.3719,8.2588,224.7567],[-5.3683,8.259,225.5376],[-5.3556,8.2499,216.4792],[-5.3485,8.2472,225.5447],[-5.3372,8.2484,219.6919],[-5.3385,8.2515,228.5228],[-5.3494,8.2618,225.3808],[-5.3617,8.2682,224.6034],[-5.3711,8.2717,229.3404],[-5.3868,8.2723,239.4672],[-5.3919,8.2763,236.7429],[-5.3921,8.3016,222.8368],[-5.4128,8.3087,232.4644],[-5.4197,8.313,231.837],[-5.4369,8.3358,224.763],[-5.4501,8.3414,230.8743],[-5.4619,8.3505,226.721],[-5.4643,8.3482,229.7998],[-5.4732,8.3512,232.4784],[-5.4818,8.3585,242.0566],[-5.492,8.3551,250.2643],[-5.503,8.3658,246.2427],[-5.5032,8.3767,251.1609],[-5.5067,8.3798,251.3244],[-5.509,8.3778,263.9901],[-5.5198,8.3746,252.9633],[-5.5312,8.3774,250.0142],[-5.5367,8.3749,264.885],[-5.5549,8.3825,251.7283],[-5.5657,8.3925,251.6102],[-5.5682,8.3973,248.0],[-5.581,8.412,251.8576],[-5.6007,8.419,255.2737],[-5.6102,8.4251,253.4197],[-5.6166,8.4264,263.8338],[-5.6309,8.4366,265.0709],[-5.6333,8.4397,260.4861],[-5.6306,8.4505,256.1235],[-5.6272,8.4521,255.2891],[-5.6102,8.4525,257.3436],[-5.6056,8.4599,250.6493],[-5.6019,8.4592,252.1766],[-5.5951,8.4613,266.4777],[-5.5908,8.4651,266.3823],[-5.5692,8.4588,256.5572],[-5.5598,8.4479,253.0878],[-5.5537,8.4459,256.7647],[-5.5416,8.4464,256.2315],[-5.5358,8.4482,257.08],[-5.5301,8.4565,255.7289],[-5.5225,8.461,252.7992],[-5.5322,8.4642,286.0848],[-5.5509,8.4774,256.935],[-5.5746,8.4843,263.2002],[-5.611,8.5076,255.5746],[-5.6181,8.5168,259.445],[-5.6194,8.5268,262.2368],[-5.618,8.5301,255.8362],[-5.6119,8.5321,259.636],[-5.6119,8.537,269.2143],[-5.6519,8.5368,284.1519],[-5.7129,8.5415,333.5706],[-5.8069,8.5918,373.7842],[-5.8254,8.6039,342.6702],[-5.8508,8.6171,349.1657],[-5.8584,8.6196,369.6542],[-5.8809,8.6337,346.8262],[-5.9047,8.6456,337.7533],[-5.9082,8.6466,343.5562],[-5.9145,8.6399,339.178],[-5.9199,8.6442,339.1888],[-5.9602,8.6537,346.4122],[-5.9935,8.675,393.7711],[-6.0118,8.6635,389.69],[-6.0372,8.6601,394.8445],[-6.0448,8.662,393.3522],[-6.0717,8.6504,389.5762],[-6.0813,8.6486,406.4288],[-6.1067,8.6362,414.0515],[-6.116,8.6295,406.9751],[-6.1251,8.6258,384.0273],[-6.129,8.6258,388.371],[-6.1456,8.6095,395.0085],[-6.1585,8.5894,392.8441],[-6.1675,8.582,379.1745],[-6.1732,8.5727,378.7211],[-6.1806,8.5646,391.3229],[-6.1874,8.5509,385.4683],[-6.1879,8.5363,375.787],[-6.1909,8.5324,363.8694],[-6.2003,8.5294,355.3772],[-6.2117,8.531,346.5031],[-6.2197,8.5255,349.8186],[-6.2243,8.5244,352.2135],[-6.2353,8.5285,338.8238],[-6.2495,8.5136,340.131],[-6.2764,8.4974,323.1795],[-6.2869,8.4855,320.4898],[-6.2979,8.4824,310.7423],[-6.3,8.4798,310.9924],[-6.3125,8.474,298.2158],[-6.3269,8.4615,292.9932],[-6.3369,8.4491,301.5143],[-6.34,8.4473,305.8815],[-6.3486,8.4473,286.9585],[-6.3538,8.4445,290.5934],[-6.3624,8.4273,287.1941],[-6.3718,8.4263,282.6036],[-6.381,8.4143,291.4107],[-6.3762,8.4071,285.9267],[-6.3698,8.4076,286.8897],[-6.3661,8.4038,282.1909],[-6.3576,8.385,280.6596],[-6.3584,8.3817,272.8771],[-6.3668,8.3772,269.8248],[-6.3664,8.3727,273.2761],[-6.364,8.3702,278.4167],[-6.3482,8.3668,277.521],[-6.3586,8.3561,268.7893],[-6.3496,8.3484,274.2264],[-6.3492,8.3463,273.2109],[-6.3535,8.3342,275.561],[-6.3518,8.3301,285.5876],[-6.3534,8.3244,278.687],[-6.3521,8.3107,275.5422],[-6.3482,8.2972,271.6231],[-6.3485,8.2911,267.9886],[-6.3541,8.2876,280.9798],[-6.355,8.2848,274.426],[-6.3496,8.2661,267.0157],[-6.3516,8.2568,267.8899],[-6.3474,8.242,268.4653],[-6.3481,8.2342,270.1745],[-6.3353,8.2237,268.6118],[-6.3363,8.2206,271.2054],[-6.3238,8.197,261.115],[-6.3206,8.1776,265.3414],[-6.3105,8.1426,255.0035],[-6.3096,8.12,261.8275],[-6.3044,8.1128,252.7731],[-6.3011,8.1033,258.1572],[-6.2967,8.0725,263.3636],[-6.2977,8.0655,253.0224],[-6.2943,8.0563,259.3962],[-6.2943,8.0513,270.8952],[-6.2971,8.0428,254.8647],[-6.2923,8.0251,250.4107],[-6.2818,8.0067,247.6382],[-6.2789,8.0064,246.8842],[-6.2716,8.0107,249.3417],[-6.2687,8.0101,251.0499],[-6.2646,8.0066,246.2612],[-6.253,7.9889,246.1568],[-6.2423,7.9806,245.0963],[-6.2413,7.9761,243.706],[-6.2414,7.9725,243.1518],[-6.2457,7.9624,243.6915],[-6.2557,7.9499,241.9031],[-6.2538,7.9428,239.0508],[-6.2575,7.9335,240.2273],[-6.2556,7.9152,240.7386],[-6.2491,7.9076,239.7571],[-6.2456,7.8942,241.7189],[-6.2483,7.8861,236.2036],[-6.2533,7.8816,236.2851],[-6.2512,7.8745,236.2511],[-6.2537,7.867,237.3202],[-6.252,7.86,236.1085],[-6.2573,7.8494,236.6786],[-6.2576,7.8455,232.9219],[-6.2534,7.8355,235.6507],[-6.2522,7.8258,234.6055],[-6.2578,7.8179,239.502],[-6.2585,7.8136,237.6881],[-6.2551,7.7985,233.3591],[-6.2622,7.7903,235.5027],[-6.2657,7.7834,235.8626],[-6.2732,7.7766,249.3071],[-6.2493,7.7726,236.4551],[-6.2355,7.7738,237.3308],[-6.2382,7.7625,223.9982],[-6.2376,7.7566,237.7023],[-6.2316,7.7489,226.9622]]]]}
,"properties": {"GID_3": "CIV.12.2.3_1","GID_0": "CIV","country": "Côted'Ivoire","GID_1": "CIV.12_1","province": "Woroba","NL_NAME_1": "NA","GID_2": "CIV.12.2_1","county": "Béré","NL_NAME_2": "NA","city": "Mankono","VARNAME_3": "NA","NL_NAME_3": "NA","TYPE_3": "Département","ENGTYPE_3": "Department","CC_3": "NA","HASC_3": "NA","name": "Mankono.city","area_km2": 6599.98,"hist_schema_id": "Elevation0-9000","hist_area_km2": {"200": 55.228,"225": 156.917,"250": 342.057,"275": 866.777,"300": 1696.724,"325": 1808.711,"350": 1087.887,"375": 443.022,"400": 132.635,"425": 9.164,"450": 0.44,"475": 0.252,"500": 0.105,"525": 0.063}}}