{"type":"Feature","properties":{"ISO3166-1-Alpha-3":"CIV","country":"Ivory Coast","fill":"#00F","id":"3458","name":"Lagunes"},
"geometry":{"type": "MultiPolygon","coordinates": [[[[-5.32445,5.19078,17.6559],[-5.32448,5.19083,17.6559],[-5.326,5.19126,17.6559],[-5.34016,5.19777,37.8165],[-5.35132,5.20532,31.1969],[-5.4032,5.24937,12.8818],[-5.4122,5.25425,14.4852],[-5.42295,5.25782,14.9125],[-5.43566,5.25986,23.9685],[-5.44294,5.2334,20.0439],[-5.42832,5.09894,1.3386],[-5.42831,5.09888,1.3386],[-5.2943,5.10602,0.0],[-5.25536,5.12104,9.8294],[-5.00243,5.12865,0.0],[-5.01488,5.14008,0.0],[-5.02343,5.15851,9.8087],[-5.02912,5.17573,12.285],[-5.03319,5.18329,19.6752],[-5.06774,5.18696,15.2803],[-5.08092,5.18476,0.0],[-5.09496,5.17373,7.1079],[-5.12076,5.16698,8.0024],[-5.18139,5.20234,65.3562],[-5.21475,5.19758,8.5271],[-5.22842,5.20441,0.0],[-5.22842,5.19758,16.6684],[-5.21378,5.19302,21.012],[-5.20702,5.18244,0.0],[-5.19896,5.17438,0.0],[-5.18065,5.17707,39.2073],[-5.18692,5.16425,4.5917],[-5.19713,5.16014,17.8995],[-5.20934,5.16283,0.0],[-5.22159,5.17031,0.0],[-5.23546,5.16132,0.0],[-5.25162,5.16543,0.0],[-5.26814,5.17373,0.0],[-5.28307,5.17707,0.0],[-5.28685,5.17406,0.0],[-5.29947,5.16096,0.0],[-5.3048,5.15664,0.0],[-5.31257,5.15257,0.0],[-5.31994,5.14981,0.0],[-5.32811,5.1485,0.0],[-5.33829,5.14912,0.0],[-5.33829,5.14232,0.0],[-5.32014,5.13764,11.2607],[-5.30236,5.14045,15.1754],[-5.28547,5.14077,7.0048],[-5.2694,5.12865,0.0],[-5.30883,5.11815,2.889],[-5.3579,5.12352,13.2275],[-5.399,5.14199,8.4464],[-5.41393,5.17031,9.487],[-5.40038,5.16348,40.2338],[-5.40079,5.17398,1.9116],[-5.40038,5.17707,8.8611],[-5.39289,5.17707,49.6392],[-5.35936,5.12865,0.0],[-5.35253,5.14183,3.3729],[-5.33829,5.18329,31.299],[-5.33829,5.16348,2.6375],[-5.32844,5.17007,14.8142],[-5.305,5.18163,4.9051],[-5.29735,5.19013,0.0],[-5.29735,5.19758,4.2655],[-5.31151,5.19579,0.0],[-5.31697,5.19416,2.7214],[-5.32396,5.19013,0.0],[-5.32445,5.19078,17.6559]]],
[[[-4.97331,6.23626,85.0361],[-5.00685,6.24156,99.1423],[-5.02498,6.25187,125.0923],[-5.17872,6.377,152.5076],[-5.1872,6.38075,155.9506],[-5.1933,6.38075,158.0278],[-5.19789,6.37863,156.7834],[-5.21531,6.36677,130.9641],[-5.21433,6.33194,148.9954],[-5.21267,6.32566,141.1115],[-5.21495,6.29928,169.4915],[-5.24435,6.21812,176.7934],[-5.17609,6.15347,292.6879],[-5.13562,6.1372,137.8915],[-5.0331,6.1251,109.9655],[-5.01811,6.11996,106.6984],[-5.00778,6.11082,84.5766],[-5.00395,6.08978,73.1027],[-4.99925,5.96682,66.992],[-4.98716,5.8893,101.0821],[-4.9377,5.79567,77.5848],[-4.9931,5.65322,52.0073],[-4.99517,5.64498,35.9295],[-4.99429,5.63994,54.6341],[-4.99227,5.6356,44.7062],[-4.987,5.62746,62.4035],[-4.9778,5.60999,37.6807],[-4.97605,5.6048,31.6473],[-4.9716,5.58361,22.992],[-4.97181,5.57113,50.3732],[-4.97419,5.55739,43.1696],[-4.98504,5.5207,36.6583],[-5.04829,5.36939,18.8261],[-5.0516,5.35861,10.3596],[-5.05268,5.35102,7.4597],[-5.05305,5.34396,31.4826],[-5.05129,5.3203,68.3227],[-5.0517,5.31425,51.6966],[-5.05274,5.30857,20.1617],[-5.08808,5.23146,13.4202],[-5.09268,5.22508,34.4964],[-5.09666,5.22097,40.6141],[-5.10069,5.2178,4.2355],[-5.10648,5.21609,12.5056],[-5.11371,5.21617,13.914],[-5.12488,5.22012,10.2482],[-5.13914,5.23105,47.3715],[-5.14844,5.2327,23.0332],[-5.16203,5.2327,27.4442],[-5.22451,5.22748,36.3291],[-5.23396,5.22322,27.0643],[-5.23405,5.22307,27.0643],[-5.23405,5.22307,27.0643],[-5.23404,5.22305,27.0643],[-5.23233,5.22077,14.2021],[-5.22545,5.21548,19.01],[-5.22159,5.21117,3.9145],[-5.1914,5.21922,12.6226],[-5.15787,5.21223,56.3058],[-5.12902,5.1977,6.2026],[-5.11229,5.18329,6.5257],[-5.0987,5.19477,7.6807],[-5.08214,5.2036,15.9049],[-5.06428,5.20921,15.6468],[-5.00976,5.21605,0.0],[-4.99706,5.2128,0.0],[-5.00992,5.19758,1.5689],[-5.00329,5.17878,0.0],[-5.00377,5.16059,3.3787],[-4.99706,5.14875,2.8245],[-4.96898,5.14912,2.2937],[-4.96898,5.14232,0.0],[-4.97216,5.14204,0.0],[-4.97875,5.14256,0.0],[-4.982,5.14232,0.0],[-4.982,5.13614,0.0],[-4.96911,5.1374,0.0],[-4.91519,5.13638,0.0],[-4.90347,5.13434,0.0],[-4.89265,5.12865,0.0],[-4.87536,5.13622,0.0],[-4.78466,5.14395,0.0],[-4.62051,5.18073,9.1992],[-4.30814,5.2062,0.0],[-3.99576,5.23168,0.0],[-4.07022,5.26651,10.4624],[-4.05919,5.26569,0.0],[-4.04857,5.26618,0.0],[-4.03856,5.26838,0.0],[-4.0292,5.27269,0.0],[-4.06045,5.28335,8.4635],[-4.18383,5.28018,7.7617],[-4.19957,5.27684,7.5311],[-4.22521,5.26236,12.9363],[-4.26627,5.25503,7.9216],[-4.28628,5.24787,11.6802],[-4.30582,5.24457,9.424],[-4.3247,5.25218,4.4772],[-4.33776,5.24087,7.4498],[-4.35167,5.24437,4.9364],[-4.36726,5.2517,10.7094],[-4.38557,5.25218,7.9998],[-4.39208,5.24356,6.8669],[-4.4003,5.22968,17.5912],[-4.40807,5.22362,11.7724],[-4.41283,5.23851,10.0355],[-4.44164,5.22504,17.6826],[-4.5006,5.22871,8.6728],[-4.52269,5.218,15.776],[-4.53014,5.218,16.538],[-4.53014,5.23168,0.0],[-4.56493,5.22321,6.4672],[-4.57103,5.218,11.0663],[-4.56835,5.20873,14.0713],[-4.55883,5.20417,6.192],[-4.5467,5.20319,11.6163],[-4.53637,5.20441,7.1886],[-4.55956,5.19697,10.3239],[-4.56994,5.1955,0.0],[-4.58479,5.19758,8.1253],[-4.58821,5.20014,3.9568],[-4.59252,5.20478,7.5291],[-4.59887,5.20917,8.6969],[-4.60831,5.21117,7.5206],[-4.63939,5.21117,7.9159],[-4.65453,5.20942,9.9228],[-4.67479,5.20067,6.0741],[-4.68716,5.19758,0.0],[-4.69538,5.20018,5.7956],[-4.70031,5.20673,9.1785],[-4.70474,5.21133,2.9516],[-4.71715,5.20441,10.7906],[-4.74242,5.19758,7.9839],[-4.74242,5.19013,0.0],[-4.73746,5.17935,3.7509],[-4.74767,5.17235,0.647],[-4.76545,5.16934,0.0],[-4.78336,5.17031,0.0],[-4.79955,5.17451,0.0],[-4.80858,5.18049,4.9421],[-4.81005,5.18993,7.4962],[-4.80382,5.20441,3.5827],[-4.77937,5.2189,0.0],[-4.74218,5.23456,0.0],[-4.72216,5.25226,0.0],[-4.74926,5.27269,20.0915],[-4.72362,5.2735,0.0],[-4.7025,5.27831,10.9099],[-4.68578,5.29059,0.0],[-4.67345,5.31363,0.0],[-4.66731,5.31363,9.7889],[-4.66731,5.30146,28.8134],[-4.6704,5.2919,28.0724],[-4.67691,5.28482,34.7214],[-4.68716,5.28018,20.0211],[-4.68716,5.27269,0.0],[-4.67813,5.27139,0.0],[-4.6726,5.26805,0.0],[-4.66942,5.26187,40.2978],[-4.66731,5.25218,54.4173],[-4.68212,5.253,19.6962],[-4.69302,5.25625,46.0056],[-4.70279,5.25739,28.3059],[-4.71447,5.25218,15.2375],[-4.71019,5.24616,14.3693],[-4.70246,5.23989,0.0],[-4.69384,5.23461,0.0],[-4.68716,5.23168,0.0],[-4.68029,5.23168,0.0],[-4.67056,5.24071,0.0],[-4.65197,5.24917,15.2714],[-4.6306,5.25056,0.0],[-4.61213,5.23851,0.0],[-4.58918,5.25658,0.0],[-4.57551,5.26301,0.0],[-4.55748,5.26651,17.4599],[-4.55748,5.27269,5.3668],[-4.56554,5.27652,6.1262],[-4.56969,5.28254,38.7065],[-4.56933,5.29043,36.775],[-4.56363,5.29999,24.9172],[-4.55248,5.28449,39.1119],[-4.54768,5.27603,41.2217],[-4.54377,5.26651,0.0],[-4.47277,5.26337,0.0],[-4.45372,5.25898,0.0],[-4.45739,5.2696,3.2946],[-4.46378,5.27611,8.1436],[-4.47216,5.27749,23.8834],[-4.48168,5.27269,4.5469],[-4.47769,5.29133,0.0],[-4.46353,5.29824,0.0],[-4.4265,5.29999,28.1181],[-4.4287,5.29637,0.0],[-4.42968,5.29564,3.7121],[-4.4309,5.2954,0.0],[-4.43391,5.29316,0.0],[-4.42382,5.28156,0.0],[-4.4134,5.28506,0.0],[-4.4029,5.29434,0.0],[-4.3924,5.29999,0.0],[-4.38329,5.29702,0.0],[-4.37047,5.28921,0.0],[-4.35847,5.28002,0.0],[-4.35131,5.27269,0.0],[-4.3435,5.28262,0.0],[-4.32763,5.29523,0.0],[-4.32144,5.31098,0.0],[-4.31383,5.31122,0.0],[-4.3048,5.30683,0.0],[-4.29735,5.29999,0.0],[-4.28563,5.31053,0.0],[-4.27457,5.3124,0.0],[-4.24893,5.30744,2.1171],[-4.25088,5.30296,0.0],[-4.25377,5.29149,0.0],[-4.25577,5.28693,0.0],[-4.24104,5.28392,0.0],[-4.22777,5.28905,0.0],[-4.20055,5.30744,0.0],[-4.19327,5.29881,0.0],[-4.18619,5.29409,0.0],[-4.17968,5.29418,0.0],[-4.1739,5.29999,0.0],[-4.16015,5.2934,0.0],[-4.1494,5.29658,0.0],[-4.13874,5.30341,0.0],[-4.12548,5.30744,4.0314],[-4.09691,5.29267,0.0],[-4.07852,5.28779,6.5602],[-4.07022,5.29658,0.0],[-4.0609,5.29955,0.0],[-4.04003,5.2934,0.0],[-4.01814,5.28364,0.0],[-4.0056,5.27643,5.498],[-3.98908,5.26911,0.0],[-3.97102,5.27302,5.5085],[-3.95385,5.2829,2.0991],[-3.94054,5.29316,0.0],[-3.95474,5.30744,3.0401],[-3.96744,5.30195,6.0404],[-3.984,5.30093,6.7847],[-3.99962,5.30463,5.6304],[-4.00935,5.31363,8.887],[-3.99795,5.31684,4.3575],[-3.9746,5.32046,0.0],[-3.96353,5.31493,0.9964],[-3.95165,5.31293,5.2781],[-3.94074,5.3146,2.4528],[-3.93297,5.32046,0.0],[-3.92097,5.31623,6.6954],[-3.91259,5.32221,0.0],[-3.9077,5.3343,1.8247],[-3.90632,5.34837,11.7765],[-3.89953,5.34837,0.0],[-3.90005,5.33804,1.4133],[-3.89883,5.32966,0.0],[-3.89615,5.32184,0.0],[-3.892,5.31363,0.0],[-3.88915,5.31778,0.0],[-3.88317,5.32221,5.3402],[-3.87841,5.32665,3.0815],[-3.87588,5.31342,0.0],[-3.86669,5.3036199999999996,0.0],[-3.85489,5.29686,0.0],[-3.84431,5.29316,0.0],[-3.82868,5.29121,0.0],[-3.81835,5.29169,0.0],[-3.80899,5.28779,0.0],[-3.7965,5.27269,0.0],[-3.78897,5.27269,0.0],[-3.77628,5.27904,3.6169],[-3.75943,5.27538,0.0],[-3.74397,5.27399,0.0],[-3.73502,5.28693,12.6104],[-3.75235,5.29458,55.0341],[-3.7674,5.31061,61.2496],[-3.79271,5.34463,90.4762],[-3.81404,5.35981,33.3031],[-3.81697,5.36546,13.7502],[-3.8133,5.37442,0.0],[-3.80492,5.37596,0.0],[-3.79552,5.3732,0.0],[-3.78897,5.36884,0.0],[-3.77815,5.37279,0.0],[-3.76724,5.37153,3.8608],[-3.7589,5.3662,7.7262],[-3.75552,5.35834,9.3215],[-3.75333,5.34382,14.8182],[-3.74185,5.31053,9.0631],[-3.73477,5.29853,21.7124],[-3.72191,5.291,5.5745],[-3.71569,5.28229,7.9155],[-3.72887,5.26651,1.8749],[-3.73982,5.2624,7.8612],[-3.76667,5.26606,9.2024],[-3.78222,5.26651,5.0394],[-3.77945,5.26118,6.0001],[-3.77774,5.25121,9.3888],[-3.77538,5.24478,9.9618],[-3.81163,5.26411,8.1084],[-3.83414,5.27285,8.8478],[-3.84431,5.2696,17.2386],[-3.85119,5.26976,9.5343],[-3.88573,5.28388,2.7736],[-3.89953,5.28693,0.0],[-3.89953,5.28018,4.7609],[-3.89485,5.27448,0.0],[-3.89367,5.26748,3.4076],[-3.89635,5.26154,3.8951],[-3.9029,5.25898,5.2398],[-3.91128,5.26187,4.0095],[-3.91845,5.26899,2.9052],[-3.93297,5.28693,0.0],[-3.94384,5.2718,1.659],[-3.96231,5.26244,5.7803],[-3.98339,5.26032,4.7972],[-4.00194,5.26651,6.0596],[-3.98705,5.24396,0.0],[-3.9558,5.23456,0.0],[-3.88585,5.22549,0.0],[-3.84089,5.20116,0.0],[-3.8275,5.19758,0.0],[-3.78685,5.19896,0.0],[-3.76749,5.19701,0.0],[-3.75552,5.19013,0.0],[-3.74804,5.19013,0.0],[-3.74523,5.2027,1.363],[-3.73965,5.21711,7.6821],[-3.73168,5.23005,3.9013],[-3.72142,5.23851,0.3298],[-3.72887,5.22549,3.1049],[-3.7189,5.21703,0.0],[-3.71727,5.21019,1.8231],[-3.71963,5.20311,6.0204],[-3.72142,5.19383,1.4443],[-3.71801,5.18871,0.0],[-3.71011,5.1861,0.0],[-3.67854,5.17984,0.0],[-3.63199,5.17707,0.0],[-3.53875,5.15729,0.0],[-3.53862,5.15736,0.0],[-3.42767,5.215,17.8803],[-3.40229,5.2372,63.9642],[-3.40271,5.24294,53.9644],[-3.4041,5.24782,65.996],[-3.40601,5.25232,65.5247],[-3.40886,5.25622,62.663],[-3.41216,5.25986,56.2433],[-3.43113,5.2756,103.1848],[-3.43428,5.27916,100.7978],[-3.43702,5.28319,99.8469],[-3.43878,5.28787,96.8988],[-3.44002,5.29298,92.9592],[-3.44059,5.29864,104.5157],[-3.44059,5.30438,113.6371],[-3.43258,5.34892,79.7176],[-3.4396,5.42029,98.7951],[-3.43893,5.44403,94.4104],[-3.43599,5.45491,70.4797],[-3.41743,5.49664,65.1336],[-3.40824,5.52349,44.8358],[-3.40689,5.53341,47.7231],[-3.40689,5.54134,41.7321],[-3.4086,5.54654,49.478],[-3.41066,5.55095,53.313],[-3.41315,5.55878,47.8667],[-3.41821,5.60333,67.3497],[-3.41997,5.61185,59.6771],[-3.42214,5.61635,64.9238],[-3.42519,5.62038,82.1722],[-3.42917,5.62302,81.0438],[-3.43413,5.6256,77.2248],[-3.43816,5.62994,109.3821],[-3.43919,5.64025,111.5841],[-3.43382,5.71908,101.0155],[-3.43082,5.72652,97.265],[-3.41929,5.73911,112.342],[-3.41516,5.74732,129.8915],[-3.41454,5.75228,125.143],[-3.41873,5.76058,95.0427],[-3.43413,5.78029,55.5062],[-3.44689,5.78983,126.7172],[-3.4579,5.79613,100.4043],[-3.46524,5.80691,125.3776],[-3.46792,5.83104,152.1684],[-3.46766,5.83755,155.4972],[-3.71845,5.90615,75.0401],[-3.72491,5.90708,79.3892],[-3.73282,5.90569,65.4951],[-3.74181,5.90243,54.8881],[-3.81514,5.85525,60.9596],[-3.85715,5.8114,34.6633],[-3.86965,5.80078,39.8854],[-3.88123,5.79613,35.8104],[-3.88929,5.79427,60.6038],[-3.90423,5.7875,66.4407],[-3.92464,5.75787,25.4715],[-3.91813,5.64544,31.6062],[-3.9188,5.63886,25.7141],[-3.92061,5.6318,35.5632],[-3.93125,5.62162,20.7765],[-4.30751,5.60116,46.1519],[-4.33981,5.60255,45.1478],[-4.36931,5.6155,65.7123],[-4.41639,5.6418,72.274],[-4.4321,5.65283,70.7198],[-4.44171,5.66446,86.1463],[-4.43727,5.67976,88.3657],[-4.46166,5.7311,98.508],[-4.65912,5.85812,106.8234],[-4.463,6.22401,145.51],[-4.70154,6.28205,57.5093],[-4.72593,6.25326,53.5309],[-4.74914,6.24303,62.7587],[-4.77792,6.24109,53.3332],[-4.80934,6.24272,58.2466],[-4.81885,6.24605,44.9256],[-4.82422,6.24691,52.146],[-4.83301,6.24923,55.5269],[-4.83776,6.25101,63.1023],[-4.85316,6.2545,58.5904],[-4.86742,6.25574,53.2303],[-4.8758,6.25512,58.5276],[-4.93698,6.23696,96.733],[-4.94649,6.23564,98.0052],[-4.97331,6.23626,85.0361]]]]}}