{"type":"Feature","properties":{"featurecla":"River","scalerank":7,"rivernum":417,"dissolve":"417River","name":"Bandama3","name_alt":null,"note":null,"min_zoom":6.0,"strokeweig":0.3,"name_en":"Bandama","min_label":7.0},
"geometry":{"type": "LineString","coordinates": [[-5.0801757812499773,6.2142276062441084,103.0953],[-5.0781738281249886,6.21173737186912,92.269],[-5.0781738281249886,6.21173737186912,92.269],[-5.0781738281249886,6.21173737186912,92.269],[-5.0781738281249886,6.21173737186912,92.269],[-5.0633300781249773,6.21161530155662,85.3257],[-5.0425781249999773,6.2141299499941169,73.5359],[-5.0241210937499829,6.21283600468162,74.2414],[-5.0161621093749886,6.20123932499412,65.1488],[-5.0091308593749773,6.1850772156191169,83.6337],[-4.9615234374999773,6.12921784061912,68.492],[-4.9441406249999886,6.0813174499941169,39.5],[-4.9356445312499773,6.0645694031191084,38.5],[-4.9241699218749773,6.04804108280662,49.9219],[-4.91552734375,6.0244326843691169,40.2588],[-4.907470703125,6.0117373718691169,35.0],[-4.9058593749999773,6.0009951843691169,40.7832],[-4.902099609375,5.99787018436912,47.381],[-4.8813964843749886,5.99176666874412,44.5752],[-4.8694824218749773,5.99371979374412,38.6127],[-4.8652832031249886,5.9926944031191169,35.3564],[-4.8617431640624886,5.98700592655662,35.8985],[-4.8608886718749886,5.9754580749941084,37.5103],[-4.8590820312499829,5.9709658874941169,37.6383],[-4.8550781249999773,5.96356842655662,35.1746],[-4.8516601562499773,5.9547061218691084,32.0362],[-4.8458007812499773,5.94733307499412,36.5275],[-4.8349609375,5.94428131718162,33.5239],[-4.8199218749999773,5.93585846561912,29.4588],[-4.8212402343749829,5.91620514530662,32.8019],[-4.84375,5.8559756531191169,22.7774],[-4.8450683593749773,5.84577057499412,16.3382],[-4.8448242187499773,5.83441803593162,5.75],[-4.8408691406249886,5.82184479374412,7.4813],[-4.8272460937499773,5.7995791687441169,13.6288],[-4.8243164062499773,5.78998444218162,15.9693],[-4.8282226562499773,5.72760651249412,9.488],[-4.8243164062499773,5.71149323124412,6.5836],[-4.8080566406249829,5.68683502811912,17.0224],[-4.7954589843749886,5.67169830936912,16.1962],[-4.7947753906249773,5.6566104187441084,16.9645],[-4.8321289062499773,5.61237213749412,5.4213],[-4.8379882812499773,5.60846588749412,4.7293],[-4.8473388671874886,5.6077822937441084,15.9608],[-4.8543457031249773,5.6107119812441084,17.482],[-4.8599609374999773,5.61420319218162,14.0994],[-4.8652832031249886,5.61530182499412,7.4414],[-4.87060546875,5.6151065124941084,12.8997],[-4.87744140625,5.61371491093162,13.4741],[-4.88330078125,5.60700104374412,23.1382],[-4.8879882812499886,5.5794619812441084,15.2718],[-4.8919433593749773,5.5661807312441169,17.3953],[-4.8936523437499773,5.5534854187441169,12.0212],[-4.88916015625,5.54328034061912,17.3707],[-4.866455078125,5.51886627811912,11.9665],[-4.858154296875,5.50604889530662,9.4088],[-4.8516601562499773,5.49176666874412,11.8478],[-4.8458007812499773,5.46747467655662,17.2256],[-4.8433593749999773,5.44696686405662,0.5],[-4.836669921875,5.43012116093162,5.9081],[-4.818115234375,5.41669342655662,11.7319],[-4.8418457031249886,5.4034365906191084,13.2079],[-4.8926269531249886,5.3546084656191084,8.5767],[-4.9141601562499773,5.34137604374412,8.9219],[-4.9205078124999773,5.3341006531191084,6.3082],[-4.9242431640624886,5.32672760624412,4.1831],[-4.93359375,5.29999420780662,2.3678],[-4.9393066406249773,5.2937197937441169,0.0],[-4.9551757812499773,5.28558991093162,4.3927],[-4.9615234374999773,5.28009674686912,5.2891],[-4.9669677734374886,5.26727936405662,5.7056],[-4.9666015624999886,5.25592682499412,1.6312],[-4.950927734375,5.1872744812441169,0.0],[-4.952880859375,5.16498444218162,4.6709],[-4.968994140625,5.1423526062441169,0.0]]}}