{"type":"Feature","properties":{"featurecla":"River","scalerank":7,"rivernum":381,"dissolve":"381River","name":"Komoé4","name_alt":null,"note":null,"min_zoom":6.0,"strokeweig":0.3,"name_en":"Komoé","min_label":7.0},
"geometry":{"type": "LineString","coordinates": [[-3.433349609375,5.7791690124941084,55.5062],[-3.4393066406249768,5.77094147343162,42.8788],[-3.4456542968749768,5.7679385437441084,97.4085],[-3.4527343749999768,5.76581452030662,95.037],[-3.460693359375,5.7598819031191084,112.2794],[-3.4646972656249768,5.7539248718691169,82.3712],[-3.4703124999999768,5.7396182312441084,63.6335],[-3.474365234375,5.73200104374412,64.1671],[-3.4855224609374891,5.7176455749941084,29.2993],[-3.4970703125,5.70770905155662,31.5949],[-3.5221435546874891,5.6910342468691084,19.5308],[-3.5312011718749829,5.68207428593162,16.0747],[-3.547119140625,5.65973541874412,33.3013],[-3.55625,5.6500186218691084,17.4879],[-3.5834228515624891,5.6370791687441084,43.2238],[-3.591796875,5.6260928406191084,35.5337],[-3.5835937499999768,5.60846588749412,12.6004],[-3.608154296875,5.5842471374941169,25.1572],[-3.6114257812499768,5.5779971374941084,19.8515],[-3.61181640625,5.5635928406191084,14.0347],[-3.615234375,5.5572451843691084,11.2421],[-3.6523925781249891,5.52313873905662,22.8402],[-3.659912109375,5.51288483280662,11.0445],[-3.6638671874999891,5.48944733280662,13.5747],[-3.661865234375,5.46076080936912,12.7517],[-3.6390869140624891,5.34833405155662,14.7188],[-3.6260742187499768,5.3072451843691084,9.4969],[-3.6205078124999939,5.2774600281191084,12.2149],[-3.6242187499999829,5.2571963562441084,10.3677],[-3.6456054687499768,5.2664736999941084,6.2281],[-3.666015625,5.2513369812441084,2.6698],[-3.688720703125,5.2402529968691169,3.5628],[-3.7171386718749768,5.21246979374412,6.2147]]}}