{"type": "Feature","bbox": [-6.3193,8.5368,-5.2947,10.423],"geometry": {"type": "MultiPolygon","coordinates": [[[[-5.6811,8.7586,307.4836],[-5.7033,8.7761,324.7438],[-5.7035,8.7813,335.842],[-5.6643,8.8402,374.2195],[-5.6515,8.8387,342.5135],[-5.6477,8.8348,342.0293],[-5.6119,8.8424,377.2247],[-5.601,8.8461,349.5957],[-5.5936,8.8522,345.6033],[-5.5939,8.8587,347.6004],[-5.5873,8.8708,381.8504],[-5.5795,8.8744,356.8259],[-5.5743,8.8752,351.9039],[-5.5613,8.8716,340.4924],[-5.5574,8.8749,360.7511],[-5.5409,8.8746,356.9223],[-5.513,8.8788,315.0317],[-5.5037,8.8763,307.8627],[-5.4932,8.8711,275.677],[-5.4891,8.8718,281.9341],[-5.483,8.8657,276.9885],[-5.4736,8.8601,276.6518],[-5.4642,8.8661,273.6872],[-5.4537,8.869,283.1232],[-5.4468,8.873,286.3727],[-5.4439,8.8834,277.8603],[-5.4518,8.8933,290.5003],[-5.4627,8.8972,285.0166],[-5.4768,8.8978,276.7631],[-5.4847,8.9059,289.9401],[-5.4883,8.9132,281.3803],[-5.4844,8.914,277.6158],[-5.4659,8.9024,278.0764],[-5.4587,8.9025,276.693],[-5.4564,8.9044,273.6123],[-5.4541,8.9169,281.2353],[-5.4501,8.9236,288.2265],[-5.4503,8.9273,290.6306],[-5.4521,8.9304,295.8946],[-5.4568,8.9327,284.5856],[-5.4727,8.9373,278.4555],[-5.4674,8.9465,287.0591],[-5.4651,8.9588,281.954],[-5.4675,8.9729,283.025],[-5.4634,8.9735,277.4305],[-5.4585,8.9635,282.9747],[-5.4521,8.9599,279.4016],[-5.4428,8.9672,282.6025],[-5.4398,8.9706,280.6978],[-5.4385,8.9751,280.4494],[-5.4393,8.9837,296.4037],[-5.4496,8.9927,288.4606],[-5.4567,8.9921,281.3911],[-5.4526,8.9956,279.1783],[-5.4424,8.9974,279.0257],[-5.4181,8.9838,278.0345],[-5.4142,8.9845,281.839],[-5.4087,8.9895,290.4398],[-5.4088,8.9972,290.5169],[-5.4129,9.004,279.0168],[-5.4223,9.0117,277.8444],[-5.4296,9.0237,295.7799],[-5.4368,9.0299,300.903],[-5.4473,9.0363,292.4988],[-5.461,9.0397,281.772],[-5.4647,9.0421,294.7553],[-5.4751,9.0439,279.9075],[-5.4813,9.0473,281.9958],[-5.4895,9.0602,289.4997],[-5.4902,9.0651,290.5709],[-5.4798,9.0771,295.1317],[-5.4824,9.0833,290.4221],[-5.4826,9.0889,281.8924],[-5.4807,9.0908,286.2482],[-5.4748,9.0876,286.7971],[-5.4635,9.0867,291.4951],[-5.4577,9.0885,281.4496],[-5.4451,9.0963,293.5622],[-5.4425,9.1006,297.5681],[-5.4428,9.1069,293.4906],[-5.4491,9.1224,284.6305],[-5.4486,9.1253,282.3136],[-5.4285,9.1437,302.8606],[-5.4291,9.1511,295.7044],[-5.4331,9.1537,282.6864],[-5.4359,9.158,287.33],[-5.4226,9.1676,288.3473],[-5.4199,9.1715,290.5289],[-5.42,9.1776,284.6448],[-5.4286,9.186,286.9471],[-5.4293,9.1891,285.261],[-5.424,9.1878,288.0861],[-5.4195,9.1886,293.5326],[-5.4169,9.194,290.5035],[-5.4295,9.1987,290.3848],[-5.4345,9.2021,288.9527],[-5.4323,9.2043,287.3386],[-5.4277,9.2038,284.5563],[-5.4134,9.1988,286.7618],[-5.4036,9.2039,296.9396],[-5.4046,9.2078,296.7012],[-5.3984,9.2121,292.4849],[-5.3947,9.2201,305.1082],[-5.3963,9.2266,302.0125],[-5.3936,9.2346,295.2852],[-5.3983,9.2388,288.2123],[-5.3917,9.2484,285.638],[-5.3848,9.2552,296.7831],[-5.3812,9.2668,303.4032],[-5.3815,9.2807,289.2919],[-5.3748,9.2828,298.6068],[-5.3722,9.2853,306.8509],[-5.3715,9.2886,304.8698],[-5.3759,9.2972,289.7317],[-5.3821,9.304,293.1105],[-5.3806,9.307,287.2012],[-5.3718,9.3018,288.2357],[-5.3671,9.3031,297.0225],[-5.3623,9.3068,300.7493],[-5.3589,9.3166,292.4608],[-5.3522,9.3191,299.1808],[-5.3501,9.3219,295.6418],[-5.3501,9.3252,291.816],[-5.3554,9.3326,295.2014],[-5.3445,9.3371,298.963],[-5.3433,9.3393,298.9595],[-5.3426,9.3423,300.9161],[-5.3442,9.3445,295.4798],[-5.3495,9.3467,291.4849],[-5.3442,9.3494,286.1642],[-5.3426,9.3562,291.3699],[-5.3345,9.3599,302.4963],[-5.3324,9.363,295.6016],[-5.3306,9.3743,290.2578],[-5.3226,9.3888,293.8249],[-5.3375,9.3905,293.833],[-5.3395,9.3839,295.5995],[-5.3443,9.3821,294.701],[-5.3498,9.3852,298.67],[-5.3525,9.3916,299.5025],[-5.3388,9.4042,290.8357],[-5.3417,9.4094,291.4669],[-5.3414,9.4135,289.3954],[-5.3334,9.42,291.8324],[-5.3349,9.4369,301.3643],[-5.3271,9.4397,289.9275],[-5.3175,9.437,289.1963],[-5.3086,9.4426,290.696],[-5.3157,9.4617,290.5],[-5.3252,9.4615,300.0732],[-5.3275,9.4688,306.6639],[-5.3059,9.4805,291.8439],[-5.2964,9.4796,291.0948],[-5.2947,9.4872,290.7707],[-5.3019,9.4884,291.4097],[-5.3166,9.4794,296.7329],[-5.3227,9.4802,295.7833],[-5.3323,9.4951,294.4633],[-5.3355,9.5077,307.3438],[-5.329,9.5131,296.3452],[-5.3223,9.5108,291.7636],[-5.3144,9.5042,291.9097],[-5.3067,9.5118,292.4629],[-5.3047,9.5362,292.7361],[-5.3083,9.5437,305.7947],[-5.3013,9.5549,310.02],[-5.3085,9.5573,335.4094],[-5.308,9.5636,303.3728],[-5.3041,9.5668,291.0336],[-5.2969,9.5693,295.5408],[-5.2968,9.5724,295.31],[-5.3034,9.5756,297.2299],[-5.3087,9.5834,297.5291],[-5.3076,9.5903,294.8546],[-5.303,9.5953,298.7315],[-5.311,9.5962,299.2879],[-5.3197,9.5946,302.2964],[-5.3249,9.5969,298.0789],[-5.3289,9.6056,301.7715],[-5.3232,9.611,296.9228],[-5.3201,9.6104,296.9742],[-5.3222,9.6136,297.0553],[-5.332,9.612,302.9049],[-5.3353,9.6198,299.4279],[-5.3346,9.6266,295.1575],[-5.3451,9.6214,302.3958],[-5.3488,9.6295,299.0679],[-5.3447,9.6418,299.7078],[-5.3484,9.6454,297.4532],[-5.3526,9.6394,298.6151],[-5.3684,9.6401,299.0771],[-5.3683,9.6481,296.3],[-5.3648,9.6575,305.325],[-5.3714,9.6653,298.0368],[-5.3808,9.6687,297.4795],[-5.3866,9.6636,306.2574],[-5.3929,9.6691,298.6331],[-5.3913,9.6825,299.7656],[-5.4099,9.6869,300.0061],[-5.4187,9.6996,302.7721],[-5.4327,9.6987,305.6853],[-5.4395,9.7021,300.5428],[-5.4513,9.7132,302.2328],[-5.4588,9.7092,302.2737],[-5.4668,9.7095,301.7693],[-5.4717,9.7151,303.3257],[-5.4665,9.7251,301.7965],[-5.451,9.7242,303.1207],[-5.4646,9.731,307.8616],[-5.4625,9.7401,303.3878],[-5.464,9.7468,303.4283],[-5.4683,9.7542,303.8273],[-5.4946,9.7381,301.4952],[-5.5036,9.7429,303.6465],[-5.512,9.7409,304.3958],[-5.5161,9.734,306.5081],[-5.5245,9.7403,303.6971],[-5.5368,9.7353,305.2446],[-5.5513,9.7333,305.0985],[-5.5488,9.7222,304.4796],[-5.5523,9.7192,302.3307],[-5.5569,9.7216,305.2329],[-5.564,9.7293,306.0751],[-5.5688,9.7381,307.4608],[-5.564,9.7441,306.8639],[-5.5708,9.7429,307.6757],[-5.5754,9.733,307.6909],[-5.5865,9.7386,305.9004],[-5.5941,9.7391,306.5168],[-5.6033,9.7437,309.1512],[-5.6127,9.7363,312.0133],[-5.6183,9.7422,307.6677],[-5.6192,9.7555,307.4885],[-5.6232,9.7601,307.7788],[-5.6284,9.7592,308.7816],[-5.6319,9.7531,315.3485],[-5.6377,9.7548,318.526],[-5.64,9.7612,306.9447],[-5.6406,9.7701,306.7306],[-5.6501,9.7668,312.2036],[-5.652,9.7717,308.4836],[-5.6494,9.7778,308.9844],[-5.6522,9.7816,319.1876],[-5.6521,9.7847,322.3021],[-5.6463,9.787,310.6854],[-5.6441,9.7911,315.4746],[-5.6376,9.793,313.2593],[-5.6326,9.7981,313.6442],[-5.6284,9.8146,312.9765],[-5.6339,9.8212,322.5363],[-5.6301,9.8245,313.3564],[-5.6509,9.833,320.4428],[-5.664,9.8418,314.6353],[-5.668,9.8605,319.8812],[-5.6749,9.8607,316.1873],[-5.6875,9.8696,316.2664],[-5.6892,9.8833,319.4249],[-5.6811,9.8924,317.3421],[-5.6816,9.8962,316.9065],[-5.6849,9.8999,319.9216],[-5.6914,9.8989,326.2392],[-5.7014,9.9059,318.0092],[-5.7035,9.9056,315.804],[-5.7106,9.9119,316.6928],[-5.716,9.9209,311.7611],[-5.7161,9.9287,324.9458],[-5.7194,9.9345,317.2343],[-5.7196,9.9533,325.4085],[-5.7223,9.9616,320.5],[-5.7288,9.963,321.4838],[-5.7298,9.9677,336.8868],[-5.7262,9.9722,320.5],[-5.7257,9.9788,320.5],[-5.7328,9.9853,321.7294],[-5.7305,9.9908,322.2177],[-5.7328,9.9997,321.5693],[-5.728,10.0065,321.7543],[-5.7238,10.0165,323.0269],[-5.7255,10.0235,323.4742],[-5.7243,10.0307,324.7896],[-5.7283,10.0336,332.5712],[-5.7304,10.0383,322.7446],[-5.7334,10.0556,327.6032],[-5.728,10.0699,327.9068],[-5.7283,10.0869,334.505],[-5.742,10.1125,327.7065],[-5.7395,10.121,335.491],[-5.7413,10.1294,338.8637],[-5.7604,10.1486,334.8453],[-5.7668,10.1618,339.8777],[-5.7805,10.174,343.063],[-5.7821,10.1925,353.8284],[-5.7978,10.2056,361.7614],[-5.7991,10.2113,365.2531],[-5.7968,10.2164,379.265],[-5.7904,10.2237,373.1848],[-5.7857,10.234,360.5192],[-5.7835,10.2453,358.9579],[-5.7863,10.2525,357.2401],[-5.7926,10.2577,353.4981],[-5.7913,10.2738,348.3504],[-5.7868,10.2883,346.0233],[-5.7959,10.3007,349.3607],[-5.8079,10.3078,343.5223],[-5.8074,10.3178,340.2928],[-5.814,10.3351,335.1449],[-5.8245,10.3515,335.657],[-5.8295,10.364,332.183],[-5.8247,10.3685,334.4105],[-5.8007,10.3784,345.3785],[-5.7846,10.3808,359.6939],[-5.778,10.4001,356.3444],[-5.785,10.4051,347.7362],[-5.7995,10.4061,343.5663],[-5.8113,10.423,341.4826],[-5.8142,10.4229,340.3378],[-5.8203,10.4192,348.6599],[-5.8251,10.4128,339.7659],[-5.8295,10.4032,338.8434],[-5.8289,10.3977,336.7374],[-5.8483,10.3827,339.2904],[-5.8649,10.3787,329.8072],[-5.8708,10.3807,333.8883],[-5.8843,10.3733,335.6132],[-5.8889,10.3676,342.6277],[-5.8883,10.3582,346.747],[-5.8934,10.3479,337.0829],[-5.8964,10.3365,343.5478],[-5.8955,10.3263,348.826],[-5.9061,10.3196,352.9894],[-5.9097,10.3114,362.5737],[-5.9111,10.3011,357.7333],[-5.9058,10.2844,365.1571],[-5.9092,10.2799,364.3934],[-5.9125,10.2774,366.2672],[-5.9246,10.2756,349.1471],[-5.9407,10.2835,352.4785],[-5.9573,10.2783,336.3156],[-5.964,10.2775,347.3365],[-5.971,10.2795,353.0399],[-5.9761,10.2778,341.5946],[-5.9745,10.2635,344.1023],[-5.9764,10.2532,358.18],[-5.9836,10.2395,350.4647],[-5.9871,10.2274,362.4193],[-5.9907,10.221,365.1884],[-6.0115,10.2037,364.6572],[-6.0232,10.1989,360.9802],[-6.0459,10.2014,347.8943],[-6.0512,10.2038,355.306],[-6.0607,10.2037,345.4176],[-6.0801,10.1986,375.6578],[-6.1009,10.1992,368.5978],[-6.1213,10.2051,347.6938],[-6.1495,10.221,349.4284],[-6.1581,10.2237,338.5035],[-6.1727,10.2226,335.3544],[-6.1835,10.2286,332.3331],[-6.192,10.2358,325.174],[-6.1978,10.2314,332.8269],[-6.2025,10.2315,326.7178],[-6.2108,10.2368,322.919],[-6.214,10.233,323.5484],[-6.215,10.2288,324.0912],[-6.2138,10.2245,328.4069],[-6.2165,10.2214,328.7498],[-6.2219,10.223,325.3375],[-6.2253,10.2209,324.6326],[-6.2273,10.217,321.3247],[-6.2276,10.2094,323.4465],[-6.2253,10.2037,324.3884],[-6.2156,10.1996,327.8062],[-6.208,10.1929,343.8769],[-6.2035,10.192,344.9215],[-6.2037,10.1854,333.375],[-6.2064,10.1817,322.6862],[-6.2065,10.1758,323.9103],[-6.2288,10.1617,325.47],[-6.2343,10.1547,325.6458],[-6.2354,10.1502,325.8801],[-6.2335,10.1446,326.4525],[-6.2231,10.1455,329.9505],[-6.2199,10.1397,325.88],[-6.2217,10.136,326.2037],[-6.22,10.131,324.7205],[-6.223,10.1121,334.4383],[-6.2262,10.1095,330.2265],[-6.2335,10.1102,330.3454],[-6.2383,10.1164,327.2985],[-6.2358,10.1228,328.6493],[-6.2378,10.1324,329.6635],[-6.2447,10.1353,326.1449],[-6.2582,10.1255,326.5493],[-6.2642,10.115,331.0082],[-6.2564,10.1167,332.0576],[-6.2517,10.1116,335.3913],[-6.2582,10.0987,327.2197],[-6.2568,10.0932,328.772],[-6.2598,10.0793,336.6722],[-6.2645,10.076,332.7828],[-6.2765,10.0826,328.2146],[-6.2863,10.0957,329.5776],[-6.2842,10.1056,330.3055],[-6.2909,10.0956,329.4756],[-6.2922,10.0887,330.2202],[-6.2984,10.0912,328.4279],[-6.3041,10.0903,329.6395],[-6.3061,10.0867,329.2958],[-6.3045,10.0831,328.5312],[-6.2922,10.0838,332.9968],[-6.2882,10.0823,332.4877],[-6.2805,10.069,332.8045],[-6.2718,10.0583,338.4995],[-6.2323,10.0432,359.9835],[-6.1698,10.0389,385.8538],[-6.105,10.0,348.1825],[-6.1037,9.9912,343.9456],[-6.1581,9.9892,353.9865],[-6.1772,9.9452,351.3535],[-6.1767,9.9333,345.6601],[-6.1606,9.9175,340.8749],[-6.1515,9.9145,342.3898],[-6.1456,9.9062,341.0583],[-6.0557,9.8561,331.5417],[-6.0427,9.8388,343.091],[-6.0234,9.8268,335.2359],[-6.0202,9.7942,333.2948],[-6.0298,9.7944,343.7617],[-6.0356,9.7923,344.7419],[-6.0448,9.7836,348.432],[-6.0686,9.7901,355.8455],[-6.0721,9.7942,345.5135],[-6.0899,9.7928,346.6464],[-6.1036,9.7869,353.7251],[-6.1112,9.779,339.5227],[-6.1137,9.7726,343.1612],[-6.1105,9.7581,343.4822],[-6.1173,9.7466,344.0259],[-6.1177,9.7376,349.9422],[-6.1273,9.7264,348.6943],[-6.1205,9.6357,344.3605],[-6.1467,9.6158,351.1801],[-6.1433,9.5013,375.8928],[-6.1575,9.4596,368.9818],[-6.2734,9.4097,395.7719],[-6.2814,9.3799,386.9657],[-6.2844,9.3747,387.1823],[-6.2862,9.3647,380.7488],[-6.2814,9.3487,365.5],[-6.2714,9.3367,365.5],[-6.2741,9.3325,366.4468],[-6.2842,9.3265,366.3453],[-6.2867,9.3213,378.3292],[-6.2844,9.2848,377.0789],[-6.2895,9.2726,379.1033],[-6.2943,9.268,384.9626],[-6.3072,9.2385,385.638],[-6.3071,9.2333,381.0291],[-6.3095,9.2271,381.3351],[-6.3155,9.2174,376.5132],[-6.3193,9.2143,369.4159],[-6.3091,9.2042,371.8564],[-6.3013,9.2035,369.747],[-6.2964,9.2056,369.1656],[-6.2833,9.1992,364.869],[-6.2699,9.2047,366.572],[-6.2643,9.2032,365.4757],[-6.2589,9.204,364.2219],[-6.19,9.1527,376.0769],[-6.2685,9.0842,378.2014],[-6.2419,8.9979,361.8454],[-6.2132,8.9844,360.5619],[-6.2111,8.9808,364.1593],[-6.2139,8.9614,349.0002],[-6.2078,8.9557,353.794],[-6.1931,8.9508,347.5235],[-6.1751,8.9295,346.952],[-6.1618,8.9205,353.1653],[-6.1591,8.9162,348.3404],[-6.15,8.9093,348.5076],[-6.1453,8.8945,346.1672],[-6.1368,8.8889,345.5059],[-6.1276,8.8743,342.3147],[-6.1263,8.8701,340.7562],[-6.1275,8.8627,339.2476],[-6.1225,8.8602,345.8819],[-6.1068,8.8413,342.829],[-6.0953,8.8175,342.6363],[-6.0849,8.8144,345.1915],[-6.0802,8.8143,346.5525],[-6.0783,8.8167,345.9668],[-6.0731,8.8165,343.7789],[-6.0702,8.8118,336.7637],[-6.0696,8.8064,335.8936],[-6.0671,8.8042,335.9807],[-6.0643,8.806,341.886],[-6.0232,8.7329,379.162],[-5.9996,8.6951,383.8437],[-5.9987,8.6849,398.3462],[-5.9935,8.675,393.7711],[-5.9602,8.6537,346.4122],[-5.9199,8.6442,339.1888],[-5.9145,8.6399,339.178],[-5.9082,8.6466,343.5562],[-5.9047,8.6456,337.7533],[-5.8809,8.6337,346.8262],[-5.8584,8.6196,369.6542],[-5.8508,8.6171,349.1657],[-5.8254,8.6039,342.6702],[-5.8069,8.5918,373.7842],[-5.7129,8.5415,333.5706],[-5.6519,8.5368,284.1519],[-5.6119,8.537,269.2143],[-5.6118,8.5498,271.0412],[-5.6223,8.5532,271.9716],[-5.6252,8.5528,268.1714],[-5.6226,8.5465,259.8994],[-5.6245,8.5445,265.1665],[-5.6335,8.5493,262.5833],[-5.6423,8.55,260.6246],[-5.6443,8.5529,261.3391],[-5.6428,8.5556,264.301],[-5.6342,8.5605,274.2929],[-5.6335,8.5645,265.1574],[-5.6432,8.5711,262.5284],[-5.6374,8.5724,268.2682],[-5.637,8.5759,262.1551],[-5.6426,8.5811,261.4956],[-5.646,8.5902,263.372],[-5.6439,8.5917,262.7578],[-5.6374,8.5887,264.5541],[-5.6324,8.5887,269.3877],[-5.6275,8.5916,274.0451],[-5.6277,8.5981,265.71],[-5.6319,8.6053,269.8444],[-5.6316,8.6107,274.1273],[-5.6396,8.6167,278.3973],[-5.652,8.6183,266.4243],[-5.6568,8.6171,264.7572],[-5.6589,8.6206,282.0027],[-5.6638,8.622,276.1475],[-5.6674,8.6213,285.6874],[-5.6786,8.6124,295.1706],[-5.681,8.6053,285.0332],[-5.6901,8.617,295.0324],[-5.6966,8.62,302.4045],[-5.7012,8.6248,303.6741],[-5.6954,8.6302,321.318],[-5.6969,8.6355,308.608],[-5.7075,8.6507,303.9541],[-5.706,8.6538,302.0209],[-5.6919,8.6528,318.8029],[-5.6875,8.6571,319.4552],[-5.6871,8.6679,312.3586],[-5.6897,8.6715,307.6677],[-5.6849,8.673,311.1291],[-5.6827,8.6759,319.4092],[-5.6832,8.6847,319.2645],[-5.68,8.6874,323.5233],[-5.6804,8.6954,312.0414],[-5.6741,8.7029,328.5399],[-5.6754,8.7078,320.1409],[-5.6921,8.7169,315.0398],[-5.7011,8.7189,307.4854],[-5.6994,8.7222,306.3908],[-5.6953,8.7243,306.136],[-5.6897,8.7254,310.0275],[-5.6732,8.7245,306.0253],[-5.6647,8.7297,322.002],[-5.6651,8.7344,324.3397],[-5.6694,8.7381,319.5547],[-5.6936,8.7498,304.9745],[-5.6811,8.7586,307.4836]]]]}
,"properties": {"GID_2": "CIV.10.2_1","GID_0": "CIV","country": "Côted'Ivoire","GID_1": "CIV.10_1","province": "Savanes","NL_NAME_1": "NA","county": "Poro","VARNAME_2": "NA","NL_NAME_2": "NA","TYPE_2": "Région","ENGTYPE_2": "Region","CC_2": "NA","HASC_2": "CI.SV.PR","name": "Poro.county","area_km2": 12749.9,"hist_schema_id": "Elevation0-9000","hist_area_km2": {"250": 5.095,"275": 113.988,"300": 582.408,"325": 2419.77,"350": 5246.102,"375": 3272.256,"400": 894.661,"425": 178.026,"450": 19.919,"475": 7.489,"500": 4.289,"525": 3.054,"550": 1.924,"575": 0.837}}}