{"type": "Feature","bbox": [-7.3621,8.9344,-6.7416,9.9693],"geometry": {"type": "MultiPolygon","coordinates": [[[[-6.8177,9.3495,520.9431],[-6.8176,9.3514,480.7194],[-6.8086,9.3567,483.7057],[-6.7999,9.3692,566.5518],[-6.789,9.4429,560.2645],[-6.7913,9.4955,426.8014],[-6.752,9.5253,398.7479],[-6.7753,9.5435,411.1984],[-6.777,9.5472,398.3062],[-6.7759,9.554,400.0539],[-6.7773,9.5565,405.4103],[-6.781,9.5544,409.8465],[-6.7898,9.5555,408.1994],[-6.7926,9.5615,409.6536],[-6.7984,9.5655,407.1424],[-6.7958,9.5721,420.3369],[-6.7919,9.5749,420.8337],[-6.79,9.5791,418.317],[-6.79,9.585,423.507],[-6.7746,9.5968,439.2794],[-6.7779,9.5996,431.313],[-6.781,9.6138,423.4002],[-6.7773,9.6208,417.7587],[-6.7757,9.6374,409.2301],[-6.7779,9.6431,409.7511],[-6.7776,9.6483,407.7954],[-6.7671,9.6558,408.2915],[-6.7639,9.6604,402.8294],[-6.7623,9.6646,405.073],[-6.7653,9.6731,405.7983],[-6.7635,9.6828,399.1033],[-6.7596,9.6883,395.6918],[-6.7462,9.6945,399.8627],[-6.7458,9.6983,393.3391],[-6.7501,9.7019,390.5535],[-6.7598,9.706,393.1519],[-6.7497,9.7319,401.9487],[-6.7493,9.7378,406.216],[-6.7436,9.7438,408.8979],[-6.7416,9.7489,413.711],[-6.745,9.7533,413.4869],[-6.7695,9.7702,433.3018],[-6.76,9.8103,459.475],[-6.7544,9.8645,457.6454],[-6.772,9.8993,441.2008],[-6.7874,9.912,420.7975],[-6.7942,9.9128,410.7404],[-6.8182,9.9305,390.7104],[-6.8454,9.9457,377.2294],[-6.8638,9.959,371.2425],[-6.8779,9.9618,368.7479],[-6.8784,9.9537,366.6054],[-6.8892,9.9538,392.194],[-6.9491,9.9656,393.7523],[-6.9591,9.9693,374.3344],[-6.9641,9.9664,368.7873],[-6.9666,9.9579,369.1203],[-6.9657,9.9505,369.2452],[-6.9622,9.9412,371.8038],[-6.9701,9.9339,374.7203],[-6.973,9.926,378.2071],[-6.9757,9.9233,381.0275],[-6.9748,9.9177,384.1631],[-6.9818,9.9099,387.8187],[-6.9909,9.8957,392.7252],[-6.9965,9.8941,393.2554],[-6.9996,9.8895,404.7386],[-7.0086,9.8855,410.626],[-7.0157,9.8843,414.7334],[-7.0351,9.8857,506.6477],[-7.044,9.882,510.0147],[-7.0481,9.8819,490.126],[-7.0608,9.888,460.0678],[-7.0665,9.8858,443.803],[-7.0777,9.898,424.6755],[-7.0937,9.9072,396.4973],[-7.0994,9.9062,401.9974],[-7.1011,9.902,399.8586],[-7.1062,9.9013,408.0322],[-7.111,9.8982,418.7245],[-7.1165,9.8988,418.2162],[-7.1318,9.8946,430.7636],[-7.1496,9.8845,441.844],[-7.1591,9.8758,452.0078],[-7.1619,9.8643,460.7764],[-7.1715,9.8525,472.0706],[-7.1883,9.8383,507.678],[-7.2426,9.8553,416.1038],[-7.2606,9.8043,410.9606],[-7.2825,9.7663,418.2361],[-7.3011,9.7609,430.9363],[-7.3341,9.7552,408.5322],[-7.341,9.7534,398.4942],[-7.3451,9.7491,400.9498],[-7.3559,9.7486,390.679],[-7.359,9.7468,393.6019],[-7.3621,9.7306,391.061],[-7.3547,9.7067,391.9698],[-7.3478,9.692,394.0779],[-7.3423,9.6942,401.4547],[-7.3341,9.6913,404.5591],[-7.3292,9.6869,407.0527],[-7.3246,9.6775,405.3045],[-7.3034,9.6609,425.2556],[-7.2858,9.641,436.6843],[-7.2809,9.6404,449.5779],[-7.264,9.626,470.3489],[-7.2609,9.62,569.6683],[-7.2628,9.6138,611.343],[-7.2874,9.5674,453.9766],[-7.2918,9.526,483.8961],[-7.2978,9.4988,445.3025],[-7.289,9.5024,518.8463],[-7.2664,9.5176,414.0093],[-7.2606,9.5268,405.6724],[-7.2551,9.5293,399.452],[-7.2504,9.5357,400.5487],[-7.242,9.5363,390.3127],[-7.2358,9.5323,389.6476],[-7.2323,9.5319,389.1001],[-7.2279,9.5345,383.2175],[-7.2226,9.5321,380.9052],[-7.2052,9.5332,418.0114],[-7.1923,9.5312,399.1289],[-7.1865,9.5325,399.6077],[-7.1778,9.5208,425.3773],[-7.1494,9.4933,607.8708],[-7.135,9.4742,692.1776],[-7.1277,9.4749,596.3373],[-7.1204,9.4728,547.7821],[-7.1137,9.4672,574.2676],[-7.1133,9.4606,546.946],[-7.1153,9.4511,500.2827],[-7.1142,9.4457,483.9205],[-7.1112,9.4419,468.7764],[-7.1074,9.4412,472.7015],[-7.1004,9.4367,468.0024],[-7.0914,9.421,405.1893],[-7.0875,9.4195,394.7111],[-7.0829,9.4137,390.627],[-7.0625,9.4118,398.0955],[-7.0447,9.4081,421.0033],[-7.0418,9.4091,426.2237],[-7.0058,9.3956,524.194],[-6.9612,9.3845,563.3506],[-6.9269,9.3741,490.9733],[-6.8903,9.3576,517.5573],[-6.9517,9.3379,480.8524],[-7.0036,9.2933,398.9787],[-7.0111,9.26,417.306],[-7.0559,9.1882,393.0628],[-7.0556,9.1722,382.4983],[-7.0593,9.1678,384.8331],[-7.0608,9.1623,377.5992],[-7.0641,9.141,364.4051],[-7.0753,9.1276,362.5452],[-7.0827,9.0896,346.7207],[-7.0891,9.0743,348.1921],[-7.0965,9.0664,347.2562],[-7.1061,9.0492,353.9468],[-7.1111,9.0469,346.4609],[-7.1021,9.047,343.8696],[-7.0672,9.0284,355.5766],[-7.0556,9.0122,358.6051],[-7.0509,9.0034,363.0297],[-7.0472,8.9873,363.2383],[-7.0379,8.9744,384.2553],[-7.0264,8.9708,388.2165],[-7.0202,8.9653,402.6727],[-6.9932,8.9705,421.0206],[-6.9866,8.9702,424.4679],[-6.9756,8.9667,419.1484],[-6.9724,8.9631,405.6958],[-6.9671,8.9617,405.8719],[-6.9547,8.9645,401.3619],[-6.9451,8.9702,397.7095],[-6.9266,8.9525,391.5539],[-6.9204,8.9418,386.1968],[-6.9146,8.9375,389.885],[-6.9058,8.9344,376.9254],[-6.9085,8.9739,378.0235],[-6.9109,8.984,378.5277],[-6.9102,9.0004,379.834],[-6.908,9.008,378.8347],[-6.9107,9.0141,379.7144],[-6.9075,9.0337,392.9644],[-6.9049,9.0381,390.2731],[-6.9037,9.0468,384.4724],[-6.9011,9.052,382.9323],[-6.897,9.0524,390.4694],[-6.8873,9.0492,406.6601],[-6.8613,9.068,420.9294],[-6.848,9.0647,386.7771],[-6.8416,9.0652,604.0079],[-6.8329,9.072,598.1808],[-6.7816,9.0965,423.1714],[-6.7767,9.1008,457.8429],[-6.7681,9.1292,463.1479],[-6.7542,9.2766,408.1909],[-6.7629,9.2816,442.1772],[-6.7658,9.2849,428.2289],[-6.7854,9.2822,431.9407],[-6.7952,9.2873,423.9163],[-6.7977,9.292,431.0015],[-6.7937,9.3011,431.3394],[-6.7924,9.3194,454.9642],[-6.7884,9.3252,446.5115],[-6.8177,9.3495,520.9431]]]]}
,"properties": {"GID_3": "CIV.4.2.2_1","GID_0": "CIV","country": "Côted'Ivoire","GID_1": "CIV.4_1","province": "Denguélé","NL_NAME_1": "NA","GID_2": "CIV.4.2_1","county": "Kabadougou","NL_NAME_2": "NA","city": "Madinani","VARNAME_3": "NA","NL_NAME_3": "NA","TYPE_3": "Département","ENGTYPE_3": "Department","CC_3": "NA","HASC_3": "NA","name": "Madinani.city","area_km2": 4117.185,"hist_schema_id": "Elevation0-9000","hist_area_km2": {"325": 0.272,"350": 17.608,"375": 102.762,"400": 404.755,"425": 763.406,"450": 777.267,"475": 663.591,"500": 512.146,"525": 329.437,"550": 240.671,"575": 162.507,"600": 80.977,"625": 32.26,"650": 14.448,"675": 7.465,"700": 3.534,"725": 1.924,"750": 0.962,"775": 0.795,"800": 0.209,"825": 0.167}}}