{"type": "Feature","bbox": [-7.1268,5.82,-6.6779,6.5584],"geometry": {"type": "MultiPolygon","coordinates": [[[[-6.8154,6.2491,219.4172],[-6.9785,6.4226,189.5],[-6.9876,6.4452,189.5],[-7.0036,6.4456,189.5],[-7.0059,6.4501,189.5],[-7.0046,6.4611,189.5],[-7.0009,6.4632,189.5],[-6.9973,6.4631,189.5],[-6.9949,6.4606,189.5],[-6.9844,6.4587,189.5],[-6.9789,6.461,189.5],[-6.9635,6.4712,189.5],[-6.9536,6.4842,189.5],[-6.9525,6.488,189.5],[-6.9611,6.5057,190.5311],[-6.9639,6.5237,197.3593],[-6.9739,6.5323,189.5],[-6.9801,6.5495,189.5],[-6.9875,6.5569,189.5],[-6.9923,6.5584,189.5],[-7.1236,6.4593,236.6225],[-7.1268,6.2697,189.5],[-7.0865,6.0586,214.5152],[-7.0834,5.9914,192.1784],[-7.0863,5.9785,194.4282],[-7.0875,5.82,229.8485],[-6.7201,5.8222,179.9399],[-6.7025,5.8212,153.4986],[-6.6996,5.8249,153.4211],[-6.6931,5.8288,152.4843],[-6.6886,5.8291,153.3997],[-6.6866,5.833,155.5779],[-6.6883,5.8425,154.7154],[-6.6951,5.846,155.6138],[-6.6968,5.8489,159.0413],[-6.7014,5.8505,161.2607],[-6.7065,5.8592,158.0372],[-6.7104,5.8573,160.7207],[-6.7143,5.8574,172.3754],[-6.7153,5.8672,161.3473],[-6.7219,5.8682,166.702],[-6.7264,5.8716,160.1671],[-6.7278,5.8819,172.2773],[-6.7378,5.8836,171.7341],[-6.7538,5.8976,165.1542],[-6.7555,5.9192,158.7021],[-6.7482,5.9345,159.7599],[-6.7423,5.9415,161.6639],[-6.7334,5.9432,156.0],[-6.7308,5.9456,161.3925],[-6.7202,5.9426,156.5],[-6.7153,5.9451,156.5],[-6.7045,5.9518,157.0],[-6.6936,5.9734,163.2018],[-6.6903,5.9768,158.0],[-6.6832,5.979,162.4999],[-6.6779,5.9777,161.8184],[-6.6791,5.988,164.5619],[-6.6826,5.9985,164.6559],[-6.6815,6.0056,160.035],[-6.6786,6.0088,162.341],[-6.6791,6.0127,162.7949],[-6.7002,6.0197,163.2001],[-6.7133,6.03,164.0664],[-6.7192,6.0324,162.9391],[-6.7469,6.0338,162.5143],[-6.7591,6.0321,162.7653],[-6.7604,6.028,161.6938],[-6.7891,6.0384,164.6672],[-6.7924,6.0419,166.9278],[-6.7918,6.0466,164.8817],[-6.7855,6.0562,170.8518],[-6.7888,6.075,166.6207],[-6.7772,6.0841,167.4348],[-6.7781,6.0882,167.199],[-6.7793,6.091,167.5354],[-6.7852,6.0937,167.1022],[-6.7878,6.1007,170.8442],[-6.8083,6.1006,167.0981],[-6.8152,6.1098,164.9127],[-6.8151,6.1145,167.9176],[-6.8117,6.1165,166.7088],[-6.7961,6.1205,170.0654],[-6.7781,6.1215,166.6922],[-6.7751,6.1191,164.9976],[-6.7699,6.1282,170.082],[-6.7603,6.1325,168.3384],[-6.7562,6.133,168.7233],[-6.7441,6.1293,167.5713],[-6.7343,6.1331,169.4663],[-6.7316,6.1325,169.7517],[-6.7266,6.127,171.7581],[-6.725,6.1274,168.128],[-6.7269,6.1451,169.4033],[-6.7252,6.1521,170.7108],[-6.7211,6.1513,170.6234],[-6.7176,6.1528,170.5788],[-6.7159,6.1561,169.0608],[-6.7175,6.1592,170.6002],[-6.7157,6.1622,171.0185],[-6.7135,6.1628,169.782],[-6.7124,6.1713,166.0319],[-6.7021,6.1775,170.9973],[-6.7,6.1903,172.1201],[-6.7016,6.2026,171.1969],[-6.7032,6.2056,173.0275],[-6.7106,6.2114,173.0865],[-6.7141,6.2201,177.0989],[-6.7246,6.2319,177.443],[-6.7382,6.2406,181.2686],[-6.741,6.2477,188.5558],[-6.8154,6.2491,219.4172]]]]}
,"properties": {"GID_3": "CIV.2.2.1_1","GID_0": "CIV","country": "Côted'Ivoire","GID_1": "CIV.2_1","province": "Bas-Sassandra","NL_NAME_1": "NA","GID_2": "CIV.2.2_1","county": "Nawa","NL_NAME_2": "NA","city": "Buyo","VARNAME_3": "NA","NL_NAME_3": "NA","TYPE_3": "Département","ENGTYPE_3": "Department","CC_3": "NA","HASC_3": "NA","name": "Buyo.city","area_km2": 2566.536,"hist_schema_id": "Elevation0-9000","hist_area_km2": {"150": 38.399,"175": 598.149,"200": 1351.456,"225": 541.973,"250": 35.359,"275": 0.78,"300": 0.253,"325": 0.084,"350": 0.021,"375": 0.042,"400": 0.021}}}