{"type": "Feature","bbox": [-4.9695,6.5431,-4.0335,7.4757],"geometry": {"type": "MultiPolygon","coordinates": [[[[-4.8302,6.8709,125.7393],[-4.8575,6.8504,171.5707],[-4.8781,6.8441,169.1774],[-4.8864,6.844,171.3095],[-4.8927,6.8422,177.1095],[-4.9062,6.8475,174.7676],[-4.9202,6.8455,155.9154],[-4.9417,6.8486,138.5638],[-4.9634,6.8422,120.5],[-4.9623,6.8368,129.6749],[-4.9671,6.8289,120.5],[-4.9674,6.8252,139.6837],[-4.9592,6.8211,122.117],[-4.9538,6.8225,120.5],[-4.952,6.8124,123.1752],[-4.9525,6.8007,118.6918],[-4.9552,6.7946,123.6566],[-4.9516,6.7915,128.8365],[-4.9556,6.7776,121.7638],[-4.9603,6.7701,122.0004],[-4.9601,6.7668,120.1237],[-4.9682,6.7601,117.8451],[-4.9654,6.7547,131.2701],[-4.9682,6.7498,131.2084],[-4.9695,6.7414,113.5041],[-4.9593,6.7282,115.0226],[-4.953,6.7242,113.3828],[-4.9342,6.7214,111.0831],[-4.9299,6.7189,142.0394],[-4.9302,6.7075,128.0751],[-4.9316,6.7042,119.7649],[-4.9331,6.7024,118.0323],[-4.9392,6.7015,111.7911],[-4.9466,6.6979,112.4653],[-4.9449,6.6899,108.9942],[-4.9465,6.6883,108.7103],[-4.9535,6.6874,108.7971],[-4.9543,6.6857,107.7249],[-4.9495,6.6805,106.5017],[-4.9545,6.6693,107.0559],[-4.9518,6.6652,105.8618],[-4.9352,6.659,106.0191],[-4.9336,6.6564,109.5589],[-4.9361,6.6511,107.047],[-4.9308,6.6473,102.6564],[-4.934,6.6456,108.2034],[-4.9321,6.6429,108.1194],[-4.9261,6.6457,104.4763],[-4.9231,6.6449,105.8696],[-4.9214,6.6281,111.0886],[-4.9193,6.6224,111.9807],[-4.9243,6.6192,105.0959],[-4.9295,6.6271,105.7064],[-4.9323,6.6295,104.0932],[-4.9351,6.6292,98.9897],[-4.9392,6.615,104.6965],[-4.9273,6.6032,103.0313],[-4.9216,6.6036,105.2868],[-4.9138,6.5996,102.1723],[-4.9124,6.6019,101.9479],[-4.904,6.6004,101.0087],[-4.8976,6.5974,101.5892],[-4.8928,6.5977,100.0534],[-4.8901,6.5996,99.1991],[-4.8987,6.6008,102.77],[-4.8995,6.6039,99.86],[-4.8953,6.6154,96.6802],[-4.8845,6.6141,95.6804],[-4.873,6.6154,93.6501],[-4.8657,6.6216,87.0525],[-4.8659,6.6258,86.5818],[-4.8559,6.6329,81.2584],[-4.8324,6.6322,77.7482],[-4.8075,6.6224,98.2495],[-4.7668,6.6023,70.5976],[-4.759,6.5968,82.4025],[-4.7549,6.5959,71.4248],[-4.7418,6.5976,73.6945],[-4.7367,6.6,79.3708],[-4.735,6.6038,76.7214],[-4.6648,6.5761,84.7742],[-4.5123,6.5431,112.7694],[-4.5074,6.5468,112.2955],[-4.5368,6.6219,139.6021],[-4.5608,6.6779,82.0419],[-4.544,6.6817,83.1626],[-4.5418,6.6859,77.3716],[-4.5532,6.6978,90.7067],[-4.559,6.7077,80.6365],[-4.5678,6.7134,107.0202],[-4.5698,6.7187,80.8665],[-4.5679,6.7226,82.5696],[-4.5537,6.7204,83.1082],[-4.5342,6.6933,91.9349],[-4.5299,6.6921,86.8963],[-4.5265,6.6918,79.9619],[-4.5163,6.7099,82.2203],[-4.5137,6.7101,83.9861],[-4.5039,6.6881,87.8028],[-4.4976,6.683,93.1748],[-4.4926,6.6822,94.1826],[-4.4866,6.6894,88.8511],[-4.4845,6.6981,89.461],[-4.4853,6.7073,85.3217],[-4.4889,6.7148,84.8885],[-4.4878,6.7165,85.0986],[-4.4847,6.7153,84.9847],[-4.482,6.7074,84.1878],[-4.475,6.7069,82.7756],[-4.4701,6.7091,86.0334],[-4.4682,6.7283,84.9118],[-4.4625,6.7358,86.8242],[-4.4594,6.7356,86.2949],[-4.4542,6.728,85.2014],[-4.4457,6.7231,88.2966],[-4.4392,6.7159,94.8444],[-4.4311,6.7146,110.8908],[-4.4296,6.7167,85.4685],[-4.4297,6.7233,83.4536],[-4.4378,6.7354,86.3505],[-4.4369,6.7386,86.345],[-4.4332,6.7377,86.9743],[-4.4242,6.7413,92.1893],[-4.4234,6.7456,87.5517],[-4.4245,6.7474,85.2958],[-4.4284,6.7488,89.4756],[-4.433,6.754,88.6492],[-4.4559,6.7549,91.1303],[-4.4648,6.7609,87.5617],[-4.4703,6.7711,87.9895],[-4.4692,6.7768,89.9622],[-4.4681,6.7774,88.8268],[-4.464,6.7704,90.9597],[-4.4565,6.767,92.3677],[-4.4529,6.7672,90.3396],[-4.4488,6.7721,94.0839],[-4.4347,6.7659,112.8284],[-4.4304,6.766,97.2429],[-4.426,6.7733,89.6777],[-4.4292,6.7831,97.0607],[-4.4266,6.7873,91.1548],[-4.4226,6.7892,88.5929],[-4.4204,6.7945,89.2748],[-4.4236,6.7979,90.9888],[-4.4239,6.8016,86.2111],[-4.4144,6.7986,89.5527],[-4.4093,6.7942,92.8548],[-4.4073,6.7946,93.5245],[-4.4035,6.8029,87.9031],[-4.401,6.8022,87.7565],[-4.3936,6.7995,90.1949],[-4.3876,6.7897,90.3249],[-4.3764,6.7852,103.3042],[-4.3731,6.7884,91.6103],[-4.3687,6.7975,94.2065],[-4.3643,6.7998,96.2203],[-4.3555,6.7981,93.0658],[-4.3544,6.7957,91.8514],[-4.3478,6.7925,93.9655],[-4.3417,6.7946,94.2699],[-4.3335,6.8076,92.7095],[-4.3239,6.8189,99.1078],[-4.3244,6.822,100.9313],[-4.3341,6.8297,90.433],[-4.0335,6.9985,227.027],[-4.0573,7.0268,252.1912],[-4.0629,7.0484,280.9689],[-4.0708,7.0534,250.0956],[-4.0886,7.0608,225.8446],[-4.2167,7.1447,169.0357],[-4.2344,7.1442,171.2067],[-4.2379,7.1426,173.8599],[-4.2434,7.1446,168.4883],[-4.3208,7.1964,176.673],[-4.3302,7.2009,188.5159],[-4.3358,7.2012,192.8192],[-4.3443,7.2046,198.989],[-4.3483,7.2074,165.2639],[-4.344,7.213,184.0015],[-4.3449,7.2144,195.5724],[-4.3682,7.2297,156.5747],[-4.3737,7.2413,151.6987],[-4.4093,7.251,174.4132],[-4.4652,7.2612,110.7845],[-4.4636,7.2652,109.7499],[-4.4726,7.2723,128.2362],[-4.4731,7.278,128.5672],[-4.4707,7.2821,112.224],[-4.4475,7.2885,114.7437],[-4.4438,7.2935,125.7884],[-4.4463,7.3011,127.9038],[-4.4724,7.3232,127.8761],[-4.4877,7.323,142.754],[-4.503,7.3318,155.8717],[-4.5241,7.3479,156.2917],[-4.5344,7.3519,144.0834],[-4.5436,7.3505,147.9502],[-4.5517,7.3567,142.0112],[-4.5587,7.366,136.6642],[-4.5589,7.3691,138.8918],[-4.5666,7.3834,147.8357],[-4.5841,7.3976,151.4843],[-4.5945,7.4028,154.1378],[-4.5972,7.4061,156.7395],[-4.5987,7.4173,164.2521],[-4.6054,7.436,189.9535],[-4.6121,7.4411,193.0269],[-4.6201,7.4531,202.0212],[-4.6234,7.4563,203.9106],[-4.6324,7.4593,203.9715],[-4.6399,7.47,208.4223],[-4.6468,7.4757,197.9501],[-4.6664,7.4705,194.7136],[-4.6825,7.4704,189.0707],[-4.6879,7.4686,207.6776],[-4.7496,7.4336,215.9365],[-4.7701,7.4194,189.223],[-4.7658,7.4097,185.9186],[-4.7609,7.4035,199.6453],[-4.7464,7.3716,191.9516],[-4.7419,7.3546,205.0387],[-4.741,7.3448,196.6098],[-4.7301,7.3047,209.0042],[-4.7155,7.2851,240.2431],[-4.7114,7.2692,241.121],[-4.7123,7.254,227.241],[-4.7021,7.2399,211.6162],[-4.7014,7.2361,200.7141],[-4.7104,7.2322,188.2397],[-4.7343,7.2163,202.5994],[-4.7412,7.2063,207.71],[-4.7455,7.1858,182.5046],[-4.7491,7.1776,170.1713],[-4.7518,7.1508,169.0529],[-4.7593,7.1329,167.0095],[-4.7678,7.0914,148.4986],[-4.769,7.0731,157.3542],[-4.7721,7.0615,158.4983],[-4.7809,7.0588,163.0131],[-4.7832,7.0559,165.3728],[-4.7931,7.0512,184.9846],[-4.808,7.0411,170.8629],[-4.7913,7.0081,182.4474],[-4.7843,7.0004,165.1694],[-4.784,6.9955,160.4895],[-4.7779,6.9818,142.6545],[-4.7786,6.979,142.848],[-4.7966,6.9546,150.896],[-4.8069,6.936,132.3214],[-4.8011,6.9307,128.451],[-4.8012,6.9258,127.7159],[-4.7976,6.9191,122.3831],[-4.8022,6.9096,121.7356],[-4.8026,6.9039,124.4462],[-4.8013,6.8975,120.9916],[-4.7935,6.885,121.4139],[-4.7918,6.8795,116.6786],[-4.7929,6.8753,118.1216],[-4.8087,6.871,122.5084],[-4.8195,6.8767,135.0305],[-4.8302,6.8709,125.7393]]]]}
,"properties": {"GID_2": "CIV.6.4_1","GID_0": "CIV","country": "Côted'Ivoire","GID_1": "CIV.6_1","province": "Lacs","NL_NAME_1": "NA","county": "N'zi","VARNAME_2": "NA","NL_NAME_2": "NA","TYPE_2": "Région","ENGTYPE_2": "Region","CC_2": "NA","HASC_2": "CI.LA.NZ","name": "N'zi.county","area_km2": 4970.854,"hist_schema_id": "Elevation0-9000","hist_area_km2": {"50": 0.063,"75": 209.096,"100": 862.787,"125": 1467.517,"150": 1354.169,"175": 623.815,"200": 261.447,"225": 151.101,"250": 24.382,"275": 7.913,"300": 3.998,"325": 2.315,"350": 1.536,"375": 0.526,"400": 0.147,"425": 0.042}}}