{"type": "Feature","bbox": [-3.7991,5.7681,-3.0752,7.3546],"geometry": {"type": "MultiPolygon","coordinates": [[[[-3.1798,6.242,130.6684],[-3.1773,6.2435,132.842],[-3.1717,6.2643,137.3317],[-3.1709,6.2959,146.5703],[-3.1746,6.3101,143.2425],[-3.1809,6.3159,165.5698],[-3.1858,6.326,165.8344],[-3.1865,6.3429,175.6361],[-3.1902,6.3487,159.6755],[-3.1935,6.3604,176.4587],[-3.2366,6.5387,169.9925],[-3.2341,6.5965,181.0784],[-3.2436,6.6008,149.3936],[-3.2549,6.6095,163.29],[-3.2553,6.6156,150.7036],[-3.2621,6.6176,139.2998],[-3.2601,6.6215,140.2573],[-3.2598,6.6303,139.0083],[-3.2571,6.6331,138.8273],[-3.2567,6.6439,138.3384],[-3.2548,6.645,139.7339],[-3.2529,6.6502,140.9304],[-3.2504,6.6513,141.0617],[-3.2478,6.6597,142.1583],[-3.2437,6.6655,145.2673],[-3.2353,6.6677,144.9205],[-3.2367,6.6764,142.6477],[-3.2311,6.6807,147.7346],[-3.2309,6.6839,147.5616],[-3.2327,6.6863,145.0337],[-3.2295,6.6874,146.2486],[-3.2278,6.6913,148.1213],[-3.2314,6.6947,149.5777],[-3.2299,6.6997,152.3037],[-3.2322,6.7006,149.0762],[-3.2294,6.7034,152.0231],[-3.2223,6.7052,151.994],[-3.2207,6.7099,149.1466],[-3.2166,6.7143,153.2014],[-3.2162,6.722,151.072],[-3.214,6.7219,153.136],[-3.209,6.7316,152.9839],[-3.2089,6.7344,152.8967],[-3.214,6.7395,151.7212],[-3.2144,6.7442,154.1594],[-3.2178,6.7488,157.9608],[-3.2119,6.7553,156.1857],[-3.2157,6.7608,158.7363],[-3.2185,6.761,157.5148],[-3.2183,6.7625,159.2454],[-3.2272,6.7678,157.4376],[-3.229,6.7742,164.0892],[-3.2313,6.7767,163.7024],[-3.2328,6.7871,164.8423],[-3.2316,6.7917,166.9247],[-3.233,6.7945,167.3386],[-3.2306,6.8001,168.6442],[-3.231,6.8064,173.3958],[-3.2297,6.8094,174.0999],[-3.2317,6.8219,175.4084],[-3.2258,6.8249,181.8951],[-3.1554,6.9404,224.3386],[-3.1435,6.9567,237.5448],[-3.1426,6.9627,243.5459],[-3.1339,6.9749,222.7928],[-3.1166,7.0059,209.1878],[-3.1111,7.0124,209.9981],[-3.1078,7.0141,209.9285],[-3.1072,7.019,218.9195],[-3.0829,7.0544,227.0976],[-3.0752,7.0626,246.0659],[-3.1134,7.1069,212.672],[-3.1283,7.1288,243.2246],[-3.1357,7.1363,250.2512],[-3.138,7.1414,263.9858],[-3.1807,7.1734,231.5212],[-3.1914,7.1739,247.3868],[-3.2174,7.1887,211.9024],[-3.2181,7.217,225.2913],[-3.2209,7.2217,228.1854],[-3.2313,7.2288,221.9502],[-3.236,7.2339,206.8617],[-3.2405,7.2432,195.1102],[-3.2449,7.3185,186.3926],[-3.2465,7.3221,175.8762],[-3.2514,7.3259,170.6629],[-3.263,7.3272,180.5292],[-3.2724,7.3316,164.9826],[-3.279,7.3319,166.7351],[-3.2988,7.3298,162.9679],[-3.3076,7.3272,159.2348],[-3.3094,7.3252,153.5744],[-3.3079,7.3221,155.5545],[-3.2992,7.3155,161.6801],[-3.2955,7.3096,161.3189],[-3.2917,7.2976,157.8866],[-3.2925,7.29,161.8605],[-3.2985,7.2742,164.2807],[-3.3871,7.2403,212.9149],[-3.3916,7.2398,188.0582],[-3.3986,7.2466,186.4666],[-3.4123,7.2701,175.6587],[-3.4209,7.2948,177.927],[-3.4207,7.3021,164.039],[-3.425,7.3188,162.7748],[-3.428,7.3259,144.7363],[-3.436,7.3353,148.2839],[-3.4364,7.3405,150.1208],[-3.4422,7.3421,151.708],[-3.4478,7.3393,149.9724],[-3.4501,7.3492,149.3218],[-3.4527,7.3537,149.5982],[-3.4568,7.3517,149.1657],[-3.4555,7.3446,146.9862],[-3.4584,7.3424,148.6355],[-3.4602,7.3434,148.0268],[-3.4616,7.35,147.6037],[-3.4648,7.3529,149.5452],[-3.469,7.3484,150.3676],[-3.4724,7.3499,151.0689],[-3.4754,7.3546,147.2433],[-3.479,7.3543,147.3458],[-3.4786,7.3458,148.8116],[-3.4876,7.3477,149.3055],[-3.4963,7.3533,148.1499],[-3.5023,7.352,148.629],[-3.5178,7.3523,150.3548],[-3.5303,7.3426,149.4077],[-3.5348,7.3433,142.2309],[-3.5392,7.3408,148.2783],[-3.548,7.3309,147.0238],[-3.5595,7.3131,149.1219],[-3.5588,7.3072,152.4788],[-3.5548,7.3009,173.611],[-3.5489,7.2985,168.0092],[-3.537,7.2898,166.2337],[-3.5304,7.2906,138.9693],[-3.5284,7.2894,139.2269],[-3.5416,7.2796,145.675],[-3.555,7.2796,155.4493],[-3.5798,7.2839,156.0695],[-3.5863,7.2826,141.3047],[-3.5942,7.2761,156.0888],[-3.5924,7.2529,150.191],[-3.5802,7.2391,143.3894],[-3.5767,7.2293,141.6991],[-3.5786,7.2206,142.503],[-3.5827,7.2126,149.1785],[-3.5851,7.2,141.3494],[-3.5909,7.1907,142.5481],[-3.6039,7.182,136.6438],[-3.6091,7.1852,136.8087],[-3.6108,7.1915,145.8621],[-3.6152,7.1964,138.3896],[-3.6408,7.204,147.3244],[-3.6459,7.1988,151.7312],[-3.649,7.1881,139.3804],[-3.6508,7.1786,141.9885],[-3.6496,7.1666,149.8606],[-3.6424,7.1464,136.6432],[-3.6424,7.1319,139.1133],[-3.6408,7.1286,137.853],[-3.6348,7.1247,137.2396],[-3.6275,7.1231,143.4399],[-3.6068,7.1067,136.9726],[-3.5978,7.1037,181.7502],[-3.5825,7.1022,141.1998],[-3.5769,7.1079,138.9811],[-3.5702,7.1085,147.3916],[-3.5672,7.1063,140.9703],[-3.579,7.0919,137.56],[-3.5819,7.0852,137.871],[-3.5825,7.0784,142.0087],[-3.5804,7.0668,139.8787],[-3.5827,7.0649,137.9652],[-3.5938,7.0798,135.3936],[-3.61,7.0846,136.4504],[-3.6257,7.092,157.937],[-3.6299,7.0829,134.2247],[-3.6286,7.0773,141.4073],[-3.6221,7.0705,133.9284],[-3.6243,7.0651,140.0212],[-3.6367,7.048,132.612],[-3.6399,7.0461,133.3013],[-3.6635,7.0538,139.91],[-3.6681,7.0533,139.2741],[-3.6789,7.0481,137.7909],[-3.6875,7.0387,131.2174],[-3.7034,7.0301,131.1685],[-3.7162,7.0183,130.5737],[-3.7173,7.0134,131.162],[-3.7164,7.0059,133.4122],[-3.7181,7.0047,132.338],[-3.7218,7.007,134.4083],[-3.7324,7.0093,133.4299],[-3.7577,7.0012,131.0084],[-3.7635,6.9955,136.8387],[-3.7822,6.9689,136.6416],[-3.7856,6.9534,136.5528],[-3.7842,6.9483,127.4717],[-3.7863,6.9442,139.9172],[-3.7833,6.938,129.6733],[-3.7792,6.9357,131.0533],[-3.7766,6.9315,133.5464],[-3.7751,6.9305,133.5464],[-3.7707,6.9337,125.7244],[-3.7659,6.9465,129.2208],[-3.7548,6.9594,150.8345],[-3.7474,6.9614,145.6762],[-3.7425,6.9608,136.2823],[-3.7381,6.9559,135.1379],[-3.7416,6.9439,134.8836],[-3.7326,6.9272,130.5128],[-3.7326,6.9239,134.676],[-3.7345,6.9115,132.3717],[-3.7431,6.9052,132.746],[-3.7628,6.8842,125.3653],[-3.7788,6.8625,124.6243],[-3.7787,6.8574,126.0404],[-3.7726,6.8498,129.7262],[-3.752,6.8317,153.1198],[-3.75,6.8254,122.1988],[-3.7465,6.8212,125.615],[-3.7467,6.8177,121.5],[-3.7475,6.8152,137.26],[-3.7616,6.8029,122.4551],[-3.7617,6.7942,126.1319],[-3.7583,6.7803,127.7932],[-3.7585,6.7775,124.1024],[-3.762,6.7735,127.707],[-3.7769,6.7727,125.4611],[-3.7959,6.7649,127.5302],[-3.7991,6.7607,124.718],[-3.7925,6.7542,132.0606],[-3.7884,6.7451,125.2224],[-3.7887,6.736,125.8505],[-3.7743,6.7259,129.0939],[-3.773,6.7176,120.0085],[-3.7645,6.7024,125.4931],[-3.7716,6.6973,125.273],[-3.7768,6.6967,124.7018],[-3.7826,6.687,125.3058],[-3.7946,6.6791,123.278],[-3.7968,6.6756,126.053],[-3.7917,6.6711,118.7212],[-3.789,6.6708,122.3865],[-3.78,6.6546,128.7278],[-3.7725,6.6476,120.7679],[-3.774,6.6403,119.1669],[-3.7699,6.6221,115.0217],[-3.7624,6.6345,127.0876],[-3.7579,6.6378,120.2796],[-3.7405,6.6372,119.1686],[-3.7286,6.6301,116.6556],[-3.7195,6.632,115.0258],[-3.7111,6.6431,115.6977],[-3.7,6.6495,115.547],[-3.6826,6.6466,114.8898],[-3.6807,6.6449,110.2398],[-3.6769,6.6353,110.3735],[-3.678,6.6221,117.0157],[-3.6894,6.6095,115.8766],[-3.6846,6.6029,118.1383],[-3.6853,6.594,116.8814],[-3.6828,6.5893,117.1658],[-3.6649,6.5812,115.8802],[-3.6603,6.5762,110.9297],[-3.6574,6.5689,117.3153],[-3.6607,6.5548,115.4225],[-3.6588,6.5504,116.4035],[-3.6505,6.5434,111.7359],[-3.6466,6.5352,112.3766],[-3.6461,6.5216,108.3309],[-3.6402,6.5102,116.3788],[-3.6354,6.49,108.2935],[-3.6472,6.4629,119.6934],[-3.6472,6.4579,108.1551],[-3.6438,6.4519,103.4392],[-3.6436,6.4405,114.843],[-3.6364,6.443,109.7619],[-3.6185,6.4325,125.5153],[-3.6139,6.4265,109.7553],[-3.6108,6.3987,102.5834],[-3.6082,6.3943,104.1242],[-3.598,6.3863,102.0],[-3.591,6.3744,114.8865],[-3.5891,6.3757,114.0211],[-3.5861,6.3844,122.2767],[-3.5782,6.3864,114.2749],[-3.5736,6.3856,136.0408],[-3.5483,6.3661,104.7404],[-3.5435,6.3719,107.4832],[-3.5483,6.382,105.6109],[-3.5381,6.3875,106.9161],[-3.5313,6.3848,110.8064],[-3.511,6.3649,115.3826],[-3.513,6.3612,108.755],[-3.511,6.3463,101.83],[-3.5021,6.3496,115.0607],[-3.4954,6.3455,105.1276],[-3.5032,6.3227,105.002],[-3.4941,6.3162,107.1775],[-3.4928,6.3123,105.4901],[-3.4734,6.2953,127.1139],[-3.4706,6.2893,142.8035],[-3.4695,6.2709,102.7246],[-3.4647,6.2549,98.3279],[-3.4442,6.2431,110.4506],[-3.4423,6.2394,118.0092],[-3.4426,6.2352,105.1684],[-3.445,6.2312,107.7664],[-3.4489,6.2292,118.159],[-3.4723,6.2386,98.2814],[-3.4754,6.2376,102.2801],[-3.4821,6.2283,104.7977],[-3.4817,6.2171,102.498],[-3.4797,6.2128,95.9712],[-3.4627,6.2047,103.9586],[-3.4569,6.194,134.1998],[-3.4576,6.1749,102.0811],[-3.4436,6.1738,95.1618],[-3.454,6.1834,104.5863],[-3.455,6.1896,131.6072],[-3.4526,6.195,119.9035],[-3.4265,6.1967,97.7871],[-3.4234,6.1944,98.3252],[-3.4176,6.1836,93.1227],[-3.4112,6.1629,96.5903],[-3.3954,6.1453,102.8199],[-3.3959,6.1292,107.8187],[-3.3989,6.1275,103.7528],[-3.4073,6.1301,110.803],[-3.4103,6.1283,114.526],[-3.4114,6.1242,105.9966],[-3.4076,6.1121,98.3514],[-3.3937,6.1007,99.5159],[-3.3952,6.0887,119.9087],[-3.398,6.0863,120.4764],[-3.4088,6.0869,106.0331],[-3.4193,6.0835,105.7031],[-3.4227,6.0773,108.3676],[-3.4242,6.0693,100.7153],[-3.4228,6.0667,91.7159],[-3.4176,6.0695,103.0691],[-3.4109,6.0695,97.962],[-3.4043,6.0654,107.1549],[-3.4048,6.0591,95.1984],[-3.4121,6.0493,98.5898],[-3.4038,6.0444,97.6222],[-3.4008,6.0373,95.8909],[-3.3983,6.0351,96.1295],[-3.3958,6.0253,94.5727],[-3.3888,6.0176,95.7831],[-3.3892,6.012,124.9669],[-3.3907,6.0089,114.1924],[-3.4006,6.0048,92.8699],[-3.3987,5.9958,93.786],[-3.4022,5.9795,101.8326],[-3.4093,5.9718,98.4563],[-3.4298,5.9714,98.4479],[-3.4363,5.9638,94.951],[-3.4298,5.9524,93.0154],[-3.4293,5.9479,90.7518],[-3.4315,5.938,90.6678],[-3.4405,5.9299,88.8672],[-3.4447,5.9165,125.1222],[-3.4541,5.9003,100.8594],[-3.4571,5.8846,94.8277],[-3.459,5.8827,101.875],[-3.4519,5.8642,73.3377],[-3.4494,5.8633,73.4105],[-3.4413,5.8537,70.6034],[-3.4403,5.8454,109.1454],[-3.4403,5.8441,109.1454],[-3.4495,5.8495,114.4334],[-3.4469,5.842,50.9559],[-3.451,5.8391,61.5709],[-3.4488,5.8298,83.2316],[-3.4596,5.7963,52.7132],[-3.4544,5.781,44.3367],[-3.4434,5.7794,44.3879],[-3.4371,5.7803,58.196],[-3.4332,5.7786,36.7525],[-3.4278,5.7681,77.6255],[-3.425,5.772,77.9882],[-3.4192,5.7745,84.2921],[-3.4165,5.7821,92.9983],[-3.4168,5.7874,117.5709],[-3.4241,5.7981,114.6453],[-3.4228,5.7994,116.9866],[-3.4156,5.7966,111.3537],[-3.4072,5.7967,110.0716],[-3.3944,5.7845,126.0307],[-3.3867,5.7868,107.1569],[-3.3726,5.8096,118.4236],[-3.3722,5.8189,123.6155],[-3.3659,5.8287,124.0058],[-3.3542,5.8431,146.23],[-3.3331,5.8756,154.9137],[-3.3174,5.8939,143.0471],[-3.3135,5.8939,141.8377],[-3.3095,5.9216,146.7919],[-3.304,5.9123,134.9526],[-3.2804,5.9621,123.6043],[-3.2738,5.9716,126.4843],[-3.2643,5.9807,101.3631],[-3.2552,5.9821,112.9747],[-3.2465,5.9871,105.3073],[-3.2436,5.9928,114.5336],[-3.2412,6.0042,105.6259],[-3.2354,6.0065,110.4667],[-3.2287,6.0198,109.083],[-3.2324,6.0346,117.8648],[-3.222,6.0557,114.9523],[-3.224,6.0894,110.3522],[-3.2124,6.1086,111.3151],[-3.2094,6.121,115.4269],[-3.2038,6.1336,128.2565],[-3.204,6.1376,118.1817],[-3.1965,6.1468,123.6307],[-3.1953,6.1535,117.6996],[-3.1971,6.1634,118.1262],[-3.203,6.1773,125.4908],[-3.2031,6.1821,126.0009],[-3.1966,6.202,127.2649],[-3.1851,6.2101,136.0685],[-3.1809,6.217,126.2988],[-3.1823,6.2312,126.5022],[-3.1798,6.242,130.6684]]]]}
,"properties": {"GID_2": "CIV.3.1_1","GID_0": "CIV","country": "Côted'Ivoire","GID_1": "CIV.3_1","province": "Comoé","NL_NAME_1": "NA","county": "Indénié-Djuablin","VARNAME_2": "NA","NL_NAME_2": "NA","TYPE_2": "Région","ENGTYPE_2": "Region","CC_2": "NA","HASC_2": "CI.CM.ID","name": "Indénié-Djuablin.county","area_km2": 7025.203,"hist_schema_id": "Elevation0-9000","hist_area_km2": {"25": 0.19,"50": 0.633,"75": 4.176,"100": 165.377,"125": 870.346,"150": 1839.28,"175": 1702.057,"200": 1090.038,"225": 756.458,"250": 376.314,"275": 124.117,"300": 47.014,"325": 21.445,"350": 11.385,"375": 6.735,"400": 4.63,"425": 3.031,"450": 1.347,"475": 0.379,"500": 0.21}}}