{"type": "Feature","bbox": [-7.5969,4.3618,-6.3018,5.6665],"geometry": {"type": "MultiPolygon","coordinates": [[[[-7.2201,4.501,12.0022],[-7.1985,4.5101,0.0],[-7.1949,4.5104,0.0],[-7.1951,4.5143,25.9309],[-7.1868,4.5182,0.0],[-7.184,4.5215,0.7386],[-7.1615,4.5251,0.0],[-7.1599,4.5274,7.838],[-7.1546,4.5257,4.0436],[-7.1199,4.5315,2.8831],[-7.0571,4.5388,8.0673],[-7.0546,4.5393,1.9305],[-7.0557,4.5418,16.8876],[-7.0537,4.5435,4.2927],[-7.0304,4.549,3.665],[-7.0307,4.5551,6.8229],[-7.0254,4.559,0.0],[-7.024,4.5668,0.0],[-7.0204,4.5701,3.311],[-7.0146,4.5718,0.0],[-7.0132,4.5774,6.9824],[-7.0015,4.5813,3.4302],[-6.9993,4.5874,1.3009],[-6.9971,4.589,3.8799],[-6.9851,4.5924,3.7892],[-6.9812,4.5951,0.0],[-6.9826,4.5985,0.0],[-6.9818,4.6013,1.2564],[-6.9665,4.6107,7.1098],[-6.9612,4.6171,3.4183],[-6.9618,4.6185,3.4183],[-6.9571,4.6226,9.8128],[-6.9449,4.6285,0.0],[-6.9385,4.6299,0.0],[-6.9315,4.6343,4.1818],[-6.9268,4.6351,0.0],[-6.9218,4.6407,6.94],[-6.9187,4.6412,0.0],[-6.9165,4.6446,2.3152],[-6.9193,4.646,4.8086],[-6.9215,4.6537,5.4549],[-6.9185,4.6593,0.0],[-6.9135,4.664,7.7837],[-6.8971,4.6685,1.0915],[-6.8799,4.6701,0.0],[-6.8515,4.6762,7.8505],[-6.8318,4.6776,0.0],[-6.8029,4.6832,0.0],[-6.7407,4.6904,0.0],[-6.7218,4.6907,2.839],[-6.7185,4.6915,0.0],[-6.7174,4.6935,0.0],[-6.7107,4.6926,0.0],[-6.7037,4.6968,1.6962],[-6.7024,4.6993,0.0],[-6.7029,4.7063,0.0],[-6.6974,4.7101,3.0271],[-6.6854,4.714,4.6312],[-6.6649,4.7174,0.0],[-6.6668,4.7204,1.9064],[-6.6757,4.7237,4.6498],[-6.6824,4.7313,0.0],[-6.6893,4.7335,5.3753],[-6.6879,4.7357,0.3919],[-6.6854,4.7335,1.7693],[-6.6857,4.7365,0.488],[-6.6874,4.7379,0.5819],[-6.6896,4.7374,0.5929],[-6.6912,4.7401,0.634],[-6.6951,4.7399,10.7761],[-6.6965,4.7415,2.0316],[-6.696,4.7446,0.5126],[-6.6937,4.7404,2.7814],[-6.6901,4.7415,1.6274],[-6.6857,4.7374,1.5916],[-6.681,4.7354,0.0],[-6.6765,4.739,2.8865],[-6.6693,4.7307,1.2893],[-6.666,4.7346,1.5043],[-6.6646,4.7324,1.327],[-6.6654,4.729,2.4046],[-6.6635,4.7279,3.0038],[-6.661,4.7182,0.0],[-6.6399,4.7221,0.9861],[-6.6357,4.726,4.1511],[-6.6293,4.7257,0.9342],[-6.6293,4.7287,1.3037],[-6.626,4.7299,0.0],[-6.6268,4.7313,0.7434],[-6.6238,4.7335,0.9353],[-6.6126,4.7357,0.0],[-6.6174,4.7382,1.9175],[-6.6207,4.7449,3.1264],[-6.6193,4.7512,8.1476],[-6.6174,4.7512,0.0],[-6.6193,4.749,0.0],[-6.6182,4.7446,0.7349],[-6.6087,4.7465,1.3049],[-6.6129,4.7421,2.0406],[-6.6129,4.7404,0.0],[-6.6099,4.741,0.0],[-6.6082,4.7418,0.0],[-6.6085,4.744,5.9626],[-6.6015,4.7465,0.0],[-6.6012,4.749,24.3086],[-6.599,4.7504,0.0],[-6.5993,4.7563,3.9134],[-6.5896,4.759,3.7641],[-6.5885,4.7632,9.4553],[-6.584,4.7654,0.0],[-6.5593,4.7699,0.0],[-6.5568,4.7726,0.0],[-6.501,4.7807,1.9613],[-6.4574,4.7899,0.0],[-6.4435,4.7954,0.0],[-6.4418,4.7987,12.6331],[-6.4449,4.7996,1.5571],[-6.4454,4.8029,0.0],[-6.4379,4.8107,3.0773],[-6.4096,4.8163,0.0],[-6.3971,4.8207,4.7953],[-6.3968,4.8235,17.2493],[-6.3937,4.8249,0.9096],[-6.3718,4.8268,0.0],[-6.3671,4.8296,3.2492],[-6.3629,4.829,0.0],[-6.361,4.8304,0.0],[-6.3496,4.8315,0.0],[-6.3349,4.8404,8.2152],[-6.3276,4.8413,1.4846],[-6.3249,4.8435,37.9965],[-6.3201,4.844,4.7078],[-6.3182,4.8465,0.9379],[-6.3054,4.8482,0.0],[-6.302,4.8501,2.5632],[-6.3018,4.8714,28.1055],[-6.3109,4.8748,27.8207],[-6.3138,4.8899,60.2955],[-6.318,4.8977,48.983],[-6.3319,4.9031,54.6086],[-6.3428,4.9038,52.5816],[-6.3453,4.907,61.6751],[-6.35,4.9087,54.7653],[-6.3579,4.9054,40.8923],[-6.3673,4.8986,35.4517],[-6.3764,4.9012,35.8189],[-6.3824,4.9039,33.1514],[-6.3864,4.9137,32.5709],[-6.4042,4.9248,37.6005],[-6.4072,4.9315,27.3291],[-6.4054,4.9336,35.129],[-6.3989,4.9329,49.3254],[-6.3918,4.9362,53.1703],[-6.3851,4.9348,36.0665],[-6.3829,4.9422,44.9797],[-6.3712,4.947,45.9597],[-6.3675,4.9501,37.1954],[-6.3555,4.9541,36.7641],[-6.3507,4.9604,40.097],[-6.3446,4.9644,47.556],[-6.3394,4.9718,44.2817],[-6.3385,4.976,43.3701],[-6.3415,4.989,53.1269],[-6.3412,4.9996,63.2498],[-6.3384,5.0057,56.4221],[-6.3314,5.0114,49.2688],[-6.329,5.0162,55.5779],[-6.3301,5.022,54.0926],[-6.3222,5.0281,54.2655],[-6.3219,5.0419,64.3388],[-6.3187,5.051,68.1748],[-6.3248,5.0528,71.5579],[-6.3435,5.07,74.8856],[-6.3499,5.0859,74.6586],[-6.3419,5.1229,86.7576],[-6.3517,5.1409,83.3956],[-6.3303,5.1684,95.0222],[-6.3468,5.19,94.5874],[-6.3553,5.2077,82.3703],[-6.3952,5.2409,88.0485],[-6.3981,5.2681,108.4751],[-6.4998,5.3331,94.3762],[-6.6554,5.3295,83.72],[-6.6689,5.3361,86.3597],[-6.672,5.3343,95.3215],[-6.6742,5.3356,94.1758],[-6.6759,5.3411,99.4561],[-6.6819,5.3454,114.1762],[-6.6911,5.3436,119.3725],[-6.6992,5.3454,114.6639],[-6.7011,5.35,113.4986],[-6.7114,5.3566,133.3847],[-6.7148,5.3608,124.0594],[-6.7194,5.3615,125.5155],[-6.7292,5.3766,136.5428],[-6.7312,5.3859,130.1219],[-6.73,5.4001,131.2913],[-6.7332,5.4033,133.9024],[-6.7305,5.4193,133.8202],[-6.7421,5.4367,138.1789],[-6.746,5.4382,151.3529],[-6.7491,5.4452,140.1771],[-6.758,5.4516,157.4383],[-6.7819,5.457,161.5229],[-6.7869,5.4609,153.3452],[-6.7897,5.4609,161.2633],[-6.7964,5.4649,157.2335],[-6.8289,5.4978,168.8789],[-7.0002,5.4995,177.1441],[-7.0843,5.6665,188.2877],[-7.3973,5.638,143.8116],[-7.3952,5.6326,117.8104],[-7.3788,5.6239,127.6463],[-7.3752,5.6144,109.4094],[-7.3785,5.6004,115.3462],[-7.3778,5.5942,113.961],[-7.3715,5.5825,115.823],[-7.374,5.5783,116.2237],[-7.3814,5.5779,108.6984],[-7.3919,5.5798,109.8609],[-7.3942,5.5773,112.675],[-7.3956,5.573,115.9222],[-7.3928,5.5543,113.9627],[-7.3967,5.5447,135.3307],[-7.392,5.5382,132.2542],[-7.3801,5.5292,104.8627],[-7.3785,5.5246,109.5463],[-7.3804,5.5204,108.9161],[-7.3836,5.5182,109.5888],[-7.3997,5.5215,107.947],[-7.4029,5.519,115.5811],[-7.4008,5.5157,121.6083],[-7.3919,5.5111,105.2477],[-7.3894,5.5067,108.1098],[-7.3915,5.5037,114.9655],[-7.3968,5.5035,107.8837],[-7.4,5.501,108.733],[-7.4026,5.4884,110.7741],[-7.4047,5.4863,124.5568],[-7.4162,5.4837,107.7662],[-7.4211,5.4786,104.1187],[-7.4232,5.4706,104.5253],[-7.4218,5.4632,102.2317],[-7.4164,5.4538,103.5406],[-7.4135,5.4398,101.903],[-7.4159,5.4294,104.2862],[-7.4187,5.4248,119.2016],[-7.4242,5.4251,107.5215],[-7.4335,5.4288,107.2325],[-7.4404,5.4376,105.9013],[-7.4438,5.4351,106.7016],[-7.4462,5.428,98.9818],[-7.4448,5.4209,104.5399],[-7.4341,5.4091,100.7598],[-7.4289,5.3998,94.6832],[-7.4247,5.3835,112.6361],[-7.4187,5.3747,113.2809],[-7.4032,5.3672,98.2343],[-7.3984,5.3592,117.06],[-7.3945,5.3582,121.281],[-7.392,5.3598,130.6613],[-7.3878,5.3681,117.2456],[-7.3864,5.3782,103.0037],[-7.3813,5.383,109.507],[-7.3767,5.3836,94.8056],[-7.3746,5.3795,93.6487],[-7.3793,5.3666,91.6041],[-7.3787,5.3588,89.83],[-7.3803,5.351,93.4197],[-7.3774,5.3381,91.1283],[-7.3729,5.3337,111.2415],[-7.3658,5.3325,92.0748],[-7.3651,5.3277,96.2851],[-7.3799,5.3069,103.5044],[-7.3827,5.306,97.5639],[-7.3861,5.3101,98.1127],[-7.39,5.3076,99.5391],[-7.3897,5.2881,102.2533],[-7.3929,5.283,93.128],[-7.4006,5.2783,102.2748],[-7.4031,5.2688,98.7669],[-7.4075,5.2617,94.0338],[-7.4154,5.2544,94.42],[-7.4214,5.2554,87.1396],[-7.4223,5.2582,84.6722],[-7.4185,5.2662,107.1477],[-7.4251,5.2779,94.8712],[-7.4226,5.2814,114.2371],[-7.418,5.2816,124.0537],[-7.4136,5.2839,117.1916],[-7.4108,5.2928,105.983],[-7.4132999999999996,5.297,100.9544],[-7.4172,5.2977,83.7367],[-7.4239,5.2954,99.6104],[-7.4352,5.2847,93.6737],[-7.4444,5.2838,87.9248],[-7.4494,5.2813,87.5357],[-7.4561,5.2713,93.4271],[-7.4673,5.2812,78.0455],[-7.4718,5.2657,83.9295],[-7.4626,5.2609,92.3116],[-7.4592,5.2533,83.2928],[-7.4598,5.2448,89.1849],[-7.464,5.2343,84.0277],[-7.4704,5.2309,78.9467],[-7.475,5.224,90.9792],[-7.4742,5.2162,82.0955],[-7.4674,5.2053,85.3213],[-7.4664,5.1965,84.4447],[-7.4721,5.1881,70.5642],[-7.4684,5.1805,75.341],[-7.4688,5.164,57.9755],[-7.4709,5.1504,56.7577],[-7.4769,5.1419,53.3275],[-7.4819,5.1247,71.6369],[-7.5004,5.0966,55.7066],[-7.5055,5.0934,60.4585],[-7.511,5.0959,56.2971],[-7.5153,5.1049,45.5653],[-7.5182,5.1063,50.5678],[-7.5261,5.1027,51.6285],[-7.5533,5.0762,41.1209],[-7.5559,5.0679,58.2452],[-7.5541,5.0631,27.0],[-7.5484,5.0585,38.5581],[-7.5484,5.0495,31.8018],[-7.5428,5.0396,29.9355],[-7.5499,5.0293,31.3155],[-7.5523,5.0205,31.0886],[-7.5514,5.0171,28.4961],[-7.5421,5.0051,23.0],[-7.54,4.9989,41.4568],[-7.5426,4.9911,42.6705],[-7.5465,4.9853,28.7574],[-7.5569,4.9753,35.9809],[-7.5551,4.9704,31.2382],[-7.5453,4.9674,26.1178],[-7.535,4.9556,29.7997],[-7.5339,4.9526,38.4988],[-7.5367,4.9457,21.0],[-7.5365,4.9416,33.3508],[-7.5329,4.9347,20.5],[-7.5265,4.9305,24.7611],[-7.5244,4.927,49.4246],[-7.5242,4.9224,30.967],[-7.5265,4.919,23.4678],[-7.5394,4.917,23.0253],[-7.5463,4.9221,27.3542],[-7.5518,4.923,25.8319],[-7.5601,4.9171,27.741],[-7.5633,4.9066,42.9674],[-7.5707,4.9066,25.6807],[-7.5778,4.911,19.908],[-7.5842,4.9101,25.4799],[-7.5918,4.9056,35.2844],[-7.5969,4.8953,22.7794],[-7.5962,4.8916,20.0534],[-7.5871,4.8828,32.8148],[-7.5888,4.8752,17.0],[-7.5872,4.8676,17.9142],[-7.5893,4.8663,13.9003],[-7.5852,4.8607,10.0],[-7.5885,4.8495,16.7559],[-7.5867,4.8419,15.9674],[-7.5796,4.8308,32.3701],[-7.5838,4.8264,21.3416],[-7.59,4.8233,9.6301],[-7.5926,4.8194,14.4067],[-7.5898,4.8171,43.1025],[-7.591,4.8053,26.7748],[-7.5819,4.7942,18.6115],[-7.5616,4.7888,29.1159],[-7.5584,4.7858,13.0943],[-7.5589,4.7794,18.6647],[-7.5628,4.769,23.8013],[-7.555,4.7357,19.4691],[-7.5581,4.7191,29.5446],[-7.5525,4.6993,20.9244],[-7.5544,4.6908,33.4218],[-7.5631,4.6904,11.7555],[-7.5654,4.6854,13.6373],[-7.5629,4.6796,17.1392],[-7.555,4.6692,11.8194],[-7.5566,4.666,20.2843],[-7.5646,4.6651,16.1391],[-7.5685,4.6619,23.4546],[-7.5711,4.6557,15.475],[-7.5691,4.652,4.5],[-7.5645,4.6492,7.3228],[-7.5572,4.6485,22.2148],[-7.5549,4.6462,27.498],[-7.552,4.6368,27.5518],[-7.5509,4.62,11.1892],[-7.5464,4.6091,10.1996],[-7.5527,4.5933,12.2],[-7.5559,4.5903,14.7654],[-7.5642,4.5897,11.5811],[-7.5667,4.5879,15.9953],[-7.5684,4.5835,26.238],[-7.5659,4.5773,6.8035],[-7.5554,4.5666,8.2796],[-7.5534,4.5602,10.0466],[-7.5566,4.5519,10.3057],[-7.5528,4.542,6.7925],[-7.559,4.537,8.336],[-7.5609,4.5324,4.8674],[-7.5586,4.5264,7.222],[-7.5547,4.5242,11.3888],[-7.55,4.5102,20.8844],[-7.5519,4.4878,11.7049],[-7.5574,4.4801,6.6463],[-7.5609,4.4667,7.8027],[-7.5601,4.4539,15.8546],[-7.5556,4.4456,1.5],[-7.5404,4.4346,1.0],[-7.5386,4.4288,13.199],[-7.54,4.4249,10.8643],[-7.5548,4.4061,21.2788],[-7.5578,4.3988,27.1182],[-7.5574,4.3935,5.2041],[-7.5531,4.3863,8.0323],[-7.5241,4.368,5.8765],[-7.5214,4.3638,3.5493],[-7.5226,4.3624,1.6105],[-7.5151,4.3618,0.0],[-7.476,4.3629,0.0],[-7.4546,4.3676,0.5738],[-7.4529,4.3715,1.2496],[-7.4046,4.3835,0.0],[-7.396,4.3888,4.6594],[-7.3963,4.3921,12.2142],[-7.394,4.394,6.0355],[-7.3751,4.4012,0.0],[-7.3699,4.4049,3.7133],[-7.3568,4.4088,0.0],[-7.3535,4.4168,8.4407],[-7.3507,4.419,3.0141],[-7.3193,4.4307,1.188],[-7.3193,4.4335,1.8874],[-7.3132,4.4374,0.0],[-7.3107,4.4457,9.8621],[-7.3007,4.4535,1.5249],[-7.2929,4.4565,3.3127],[-7.2496,4.4662,0.0],[-7.2476,4.4679,1.4537],[-7.2482,4.4735,0.0],[-7.2421,4.4788,0.0],[-7.2418,4.4801,0.0],[-7.2449,4.4796,3.2322],[-7.2454,4.4821,3.3847],[-7.241,4.4887,1.6666],[-7.2201,4.501,12.0022]]],
[[[-6.669,4.7293,0.0],[-6.6715,4.7288,0.7648],[-6.6707,4.7251,0.0],[-6.6688,4.7265,7.914],[-6.669,4.7293,0.0]]]]}
,"properties": {"GID_2": "CIV.2.3_1","GID_0": "CIV","country": "Côted'Ivoire","GID_1": "CIV.2_1","province": "Bas-Sassandra","NL_NAME_1": "NA","county": "San-Pédro","VARNAME_2": "NA","NL_NAME_2": "NA","TYPE_2": "Région","ENGTYPE_2": "Region","CC_2": "NA","HASC_2": "CI.BA.SP","name": "San-Pédro.county","area_km2": 12537.397,"hist_schema_id": "Elevation0-9000","hist_area_km2": {"0": 465.817,"25": 2277.776,"50": 1992.342,"75": 1435.243,"100": 1189.627,"125": 1282.329,"150": 1322.485,"175": 1260.618,"200": 775.406,"225": 366.164,"250": 100.076,"275": 32.519,"300": 16.344,"325": 9.418,"350": 5.575,"375": 3.294,"400": 1.33,"425": 0.655,"450": 0.253,"475": 0.127}}}