{"type": "Feature","bbox": [-3.1881,5.2623,-2.7207,5.716],"geometry": {"type": "MultiPolygon","coordinates": [[[[-2.9527,5.716,230.6194],[-2.9928,5.7117,226.4553],[-3.0261,5.7106,188.6267],[-3.0327,5.7061,170.2949],[-3.0421,5.6166,195.9149],[-3.0351,5.5986,183.1009],[-3.0364,5.5719,82.094],[-3.0436,5.5356,64.5777],[-3.0473,5.5246,54.0602],[-3.0606,5.4994,74.8303],[-3.0691,5.4868,64.4224],[-3.0704,5.4631,93.7617],[-3.0831,5.4347,70.4819],[-3.0993,5.4132,68.3647],[-3.1224,5.3992,44.779],[-3.1408,5.3717,6.9802],[-3.1529,5.3434,0.0],[-3.1675,5.3323,0.0],[-3.1808,5.3166,0.0],[-3.1881,5.2883,0.0],[-3.1502,5.2793,15.6437],[-3.1175,5.2762,46.938],[-3.112,5.2741,32.4183],[-3.0408,5.2623,119.6101],[-2.9601,5.2623,77.9885],[-2.8833,5.2661,89.567],[-2.8834,5.4058,90.2598],[-2.7398,5.4099,24.9509],[-2.732,5.396,69.4541],[-2.7264,5.3792,98.2072],[-2.7263,5.346,81.9952],[-2.7207,5.3462,15.9559],[-2.7242,5.3575,105.4417],[-2.7242,5.3878,46.6487],[-2.7478,5.4379,70.9673],[-2.7683,5.5544,83.6313],[-2.7614,5.5993,59.198],[-2.7641,5.6004,62.0465],[-2.764,5.6023,61.0364],[-2.7657,5.6033,62.8785],[-2.7699,5.6022,60.3418],[-2.7714,5.6042,61.279],[-2.7748,5.6032,65.284],[-2.7772,5.6064,65.9077],[-2.7789,5.6058,65.9077],[-2.7753,5.6151,62.0125],[-2.7767,5.6162,64.6235],[-2.7797,5.6136,63.9537],[-2.785,5.6142,63.0622],[-2.7846,5.619,62.6305],[-2.7874,5.6205,72.3348],[-2.7863,5.6248,66.6784],[-2.7903,5.6234,63.8413],[-2.7892,5.6264,68.6918],[-2.7927,5.6279,72.1407],[-2.7933,5.6232,67.0155],[-2.802,5.6216,69.1487],[-2.8041,5.6172,67.5431],[-2.8048,5.6195,67.2061],[-2.8071,5.6183,69.5324],[-2.8051,5.6213,69.3487],[-2.808,5.6246,68.36],[-2.8105,5.6249,73.6215],[-2.8087,5.6273,67.8819],[-2.8138,5.6288,71.1923],[-2.8155,5.6263,71.2918],[-2.8222,5.6264,71.2404],[-2.8234,5.6298,77.3113],[-2.8284,5.632,78.1381],[-2.8285,5.6345,71.7491],[-2.8322,5.6341,76.4698],[-2.8353,5.6364,75.7447],[-2.8365,5.6398,77.4863],[-2.8394,5.6394,78.1221],[-2.8439,5.6434,78.1626],[-2.8459,5.6427,78.5484],[-2.8487,5.6486,89.3361],[-2.8511,5.6477,84.251],[-2.8562,5.6493,87.8684],[-2.8576,5.6522,84.1788],[-2.8563,5.6553,83.8174],[-2.8584,5.6571,91.7267],[-2.8602,5.6533,90.1253],[-2.865,5.6516,84.6182],[-2.8686,5.6451,84.8296],[-2.8714,5.6455,82.8591],[-2.8728,5.6431,85.8586],[-2.8762,5.6434,86.4206],[-2.876,5.6417,85.4587],[-2.8785,5.6395,86.2355],[-2.8821,5.6401,88.2803],[-2.884,5.6388,88.9556],[-2.8839,5.636,87.1512],[-2.886,5.6347,87.741],[-2.8874,5.6358,87.6005],[-2.8999,5.6292,92.642],[-2.9031,5.6313,97.4927],[-2.9054,5.629,94.5241],[-2.9074,5.6302,97.7287],[-2.9085,5.6286,91.7112],[-2.9207,5.628,98.897],[-2.9244,5.6212,108.579],[-2.9345,5.6198,99.9132],[-2.9393,5.6281,119.0124],[-2.9418,5.6288,117.8087],[-2.9431,5.6331,125.0],[-2.9476,5.6366,131.2952],[-2.9509,5.6354,112.5034],[-2.9544,5.6373,119.6969],[-2.9596,5.6367,115.7317],[-2.9635,5.6405,122.3087],[-2.9667,5.6406,117.9048],[-2.961,5.6697,127.1743],[-2.9533,5.6738,135.341],[-2.9527,5.716,230.6194]]]]}
,"properties": {"GID_3": "CIV.3.2.6_1","GID_0": "CIV","country": "Côted'Ivoire","GID_1": "CIV.3_1","province": "Comoé","NL_NAME_1": "NA","GID_2": "CIV.3.2_1","county": "SudComoé","NL_NAME_2": "NA","city": "Mafere","VARNAME_3": "NA","NL_NAME_3": "NA","TYPE_3": "Département","ENGTYPE_3": "Department","CC_3": "NA","HASC_3": "NA","name": "Mafere.city","area_km2": 1372.814,"hist_schema_id": "Elevation0-9000","hist_area_km2": {"0": 26.346,"25": 97.966,"50": 247.488,"75": 361.867,"100": 337.698,"125": 154.126,"150": 64.126,"175": 39.057,"200": 27.873,"225": 11.921,"250": 3.312,"275": 0.907,"300": 0.127}}}