{"type": "Feature","bbox": [-7.2236,8.3041,-6.4035,9.1096],"geometry": {"type": "MultiPolygon","coordinates": [[[[-6.4747,8.6695,303.9031],[-6.4789,8.6742,302.5368],[-6.4762,8.6776,296.7906],[-6.4643,8.6755,297.4],[-6.4472,8.6841,299.443],[-6.4611,8.6872,307.0439],[-6.4662,8.6908,302.2321],[-6.4669,8.6997,303.8425],[-6.4608,8.7153,305.4218],[-6.4565,8.7181,313.0825],[-6.4506,8.7185,309.9305],[-6.4452,8.7166,302.1407],[-6.4457,8.7234,300.4745],[-6.4435,8.7248,304.8341],[-6.4391,8.7238,306.9263],[-6.4346,8.7129,303.4376],[-6.4261,8.7128,301.4756],[-6.4227,8.7102,300.419],[-6.4193,8.7118,301.5357],[-6.4195,8.7141,302.8762],[-6.4334,8.7164,310.4372],[-6.4338,8.7191,305.877],[-6.4328,8.7213,312.8342],[-6.4216,8.7267,299.2505],[-6.4196,8.7304,308.0911],[-6.4195,8.7345,311.5595],[-6.4236,8.7469,310.1334],[-6.4143,8.7591,304.0654],[-6.4048,8.7628,306.7233],[-6.4139,8.7682,312.186],[-6.4148,8.7764,307.3685],[-6.4126,8.7812,305.4402],[-6.4048,8.7863,302.8205],[-6.4035,8.7909,306.5805],[-6.4087,8.7957,310.4393],[-6.4187,8.7975,306.7428],[-6.4219,8.8008,305.4313],[-6.4206,8.8053,308.455],[-6.422,8.8098,306.8769],[-6.4276,8.8153,310.0046],[-6.4353,8.8132,308.3185],[-6.4361,8.8116,311.6777],[-6.4342,8.8047,315.0481],[-6.4403,8.7981,316.4295],[-6.4496,8.7939,312.3034],[-6.452,8.7955,314.6121],[-6.4527,8.7987,317.5544],[-6.4613,8.8031,315.3938],[-6.4628,8.8084,313.459],[-6.4677,8.813,314.7901],[-6.4693,8.818,311.8645],[-6.4784,8.8176,315.9127],[-6.4826,8.82,316.5023],[-6.4803,8.8266,315.0852],[-6.4768,8.8293,315.4756],[-6.4652,8.8281,311.8013],[-6.4644,8.8314,312.4778],[-6.4644,8.8348,317.8442],[-6.4726,8.8399,310.5409],[-6.4782,8.8549,314.1418],[-6.4808,8.8525,312.6427],[-6.4849,8.8524,314.9736],[-6.4875,8.8557,315.7959],[-6.487,8.8603,315.6995],[-6.4896,8.8635,315.5898],[-6.5026,8.8759,320.2809],[-6.5198,8.8825,317.7469],[-6.5227,8.8896,319.3989],[-6.5295,8.8909,325.2576],[-6.5347,8.8891,330.5281],[-6.5446,8.894,319.682],[-6.5485,8.9017,319.1175],[-6.5545,8.9049,321.1204],[-6.5578,8.909,319.8999],[-6.5503,8.9215,320.7254],[-6.5508,8.9263,326.8741],[-6.5574,8.9351,320.5737],[-6.5634,8.9366,324.4809],[-6.5696,8.9413,321.8537],[-6.576,8.9356,320.2736],[-6.5775,8.9257,340.0507],[-6.5812,8.9254,331.1008],[-6.5838,8.9278,326.2195],[-6.5849,8.9312,329.1134],[-6.5836,8.937,324.8417],[-6.5876,8.9354,324.6184],[-6.5911,8.9378,331.3667],[-6.5932,8.9349,324.7189],[-6.6025,8.9302,326.9555],[-6.6057,8.9214,330.5465],[-6.6143,8.9228,324.0603],[-6.6174,8.9193,331.3051],[-6.6213,8.9192,327.3671],[-6.6251,8.9225,330.8006],[-6.6289,8.9313,333.2939],[-6.6411,8.9353,332.3909],[-6.6535,8.9309,328.4552],[-6.6641,8.9325,331.3615],[-6.6666,8.9262,339.8161],[-6.6695,8.9246,342.0798],[-6.6745,8.9242,331.3658],[-6.6785,8.9266,334.1706],[-6.6786,8.9189,334.6877],[-6.6807,8.9174,330.5612],[-6.6919,8.9186,336.6419],[-6.6989,8.9334,336.9799],[-6.7052,8.9354,337.9706],[-6.706,8.9385,335.9412],[-6.7018,8.9479,336.1754],[-6.7033,8.9532,337.2311],[-6.7082,8.956,346.1278],[-6.7151,8.9668,341.0178],[-6.7133,8.9704,338.1078],[-6.7054,8.9729,343.6868],[-6.7003,8.9773,344.8454],[-6.7001,8.9794,341.8409],[-6.7097,8.9845,346.7415],[-6.7057,8.9907,343.6051],[-6.7099,8.995,344.9632],[-6.7113,8.9993,344.0016],[-6.7083,9.0034,345.1295],[-6.7089,9.0105,345.7914],[-6.7007,9.037,351.0799],[-6.7073,9.0471,353.0251],[-6.7025,9.0574,345.4231],[-6.7016,9.0827,346.5841],[-6.6995,9.0861,347.5629],[-6.724,9.1096,366.097],[-6.7678,9.1013,402.1954],[-6.7816,9.0965,423.1714],[-6.8329,9.072,598.1808],[-6.8416,9.0652,604.0079],[-6.848,9.0647,386.7771],[-6.8613,9.068,420.9294],[-6.8873,9.0492,406.6601],[-6.897,9.0524,390.4694],[-6.9011,9.052,382.9323],[-6.9037,9.0468,384.4724],[-6.9049,9.0381,390.2731],[-6.9075,9.0337,392.9644],[-6.9107,9.0141,379.7144],[-6.908,9.008,378.8347],[-6.9102,9.0004,379.834],[-6.9109,8.984,378.5277],[-6.9085,8.9739,378.0235],[-6.9058,8.9344,376.9254],[-6.9146,8.9375,389.885],[-6.9204,8.9418,386.1968],[-6.9266,8.9525,391.5539],[-6.9451,8.9702,397.7095],[-6.9547,8.9645,401.3619],[-6.9671,8.9617,405.8719],[-6.9724,8.9631,405.6958],[-6.9756,8.9667,419.1484],[-6.9866,8.9702,424.4679],[-6.9932,8.9705,421.0206],[-7.0202,8.9653,402.6727],[-7.0264,8.9708,388.2165],[-7.0379,8.9744,384.2553],[-7.0472,8.9873,363.2383],[-7.0509,9.0034,363.0297],[-7.0556,9.0122,358.6051],[-7.0672,9.0284,355.5766],[-7.1021,9.047,343.8696],[-7.1111,9.0469,346.4609],[-7.1145,9.0434,344.6735],[-7.1264,9.0253,338.4182],[-7.1417,9.008,347.9633],[-7.1448,8.9994,332.7103],[-7.1422,8.9956,342.585],[-7.1469,8.995,343.5266],[-7.1511,8.9972,329.2197],[-7.1667,8.9881,340.3404],[-7.1732,8.9491,366.524],[-7.1765,8.9461,357.489],[-7.2042,8.9497,339.8024],[-7.2171,8.9498,330.2109],[-7.2209,8.9474,323.7748],[-7.2236,8.9363,317.1245],[-7.2229,8.9292,324.8525],[-7.2196,8.9227,313.0218],[-7.2085,8.918,333.2943],[-7.207,8.9136,318.5521],[-7.2124,8.8935,310.6514],[-7.2119,8.8882,316.5015],[-7.208,8.8852,320.3318],[-7.2079,8.8766,325.0497],[-7.21,8.8736,315.9177],[-7.2138,8.8733,312.9392],[-7.2171,8.8781,309.6696],[-7.2179,8.8745,311.2695],[-7.2163,8.8704,308.8852],[-7.21,8.8669,306.9239],[-7.2053,8.8667,315.8931],[-7.2035,8.8635,315.2603],[-7.2055,8.8547,312.4062],[-7.2038,8.8424,307.726],[-7.1941,8.8434,315.7997],[-7.1909,8.8417,313.7898],[-7.19,8.8372,314.8473],[-7.1918,8.832,316.3448],[-7.1963,8.8274,311.9249],[-7.2039,8.8246,305.6321],[-7.2048,8.8227,304.5609],[-7.1977,8.8191,305.2323],[-7.1919,8.8063,307.6511],[-7.1888,8.8052,315.0756],[-7.1881,8.8022,312.858],[-7.1968,8.7945,306.0309],[-7.1974,8.7898,305.535],[-7.1896,8.7827,304.5926],[-7.1825,8.7819,308.6556],[-7.1797,8.7791,311.8845],[-7.1869,8.7709,305.1999],[-7.1911,8.7691,300.7921],[-7.1955,8.7628,305.4102],[-7.1977,8.7551,301.0806],[-7.1879,8.7409,302.6458],[-7.1883,8.7382,300.6214],[-7.1922,8.7375,303.0831],[-7.1927,8.7345,315.6548],[-7.1993,8.7332,305.5227],[-7.1997,8.7198,302.9744],[-7.1942,8.7113,312.2571],[-7.2012,8.6941,310.4725],[-7.2071,8.6877,300.6385],[-7.208,8.6841,300.088],[-7.2033,8.6783,305.8985],[-7.2027,8.6746,315.2821],[-7.2102,8.6577,299.5111],[-7.2034,8.653,311.0592],[-7.2029,8.6462,298.1062],[-7.2129,8.6293,300.4739],[-7.2124,8.6262,296.434],[-7.2092,8.6288,301.0602],[-7.2062,8.6291,296.7303],[-7.2027,8.6266,295.9012],[-7.1981,8.618,310.8092],[-7.1965,8.6044,314.2172],[-7.1981,8.5994,297.1389],[-7.1941,8.5958,291.1998],[-7.1934,8.5912,302.1958],[-7.2008,8.5765,296.6942],[-7.1981,8.5687,289.9016],[-6.7754,8.5621,330.7664],[-6.7698,8.5578,337.3146],[-6.7685,8.5544,332.3996],[-6.7679,8.5462,329.5691],[-6.7635,8.54,335.4431],[-6.7611,8.5225,336.5033],[-6.7584,8.5192,331.9839],[-6.7607,8.5166,345.7633],[-6.7568,8.5136,339.2595],[-6.7571,8.5099,333.1245],[-6.7535,8.505,331.6811],[-6.7523,8.4975,333.749],[-6.7533,8.4781,326.5408],[-6.7402,8.4601,332.6496],[-6.7405,8.457,332.4667],[-6.737,8.4507,326.3908],[-6.7421,8.4451,327.4028],[-6.7419,8.4414,324.007],[-6.7351,8.4328,324.6121],[-6.7356,8.4235,322.1797],[-6.7396,8.4199,329.24],[-6.7308,8.4043,330.5464],[-6.7336,8.3935,316.9933],[-6.7316,8.3796,317.2887],[-6.7263,8.3674,319.2521],[-6.721,8.3616,319.9625],[-6.7274,8.3617,325.9371],[-6.7267,8.3557,318.5711],[-6.7239,8.3538,320.155],[-6.7278,8.3512,314.55],[-6.7349,8.3542,326.4961],[-6.7362,8.3528,317.6559],[-6.7359,8.3475,320.6275],[-6.7223,8.329,328.477],[-6.7043,8.3245,329.4904],[-6.6887,8.3243,344.5195],[-6.6691,8.3188,315.8354],[-6.5787,8.3071,356.0832],[-6.5663,8.3041,339.6776],[-6.4774,8.321,317.6237],[-6.4493,8.4018,298.7074],[-6.4464,8.4035,293.5037],[-6.4398,8.4144,290.5408],[-6.4322,8.4147,291.5347],[-6.426,8.4214,287.3873],[-6.4165,8.4252,281.1582],[-6.4159,8.4285,281.9794],[-6.4189,8.4344,285.8583],[-6.4178,8.4426,282.2567],[-6.4194,8.4451,282.6951],[-6.4248,8.4446,284.0292],[-6.4339,8.4523,290.0695],[-6.4318,8.4562,281.5373],[-6.4324,8.4687,295.7349],[-6.4296,8.4776,283.8036],[-6.4347,8.4804,288.2381],[-6.4524,8.4815,303.1878],[-6.4615,8.4943,283.5491],[-6.4623,8.502,288.3437],[-6.4588,8.5047,287.1965],[-6.459,8.511,293.2114],[-6.4565,8.5132,291.5076],[-6.4496,8.5181,283.8157],[-6.4457,8.5169,285.7159],[-6.4423,8.5135,285.2174],[-6.4398,8.5061,288.7633],[-6.4355,8.5136,289.0678],[-6.432,8.5124,286.2722],[-6.4278,8.5181,288.3892],[-6.4257,8.5244,287.3217],[-6.4331,8.534,290.6948],[-6.4337,8.5479,287.3304],[-6.4391,8.568,290.4428],[-6.4433,8.5617,299.419],[-6.4482,8.5608,300.6805],[-6.4573,8.5731,299.2297],[-6.4537,8.5771,295.5144],[-6.4432,8.581,291.1089],[-6.4487,8.5892,307.4411],[-6.4484,8.5922,304.4869],[-6.4472,8.5946,286.2149],[-6.4373,8.5977,296.5959],[-6.4384,8.6002,297.5429],[-6.4441,8.6048,292.8237],[-6.4462,8.6225,300.6185],[-6.4546,8.6104,306.9357],[-6.468,8.6062,301.1372],[-6.4763,8.6077,302.704],[-6.4784,8.6119,302.877],[-6.4737,8.6191,296.8549],[-6.4734,8.6229,297.3845],[-6.4682,8.627,292.9962],[-6.4654,8.6319,294.2255],[-6.459,8.6318,291.5125],[-6.4519,8.6362,297.4244],[-6.4463,8.6359,295.6595],[-6.446,8.6387,295.3517],[-6.4476,8.6429,302.5861],[-6.456,8.6509,294.1238],[-6.4601,8.6643,299.478],[-6.4637,8.6665,298.3236],[-6.4616,8.6611,301.4582],[-6.4622,8.6585,316.067],[-6.4654,8.6565,311.272],[-6.469,8.6597,300.3129],[-6.4747,8.6695,303.9031]]]]}
,"properties": {"GID_3": "CIV.12.3.1_1","GID_0": "CIV","country": "Côted'Ivoire","GID_1": "CIV.12_1","province": "Woroba","NL_NAME_1": "NA","GID_2": "CIV.12.3_1","county": "Worodougou","NL_NAME_2": "NA","city": "Kani","VARNAME_3": "NA","NL_NAME_3": "NA","TYPE_3": "Département","ENGTYPE_3": "Department","CC_3": "NA","HASC_3": "NA","name": "Kani.city","area_km2": 4770.532,"hist_schema_id": "Elevation0-9000","hist_area_km2": {"275": 3.921,"300": 170.176,"325": 782.556,"350": 1230.464,"375": 1158.096,"400": 973.62,"425": 373.006,"450": 40.28,"475": 11.687,"500": 8.064,"525": 7.058,"550": 4.293,"575": 2.827,"600": 1.361,"625": 1.194,"650": 1.068,"675": 0.461,"700": 0.272,"725": 0.126}}}