{"type":"Feature","properties":{"GID_3":"CIV.4.1.1_1","GID_0":"CIV","country":"Côted'Ivoire","GID_1":"CIV.4_1","province":"Denguélé","NL_NAME_1":"NA","GID_2":"CIV.4.1_1","county":"Folon","NL_NAME_2":"NA","city":"Kaniasso","VARNAME_3":"NA","NL_NAME_3":"NA","TYPE_3":"Département","ENGTYPE_3":"Department","CC_3":"NA","HASC_3":"NA","name":"Kaniasso.city"},
"geometry":{"type": "MultiPolygon","coordinates": [[[[-7.359,9.7468,393.6019],[-7.3559,9.7486,390.679],[-7.3451,9.7491,400.9498],[-7.341,9.7534,398.4942],[-7.3341,9.7552,408.5322],[-7.3011,9.7609,430.9363],[-7.2825,9.7663,418.2361],[-7.2606,9.8043,410.9606],[-7.2426,9.8553,416.1038],[-7.1883,9.8383,507.678],[-7.1715,9.8525,472.0706],[-7.1619,9.8643,460.7764],[-7.1591,9.8758,452.0078],[-7.1496,9.8845,441.844],[-7.1318,9.8946,430.7636],[-7.1165,9.8988,418.2162],[-7.111,9.8982,418.7245],[-7.1062,9.9013,408.0322],[-7.1011,9.902,399.8586],[-7.0994,9.9062,401.9974],[-7.0937,9.9072,396.4973],[-7.0777,9.898,424.6755],[-7.0665,9.8858,443.803],[-7.0608,9.888,460.0678],[-7.0481,9.8819,490.126],[-7.044,9.882,510.0147],[-7.0351,9.8857,506.6477],[-7.0157,9.8843,414.7334],[-7.0086,9.8855,410.626],[-6.9996,9.8895,404.7386],[-6.9965,9.8941,393.2554],[-6.9909,9.8957,392.7252],[-6.9818,9.9099,387.8187],[-6.9748,9.9177,384.1631],[-6.9757,9.9233,381.0275],[-6.973,9.926,378.2071],[-6.9701,9.9339,374.7203],[-6.9622,9.9412,371.8038],[-6.9657,9.9505,369.2452],[-6.9666,9.9579,369.1203],[-6.9641,9.9664,368.7873],[-6.9591,9.9693,374.3344],[-6.9571,9.9785,377.8218],[-6.9504,9.9938,358.1483],[-6.9454,9.9959,363.3192],[-6.9311,10.0195,358.1339],[-6.9246,10.0268,354.333],[-6.9237,10.0348,353.9111],[-6.928,10.0465,360.5056],[-6.9238,10.0645,358.763],[-6.9162,10.0712,362.964],[-6.91,10.0735,351.4639],[-6.8949,10.1009,353.6426],[-6.8886,10.1062,344.8489],[-6.8832,10.1073,344.4398],[-6.879,10.1105,347.9231],[-6.8718,10.125,343.0318],[-6.8637,10.1235,342.0356],[-6.8583,10.1288,346.9597],[-6.8468,10.1331,341.7497],[-6.8281,10.1343,344.4376],[-6.8281,10.1405,348.7569],[-6.8263,10.1426,352.7672],[-6.8171,10.1399,347.2456],[-6.81,10.1336,343.5273],[-6.8067,10.138,340.5616],[-6.8025,10.1405,346.0825],[-6.7894,10.1353,342.7726],[-6.7796,10.1348,344.1719],[-6.7648,10.12,393.0574],[-6.7551,10.1046,396.8221],[-6.7453,10.1002,361.8162],[-6.7116,10.1024,358.8691],[-6.706,10.1035,370.3242],[-6.6955,10.1089,367.9157],[-6.6608,10.129,377.3033],[-6.645,10.1334,372.4468],[-6.5977,10.1527,360.676],[-6.5807,10.1646,365.3371],[-6.5784,10.1682,371.3735],[-6.5785,10.1727,380.5766],[-6.5842,10.1804,366.7487],[-6.5882,10.19,372.0077],[-6.584,10.2252,348.3939],[-6.5891,10.2321,342.2203],[-6.599,10.2394,337.7054],[-6.6106,10.236,339.2756],[-6.6163,10.2381,338.0715],[-6.6265,10.2499,333.0783],[-6.6313,10.2592,339.8987],[-6.6328,10.272,339.6834],[-6.6277,10.2779,332.2157],[-6.6329,10.2887,333.8546],[-6.6324,10.3123,331.9094],[-6.6382,10.3157,329.3089],[-6.6393,10.3287,330.6379],[-6.6466,10.336,329.7797],[-6.647,10.3434,331.7169],[-6.65,10.3515,330.0367],[-6.6648,10.3819,344.356],[-6.6722,10.3651,344.5659],[-6.6781,10.3606,356.7316],[-6.6905,10.3565,374.289],[-6.6993,10.3564,366.0107],[-6.7092,10.3595,361.1367],[-6.7227,10.3745,356.3329],[-6.764,10.3915,370.9698],[-6.7647,10.3901,378.0917],[-6.7743,10.3894,380.2263],[-6.7974,10.3824,403.9001],[-6.8393,10.3755,349.2967],[-6.8544,10.3624,358.7726],[-6.8653,10.3623,362.0503],[-6.8989,10.3698,362.8191],[-6.9108,10.3693,359.7693],[-6.9341,10.3646,347.6314],[-6.9475,10.3696,373.6947],[-6.9524,10.3665,364.5204],[-6.9666,10.3486,363.0161],[-6.9777,10.3384,382.6371],[-6.9953,10.3106,389.7356],[-6.9971,10.303,379.5552],[-6.995,10.2878,362.5972],[-6.9895,10.2818,362.9403],[-6.9871,10.2728,383.9408],[-6.9784,10.2625,428.3055],[-6.971,10.2504,409.5415],[-6.9668,10.2363,420.145],[-6.966,10.211,398.7929],[-6.9696,10.2012,407.9704],[-6.9743,10.198,415.009],[-6.9757999999999996,10.1951,421.2121],[-7.0161,10.169,395.2802],[-7.0302,10.1614,392.7847],[-7.0402,10.1595,396.6465],[-7.0473,10.1619,412.4425],[-7.0635,10.1801,453.3381],[-7.0699,10.1903,425.1219],[-7.0825,10.2179,409.0609],[-7.0896,10.2249,410.4739],[-7.1187,10.2302,383.8201],[-7.1367,10.2415,409.7047],[-7.1539,10.2406,389.6495],[-7.1615,10.2423,402.9327],[-7.1688,10.253,402.1939],[-7.1785,10.2573,417.696],[-7.2015,10.2551,415.3427],[-7.2168,10.2574,433.5688],[-7.2265,10.2599,413.9798],[-7.2334,10.265,405.5344],[-7.2445,10.2686,413.8565],[-7.2596,10.2693,404.0235],[-7.2815,10.264099999999999,391.0551],[-7.2854,10.2665,400.1757],[-7.294,10.2868,409.3798],[-7.296,10.2885,405.1257],[-7.3187,10.2812,399.3074],[-7.3332,10.269,384.1585],[-7.3289,10.2322,385.7981],[-7.3342,10.2292,375.5717],[-7.3349,10.2242,374.2922],[-7.3323,10.2209,386.0424],[-7.3231,10.1709,386.8868],[-7.3274,10.1609,375.2482],[-7.3239,10.1502,390.15],[-7.3184,10.1457,385.0003],[-7.3201,10.1373,388.8207],[-7.3158,10.1178,397.1459],[-7.3108,10.1037,381.5837],[-7.3197,10.101,377.641],[-7.3375,10.0773,387.9504],[-7.3464,10.075,391.1509],[-7.3475,10.0607,398.22],[-7.3625,10.0435,416.8582],[-7.403,10.0296,408.5273],[-7.4087,10.0312,401.9504],[-7.4251,10.0277,386.7998],[-7.4379,10.0328,383.5378],[-7.4438,10.0284,383.4953],[-7.4526,10.0278,381.1201],[-7.4641,10.0231,377.3783],[-7.4708,10.0277,377.8299],[-7.4762,10.0241,369.6439],[-7.4741,10.0284,376.9215],[-7.4832,10.0314,376.2294],[-7.488,10.0439,373.4026],[-7.4939,10.0499,368.6855],[-7.5018,10.0535,368.1982],[-7.5037,10.0659,368.9156],[-7.5175,10.0585,368.5908],[-7.5225,10.0636,388.7318],[-7.5254,10.0935,418.9413],[-7.5319,10.1003,412.8066],[-7.5361,10.097,397.0887],[-7.5613,10.0889,379.4978],[-7.574,10.0926,373.6119],[-7.5798,10.096,361.8452],[-7.583,10.1002,363.2809],[-7.5907,10.0904,363.2978],[-7.59,10.085,362.7788],[-7.5793,10.0748,370.5788],[-7.5833,10.0706,362.8992],[-7.577,10.0692,366.4637],[-7.5724,10.0629,363.2939],[-7.5712,10.0591,373.1731],[-7.5757,10.0562,364.0795],[-7.5686,10.0495,362.6655],[-7.5669,10.0404,373.7588],[-7.5693,10.033,374.3915],[-7.5734,10.0321,363.3726],[-7.5659,10.0268,373.9115],[-7.5767,10.0212,364.8573],[-7.581,10.0206,363.933],[-7.5653,10.0161,368.6717],[-7.5678,10.0125,367.9841],[-7.5749,10.0137,369.4285],[-7.579,10.0077,370.2482],[-7.5711,9.9915,374.3815],[-7.5743,9.9847,365.7495],[-7.5816,9.9839,365.8257],[-7.5844,9.9763,366.2475],[-7.581,9.9708,366.2426],[-7.5869,9.9617,366.9251],[-7.5817,9.9556,369.1002],[-7.5734,9.9519,366.7124],[-7.5741,9.9488,366.8109],[-7.5691,9.9407,370.3589],[-7.574,9.9394,368.6176],[-7.5714,9.9357,368.2423],[-7.5618,9.9332,368.4359],[-7.5691,9.9255,368.529],[-7.5668,9.9199,368.6297],[-7.5673,9.9082,368.3969],[-7.5599,9.9084,369.6451],[-7.5542,9.8997,386.1073],[-7.565,9.895,368.6958],[-7.5601,9.8865,373.5822],[-7.5608,9.8817,372.9136],[-7.5715,9.8657,370.4233],[-7.5684,9.8575,371.2786],[-7.5586,9.8584,370.3911],[-7.5573,9.8514,372.3378],[-7.5532,9.8446,373.0415],[-7.5433,9.8356,375.0031],[-7.5488,9.8289,376.1589],[-7.5477,9.8183,373.9419],[-7.5527,9.8163,371.2657],[-7.5512,9.8075,375.2312],[-7.5568,9.799,376.4689],[-7.5554,9.7891,376.459],[-7.5598,9.7797,384.4666],[-7.5636,9.7759,392.8873],[-7.5703,9.7767,383.86],[-7.5747,9.7689,387.0001],[-7.5813,9.7619,377.4986],[-7.583,9.753,382.1368],[-7.5729,9.7473,387.3933],[-7.5632,9.7449,394.2765],[-7.5526,9.7434,403.1946],[-7.5446,9.7447,399.1429],[-7.5282,9.7371,414.1464],[-7.5247,9.7327,413.5521],[-7.4906,9.723,418.2999],[-7.4643,9.7115,421.14],[-7.4148,9.7041,421.294],[-7.4016,9.7051,424.338],[-7.3564,9.7131,390.0047],[-7.3621,9.7306,391.061],[-7.359,9.7468,393.6019]]]]}}